{"type":"FeatureCollection","features":[{"type":"Feature","properties":{"k":"hole","ref":"1","par":4,"hcp":5},"geometry":{"type":"LineString","coordinates":[[-118.11605,34.090623],[-118.113925,34.089959],[-118.113026,34.089553]]}},{"type":"Feature","properties":{"k":"hole","ref":"2","par":5,"hcp":7},"geometry":{"type":"LineString","coordinates":[[-118.112281,34.089395],[-118.111906,34.087869],[-118.111527,34.086492],[-118.111016,34.085676]]}},{"type":"Feature","properties":{"k":"hole","ref":"3","par":4,"hcp":15},"geometry":{"type":"LineString","coordinates":[[-118.110333,34.08531],[-118.11093,34.086648],[-118.111169,34.087414]]}},{"type":"Feature","properties":{"k":"hole","ref":"4","par":4,"hcp":9},"geometry":{"type":"LineString","coordinates":[[-118.110319,34.087095],[-118.109829,34.086098],[-118.10951,34.085206]]}},{"type":"Feature","properties":{"k":"hole","ref":"5","par":4,"hcp":9},"geometry":{"type":"LineString","coordinates":[[-118.109283,34.084845],[-118.111143,34.085264],[-118.112004,34.08518]]}},{"type":"Feature","properties":{"k":"hole","ref":"6","par":5,"hcp":1},"geometry":{"type":"LineString","coordinates":[[-118.112492,34.084889],[-118.112169,34.086433],[-118.112412,34.087829],[-118.112765,34.088619]]}},{"type":"Feature","properties":{"k":"hole","ref":"7","par":3,"hcp":13},"geometry":{"type":"LineString","coordinates":[[-118.112496,34.089019],[-118.113697,34.089288]]}},{"type":"Feature","properties":{"k":"hole","ref":"8","par":3,"hcp":11},"geometry":{"type":"LineString","coordinates":[[-118.11334,34.088794],[-118.11282,34.087781]]}},{"type":"Feature","properties":{"k":"hole","ref":"9","par":4,"hcp":3},"geometry":{"type":"LineString","coordinates":[[-118.1133,34.087872],[-118.114162,34.089063],[-118.11537,34.089749]]}},{"type":"Feature","properties":{"k":"hole","ref":"10","par":4,"hcp":16},"geometry":{"type":"LineString","coordinates":[[-118.11652,34.091884],[-118.114931,34.092209],[-118.114092,34.092758]]}},{"type":"Feature","properties":{"k":"hole","ref":"11","par":3,"hcp":8},"geometry":{"type":"LineString","coordinates":[[-118.113767,34.092148],[-118.113281,34.093108]]}},{"type":"Feature","properties":{"k":"hole","ref":"12","par":4,"hcp":2},"geometry":{"type":"LineString","coordinates":[[-118.112976,34.093316],[-118.112115,34.0916],[-118.111664,34.090744]]}},{"type":"Feature","properties":{"k":"hole","ref":"13","par":3,"hcp":6},"geometry":{"type":"LineString","coordinates":[[-118.111274,34.090287],[-118.110842,34.089085]]}},{"type":"Feature","properties":{"k":"hole","ref":"14","par":4,"hcp":10},"geometry":{"type":"LineString","coordinates":[[-118.111429,34.089472],[-118.110745,34.088487],[-118.110092,34.087374]]}},{"type":"Feature","properties":{"k":"hole","ref":"15","par":3,"hcp":18},"geometry":{"type":"LineString","coordinates":[[-118.110551,34.087388],[-118.111195,34.088282]]}},{"type":"Feature","properties":{"k":"hole","ref":"16","par":5,"hcp":4},"geometry":{"type":"LineString","coordinates":[[-118.111623,34.089747],[-118.112928,34.091547],[-118.113054,34.092206]]}},{"type":"Feature","properties":{"k":"hole","ref":"17","par":4,"hcp":12},"geometry":{"type":"LineString","coordinates":[[-118.113794,34.091734],[-118.113148,34.090887],[-118.112281,34.089662]]}},{"type":"Feature","properties":{"k":"hole","ref":"18","par":5,"hcp":14},"geometry":{"type":"LineString","coordinates":[[-118.113058,34.089929],[-118.114051,34.091239],[-118.115093,34.091589],[-118.116281,34.09165]]}},{"type":"Feature","properties":{"k":"water"},"geometry":{"type":"Polygon","coordinates":[[[-118.111981,34.089755],[-118.111921,34.08962],[-118.111912,34.089556],[-118.111929,34.089492],[-118.111972,34.089428],[-118.112032,34.089371],[-118.112092,34.089293],[-118.112101,34.089258],[-118.112075,34.089229],[-118.112049,34.089172],[-118.112041,34.089101],[-118.112058,34.089023],[-118.112221,34.088838],[-118.112247,34.088796],[-118.112247,34.088732],[-118.112221,34.088653],[-118.112135,34.088532],[-118.112084,34.088497],[-118.112032,34.088483],[-118.111981,34.08849],[-118.111946,34.088483],[-118.111861,34.088412],[-118.111801,34.088397],[-118.111723,34.088397],[-118.111663,34.088412],[-118.11162,34.088447],[-118.11156,34.088511],[-118.111517,34.088589],[-118.111517,34.088767],[-118.111509,34.08881],[-118.111466,34.088895],[-118.111466,34.088966],[-118.111483,34.089037],[-118.11162,34.089258],[-118.111663,34.089371],[-118.11168,34.089442],[-118.111655,34.089627],[-118.111663,34.089684],[-118.111689,34.089734],[-118.111732,34.089776],[-118.111801,34.089812],[-118.111852,34.089826],[-118.111955,34.089819],[-118.111981,34.089798],[-118.111981,34.089755]]]}},{"type":"Feature","properties":{"k":"path"},"geometry":{"type":"LineString","coordinates":[[-118.112685,34.089801],[-118.112948,34.089832],[-118.11315,34.089866],[-118.113856,34.090268],[-118.113842,34.090324],[-118.113793,34.090378],[-118.113731,34.090411],[-118.113718,34.090438],[-118.113734,34.090469],[-118.113911,34.090612],[-118.114001,34.090717],[-118.114031,34.090817],[-118.11403,34.090877],[-118.11405,34.090941],[-118.114108,34.091033],[-118.1142,34.091151]]}},{"type":"Feature","properties":{"k":"path"},"geometry":{"type":"LineString","coordinates":[[-118.11162,34.088347],[-118.111466,34.088339],[-118.111441,34.088421],[-118.111387,34.088883],[-118.111391,34.088973],[-118.111403,34.08905],[-118.111607,34.089463],[-118.111612,34.089509],[-118.111591,34.08957],[-118.111533,34.089646],[-118.111517,34.089697],[-118.111518,34.089765],[-118.111573,34.089886],[-118.111675,34.090069],[-118.111733,34.090146]]}},{"type":"Feature","properties":{"k":"path"},"geometry":{"type":"LineString","coordinates":[[-118.111692,34.091041],[-118.111598,34.091009],[-118.111529,34.090958],[-118.111462,34.090847],[-118.111413,34.090697],[-118.111393,34.090545],[-118.111398,34.090472],[-118.111462,34.090358],[-118.111406,34.090138],[-118.111454,34.089971],[-118.111452,34.089931],[-118.111355,34.08978],[-118.11131,34.089641],[-118.11115,34.089358],[-118.111119,34.089285],[-118.111116,34.089245],[-118.111135,34.089194],[-118.111263,34.089098],[-118.111285,34.089072],[-118.111293,34.089011],[-118.11126,34.088949],[-118.110914,34.088823],[-118.110836,34.088788],[-118.110766,34.088706]]}},{"type":"Feature","properties":{"k":"path"},"geometry":{"type":"LineString","coordinates":[[-118.112366,34.092563],[-118.11243,34.092747],[-118.112426,34.092915],[-118.112454,34.09299],[-118.112594,34.093187],[-118.112643,34.093215],[-118.112708,34.093219],[-118.112783,34.093199],[-118.112869,34.093167],[-118.11291,34.093128],[-118.11292,34.092953],[-118.112956,34.092893],[-118.113022,34.092846],[-118.113196,34.092847],[-118.113477,34.092716],[-118.113657,34.09261],[-118.113771,34.092504],[-118.113872,34.092322],[-118.113948,34.092121],[-118.114128,34.091957],[-118.114208,34.091855],[-118.114268,34.091806],[-118.114307,34.091818],[-118.114344,34.091865],[-118.114311,34.091907],[-118.114128,34.091957]]}},{"type":"Feature","properties":{"k":"path"},"geometry":{"type":"LineString","coordinates":[[-118.113731,34.090411],[-118.114503,34.090625],[-118.114708,34.090675],[-118.115896,34.09092]]}},{"type":"Feature","properties":{"k":"path"},"geometry":{"type":"LineString","coordinates":[[-118.113452,34.088314],[-118.113429,34.088273],[-118.113176,34.087941],[-118.113123,34.087928],[-118.113087,34.087955],[-118.113082,34.088011],[-118.113128,34.088163],[-118.113408,34.088688],[-118.11348,34.088884],[-118.113491,34.088957],[-118.113472,34.088989],[-118.113434,34.089008],[-118.113096,34.088975],[-118.112776,34.088958],[-118.112645,34.088959],[-118.112588,34.088942],[-118.112537,34.0889],[-118.112456,34.088774],[-118.112449,34.088735],[-118.112569,34.088437],[-118.112546,34.088387],[-118.112456,34.088234],[-118.112368,34.088061],[-118.11229,34.087987],[-118.112152,34.087974],[-118.112131,34.088037],[-118.112273,34.088397],[-118.112311,34.088521],[-118.112345,34.08888],[-118.112355,34.089191],[-118.112455,34.089344],[-118.112677,34.089527],[-118.112757,34.089631],[-118.112855,34.08972],[-118.11284,34.089766],[-118.112622,34.089818],[-118.112611,34.089857],[-118.112808,34.090008],[-118.112952,34.090325],[-118.11302,34.090437],[-118.113032,34.090526],[-118.112903,34.090856],[-118.112939,34.090936],[-118.113,34.091027],[-118.113081,34.091118],[-118.113231,34.091223],[-118.113339,34.091245],[-118.113453,34.091372],[-118.113506,34.091471],[-118.113599,34.091592],[-118.113676,34.091745],[-118.113699,34.091828],[-118.113626,34.09202],[-118.113558,34.09214],[-118.113488,34.09221],[-118.113418,34.09224],[-118.113315,34.09221],[-118.113274,34.092169],[-118.113276,34.092107],[-118.113315,34.092032],[-118.113327,34.091978],[-118.113311,34.091923],[-118.11326,34.091861],[-118.113294,34.091857],[-118.113306,34.091816],[-118.113314,34.091431],[-118.113287,34.091307],[-118.113231,34.091223]]}},{"type":"Feature","properties":{"k":"stream"},"geometry":{"type":"LineString","coordinates":[[-118.117818,34.092075],[-118.116808,34.091209],[-118.110978,34.089684]]}},{"type":"Feature","properties":{"k":"stream"},"geometry":{"type":"LineString","coordinates":[[-118.110978,34.089684],[-118.110803,34.089572],[-118.110669,34.089458],[-118.110556,34.08935],[-118.110237,34.08898]]}},{"type":"Feature","properties":{"k":"water"},"geometry":{"type":"Polygon","coordinates":[[[-118.115212,34.089452],[-118.115108,34.089483],[-118.11491,34.089477],[-118.114788,34.089455],[-118.114686,34.089397],[-118.114573,34.089287],[-118.114558,34.089221],[-118.114566,34.089153],[-118.114545,34.089116],[-118.114547,34.089088],[-118.11456,34.089078],[-118.114556,34.089055],[-118.11458,34.08885],[-118.114614,34.088774],[-118.114643,34.088667],[-118.114709,34.08856],[-118.114702,34.088527],[-118.114722,34.08851],[-118.114796,34.088509],[-118.114835,34.088563],[-118.114925,34.088743],[-118.114965,34.088804],[-118.114972,34.088829],[-118.114951,34.088842],[-118.114936,34.088865],[-118.114942,34.088893],[-118.114973,34.088918],[-118.115029,34.088907],[-118.115114,34.088992],[-118.115271,34.089103],[-118.115332,34.089181],[-118.115349,34.08926],[-118.11535,34.089311],[-118.115275,34.08942],[-118.115212,34.089452]]]}},{"type":"Feature","properties":{"k":"tee"},"geometry":{"type":"Polygon","coordinates":[[[-118.115645,34.090537],[-118.115594,34.090537],[-118.115434,34.090503],[-118.115371,34.090476],[-118.115305,34.090462],[-118.115267,34.090446],[-118.11525,34.090432],[-118.115262,34.090356],[-118.115277,34.090328],[-118.115318,34.090329],[-118.115603,34.090412],[-118.115631,34.090431],[-118.115656,34.090477],[-118.115658,34.090515],[-118.115645,34.090537]]]}},{"type":"Feature","properties":{"k":"tee"},"geometry":{"type":"Polygon","coordinates":[[[-118.115215,34.090381],[-118.115226,34.090324],[-118.115195,34.090313],[-118.115173,34.090317],[-118.115141,34.090393],[-118.115141,34.090427],[-118.115188,34.090436],[-118.115206,34.090425],[-118.115215,34.090381]]]}},{"type":"Feature","properties":{"k":"green"},"geometry":{"type":"Polygon","coordinates":[[[-118.113138,34.089623],[-118.113139,34.089666],[-118.11309,34.089711],[-118.113058,34.089717],[-118.112994,34.089692],[-118.112913,34.0895],[-118.112919,34.08946],[-118.112947,34.089432],[-118.112985,34.089419],[-118.113051,34.089427],[-118.113104,34.089457],[-118.113152,34.089498],[-118.113166,34.089537],[-118.113136,34.089587],[-118.113138,34.089623]]]}},{"type":"Feature","properties":{"k":"bunker"},"geometry":{"type":"Polygon","coordinates":[[[-118.113286,34.089571],[-118.113269,34.08962],[-118.113199,34.089628],[-118.113167,34.089613],[-118.11317,34.089593],[-118.113205,34.089576],[-118.113213,34.08955],[-118.11324,34.089534],[-118.113275,34.08954],[-118.113286,34.089571]]]}},{"type":"Feature","properties":{"k":"bunker"},"geometry":{"type":"Polygon","coordinates":[[[-118.113182,34.089778],[-118.113173,34.089802],[-118.113143,34.089818],[-118.113107,34.089815],[-118.113094,34.089803],[-118.113101,34.089763],[-118.113139,34.089722],[-118.113188,34.08972],[-118.113197,34.08973],[-118.113182,34.089778]]]}},{"type":"Feature","properties":{"k":"bunker"},"geometry":{"type":"Polygon","coordinates":[[[-118.112935,34.08964],[-118.112922,34.08966],[-118.112876,34.089679],[-118.112857,34.089678],[-118.112838,34.089662],[-118.11283,34.089628],[-118.112865,34.089598],[-118.112815,34.089557],[-118.112805,34.089523],[-118.112831,34.08951],[-118.112858,34.089513],[-118.112876,34.089526],[-118.112888,34.089563],[-118.112924,34.089594],[-118.112935,34.08964]]]}},{"type":"Feature","properties":{"k":"tee"},"geometry":{"type":"Polygon","coordinates":[[[-118.112245,34.089452],[-118.112329,34.089446],[-118.112372,34.089418],[-118.112376,34.089388],[-118.112359,34.089338],[-118.112344,34.089329],[-118.1123,34.089327],[-118.112244,34.089332],[-118.11221,34.089347],[-118.112181,34.08939],[-118.112181,34.089414],[-118.112205,34.089452],[-118.112245,34.089452]]]}},{"type":"Feature","properties":{"k":"tee"},"geometry":{"type":"Polygon","coordinates":[[[-118.112318,34.089255],[-118.112289,34.089275],[-118.112265,34.089279],[-118.112232,34.089281],[-118.1122,34.089271],[-118.11218,34.089241],[-118.112169,34.089199],[-118.112184,34.089178],[-118.112211,34.089172],[-118.112302,34.089172],[-118.112325,34.089201],[-118.112318,34.089255]]]}},{"type":"Feature","properties":{"k":"tee"},"geometry":{"type":"Polygon","coordinates":[[[-118.112309,34.089129],[-118.112197,34.089131],[-118.112162,34.089117],[-118.112152,34.089077],[-118.112178,34.089045],[-118.1122,34.088991],[-118.112235,34.08898],[-118.11231,34.088976],[-118.112334,34.088996],[-118.112334,34.089102],[-118.112309,34.089129]]]}},{"type":"Feature","properties":{"k":"green"},"geometry":{"type":"Polygon","coordinates":[[[-118.111129,34.085674],[-118.111074,34.085785],[-118.111037,34.08581],[-118.110987,34.085822],[-118.110953,34.085819],[-118.110917,34.085803],[-118.110892,34.085754],[-118.110907,34.085631],[-118.110922,34.085586],[-118.110983,34.085536],[-118.111032,34.085527],[-118.111069,34.085529],[-118.11111,34.085543],[-118.111147,34.085566],[-118.111166,34.08559],[-118.111172,34.085618],[-118.111162,34.085641],[-118.111129,34.085674]]]}},{"type":"Feature","properties":{"k":"bunker"},"geometry":{"type":"Polygon","coordinates":[[[-118.110867,34.085741],[-118.110836,34.085771],[-118.110814,34.085763],[-118.110766,34.085695],[-118.110766,34.085681],[-118.110778,34.085666],[-118.110821,34.08567],[-118.110831,34.085681],[-118.110854,34.085679],[-118.110871,34.085687],[-118.110867,34.085741]]]}},{"type":"Feature","properties":{"k":"bunker"},"geometry":{"type":"Polygon","coordinates":[[[-118.111151,34.085732],[-118.111198,34.085633],[-118.111217,34.085619],[-118.111243,34.085625],[-118.11126,34.085637],[-118.111246,34.085665],[-118.111251,34.08572],[-118.111227,34.085744],[-118.111201,34.08575],[-118.111171,34.085749],[-118.111151,34.085732]]]}},{"type":"Feature","properties":{"k":"tee"},"geometry":{"type":"Polygon","coordinates":[[[-118.110325,34.085157],[-118.110283,34.08514],[-118.110228,34.085141],[-118.11018,34.085166],[-118.110174,34.085181],[-118.110189,34.085216],[-118.110245,34.085246],[-118.110283,34.085322],[-118.110326,34.085445],[-118.110367,34.085474],[-118.11042,34.085476],[-118.110444,34.085462],[-118.110453,34.085441],[-118.110392,34.085323],[-118.110325,34.085157]]]}},{"type":"Feature","properties":{"k":"tee"},"geometry":{"type":"Polygon","coordinates":[[[-118.110599,34.085772],[-118.110514,34.085538],[-118.110477,34.085515],[-118.110448,34.085512],[-118.110409,34.085525],[-118.110389,34.085548],[-118.110387,34.085572],[-118.110496,34.085818],[-118.110524,34.085821],[-118.11059,34.085807],[-118.110601,34.085799],[-118.110599,34.085772]]]}},{"type":"Feature","properties":{"k":"green"},"geometry":{"type":"Polygon","coordinates":[[[-118.11126,34.087444],[-118.11125,34.087513],[-118.111224,34.087539],[-118.111192,34.087559],[-118.111155,34.087565],[-118.111124,34.087558],[-118.111092,34.087541],[-118.111052,34.087438],[-118.111023,34.087408],[-118.11102,34.087382],[-118.111032,34.08735],[-118.111066,34.087317],[-118.111146,34.08728],[-118.111182,34.087278],[-118.11121,34.087286],[-118.111243,34.087355],[-118.11126,34.087444]]]}},{"type":"Feature","properties":{"k":"bunker"},"geometry":{"type":"Polygon","coordinates":[[[-118.111251,34.08727],[-118.111265,34.087309],[-118.111281,34.087318],[-118.11131,34.087313],[-118.111327,34.0873],[-118.111331,34.087285],[-118.111306,34.087244],[-118.111322,34.087236],[-118.111327,34.087217],[-118.111317,34.087197],[-118.111299,34.087188],[-118.111276,34.087186],[-118.111264,34.087202],[-118.111262,34.087246],[-118.111251,34.08727]]]}},{"type":"Feature","properties":{"k":"bunker"},"geometry":{"type":"Polygon","coordinates":[[[-118.11106,34.087237],[-118.111006,34.087254],[-118.110995,34.087288],[-118.110979,34.087294],[-118.110947,34.08728],[-118.110935,34.087265],[-118.110936,34.087236],[-118.110955,34.087209],[-118.111013,34.087173],[-118.111048,34.087173],[-118.111065,34.087184],[-118.111075,34.087211],[-118.11106,34.087237]]]}},{"type":"Feature","properties":{"k":"tee"},"geometry":{"type":"Polygon","coordinates":[[[-118.110447,34.087175],[-118.110409,34.087199],[-118.110366,34.087214],[-118.110325,34.087215],[-118.110286,34.087191],[-118.110253,34.087128],[-118.110231,34.087061],[-118.110238,34.087035],[-118.110343,34.086994],[-118.110375,34.086992],[-118.11039,34.086999],[-118.110453,34.087144],[-118.110457,34.087157],[-118.110447,34.087175]]]}},{"type":"Feature","properties":{"k":"green"},"geometry":{"type":"Polygon","coordinates":[[[-118.109688,34.085233],[-118.109657,34.085274],[-118.10963,34.085287],[-118.109598,34.085289],[-118.109546,34.085282],[-118.109456,34.08525],[-118.109344,34.085236],[-118.109317,34.085218],[-118.109293,34.085179],[-118.10929,34.085127],[-118.109312,34.085103],[-118.109354,34.085089],[-118.109562,34.085108],[-118.10966,34.085138],[-118.109679,34.085153],[-118.109698,34.085205],[-118.109688,34.085233]]]}},{"type":"Feature","properties":{"k":"bunker"},"geometry":{"type":"Polygon","coordinates":[[[-118.109523,34.085318],[-118.109519,34.085333],[-118.109389,34.085373],[-118.109375,34.085377],[-118.109359,34.085361],[-118.109353,34.08531],[-118.109358,34.085291],[-118.109375,34.085279],[-118.109403,34.085278],[-118.109409,34.085288],[-118.109437,34.0853],[-118.109469,34.085287],[-118.109489,34.085287],[-118.109513,34.085295],[-118.109523,34.085318]]]}},{"type":"Feature","properties":{"k":"tee"},"geometry":{"type":"Polygon","coordinates":[[[-118.109464,34.084851],[-118.10946,34.084878],[-118.10944,34.084893],[-118.109405,34.0849],[-118.109135,34.084884],[-118.109034,34.084867],[-118.109006,34.084837],[-118.108994,34.084812],[-118.109001,34.084786],[-118.10907,34.084782],[-118.109423,34.084794],[-118.109449,34.084803],[-118.109466,34.084829],[-118.109464,34.084851]]]}},{"type":"Feature","properties":{"k":"green"},"geometry":{"type":"Polygon","coordinates":[[[-118.112099,34.085142],[-118.112059,34.085258],[-118.111994,34.085307],[-118.111928,34.085318],[-118.111879,34.085301],[-118.111851,34.085277],[-118.111849,34.085243],[-118.111903,34.085105],[-118.111944,34.085043],[-118.11196,34.085033],[-118.11202,34.085022],[-118.112079,34.08504],[-118.112112,34.085093],[-118.112099,34.085142]]]}},{"type":"Feature","properties":{"k":"bunker"},"geometry":{"type":"Polygon","coordinates":[[[-118.111853,34.085135],[-118.111835,34.085178],[-118.111781,34.085188],[-118.111759,34.085177],[-118.111753,34.085162],[-118.111798,34.085128],[-118.111796,34.085092],[-118.11181,34.085067],[-118.111851,34.085064],[-118.111883,34.085068],[-118.111895,34.085077],[-118.111895,34.085091],[-118.111853,34.085135]]]}},{"type":"Feature","properties":{"k":"tee"},"geometry":{"type":"Polygon","coordinates":[[[-118.11242,34.084968],[-118.112498,34.084629],[-118.112536,34.084623],[-118.11258,34.084629],[-118.112601,34.084644],[-118.112594,34.084769],[-118.112583,34.084833],[-118.112527,34.084986],[-118.112507,34.085],[-118.112458,34.084999],[-118.112427,34.08499],[-118.11242,34.084968]]]}},{"type":"Feature","properties":{"k":"green"},"geometry":{"type":"Polygon","coordinates":[[[-118.112831,34.088704],[-118.112827,34.088735],[-118.112803,34.088759],[-118.112765,34.08876],[-118.112723,34.088746],[-118.112688,34.088719],[-118.112663,34.088667],[-118.112654,34.08855],[-118.112663,34.088516],[-118.11269,34.08849],[-118.112724,34.088479],[-118.112758,34.08848],[-118.112799,34.088501],[-118.112834,34.088535],[-118.112844,34.088595],[-118.112831,34.088704]]]}},{"type":"Feature","properties":{"k":"bunker"},"geometry":{"type":"Polygon","coordinates":[[[-118.112927,34.088655],[-118.112933,34.088677],[-118.112919,34.08871],[-118.112897,34.088711],[-118.112871,34.088702],[-118.112849,34.088666],[-118.112872,34.088611],[-118.112856,34.088523],[-118.112874,34.088512],[-118.112906,34.088509],[-118.112925,34.088523],[-118.112949,34.088563],[-118.112954,34.088588],[-118.112949,34.088619],[-118.112927,34.088655]]]}},{"type":"Feature","properties":{"k":"tee"},"geometry":{"type":"Polygon","coordinates":[[[-118.11264,34.089098],[-118.112654,34.08907],[-118.112656,34.089023],[-118.11262,34.088987],[-118.112566,34.088963],[-118.112461,34.088889],[-118.112443,34.088886],[-118.112418,34.088893],[-118.112399,34.088929],[-118.112391,34.089067],[-118.112414,34.08909],[-118.112497,34.089101],[-118.112582,34.089127],[-118.112621,34.089128],[-118.11264,34.089098]]]}},{"type":"Feature","properties":{"k":"green"},"geometry":{"type":"Polygon","coordinates":[[[-118.113843,34.089363],[-118.113833,34.089395],[-118.113813,34.08942],[-118.113777,34.08945],[-118.113739,34.089455],[-118.113682,34.08944],[-118.11364,34.089408],[-118.11354,34.089233],[-118.113543,34.089196],[-118.113566,34.089165],[-118.113602,34.089158],[-118.113644,34.089177],[-118.113791,34.08928],[-118.113844,34.089327],[-118.113843,34.089363]]]}},{"type":"Feature","properties":{"k":"bunker"},"geometry":{"type":"Polygon","coordinates":[[[-118.113584,34.089352],[-118.113559,34.08939],[-118.113533,34.089384],[-118.113482,34.089331],[-118.113431,34.089318],[-118.113413,34.089306],[-118.113402,34.089282],[-118.113413,34.089267],[-118.11344,34.089256],[-118.113517,34.089261],[-118.113561,34.089289],[-118.113581,34.089313],[-118.113584,34.089352]]]}},{"type":"Feature","properties":{"k":"tee"},"geometry":{"type":"Polygon","coordinates":[[[-118.11346,34.088931],[-118.113354,34.088678],[-118.113328,34.088649],[-118.113235,34.088678],[-118.113214,34.088703],[-118.113222,34.088753],[-118.11332,34.088955],[-118.113358,34.08898],[-118.113406,34.088976],[-118.113443,34.088967],[-118.11346,34.088931]]]}},{"type":"Feature","properties":{"k":"tee"},"geometry":{"type":"Polygon","coordinates":[[[-118.112656,34.089239],[-118.112659,34.089205],[-118.112632,34.089193],[-118.112597,34.089189],[-118.112577,34.08921],[-118.112577,34.089252],[-118.112596,34.089265],[-118.112627,34.089269],[-118.112646,34.089264],[-118.112656,34.089239]]]}},{"type":"Feature","properties":{"k":"tee"},"geometry":{"type":"Polygon","coordinates":[[[-118.113223,34.088528],[-118.113224,34.088545],[-118.113194,34.088552],[-118.113179,34.088545],[-118.113173,34.088516],[-118.113199,34.088507],[-118.113214,34.088513],[-118.113223,34.088528]]]}},{"type":"Feature","properties":{"k":"green"},"geometry":{"type":"Polygon","coordinates":[[[-118.112977,34.087804],[-118.112977,34.087838],[-118.112964,34.087863],[-118.112937,34.087888],[-118.112861,34.087899],[-118.112822,34.087891],[-118.112766,34.087848],[-118.112705,34.087787],[-118.112684,34.087738],[-118.112679,34.087705],[-118.112699,34.087674],[-118.112742,34.087635],[-118.112798,34.087636],[-118.11282,34.087646],[-118.11285,34.087688],[-118.1129,34.087736],[-118.112961,34.087778],[-118.112977,34.087804]]]}},{"type":"Feature","properties":{"k":"bunker"},"geometry":{"type":"Polygon","coordinates":[[[-118.112954,34.087664],[-118.113013,34.087725],[-118.113019,34.087743],[-118.113011,34.087756],[-118.11296,34.087756],[-118.112906,34.087719],[-118.112867,34.08766],[-118.112816,34.087612],[-118.112826,34.087594],[-118.112845,34.087581],[-118.112876,34.087575],[-118.112925,34.08759],[-118.112954,34.087664]]]}},{"type":"Feature","properties":{"k":"tee"},"geometry":{"type":"Polygon","coordinates":[[[-118.113439,34.087942],[-118.113367,34.087774],[-118.113251,34.087654],[-118.113186,34.087599],[-118.113148,34.087576],[-118.113104,34.087576],[-118.113085,34.087605],[-118.113105,34.087672],[-118.113191,34.087819],[-118.113358,34.088064],[-118.1134,34.088051],[-118.113453,34.08801],[-118.113461,34.087989],[-118.113439,34.087942]]]}},{"type":"Feature","properties":{"k":"green"},"geometry":{"type":"Polygon","coordinates":[[[-118.115463,34.089774],[-118.115453,34.08981],[-118.115443,34.089819],[-118.115396,34.089826],[-118.115255,34.089815],[-118.115218,34.089804],[-118.115196,34.08978],[-118.115196,34.089753],[-118.115286,34.089649],[-118.115329,34.089614],[-118.115351,34.089602],[-118.115379,34.089602],[-118.115402,34.089608],[-118.115453,34.089663],[-118.115463,34.089774]]]}},{"type":"Feature","properties":{"k":"bunker"},"geometry":{"type":"Polygon","coordinates":[[[-118.115582,34.089781],[-118.115548,34.089794],[-118.115505,34.089789],[-118.115494,34.089764],[-118.1155,34.089722],[-118.115458,34.089584],[-118.115364,34.089564],[-118.115347,34.089553],[-118.115347,34.089527],[-118.11537,34.089515],[-118.115425,34.089514],[-118.115484,34.089533],[-118.115521,34.089554],[-118.11554,34.089585],[-118.115582,34.089781]]]}},{"type":"Feature","properties":{"k":"tee"},"geometry":{"type":"Polygon","coordinates":[[[-118.116733,34.091893],[-118.116596,34.091935],[-118.116508,34.091977],[-118.116434,34.091995],[-118.116392,34.091979],[-118.11636,34.091903],[-118.11636,34.091877],[-118.116609,34.09179],[-118.11671,34.091777],[-118.116731,34.091802],[-118.116743,34.091855],[-118.116733,34.091893]]]}},{"type":"Feature","properties":{"k":"green"},"geometry":{"type":"Polygon","coordinates":[[[-118.114249,34.092767],[-118.114257,34.092716],[-118.114245,34.092687],[-118.114209,34.092669],[-118.114176,34.092663],[-118.114077,34.09268],[-118.113961,34.092685],[-118.113936,34.092702],[-118.113928,34.092725],[-118.113935,34.092774],[-118.113953,34.092806],[-118.114028,34.09284],[-118.114081,34.092846],[-118.114128,34.09284],[-118.114202,34.092816],[-118.114249,34.092767]]]}},{"type":"Feature","properties":{"k":"bunker"},"geometry":{"type":"Polygon","coordinates":[[[-118.11439,34.092767],[-118.114386,34.092723],[-118.114345,34.092703],[-118.114309,34.092707],[-118.11429,34.092729],[-118.11428,34.092772],[-118.114249,34.092804],[-118.114254,34.092826],[-118.114268,34.092836],[-118.1143,34.092836],[-118.114357,34.092802],[-118.11439,34.092767]]]}},{"type":"Feature","properties":{"k":"bunker"},"geometry":{"type":"Polygon","coordinates":[[[-118.114168,34.092624],[-118.114171,34.092606],[-118.114147,34.092568],[-118.11412,34.092558],[-118.114086,34.092558],[-118.114069,34.092591],[-118.114022,34.092606],[-118.114005,34.092621],[-118.113995,34.092645],[-118.114021,34.092668],[-118.114046,34.092668],[-118.114127,34.092653],[-118.114168,34.092624]]]}},{"type":"Feature","properties":{"k":"tee"},"geometry":{"type":"Polygon","coordinates":[[[-118.113875,34.092156],[-118.113851,34.092129],[-118.113744,34.092081],[-118.113703,34.092071],[-118.113682,34.092085],[-118.113661,34.092114],[-118.113661,34.09214],[-118.113692,34.092157],[-118.113848,34.092215],[-118.11387,34.092195],[-118.113875,34.092156]]]}},{"type":"Feature","properties":{"k":"tee"},"geometry":{"type":"Polygon","coordinates":[[[-118.113821,34.092327],[-118.1138,34.092299],[-118.113662,34.092238],[-118.113639,34.092245],[-118.113627,34.09226],[-118.113629,34.092284],[-118.113656,34.092307],[-118.113755,34.092361],[-118.1138,34.092362],[-118.113817,34.092352],[-118.113821,34.092327]]]}},{"type":"Feature","properties":{"k":"green"},"geometry":{"type":"Polygon","coordinates":[[[-118.11342,34.093114],[-118.113328,34.093189],[-118.113274,34.093212],[-118.113215,34.093211],[-118.113169,34.093191],[-118.113152,34.093151],[-118.113152,34.093119],[-118.113175,34.093032],[-118.113194,34.092995],[-118.113248,34.092954],[-118.113329,34.092949],[-118.113372,34.092962],[-118.113442,34.093011],[-118.11345,34.093078],[-118.11342,34.093114]]]}},{"type":"Feature","properties":{"k":"bunker"},"geometry":{"type":"Polygon","coordinates":[[[-118.113136,34.092998],[-118.113127,34.093024],[-118.113126,34.093094],[-118.113111,34.09311],[-118.113076,34.093115],[-118.113054,34.0931],[-118.113054,34.093077],[-118.113058,34.093057],[-118.113085,34.093033],[-118.113055,34.093006],[-118.113052,34.092977],[-118.113065,34.092952],[-118.113085,34.092935],[-118.113133,34.092941],[-118.113145,34.092961],[-118.113146,34.092984],[-118.113136,34.092998]]]}},{"type":"Feature","properties":{"k":"bunker"},"geometry":{"type":"Polygon","coordinates":[[[-118.113512,34.093169],[-118.113458,34.093226],[-118.113431,34.093229],[-118.113416,34.093214],[-118.113414,34.093158],[-118.113482,34.093105],[-118.1135,34.093068],[-118.113546,34.093058],[-118.113584,34.093078],[-118.113596,34.093103],[-118.113562,34.093136],[-118.113527,34.093131],[-118.113518,34.093138],[-118.113512,34.093169]]]}},{"type":"Feature","properties":{"k":"fairway"},"geometry":{"type":"Polygon","coordinates":[[[-118.113764,34.092451],[-118.113768,34.092423],[-118.11375,34.092396],[-118.113691,34.092377],[-118.113615,34.092377],[-118.113507,34.092426],[-118.113445,34.092486],[-118.11334,34.092617],[-118.113317,34.092673],[-118.113332,34.092709],[-118.113369,34.092726],[-118.113589,34.092608],[-118.113685,34.092545],[-118.113764,34.092451]]]}},{"type":"Feature","properties":{"k":"tee"},"geometry":{"type":"Polygon","coordinates":[[[-118.113105,34.093429],[-118.112968,34.093226],[-118.112935,34.093191],[-118.112893,34.093181],[-118.112859,34.093186],[-118.112853,34.093207],[-118.113002,34.093453],[-118.11304,34.093468],[-118.113105,34.093429]]]}},{"type":"Feature","properties":{"k":"tee"},"geometry":{"type":"Polygon","coordinates":[[[-118.112865,34.093135],[-118.112805,34.093012],[-118.112745,34.093017],[-118.112657,34.093041],[-118.112636,34.09306],[-118.112635,34.093078],[-118.112668,34.093168],[-118.112685,34.093188],[-118.112718,34.093189],[-118.112794,34.093168],[-118.112841,34.093153],[-118.112865,34.093135]]]}},{"type":"Feature","properties":{"k":"tee"},"geometry":{"type":"Polygon","coordinates":[[[-118.112769,34.092957],[-118.112749,34.092913],[-118.112734,34.092898],[-118.112718,34.092894],[-118.112585,34.092933],[-118.112579,34.092966],[-118.112594,34.093005],[-118.112631,34.09301],[-118.112672,34.093008],[-118.112731,34.092985],[-118.112769,34.092957]]]}},{"type":"Feature","properties":{"k":"green"},"geometry":{"type":"Polygon","coordinates":[[[-118.111745,34.090722],[-118.111736,34.090736],[-118.111738,34.090819],[-118.11173,34.090849],[-118.111695,34.090865],[-118.111665,34.09086],[-118.111612,34.090803],[-118.111526,34.090756],[-118.111522,34.090731],[-118.111525,34.090696],[-118.111548,34.090665],[-118.111571,34.090642],[-118.111631,34.090612],[-118.111735,34.090617],[-118.111765,34.090636],[-118.111778,34.09066],[-118.111745,34.090722]]]}},{"type":"Feature","properties":{"k":"bunker"},"geometry":{"type":"Polygon","coordinates":[[[-118.111675,34.090956],[-118.111672,34.090918],[-118.111649,34.090902],[-118.111608,34.09084],[-118.111587,34.090817],[-118.111561,34.090814],[-118.111548,34.09082],[-118.11154,34.09084],[-118.111544,34.09087],[-118.11157,34.090894],[-118.111618,34.090965],[-118.11166,34.090969],[-118.111675,34.090956]]]}},{"type":"Feature","properties":{"k":"bunker"},"geometry":{"type":"Polygon","coordinates":[[[-118.111876,34.090883],[-118.111882,34.090905],[-118.111874,34.090922],[-118.111846,34.090935],[-118.111818,34.090942],[-118.111791,34.090933],[-118.111775,34.090915],[-118.111769,34.090873],[-118.111786,34.090821],[-118.11176,34.090762],[-118.111777,34.090736],[-118.111813,34.090729],[-118.111852,34.090758],[-118.111856,34.090789],[-118.111891,34.090829],[-118.111873,34.09087],[-118.111876,34.090883]]]}},{"type":"Feature","properties":{"k":"bunker"},"geometry":{"type":"Polygon","coordinates":[[[-118.111783,34.091211],[-118.111804,34.091177],[-118.111781,34.091138],[-118.111744,34.091142],[-118.111716,34.09116],[-118.111686,34.091153],[-118.11166,34.091167],[-118.111663,34.091196],[-118.111688,34.091238],[-118.11169,34.091274],[-118.111704,34.091288],[-118.111744,34.091292],[-118.111772,34.091274],[-118.111774,34.091219],[-118.111783,34.091211]]]}},{"type":"Feature","properties":{"k":"tee"},"geometry":{"type":"Polygon","coordinates":[[[-118.111346,34.090307],[-118.111317,34.09022],[-118.111292,34.090205],[-118.11122,34.090214],[-118.111197,34.090223],[-118.111195,34.09026],[-118.111234,34.09035],[-118.11131,34.090354],[-118.111343,34.090341],[-118.111346,34.090307]]]}},{"type":"Feature","properties":{"k":"tee"},"geometry":{"type":"Polygon","coordinates":[[[-118.111396,34.089987],[-118.111351,34.089994],[-118.11131,34.090018],[-118.111244,34.090096],[-118.111201,34.090104],[-118.111194,34.09009],[-118.1112,34.090066],[-118.111266,34.08998],[-118.111331,34.089936],[-118.111367,34.089928],[-118.111398,34.089931],[-118.111412,34.089942],[-118.111412,34.089965],[-118.111396,34.089987]]]}},{"type":"Feature","properties":{"k":"tee"},"geometry":{"type":"Polygon","coordinates":[[[-118.111259,34.089844],[-118.111254,34.089804],[-118.111237,34.089793],[-118.11119,34.089776],[-118.111161,34.089787],[-118.111147,34.089809],[-118.11115,34.089844],[-118.111171,34.089863],[-118.111194,34.089873],[-118.111228,34.089869],[-118.111259,34.089844]]]}},{"type":"Feature","properties":{"k":"green"},"geometry":{"type":"Polygon","coordinates":[[[-118.110981,34.089165],[-118.110935,34.089241],[-118.110921,34.08925],[-118.110892,34.089259],[-118.11085,34.089256],[-118.110829,34.089246],[-118.110804,34.089224],[-118.110753,34.089149],[-118.110716,34.08907],[-118.110722,34.08901],[-118.110747,34.08897],[-118.110781,34.088957],[-118.110847,34.088949],[-118.110888,34.088972],[-118.110941,34.089017],[-118.110995,34.089087],[-118.110994,34.089134],[-118.110981,34.089165]]]}},{"type":"Feature","properties":{"k":"bunker"},"geometry":{"type":"Polygon","coordinates":[[[-118.110911,34.089334],[-118.110914,34.08932],[-118.110903,34.089302],[-118.110866,34.0893],[-118.110852,34.089317],[-118.110854,34.089334],[-118.110883,34.089346],[-118.110911,34.089334]]]}},{"type":"Feature","properties":{"k":"bunker"},"geometry":{"type":"Polygon","coordinates":[[[-118.110735,34.088925],[-118.110743,34.088878],[-118.11073,34.088859],[-118.110697,34.088859],[-118.110695,34.088893],[-118.110672,34.088913],[-118.110667,34.088937],[-118.110675,34.088951],[-118.110692,34.088956],[-118.110724,34.088942],[-118.110735,34.088925]]]}},{"type":"Feature","properties":{"k":"tee"},"geometry":{"type":"Polygon","coordinates":[[[-118.111491,34.089508],[-118.111496,34.089491],[-118.111453,34.089421],[-118.111424,34.089405],[-118.111367,34.089419],[-118.111363,34.08945],[-118.111394,34.089524],[-118.111442,34.089537],[-118.11147,34.089529],[-118.111491,34.089508]]]}},{"type":"Feature","properties":{"k":"tee"},"geometry":{"type":"Polygon","coordinates":[[[-118.111412,34.089373],[-118.111412,34.089359],[-118.111347,34.089236],[-118.111302,34.089203],[-118.111258,34.089224],[-118.111256,34.089251],[-118.111334,34.089385],[-118.111357,34.089392],[-118.111412,34.089373]]]}},{"type":"Feature","properties":{"k":"fairway"},"geometry":{"type":"Polygon","coordinates":[[[-118.110962,34.088707],[-118.110897,34.088745],[-118.110851,34.088745],[-118.110805,34.088725],[-118.110778,34.088695],[-118.110722,34.088671],[-118.110656,34.088658],[-118.110613,34.08863],[-118.110477,34.088443],[-118.110445,34.088359],[-118.110456,34.088243],[-118.110478,34.088223],[-118.110503,34.088213],[-118.110541,34.088213],[-118.110562,34.088241],[-118.11059,34.088329],[-118.110615,34.088342],[-118.110634,34.088329],[-118.110623,34.088296],[-118.110631,34.088242],[-118.110664,34.088227],[-118.110694,34.088226],[-118.110738,34.088233],[-118.110765,34.088257],[-118.110826,34.088449],[-118.110968,34.08866],[-118.110962,34.088707]]]}},{"type":"Feature","properties":{"k":"fairway"},"geometry":{"type":"Polygon","coordinates":[[[-118.110594,34.088005],[-118.110553,34.088092],[-118.110469,34.088129],[-118.110389,34.088151],[-118.110289,34.088146],[-118.11024,34.088123],[-118.110201,34.088051],[-118.110248,34.08795],[-118.11033,34.087909],[-118.110524,34.08787],[-118.110569,34.08787],[-118.110594,34.087916],[-118.110594,34.088005]]]}},{"type":"Feature","properties":{"k":"green"},"geometry":{"type":"Polygon","coordinates":[[[-118.110191,34.087486],[-118.110155,34.087501],[-118.110105,34.087501],[-118.110044,34.087481],[-118.10995,34.087415],[-118.10994,34.087376],[-118.109952,34.087336],[-118.110005,34.087285],[-118.110068,34.087242],[-118.110116,34.087237],[-118.110143,34.087252],[-118.110174,34.087338],[-118.110211,34.087409],[-118.110217,34.087445],[-118.110191,34.087486]]]}},{"type":"Feature","properties":{"k":"tee"},"geometry":{"type":"Polygon","coordinates":[[[-118.110667,34.087443],[-118.110677,34.087426],[-118.110656,34.087384],[-118.110614,34.087359],[-118.110587,34.087317],[-118.110558,34.087296],[-118.110522,34.087287],[-118.11048,34.087292],[-118.11046,34.087312],[-118.11045,34.087336],[-118.110471,34.087376],[-118.110485,34.087429],[-118.110514,34.087465],[-118.110536,34.087482],[-118.110565,34.087486],[-118.110637,34.08747],[-118.110667,34.087443]]]}},{"type":"Feature","properties":{"k":"tee"},"geometry":{"type":"Polygon","coordinates":[[[-118.110813,34.087634],[-118.11082,34.087614],[-118.110787,34.087582],[-118.110693,34.087561],[-118.110648,34.087567],[-118.110631,34.08758],[-118.110638,34.08761],[-118.110662,34.087623],[-118.110777,34.087638],[-118.110813,34.087634]]]}},{"type":"Feature","properties":{"k":"green"},"geometry":{"type":"Polygon","coordinates":[[[-118.111328,34.088418],[-118.111337,34.088385],[-118.111319,34.088343],[-118.111228,34.0882],[-118.111219,34.088163],[-118.111179,34.088125],[-118.111101,34.088106],[-118.111016,34.08812],[-118.110993,34.088144],[-118.110998,34.088178],[-118.111085,34.088243],[-118.111162,34.08837],[-118.1112,34.088409],[-118.111239,34.088435],[-118.111284,34.088441],[-118.111328,34.088418]]]}},{"type":"Feature","properties":{"k":"tee"},"geometry":{"type":"Polygon","coordinates":[[[-118.111709,34.089825],[-118.111654,34.089714],[-118.11161,34.089684],[-118.111582,34.089699],[-118.111573,34.089723],[-118.111583,34.089768],[-118.111611,34.08983],[-118.11164,34.089872],[-118.111669,34.089876],[-118.111712,34.089853],[-118.111709,34.089825]]]}},{"type":"Feature","properties":{"k":"green"},"geometry":{"type":"Polygon","coordinates":[[[-118.113164,34.092253],[-118.113165,34.092159],[-118.113151,34.092082],[-118.113124,34.092047],[-118.113076,34.092031],[-118.113041,34.092035],[-118.113015,34.092053],[-118.112983,34.09209],[-118.112953,34.092176],[-118.112924,34.092205],[-118.112912,34.092248],[-118.112918,34.092288],[-118.112983,34.092362],[-118.11303,34.09238],[-118.113065,34.092377],[-118.1131,34.092364],[-118.113128,34.092339],[-118.113151,34.092308],[-118.113164,34.092253]]]}},{"type":"Feature","properties":{"k":"bunker"},"geometry":{"type":"Polygon","coordinates":[[[-118.112963,34.0924],[-118.112957,34.092373],[-118.112905,34.092327],[-118.112862,34.092309],[-118.112819,34.09231],[-118.112785,34.092325],[-118.112777,34.092351],[-118.112782,34.092376],[-118.112809,34.092391],[-118.112852,34.092397],[-118.11287,34.092429],[-118.112894,34.092438],[-118.112927,34.092438],[-118.112955,34.092428],[-118.112963,34.0924]]]}},{"type":"Feature","properties":{"k":"bunker"},"geometry":{"type":"Polygon","coordinates":[[[-118.112933,34.092135],[-118.112928,34.092055],[-118.112916,34.09204],[-118.112895,34.092032],[-118.112863,34.092031],[-118.112835,34.092062],[-118.112835,34.092078],[-118.112862,34.092095],[-118.112843,34.092124],[-118.112843,34.092146],[-118.112863,34.092162],[-118.112892,34.092172],[-118.112919,34.092167],[-118.11293,34.092155],[-118.112933,34.092135]]]}},{"type":"Feature","properties":{"k":"bunker"},"geometry":{"type":"Polygon","coordinates":[[[-118.113251,34.092049],[-118.113268,34.091987],[-118.11326,34.091969],[-118.113242,34.091959],[-118.113214,34.091959],[-118.113183,34.091972],[-118.113168,34.091998],[-118.113171,34.092017],[-118.113187,34.092033],[-118.113182,34.092058],[-118.113198,34.092073],[-118.113215,34.092071],[-118.113251,34.092049]]]}},{"type":"Feature","properties":{"k":"tee"},"geometry":{"type":"Polygon","coordinates":[[[-118.11388,34.091773],[-118.11389,34.09175],[-118.113854,34.091676],[-118.113819,34.091656],[-118.113768,34.091671],[-118.113726,34.091696],[-118.113717,34.091721],[-118.113737,34.091767],[-118.113772,34.09181],[-118.113835,34.091799],[-118.11388,34.091773]]]}},{"type":"Feature","properties":{"k":"tee"},"geometry":{"type":"Polygon","coordinates":[[[-118.113773,34.091646],[-118.113804,34.091626],[-118.113757,34.09152],[-118.113734,34.0915],[-118.113677,34.091497],[-118.113611,34.091525],[-118.113606,34.091549],[-118.113617,34.091578],[-118.11364,34.091628],[-118.113675,34.091669],[-118.113773,34.091646]]]}},{"type":"Feature","properties":{"k":"fairway"},"geometry":{"type":"Polygon","coordinates":[[[-118.113608,34.091415],[-118.113629,34.091389],[-118.113585,34.091284],[-118.113399,34.090947],[-118.113155,34.090592],[-118.1131,34.090568],[-118.11305,34.090588],[-118.11301,34.090645],[-118.112967,34.090746],[-118.112937,34.090847],[-118.113006,34.091006],[-118.113058,34.091065],[-118.11317,34.091162],[-118.113243,34.091209],[-118.113332,34.091231],[-118.113429,34.091322],[-118.113492,34.091394],[-118.113535,34.09142],[-118.113581,34.091423],[-118.113608,34.091415]]]}},{"type":"Feature","properties":{"k":"green"},"geometry":{"type":"Polygon","coordinates":[[[-118.112443,34.089779],[-118.112461,34.089756],[-118.112423,34.089593],[-118.112388,34.089563],[-118.112263,34.089547],[-118.112174,34.089575],[-118.112139,34.089606],[-118.112116,34.089645],[-118.112115,34.089695],[-118.112155,34.089743],[-118.112209,34.089767],[-118.112273,34.089772],[-118.112364,34.0898],[-118.112403,34.089799],[-118.112443,34.089779]]]}},{"type":"Feature","properties":{"k":"bunker"},"geometry":{"type":"Polygon","coordinates":[[[-118.112639,34.08969],[-118.11263,34.089663],[-118.112591,34.089642],[-118.112538,34.089648],[-118.112516,34.089607],[-118.112487,34.0896],[-118.112461,34.089614],[-118.112452,34.089634],[-118.112456,34.089659],[-118.112499,34.089696],[-118.112507,34.089725],[-118.112549,34.089754],[-118.112568,34.089754],[-118.112586,34.089728],[-118.112639,34.08969]]]}},{"type":"Feature","properties":{"k":"tee"},"geometry":{"type":"Polygon","coordinates":[[[-118.113116,34.089971],[-118.113145,34.089948],[-118.113148,34.089916],[-118.113099,34.089895],[-118.113033,34.089879],[-118.112981,34.089884],[-118.11296,34.089908],[-118.112976,34.08994],[-118.113053,34.089995],[-118.113084,34.089994],[-118.113116,34.089971]]]}},{"type":"Feature","properties":{"k":"tee"},"geometry":{"type":"Polygon","coordinates":[[[-118.113211,34.090089],[-118.113213,34.090012],[-118.1132,34.08999],[-118.113173,34.089979],[-118.11314,34.089989],[-118.113105,34.090017],[-118.113095,34.090035],[-118.113114,34.090104],[-118.113148,34.090126],[-118.113187,34.090123],[-118.113211,34.090089]]]}},{"type":"Feature","properties":{"k":"tee"},"geometry":{"type":"Polygon","coordinates":[[[-118.113354,34.090123],[-118.113383,34.090117],[-118.113397,34.090097],[-118.113397,34.09008],[-118.113373,34.090049],[-118.113327,34.090036],[-118.113299,34.090053],[-118.113292,34.09008],[-118.113297,34.090097],[-118.113316,34.090115],[-118.113354,34.090123]]]}},{"type":"Feature","properties":{"k":"tee"},"geometry":{"type":"Polygon","coordinates":[[[-118.113398,34.090247],[-118.113413,34.090224],[-118.113404,34.090198],[-118.113387,34.09019],[-118.113299,34.090187],[-118.113279,34.090198],[-118.113277,34.090209],[-118.113296,34.090233],[-118.113366,34.090253],[-118.113398,34.090247]]]}},{"type":"Feature","properties":{"k":"tee"},"geometry":{"type":"Polygon","coordinates":[[[-118.1137,34.090318],[-118.113625,34.090296],[-118.113571,34.090268],[-118.113551,34.090241],[-118.113557,34.090203],[-118.11359,34.090177],[-118.113635,34.090172],[-118.113681,34.090187],[-118.113769,34.090243],[-118.113783,34.09026],[-118.113776,34.090291],[-118.113761,34.090315],[-118.113735,34.090328],[-118.1137,34.090318]]]}},{"type":"Feature","properties":{"k":"green"},"geometry":{"type":"Polygon","coordinates":[[[-118.116443,34.091689],[-118.116466,34.091662],[-118.11647,34.091629],[-118.116442,34.091577],[-118.116395,34.091561],[-118.116287,34.091583],[-118.116116,34.09159],[-118.116092,34.091622],[-118.116092,34.091657],[-118.116106,34.091682],[-118.116174,34.091719],[-118.116229,34.091731],[-118.116299,34.091743],[-118.116358,34.091732],[-118.116403,34.091717],[-118.116443,34.091689]]]}},{"type":"Feature","properties":{"k":"bunker"},"geometry":{"type":"Polygon","coordinates":[[[-118.116265,34.091549],[-118.116232,34.091571],[-118.116162,34.091569],[-118.116128,34.091543],[-118.116126,34.091513],[-118.116161,34.091495],[-118.116271,34.091481],[-118.116306,34.091483],[-118.116345,34.091506],[-118.116342,34.091544],[-118.116317,34.091554],[-118.116274,34.091544],[-118.116265,34.091549]]]}},{"type":"Feature","properties":{"k":"bunker"},"geometry":{"type":"Polygon","coordinates":[[[-118.116249,34.091805],[-118.116242,34.091771],[-118.116216,34.091755],[-118.116125,34.091728],[-118.116085,34.091726],[-118.116064,34.09174],[-118.116058,34.091755],[-118.11609,34.091823],[-118.116109,34.091833],[-118.116174,34.09182],[-118.11623,34.091822],[-118.116249,34.091805]]]}},{"type":"Feature","properties":{"k":"tee"},"geometry":{"type":"Polygon","coordinates":[[[-118.11603,34.090657],[-118.1159,34.090636],[-118.115831,34.090615],[-118.115811,34.090603],[-118.115806,34.09059],[-118.115852,34.090579],[-118.11606,34.090584],[-118.116096,34.090603],[-118.116129,34.090644],[-118.116099,34.090671],[-118.11603,34.090657]]]}}]}