{"type":"FeatureCollection","features":[{"type":"Feature","properties":{"k":"water"},"geometry":{"type":"Polygon","coordinates":[[[-59.53517,13.073479],[-59.535316,13.073612],[-59.535367,13.073722],[-59.535367,13.07383],[-59.535316,13.073922],[-59.535101,13.073988],[-59.534887,13.073988],[-59.534767,13.073922],[-59.534621,13.073913],[-59.534492,13.073855],[-59.534372,13.073771],[-59.534355,13.073654],[-59.534629,13.07347],[-59.534715,13.073244],[-59.534852,13.073194],[-59.535024,13.073194],[-59.535076,13.073269],[-59.53517,13.073479]]]}},{"type":"Feature","properties":{"k":"sand"},"geometry":{"type":"Polygon","coordinates":[[[-59.533846,13.074924],[-59.53383,13.074785],[-59.533465,13.074745],[-59.533244,13.074488],[-59.533368,13.074301],[-59.53313,13.074379],[-59.533067,13.074484],[-59.533343,13.07468],[-59.533446,13.074884],[-59.533676,13.07495],[-59.533846,13.074924]]]}},{"type":"Feature","properties":{"k":"water"},"geometry":{"type":"Polygon","coordinates":[[[-59.527755,13.073555],[-59.527585,13.073435],[-59.527577,13.073244],[-59.527456,13.073159],[-59.527339,13.073149],[-59.527297,13.073196],[-59.527289,13.073243],[-59.527636,13.073528],[-59.527755,13.073555]]]}},{"type":"Feature","properties":{"k":"bunker"},"geometry":{"type":"Polygon","coordinates":[[[-59.526152,13.075738],[-59.526165,13.07576],[-59.526182,13.075772],[-59.526215,13.075775],[-59.526243,13.075796],[-59.526262,13.075795],[-59.526293,13.075757],[-59.52629,13.075723],[-59.526252,13.07569],[-59.5262,13.075693],[-59.526169,13.075702],[-59.526158,13.075711],[-59.526152,13.075738]]]}},{"type":"Feature","properties":{"k":"bunker"},"geometry":{"type":"Polygon","coordinates":[[[-59.528438,13.076815],[-59.528451,13.076827],[-59.528466,13.076829],[-59.528482,13.076818],[-59.52849,13.076801],[-59.528485,13.076781],[-59.528473,13.07676],[-59.52842,13.076747],[-59.528409,13.076761],[-59.528438,13.076815]]]}},{"type":"Feature","properties":{"k":"bunker"},"geometry":{"type":"Polygon","coordinates":[[[-59.528473,13.077075],[-59.528499,13.077091],[-59.528524,13.077073],[-59.528503,13.077037],[-59.528513,13.077008],[-59.528497,13.076987],[-59.528478,13.076985],[-59.528458,13.077012],[-59.528473,13.077075]]]}},{"type":"Feature","properties":{"k":"bunker"},"geometry":{"type":"Polygon","coordinates":[[[-59.528805,13.077281],[-59.528817,13.077261],[-59.528817,13.077245],[-59.528779,13.077193],[-59.528776,13.077173],[-59.528784,13.077152],[-59.528808,13.077132],[-59.528878,13.077154],[-59.528889,13.077182],[-59.528881,13.077206],[-59.528889,13.077243],[-59.528883,13.077274],[-59.528871,13.077293],[-59.52885,13.0773],[-59.528811,13.0773],[-59.528805,13.077281]]]}},{"type":"Feature","properties":{"k":"bunker"},"geometry":{"type":"Polygon","coordinates":[[[-59.529404,13.075042],[-59.529416,13.075057],[-59.529435,13.07506],[-59.529459,13.075048],[-59.529435,13.075004],[-59.529448,13.074963],[-59.529416,13.074949],[-59.529407,13.074959],[-59.529413,13.075022],[-59.529404,13.075042]]]}},{"type":"Feature","properties":{"k":"bunker"},"geometry":{"type":"Polygon","coordinates":[[[-59.527693,13.073148],[-59.527736,13.073159],[-59.527791,13.073161],[-59.527823,13.073152],[-59.527831,13.073129],[-59.527828,13.073099],[-59.527812,13.073074],[-59.527775,13.073065],[-59.527732,13.073088],[-59.527705,13.073084],[-59.527668,13.073055],[-59.527644,13.073055],[-59.527616,13.073066],[-59.5276,13.073091],[-59.527529,13.073138],[-59.527529,13.073158],[-59.527547,13.073164],[-59.527578,13.07316],[-59.527606,13.073145],[-59.527659,13.073141],[-59.527693,13.073148]]]}},{"type":"Feature","properties":{"k":"bunker"},"geometry":{"type":"Polygon","coordinates":[[[-59.529122,13.073166],[-59.529148,13.073176],[-59.52918,13.073159],[-59.529181,13.07314],[-59.529171,13.073123],[-59.529067,13.073108],[-59.529052,13.073135],[-59.529058,13.07315],[-59.529122,13.073166]]]}},{"type":"Feature","properties":{"k":"bunker"},"geometry":{"type":"Polygon","coordinates":[[[-59.529018,13.072472],[-59.529045,13.072436],[-59.52908,13.07243],[-59.529104,13.072404],[-59.529103,13.072385],[-59.529092,13.072375],[-59.52906,13.072371],[-59.529021,13.072378],[-59.528989,13.072393],[-59.528969,13.072423],[-59.528969,13.072458],[-59.528995,13.072473],[-59.529018,13.072472]]]}},{"type":"Feature","properties":{"k":"bunker"},"geometry":{"type":"Polygon","coordinates":[[[-59.529482,13.072488],[-59.529503,13.072473],[-59.529569,13.072479],[-59.529577,13.07246],[-59.529568,13.072426],[-59.529519,13.072412],[-59.52947,13.072424],[-59.529424,13.072411],[-59.529391,13.072423],[-59.529384,13.072451],[-59.529398,13.072473],[-59.529448,13.072475],[-59.529482,13.072488]]]}},{"type":"Feature","properties":{"k":"bunker"},"geometry":{"type":"Polygon","coordinates":[[[-59.531441,13.072381],[-59.531459,13.072378],[-59.531494,13.072353],[-59.531501,13.07231],[-59.531492,13.072296],[-59.531459,13.07229],[-59.53142,13.072303],[-59.531367,13.072345],[-59.531359,13.072369],[-59.531373,13.072388],[-59.531402,13.072391],[-59.531441,13.072381]]]}},{"type":"Feature","properties":{"k":"bunker"},"geometry":{"type":"Polygon","coordinates":[[[-59.53152,13.072584],[-59.531548,13.07259],[-59.53156,13.072576],[-59.531563,13.072555],[-59.531552,13.072535],[-59.531519,13.072534],[-59.531507,13.072545],[-59.531498,13.072561],[-59.531501,13.072574],[-59.53152,13.072584]]]}},{"type":"Feature","properties":{"k":"bunker"},"geometry":{"type":"Polygon","coordinates":[[[-59.531173,13.07387],[-59.5312,13.073865],[-59.531203,13.07384],[-59.531196,13.073826],[-59.531163,13.073824],[-59.531151,13.07384],[-59.531154,13.073857],[-59.531173,13.07387]]]}},{"type":"Feature","properties":{"k":"bunker"},"geometry":{"type":"Polygon","coordinates":[[[-59.531694,13.073134],[-59.531682,13.073148],[-59.531688,13.073169],[-59.531698,13.073167],[-59.531729,13.073096],[-59.531748,13.073085],[-59.53176,13.073063],[-59.531739,13.073062],[-59.531718,13.07311],[-59.531694,13.073134]]]}},{"type":"Feature","properties":{"k":"bunker"},"geometry":{"type":"Polygon","coordinates":[[[-59.531784,13.073169],[-59.531816,13.073127],[-59.531819,13.073107],[-59.531807,13.0731],[-59.531785,13.073104],[-59.531755,13.073147],[-59.531755,13.073161],[-59.531767,13.073171],[-59.531784,13.073169]]]}},{"type":"Feature","properties":{"k":"bunker"},"geometry":{"type":"Polygon","coordinates":[[[-59.532762,13.073332],[-59.532774,13.073365],[-59.53279,13.073371],[-59.532809,13.073361],[-59.532817,13.073344],[-59.532812,13.073312],[-59.532796,13.07328],[-59.532775,13.073263],[-59.532752,13.073265],[-59.532739,13.073279],[-59.532736,13.073294],[-59.532762,13.073332]]]}},{"type":"Feature","properties":{"k":"bunker"},"geometry":{"type":"Polygon","coordinates":[[[-59.53275,13.073183],[-59.532804,13.073175],[-59.532822,13.073157],[-59.532821,13.073136],[-59.532807,13.073123],[-59.532738,13.073101],[-59.532714,13.073119],[-59.532703,13.07314],[-59.532705,13.073163],[-59.532727,13.073179],[-59.53275,13.073183]]]}},{"type":"Feature","properties":{"k":"bunker"},"geometry":{"type":"Polygon","coordinates":[[[-59.532557,13.072622],[-59.532575,13.072623],[-59.532589,13.072609],[-59.532592,13.072584],[-59.532577,13.072569],[-59.532555,13.072568],[-59.532532,13.07259],[-59.532538,13.072615],[-59.532557,13.072622]]]}},{"type":"Feature","properties":{"k":"bunker"},"geometry":{"type":"Polygon","coordinates":[[[-59.532879,13.072617],[-59.532896,13.072594],[-59.532889,13.072564],[-59.532799,13.072533],[-59.532788,13.07254],[-59.532786,13.072592],[-59.532796,13.072622],[-59.532838,13.072638],[-59.532859,13.072633],[-59.532879,13.072617]]]}},{"type":"Feature","properties":{"k":"bunker"},"geometry":{"type":"Polygon","coordinates":[[[-59.533102,13.072521],[-59.533135,13.072507],[-59.533152,13.072484],[-59.533161,13.072451],[-59.533154,13.07244],[-59.53313,13.072443],[-59.533081,13.072491],[-59.533024,13.07251],[-59.533021,13.072533],[-59.53305,13.072545],[-59.533102,13.072521]]]}},{"type":"Feature","properties":{"k":"bunker"},"geometry":{"type":"Polygon","coordinates":[[[-59.535346,13.074348],[-59.535366,13.074326],[-59.535383,13.074285],[-59.535374,13.074242],[-59.535355,13.074238],[-59.535339,13.07425],[-59.535333,13.074293],[-59.535301,13.074333],[-59.535305,13.074349],[-59.535314,13.074354],[-59.535346,13.074348]]]}},{"type":"Feature","properties":{"k":"bunker"},"geometry":{"type":"Polygon","coordinates":[[[-59.538182,13.070944],[-59.538184,13.070915],[-59.538172,13.070889],[-59.538147,13.070904],[-59.538128,13.070904],[-59.538078,13.070886],[-59.538054,13.070886],[-59.537985,13.070921],[-59.537972,13.070954],[-59.537917,13.071013],[-59.53792,13.071029],[-59.537946,13.071042],[-59.537974,13.071042],[-59.53799,13.071014],[-59.538028,13.070988],[-59.538049,13.070959],[-59.538082,13.070946],[-59.538153,13.070932],[-59.538182,13.070944]]]}},{"type":"Feature","properties":{"k":"bunker"},"geometry":{"type":"Polygon","coordinates":[[[-59.536172,13.070749],[-59.536175,13.070722],[-59.536218,13.070721],[-59.536216,13.070696],[-59.536153,13.070623],[-59.536126,13.070605],[-59.536089,13.070601],[-59.536079,13.07062],[-59.536077,13.070681],[-59.536021,13.070729],[-59.536033,13.070737],[-59.536055,13.070735],[-59.536118,13.070716],[-59.536126,13.070726],[-59.536123,13.070739],[-59.53611,13.070749],[-59.536064,13.070765],[-59.536065,13.070788],[-59.536077,13.070799],[-59.536178,13.07079],[-59.536236,13.070813],[-59.536257,13.070801],[-59.536254,13.070767],[-59.536193,13.07078],[-59.536175,13.07077],[-59.536172,13.070749]]]}},{"type":"Feature","properties":{"k":"bunker"},"geometry":{"type":"Polygon","coordinates":[[[-59.534024,13.071285],[-59.534034,13.071275],[-59.534073,13.071181],[-59.534076,13.07114],[-59.534057,13.071128],[-59.534028,13.071124],[-59.533998,13.071142],[-59.533962,13.071241],[-59.53399,13.071272],[-59.534024,13.071285]]]}},{"type":"Feature","properties":{"k":"bunker"},"geometry":{"type":"Polygon","coordinates":[[[-59.53358,13.070954],[-59.533603,13.070956],[-59.533645,13.07093],[-59.53365,13.070888],[-59.533685,13.070834],[-59.533697,13.070802],[-59.533698,13.070781],[-59.533689,13.070762],[-59.533647,13.070749],[-59.533617,13.070768],[-59.533585,13.070848],[-59.533558,13.07089],[-59.533553,13.07093],[-59.53358,13.070954]]]}},{"type":"Feature","properties":{"k":"bunker"},"geometry":{"type":"Polygon","coordinates":[[[-59.533749,13.070577],[-59.533767,13.070564],[-59.533773,13.07055],[-59.533772,13.070531],[-59.533755,13.070512],[-59.533728,13.070502],[-59.533684,13.070509],[-59.53367,13.070542],[-59.533682,13.070573],[-59.533699,13.070584],[-59.533749,13.070577]]]}},{"type":"Feature","properties":{"k":"bunker"},"geometry":{"type":"Polygon","coordinates":[[[-59.533884,13.070544],[-59.533903,13.070537],[-59.533917,13.070514],[-59.533919,13.070495],[-59.5339,13.070484],[-59.533865,13.070479],[-59.533832,13.07049],[-59.533826,13.070514],[-59.533837,13.070548],[-59.533884,13.070544]]]}},{"type":"Feature","properties":{"k":"bunker"},"geometry":{"type":"Polygon","coordinates":[[[-59.534474,13.069798],[-59.53447,13.069825],[-59.534484,13.069841],[-59.53451,13.069837],[-59.534518,13.069821],[-59.534509,13.069765],[-59.53452,13.069708],[-59.534512,13.069693],[-59.534493,13.069691],[-59.534482,13.069706],[-59.534494,13.069755],[-59.534489,13.06978],[-59.534474,13.069798]]]}}]}