{"type":"FeatureCollection","features":[{"type":"Feature","properties":{"k":"hole","ref":"1"},"geometry":{"type":"LineString","coordinates":[[-87.757573,41.992755],[-87.759476,41.991521],[-87.760952,41.99082]]}},{"type":"Feature","properties":{"k":"hole","ref":"2"},"geometry":{"type":"LineString","coordinates":[[-87.760948,41.990382],[-87.758826,41.990472],[-87.757838,41.990209],[-87.75685,41.98968]]}},{"type":"Feature","properties":{"k":"hole","ref":"3"},"geometry":{"type":"LineString","coordinates":[[-87.756793,41.989061],[-87.758334,41.989668],[-87.759533,41.990043]]}},{"type":"Feature","properties":{"k":"hole","ref":"4"},"geometry":{"type":"LineString","coordinates":[[-87.76096,41.990218],[-87.758671,41.989179],[-87.757192,41.988635]]}},{"type":"Feature","properties":{"k":"hole","ref":"5"},"geometry":{"type":"LineString","coordinates":[[-87.757297,41.987789],[-87.756891,41.987148],[-87.756057,41.986]]}},{"type":"Feature","properties":{"k":"hole","ref":"6"},"geometry":{"type":"LineString","coordinates":[[-87.756289,41.985447],[-87.755797,41.98448]]}},{"type":"Feature","properties":{"k":"hole","ref":"7"},"geometry":{"type":"LineString","coordinates":[[-87.756407,41.985317],[-87.75748,41.987076],[-87.758131,41.988118]]}},{"type":"Feature","properties":{"k":"hole","ref":"8"},"geometry":{"type":"LineString","coordinates":[[-87.757732,41.988297],[-87.76005,41.989149],[-87.761025,41.98969],[-87.761302,41.990067]]}},{"type":"Feature","properties":{"k":"hole","ref":"9"},"geometry":{"type":"LineString","coordinates":[[-87.760855,41.990554],[-87.758358,41.991403],[-87.757102,41.992077]]}},{"type":"Feature","properties":{"k":"clubhouse","name":"Billy Caldwell Club House"},"geometry":{"type":"Polygon","coordinates":[[[-87.756944,41.992291],[-87.757025,41.992337],[-87.757063,41.992393],[-87.75706,41.992453],[-87.757015,41.992523],[-87.756829,41.992436],[-87.756944,41.992291]]]}},{"type":"Feature","properties":{"k":"tee"},"geometry":{"type":"Polygon","coordinates":[[[-87.756381,41.985371],[-87.756394,41.985379],[-87.756427,41.985377],[-87.756451,41.985367],[-87.756468,41.985344],[-87.756453,41.985292],[-87.756439,41.985272],[-87.756413,41.98526],[-87.756369,41.985268],[-87.756334,41.98529],[-87.756342,41.985322],[-87.756381,41.985371]]]}},{"type":"Feature","properties":{"k":"tee"},"geometry":{"type":"Polygon","coordinates":[[[-87.757745,41.988354],[-87.757769,41.988355],[-87.757796,41.988336],[-87.757813,41.988301],[-87.757809,41.988287],[-87.757777,41.988265],[-87.757725,41.988247],[-87.757685,41.988249],[-87.757669,41.988262],[-87.75766,41.988284],[-87.757665,41.988321],[-87.757679,41.988334],[-87.757745,41.988354]]]}},{"type":"Feature","properties":{"k":"green"},"geometry":{"type":"Polygon","coordinates":[[[-87.757156,41.988742],[-87.757201,41.988734],[-87.757292,41.988699],[-87.757319,41.988685],[-87.757356,41.988645],[-87.757358,41.988625],[-87.757347,41.988601],[-87.757295,41.988552],[-87.757227,41.988524],[-87.757189,41.988517],[-87.757119,41.988526],[-87.757089,41.988544],[-87.757044,41.988597],[-87.757036,41.988627],[-87.757044,41.988684],[-87.757076,41.988725],[-87.757119,41.988742],[-87.757156,41.988742]]]}},{"type":"Feature","properties":{"k":"tee"},"geometry":{"type":"Polygon","coordinates":[[[-87.760058,41.990489],[-87.760073,41.990493],[-87.760091,41.990509],[-87.760073,41.990535],[-87.759981,41.990542],[-87.759963,41.990538],[-87.759944,41.990522],[-87.759947,41.990502],[-87.759957,41.990496],[-87.760058,41.990489]]]}},{"type":"Feature","properties":{"k":"tee"},"geometry":{"type":"Polygon","coordinates":[[[-87.760831,41.990196],[-87.760818,41.99018],[-87.760818,41.990162],[-87.760839,41.990145],[-87.760868,41.99014],[-87.761064,41.990235],[-87.761082,41.990268],[-87.761062,41.990289],[-87.761031,41.990293],[-87.761011,41.990288],[-87.760831,41.990196]]]}},{"type":"Feature","properties":{"k":"tee"},"geometry":{"type":"Polygon","coordinates":[[[-87.76028,41.990652],[-87.760299,41.990649],[-87.760328,41.990656],[-87.760338,41.990676],[-87.760332,41.990688],[-87.760242,41.990723],[-87.760208,41.990724],[-87.760193,41.990706],[-87.760199,41.990685],[-87.76028,41.990652]]]}},{"type":"Feature","properties":{"k":"green"},"geometry":{"type":"Polygon","coordinates":[[[-87.757989,41.988143],[-87.757992,41.988185],[-87.758018,41.988217],[-87.758064,41.988234],[-87.758097,41.988237],[-87.758175,41.988233],[-87.758231,41.988219],[-87.758271,41.988192],[-87.758296,41.988151],[-87.758287,41.988111],[-87.758219,41.988025],[-87.758178,41.988003],[-87.758119,41.987998],[-87.758065,41.988013],[-87.758044,41.988028],[-87.758025,41.98805],[-87.757989,41.988143]]]}},{"type":"Feature","properties":{"k":"tee"},"geometry":{"type":"Polygon","coordinates":[[[-87.760985,41.990355],[-87.761014,41.99036],[-87.761023,41.990371],[-87.761018,41.990392],[-87.761007,41.9904],[-87.760885,41.99041],[-87.760856,41.990398],[-87.760852,41.990378],[-87.760867,41.990365],[-87.760985,41.990355]]]}},{"type":"Feature","properties":{"k":"tee"},"geometry":{"type":"Polygon","coordinates":[[[-87.756356,41.985476],[-87.756354,41.985497],[-87.756336,41.98551],[-87.756309,41.985512],[-87.756291,41.9855],[-87.756234,41.985424],[-87.756225,41.985405],[-87.756228,41.985383],[-87.75625,41.985373],[-87.75628,41.985377],[-87.756356,41.985476]]]}},{"type":"Feature","properties":{"k":"green"},"geometry":{"type":"Polygon","coordinates":[[[-87.759493,41.990153],[-87.75956,41.99016],[-87.759631,41.990141],[-87.759665,41.990118],[-87.759686,41.990075],[-87.759684,41.990049],[-87.759641,41.989991],[-87.759571,41.989949],[-87.759513,41.989933],[-87.759453,41.989938],[-87.759423,41.989952],[-87.759395,41.989972],[-87.759378,41.989999],[-87.759383,41.990059],[-87.759415,41.990108],[-87.75946,41.990141],[-87.759493,41.990153]]]}},{"type":"Feature","properties":{"k":"tee"},"geometry":{"type":"Polygon","coordinates":[[[-87.757847,41.988432],[-87.757872,41.988434],[-87.757898,41.988421],[-87.757923,41.988388],[-87.757923,41.988374],[-87.757897,41.988349],[-87.757836,41.988333],[-87.757807,41.988357],[-87.757795,41.988394],[-87.757809,41.988415],[-87.757847,41.988432]]]}},{"type":"Feature","properties":{"k":"tee"},"geometry":{"type":"Polygon","coordinates":[[[-87.760868,41.990507],[-87.7609,41.990508],[-87.760915,41.990533],[-87.760912,41.990547],[-87.760848,41.990582],[-87.760791,41.990586],[-87.760776,41.990564],[-87.760779,41.990553],[-87.760868,41.990507]]]}},{"type":"Feature","properties":{"k":"tee"},"geometry":{"type":"Polygon","coordinates":[[[-87.76073,41.990351],[-87.760749,41.990354],[-87.760765,41.990372],[-87.760766,41.990414],[-87.760758,41.990423],[-87.760728,41.990431],[-87.76062,41.990438],[-87.76058,41.990438],[-87.760553,41.990427],[-87.760539,41.990384],[-87.760557,41.990361],[-87.760597,41.990353],[-87.76073,41.990351]]]}},{"type":"Feature","properties":{"k":"tee"},"geometry":{"type":"Polygon","coordinates":[[[-87.760562,41.990556],[-87.760618,41.990549],[-87.760639,41.990571],[-87.760637,41.990598],[-87.760628,41.990609],[-87.760518,41.990654],[-87.760485,41.990653],[-87.760463,41.990633],[-87.760459,41.990603],[-87.760489,41.990584],[-87.760562,41.990556]]]}},{"type":"Feature","properties":{"k":"tee"},"geometry":{"type":"Polygon","coordinates":[[[-87.757286,41.987834],[-87.757323,41.987844],[-87.757339,41.987837],[-87.757353,41.987816],[-87.757326,41.987767],[-87.757286,41.987735],[-87.757257,41.987743],[-87.757244,41.987766],[-87.75725,41.987787],[-87.757286,41.987834]]]}},{"type":"Feature","properties":{"k":"green"},"geometry":{"type":"Polygon","coordinates":[[[-87.75596,41.986078],[-87.756019,41.986106],[-87.756074,41.986111],[-87.756139,41.986095],[-87.756184,41.986064],[-87.756204,41.986014],[-87.756198,41.985965],[-87.756165,41.985923],[-87.756121,41.985893],[-87.756069,41.98588],[-87.756011,41.985882],[-87.755982,41.985891],[-87.755941,41.985928],[-87.755919,41.985975],[-87.755917,41.986024],[-87.75596,41.986078]]]}},{"type":"Feature","properties":{"k":"green"},"geometry":{"type":"Polygon","coordinates":[[[-87.755705,41.984592],[-87.755737,41.98461],[-87.755776,41.984619],[-87.75584,41.984621],[-87.755875,41.98461],[-87.755938,41.984567],[-87.755963,41.984514],[-87.755962,41.98446],[-87.755926,41.984412],[-87.755858,41.984373],[-87.755784,41.984354],[-87.755747,41.984353],[-87.75571,41.984364],[-87.75567,41.984385],[-87.755644,41.98441],[-87.755628,41.984472],[-87.755639,41.984508],[-87.755705,41.984592]]]}},{"type":"Feature","properties":{"k":"tee"},"geometry":{"type":"Polygon","coordinates":[[[-87.756792,41.989154],[-87.756819,41.989157],[-87.756846,41.989143],[-87.756901,41.989027],[-87.756897,41.98901],[-87.756865,41.988986],[-87.756796,41.98896],[-87.756776,41.988959],[-87.756739,41.98898],[-87.756678,41.9891],[-87.756694,41.989123],[-87.756792,41.989154]]]}},{"type":"Feature","properties":{"k":"green"},"geometry":{"type":"Polygon","coordinates":[[[-87.756842,41.989794],[-87.756886,41.989797],[-87.75696,41.989785],[-87.757007,41.989746],[-87.757013,41.989719],[-87.757007,41.989691],[-87.756949,41.989631],[-87.756904,41.989608],[-87.756822,41.989584],[-87.756777,41.989584],[-87.756744,41.989592],[-87.756698,41.989623],[-87.756685,41.989647],[-87.756696,41.989712],[-87.756725,41.98975],[-87.756753,41.989768],[-87.756842,41.989794]]]}},{"type":"Feature","properties":{"k":"green"},"geometry":{"type":"Polygon","coordinates":[[[-87.760797,41.990847],[-87.760814,41.990875],[-87.760876,41.99092],[-87.760908,41.990931],[-87.760997,41.990937],[-87.761062,41.990923],[-87.761088,41.990903],[-87.761108,41.990872],[-87.761119,41.990833],[-87.761111,41.990799],[-87.761074,41.990742],[-87.761049,41.990725],[-87.760979,41.990709],[-87.760936,41.990711],[-87.760834,41.990757],[-87.760797,41.990803],[-87.760797,41.990847]]]}},{"type":"Feature","properties":{"k":"tee"},"geometry":{"type":"Polygon","coordinates":[[[-87.756991,41.98914],[-87.757024,41.989137],[-87.757047,41.989118],[-87.757046,41.989079],[-87.757017,41.989062],[-87.756977,41.989063],[-87.756944,41.989091],[-87.756952,41.989124],[-87.756991,41.98914]]]}},{"type":"Feature","properties":{"k":"tee"},"geometry":{"type":"Polygon","coordinates":[[[-87.76048,41.990129],[-87.760511,41.990131],[-87.760534,41.990117],[-87.760542,41.990095],[-87.760536,41.990082],[-87.760451,41.99003],[-87.760421,41.990023],[-87.760392,41.99004],[-87.760384,41.990059],[-87.76048,41.990129]]]}},{"type":"Feature","properties":{"k":"green"},"geometry":{"type":"Polygon","coordinates":[[[-87.757347,41.992462],[-87.757389,41.992434],[-87.757419,41.992387],[-87.757417,41.992332],[-87.757388,41.992288],[-87.757336,41.992269],[-87.757305,41.992266],[-87.75722,41.992279],[-87.757166,41.992303],[-87.757145,41.992324],[-87.757134,41.992395],[-87.757152,41.992448],[-87.757168,41.992465],[-87.75719,41.992476],[-87.75725,41.992484],[-87.757321,41.992473],[-87.757347,41.992462]]]}},{"type":"Feature","properties":{"k":"fairway"},"geometry":{"type":"Polygon","coordinates":[[[-87.760542,41.991179],[-87.760608,41.991139],[-87.760719,41.991018],[-87.760828,41.990947],[-87.760908,41.990931],[-87.760844,41.990901],[-87.760814,41.990875],[-87.760793,41.990827],[-87.760613,41.990931],[-87.760547,41.990952],[-87.76038,41.990988],[-87.760022,41.991118],[-87.759881,41.991178],[-87.759684,41.991235],[-87.758895,41.99161],[-87.758364,41.991846],[-87.758306,41.991889],[-87.758275,41.991926],[-87.75827,41.991965],[-87.758313,41.99206],[-87.758376,41.992138],[-87.758438,41.992155],[-87.758479,41.992164],[-87.758538,41.992164],[-87.758596,41.992157],[-87.758655,41.992139],[-87.758756,41.992083],[-87.758794,41.992047],[-87.758868,41.991924],[-87.758923,41.991884],[-87.75901,41.991862],[-87.759118,41.991856],[-87.759171,41.991845],[-87.759312,41.991801],[-87.759449,41.991743],[-87.760118,41.99142],[-87.76039,41.991258],[-87.760542,41.991179]]]}},{"type":"Feature","properties":{"k":"tee"},"geometry":{"type":"Polygon","coordinates":[[[-87.757966,41.992475],[-87.757991,41.992481],[-87.758015,41.992475],[-87.758075,41.992427],[-87.758071,41.992399],[-87.758039,41.992376],[-87.758007,41.992373],[-87.757928,41.992417],[-87.757927,41.99244],[-87.757966,41.992475]]]}},{"type":"Feature","properties":{"k":"green"},"geometry":{"type":"Polygon","coordinates":[[[-87.757043,41.992168],[-87.757121,41.99217],[-87.757187,41.992135],[-87.757207,41.992109],[-87.757222,41.99206],[-87.757208,41.992025],[-87.75719,41.992012],[-87.757144,41.992002],[-87.757111,41.992007],[-87.75707,41.992017],[-87.757027,41.992046],[-87.757004,41.992078],[-87.756993,41.992114],[-87.757008,41.99215],[-87.757043,41.992168]]]}},{"type":"Feature","properties":{"k":"fairway"},"geometry":{"type":"Polygon","coordinates":[[[-87.757248,41.991877],[-87.757229,41.991919],[-87.757232,41.99195],[-87.757262,41.991991],[-87.757292,41.992002],[-87.757335,41.992006],[-87.757389,41.991998],[-87.757447,41.991984],[-87.757514,41.991955],[-87.75764,41.991872],[-87.757704,41.991839],[-87.757939,41.991757],[-87.758242,41.991605],[-87.75841,41.991541],[-87.759162,41.99119],[-87.75939,41.991106],[-87.759434,41.991055],[-87.759426,41.990985],[-87.759405,41.990952],[-87.759342,41.990902],[-87.759303,41.990893],[-87.759263,41.990893],[-87.759225,41.9909],[-87.759154,41.990933],[-87.759088,41.991015],[-87.759029,41.991061],[-87.758982,41.991071],[-87.758934,41.991072],[-87.758768,41.991051],[-87.758709,41.991054],[-87.758651,41.991067],[-87.758292,41.99125],[-87.757904,41.991418],[-87.757854,41.99145],[-87.757821,41.991489],[-87.757793,41.991558],[-87.757761,41.9916],[-87.757622,41.991705],[-87.757574,41.99173],[-87.757363,41.991763],[-87.757308,41.991793],[-87.757248,41.991877]]]}},{"type":"Feature","properties":{"k":"tee"},"geometry":{"type":"Polygon","coordinates":[[[-87.757919,41.992552],[-87.757939,41.992531],[-87.757923,41.992492],[-87.75788,41.992461],[-87.757838,41.992452],[-87.757672,41.992556],[-87.75766,41.992583],[-87.757669,41.992601],[-87.757709,41.992636],[-87.75775,41.992652],[-87.757777,41.992643],[-87.757919,41.992552]]]}},{"type":"Feature","properties":{"k":"fairway"},"geometry":{"type":"Polygon","coordinates":[[[-87.759445,41.99056],[-87.759515,41.990555],[-87.75957,41.990544],[-87.759634,41.990512],[-87.759652,41.990487],[-87.759657,41.990458],[-87.75965,41.990433],[-87.759631,41.990414],[-87.759588,41.990394],[-87.759513,41.990382],[-87.759119,41.990394],[-87.758697,41.990357],[-87.758514,41.990329],[-87.758132,41.99022],[-87.757968,41.990149],[-87.757461,41.989881],[-87.757377,41.989813],[-87.757287,41.989757],[-87.757244,41.989746],[-87.757181,41.989744],[-87.757121,41.989751],[-87.757054,41.989768],[-87.757015,41.989789],[-87.756997,41.989813],[-87.756993,41.989841],[-87.757059,41.989943],[-87.757103,41.989987],[-87.757166,41.990024],[-87.757347,41.990065],[-87.757421,41.990095],[-87.75757,41.990189],[-87.757691,41.990247],[-87.758048,41.990382],[-87.758235,41.990441],[-87.75856,41.990532],[-87.758685,41.990546],[-87.759162,41.990565],[-87.759319,41.990553],[-87.759445,41.99056]]]}},{"type":"Feature","properties":{"k":"tee"},"geometry":{"type":"Polygon","coordinates":[[[-87.757673,41.992771],[-87.757688,41.992728],[-87.757677,41.992714],[-87.7576,41.992667],[-87.757567,41.992667],[-87.757544,41.992677],[-87.757467,41.99272],[-87.757452,41.992739],[-87.757453,41.992755],[-87.757468,41.992771],[-87.757506,41.992795],[-87.757563,41.992817],[-87.75761,41.992812],[-87.757635,41.992802],[-87.757673,41.992771]]]}},{"type":"Feature","properties":{"k":"fairway"},"geometry":{"type":"Polygon","coordinates":[[[-87.759383,41.990059],[-87.759378,41.989999],[-87.759395,41.989972],[-87.759453,41.989938],[-87.759371,41.989925],[-87.759266,41.98987],[-87.759182,41.989805],[-87.759124,41.989782],[-87.759047,41.989769],[-87.758949,41.989738],[-87.758815,41.989675],[-87.758483,41.989537],[-87.758322,41.989451],[-87.75816,41.989377],[-87.757638,41.989197],[-87.75757,41.989182],[-87.757504,41.989182],[-87.757459,41.989202],[-87.757418,41.989237],[-87.757396,41.989281],[-87.757393,41.98933],[-87.757408,41.989381],[-87.757428,41.989427],[-87.757535,41.989516],[-87.758005,41.98974],[-87.758333,41.989868],[-87.758544,41.989977],[-87.758691,41.990026],[-87.758792,41.990048],[-87.758904,41.990061],[-87.759032,41.990062],[-87.759112,41.990051],[-87.759173,41.990023],[-87.759383,41.990059]]]}},{"type":"Feature","properties":{"k":"fairway"},"geometry":{"type":"Polygon","coordinates":[[[-87.757294,41.987156],[-87.757542,41.987618],[-87.75762,41.98784],[-87.757659,41.987903],[-87.757719,41.987956],[-87.75777,41.987978],[-87.757836,41.987983],[-87.757881,41.987979],[-87.757919,41.987961],[-87.757952,41.987915],[-87.757966,41.987859],[-87.757946,41.987557],[-87.757912,41.987432],[-87.757805,41.987226],[-87.757736,41.987042],[-87.757622,41.98682],[-87.757456,41.98653],[-87.757288,41.986309],[-87.757205,41.986249],[-87.757152,41.986227],[-87.757101,41.986217],[-87.757048,41.986221],[-87.756989,41.98624],[-87.756957,41.98627],[-87.756936,41.986303],[-87.756925,41.986354],[-87.75694,41.986402],[-87.756988,41.986495],[-87.757076,41.986759],[-87.757154,41.986928],[-87.757294,41.987156]]]}},{"type":"Feature","properties":{"k":"fairway"},"geometry":{"type":"Polygon","coordinates":[[[-87.755836,41.984941],[-87.755894,41.985045],[-87.755949,41.985068],[-87.756012,41.985068],[-87.75613,41.985036],[-87.756171,41.985001],[-87.756179,41.984964],[-87.756173,41.984935],[-87.756113,41.984827],[-87.756066,41.98478],[-87.756065,41.984706],[-87.756025,41.984665],[-87.755969,41.984638],[-87.755908,41.984636],[-87.755849,41.984664],[-87.755829,41.984686],[-87.755836,41.984941]]]}},{"type":"Feature","properties":{"k":"fairway"},"geometry":{"type":"Polygon","coordinates":[[[-87.761057,41.989888],[-87.761108,41.989919],[-87.761168,41.989927],[-87.761198,41.989919],[-87.761235,41.989874],[-87.761235,41.989817],[-87.761218,41.989749],[-87.761182,41.989692],[-87.761117,41.989624],[-87.760873,41.989432],[-87.760759,41.989361],[-87.760498,41.989236],[-87.760325,41.989107],[-87.760141,41.988993],[-87.759888,41.988876],[-87.759627,41.988779],[-87.759566,41.988766],[-87.759517,41.988764],[-87.759442,41.988804],[-87.759407,41.988806],[-87.759297,41.988741],[-87.758921,41.988629],[-87.758867,41.988621],[-87.758845,41.988625],[-87.758796,41.988653],[-87.758781,41.988675],[-87.758777,41.988701],[-87.758817,41.988766],[-87.758868,41.988808],[-87.759029,41.988886],[-87.759437,41.989022],[-87.759818,41.989164],[-87.760133,41.989361],[-87.760239,41.989409],[-87.760374,41.989448],[-87.760429,41.989453],[-87.760482,41.989446],[-87.760549,41.989447],[-87.760625,41.989456],[-87.760673,41.989474],[-87.760704,41.989499],[-87.760739,41.989596],[-87.760762,41.989621],[-87.760908,41.989725],[-87.761057,41.989888]]]}},{"type":"Feature","properties":{"k":"fairway"},"geometry":{"type":"Polygon","coordinates":[[[-87.756901,41.987395],[-87.756995,41.987456],[-87.757059,41.987461],[-87.757119,41.987454],[-87.757144,41.987444],[-87.757168,41.98742],[-87.757178,41.987387],[-87.75717,41.987338],[-87.757157,41.987301],[-87.757028,41.987077],[-87.756934,41.986954],[-87.756875,41.986897],[-87.75683,41.986865],[-87.756792,41.986849],[-87.756752,41.986842],[-87.756706,41.98685],[-87.756673,41.986867],[-87.756647,41.986891],[-87.756621,41.986967],[-87.756626,41.987008],[-87.756664,41.98709],[-87.756725,41.987178],[-87.756901,41.987395]]]}},{"type":"Feature","properties":{"k":"green"},"geometry":{"type":"Polygon","coordinates":[[[-87.761241,41.990171],[-87.761267,41.990185],[-87.761332,41.990195],[-87.761393,41.990185],[-87.761422,41.990173],[-87.761438,41.990155],[-87.761449,41.990134],[-87.761438,41.990068],[-87.761415,41.990035],[-87.761349,41.989993],[-87.761288,41.98998],[-87.761245,41.989979],[-87.761208,41.989987],[-87.76118,41.990003],[-87.761166,41.990031],[-87.761176,41.990097],[-87.761241,41.990171]]]}},{"type":"Feature","properties":{"k":"fairway"},"geometry":{"type":"Polygon","coordinates":[[[-87.759739,41.989692],[-87.759812,41.989723],[-87.7599,41.989729],[-87.759933,41.989721],[-87.759992,41.98969],[-87.760018,41.989627],[-87.760016,41.989604],[-87.759965,41.989558],[-87.759812,41.989489],[-87.759517,41.989336],[-87.759414,41.989295],[-87.759198,41.989237],[-87.758967,41.989143],[-87.758143,41.988838],[-87.757775,41.988678],[-87.757641,41.988654],[-87.757529,41.988654],[-87.757431,41.988666],[-87.757386,41.988682],[-87.757363,41.988711],[-87.75736,41.988773],[-87.75738,41.988804],[-87.757486,41.988872],[-87.757561,41.988898],[-87.757656,41.988919],[-87.757794,41.988973],[-87.758623,41.989346],[-87.758989,41.989452],[-87.759377,41.989547],[-87.759739,41.989692]]]}},{"type":"Feature","properties":{"k":"tee"},"geometry":{"type":"Polygon","coordinates":[[[-87.758157,41.988508],[-87.758169,41.988517],[-87.758172,41.988534],[-87.758141,41.988551],[-87.758057,41.988519],[-87.758045,41.988494],[-87.758076,41.988482],[-87.758157,41.988508]]]}},{"type":"Feature","properties":{"k":"wood"},"geometry":{"type":"Polygon","coordinates":[[[-87.757375,41.992188],[-87.757488,41.992252],[-87.757665,41.992215],[-87.758104,41.991952],[-87.758829,41.991578],[-87.759661,41.991197],[-87.760125,41.99102],[-87.760493,41.990918],[-87.760564,41.990828],[-87.760425,41.990786],[-87.760178,41.990839],[-87.759909,41.99091],[-87.759629,41.991062],[-87.759367,41.991173],[-87.758387,41.991636],[-87.757927,41.991828],[-87.75769,41.991994],[-87.757428,41.992125],[-87.757375,41.992188]]]}},{"type":"Feature","properties":{"k":"wood"},"geometry":{"type":"Polygon","coordinates":[[[-87.76004,41.990405],[-87.759838,41.990413],[-87.759771,41.990373],[-87.759824,41.990165],[-87.759909,41.990005],[-87.760019,41.989989],[-87.760263,41.990073],[-87.760387,41.990223],[-87.760496,41.99026],[-87.760525,41.990302],[-87.76033,41.990363],[-87.760242,41.9904],[-87.76004,41.990405]]]}},{"type":"Feature","properties":{"k":"wood"},"geometry":{"type":"Polygon","coordinates":[[[-87.760928,41.990116],[-87.761049,41.990176],[-87.76114,41.990131],[-87.761102,41.990058],[-87.760871,41.989852],[-87.760769,41.989742],[-87.76051,41.989647],[-87.760068,41.989358],[-87.758914,41.988921],[-87.758348,41.988695],[-87.75821,41.988658],[-87.757994,41.988561],[-87.757821,41.98845],[-87.75764,41.988355],[-87.757573,41.988358],[-87.757477,41.988413],[-87.757463,41.9885],[-87.757576,41.988545],[-87.757725,41.988548],[-87.757838,41.988595],[-87.758125,41.988742],[-87.758755,41.98899],[-87.759084,41.98914],[-87.759612,41.989321],[-87.759912,41.989481],[-87.760217,41.989674],[-87.760443,41.989842],[-87.760588,41.989937],[-87.76068,41.989965],[-87.760928,41.990116]]]}},{"type":"Feature","properties":{"k":"wood"},"geometry":{"type":"Polygon","coordinates":[[[-87.759339,41.989787],[-87.759502,41.989795],[-87.759795,41.989892],[-87.75981,41.989839],[-87.759753,41.989763],[-87.75958,41.989692],[-87.759399,41.989639],[-87.759024,41.989595],[-87.75878,41.989495],[-87.758369,41.989305],[-87.757676,41.989026],[-87.757286,41.988924],[-87.75706,41.988876],[-87.756936,41.988826],[-87.756925,41.988774],[-87.756982,41.988537],[-87.757003,41.988387],[-87.756939,41.988295],[-87.756891,41.988282],[-87.7561,41.989195],[-87.756189,41.989274],[-87.756253,41.989439],[-87.756256,41.989566],[-87.756245,41.989709],[-87.756561,41.989864],[-87.756596,41.989805],[-87.756631,41.98971],[-87.756614,41.989616],[-87.756642,41.989529],[-87.756787,41.989531],[-87.757,41.989568],[-87.757315,41.989676],[-87.75764,41.98986],[-87.757884,41.990068],[-87.758083,41.990171],[-87.758635,41.990308],[-87.759024,41.99036],[-87.75935,41.99036],[-87.759417,41.990323],[-87.759399,41.990273],[-87.759293,41.990226],[-87.758868,41.990171],[-87.758667,41.990076],[-87.758348,41.989947],[-87.758121,41.989837],[-87.757601,41.989629],[-87.756893,41.989316],[-87.75672,41.989226],[-87.75661,41.989076],[-87.75666,41.988963],[-87.756692,41.988921],[-87.756777,41.988898],[-87.757173,41.989053],[-87.757378,41.989095],[-87.757676,41.989174],[-87.758167,41.989347],[-87.758727,41.9896],[-87.759119,41.98976],[-87.759339,41.989787]]]}},{"type":"Feature","properties":{"k":"wood"},"geometry":{"type":"Polygon","coordinates":[[[-87.757509,41.987769],[-87.757569,41.987761],[-87.757605,41.987703],[-87.757339,41.987161],[-87.757046,41.986759],[-87.75689,41.98669],[-87.756798,41.986756],[-87.756936,41.986906],[-87.757254,41.98728],[-87.757452,41.987711],[-87.757509,41.987769]]]}},{"type":"Feature","properties":{"k":"water"},"geometry":{"type":"Polygon","coordinates":[[[-87.756542,41.986724],[-87.756929,41.986622],[-87.756987,41.986559],[-87.756984,41.986497],[-87.756745,41.986128],[-87.756643,41.986055],[-87.756582,41.986053],[-87.756503,41.986107],[-87.756443,41.986267],[-87.756399,41.986423],[-87.756313,41.986635],[-87.756344,41.986703],[-87.756412,41.986725],[-87.756463,41.986778],[-87.756507,41.986775],[-87.756542,41.986724]]]}},{"type":"Feature","properties":{"k":"wood"},"geometry":{"type":"Polygon","coordinates":[[[-87.756391,41.985864],[-87.756511,41.985938],[-87.756543,41.985869],[-87.756221,41.985512],[-87.756217,41.985356],[-87.756295,41.98522],[-87.756391,41.985177],[-87.756391,41.985099],[-87.756292,41.985067],[-87.756154,41.985275],[-87.756154,41.985412],[-87.756203,41.98558],[-87.756277,41.985746],[-87.756391,41.985864]]]}},{"type":"Feature","properties":{"k":"wood"},"geometry":{"type":"Polygon","coordinates":[[[-87.754845,41.987135],[-87.754565,41.987005],[-87.754766,41.986805],[-87.754944,41.986732],[-87.754962,41.9866],[-87.755079,41.986496],[-87.755215,41.986531],[-87.755313,41.986756],[-87.755178,41.986921],[-87.755222,41.986978],[-87.75522,41.987074],[-87.755135,41.987106],[-87.754947,41.987052],[-87.754899,41.987073],[-87.754845,41.987135]]]}}]}