{"type":"FeatureCollection","features":[{"type":"Feature","properties":{"k":"hole","ref":"1","par":4,"hcp":5},"geometry":{"type":"LineString","coordinates":[[-117.818128,33.906792],[-117.820393,33.906252],[-117.822025,33.905407]]}},{"type":"Feature","properties":{"k":"hole","ref":"2","par":4,"hcp":15},"geometry":{"type":"LineString","coordinates":[[-117.822667,33.905657],[-117.823181,33.907381],[-117.82339,33.907972]]}},{"type":"Feature","properties":{"k":"hole","ref":"3","par":4,"hcp":9},"geometry":{"type":"LineString","coordinates":[[-117.824808,33.907619],[-117.826323,33.909421],[-117.827307,33.909907]]}},{"type":"Feature","properties":{"k":"hole","ref":"4","par":5,"hcp":13},"geometry":{"type":"LineString","coordinates":[[-117.828259,33.910799],[-117.831039,33.910646],[-117.832427,33.91063],[-117.833384,33.910394]]}},{"type":"Feature","properties":{"k":"hole","ref":"5","par":4,"hcp":1},"geometry":{"type":"LineString","coordinates":[[-117.833182,33.909713],[-117.830682,33.909805],[-117.828802,33.909621]]}},{"type":"Feature","properties":{"k":"hole","ref":"6","par":5,"hcp":11},"geometry":{"type":"LineString","coordinates":[[-117.827731,33.909412],[-117.825826,33.908128],[-117.825084,33.906877],[-117.824789,33.90618]]}},{"type":"Feature","properties":{"k":"hole","ref":"7","par":3,"hcp":17},"geometry":{"type":"LineString","coordinates":[[-117.824167,33.906463],[-117.824138,33.907846]]}},{"type":"Feature","properties":{"k":"hole","ref":"9","par":4,"hcp":7},"geometry":{"type":"LineString","coordinates":[[-117.82225,33.906194],[-117.819878,33.907217],[-117.818475,33.907177]]}},{"type":"Feature","properties":{"k":"hole","ref":"10","par":3,"hcp":14},"geometry":{"type":"LineString","coordinates":[[-117.816215,33.908976],[-117.814303,33.90874]]}},{"type":"Feature","properties":{"k":"hole","ref":"11","par":4,"hcp":8},"geometry":{"type":"LineString","coordinates":[[-117.813976,33.909411],[-117.811634,33.908737],[-117.810031,33.908534]]}},{"type":"Feature","properties":{"k":"hole","ref":"12","par":4,"hcp":12},"geometry":{"type":"LineString","coordinates":[[-117.809736,33.907987],[-117.807384,33.908119],[-117.806382,33.907255]]}},{"type":"Feature","properties":{"k":"hole","ref":"13","par":5,"hcp":6},"geometry":{"type":"LineString","coordinates":[[-117.807079,33.907042],[-117.80515,33.906094],[-117.803268,33.905528],[-117.802468,33.90561]]}},{"type":"Feature","properties":{"k":"hole","ref":"14","par":4,"hcp":18},"geometry":{"type":"LineString","coordinates":[[-117.800917,33.905557],[-117.801271,33.903506],[-117.802002,33.902398]]}},{"type":"Feature","properties":{"k":"hole","ref":"15","par":4,"hcp":16},"geometry":{"type":"LineString","coordinates":[[-117.804489,33.902085],[-117.804989,33.903659],[-117.80496,33.904869]]}},{"type":"Feature","properties":{"k":"hole","ref":"16","par":3,"hcp":10},"geometry":{"type":"LineString","coordinates":[[-117.804071,33.905125],[-117.806097,33.905675]]}},{"type":"Feature","properties":{"k":"hole","ref":"17","par":4,"hcp":4},"geometry":{"type":"LineString","coordinates":[[-117.806629,33.906087],[-117.80841,33.906778],[-117.809956,33.907409]]}},{"type":"Feature","properties":{"k":"hole","ref":"18","par":5,"hcp":2},"geometry":{"type":"LineString","coordinates":[[-117.810402,33.907641],[-117.812735,33.908279],[-117.814538,33.908258],[-117.815474,33.908294]]}},{"type":"Feature","properties":{"k":"clubhouse","name":"Black Gold Golf Club"},"geometry":{"type":"Polygon","coordinates":[[[-117.816234,33.908609],[-117.815997,33.908259],[-117.816329,33.908104],[-117.816567,33.908455],[-117.816234,33.908609]]]}},{"type":"Feature","properties":{"k":"water"},"geometry":{"type":"Polygon","coordinates":[[[-117.816078,33.908789],[-117.815952,33.908758],[-117.815848,33.908605],[-117.815763,33.908556],[-117.815716,33.908563],[-117.81567,33.908595],[-117.815638,33.908596],[-117.815568,33.908655],[-117.815524,33.908658],[-117.815494,33.908633],[-117.815425,33.908678],[-117.815194,33.908794],[-117.81514,33.908798],[-117.814997,33.908781],[-117.814958,33.908762],[-117.814836,33.908654],[-117.814815,33.908609],[-117.814826,33.908545],[-117.814892,33.908436],[-117.814995,33.908356],[-117.815078,33.908315],[-117.815215,33.908315],[-117.815269,33.908327],[-117.815397,33.908399],[-117.815487,33.908511],[-117.815489,33.908536],[-117.815608,33.908514],[-117.815671,33.908471],[-117.81572,33.908448],[-117.815754,33.908458],[-117.815851,33.908541],[-117.815885,33.9086],[-117.81591,33.908626],[-117.815939,33.908687],[-117.81596,33.908706],[-117.815971,33.908735],[-117.816043,33.908766],[-117.816077,33.908774],[-117.816078,33.908789]]]}},{"type":"Feature","properties":{"k":"water"},"geometry":{"type":"Polygon","coordinates":[[[-117.808653,33.907471],[-117.808607,33.907467],[-117.808576,33.907486],[-117.808562,33.907451],[-117.808523,33.907415],[-117.808488,33.907432],[-117.808428,33.907431],[-117.808384,33.907455],[-117.808313,33.907447],[-117.808165,33.907489],[-117.808101,33.907484],[-117.808083,33.907496],[-117.808018,33.907492],[-117.807979,33.90748],[-117.807891,33.907481],[-117.807802,33.907469],[-117.80756,33.907402],[-117.807522,33.90738],[-117.807486,33.907259],[-117.807485,33.907169],[-117.807517,33.907122],[-117.807605,33.907091],[-117.80772,33.907075],[-117.808018,33.907123],[-117.808095,33.907108],[-117.808503,33.907208],[-117.808632,33.907274],[-117.808695,33.907327],[-117.808712,33.907349],[-117.808681,33.907432],[-117.808653,33.907471]]]}},{"type":"Feature","properties":{"k":"path"},"geometry":{"type":"LineString","coordinates":[[-117.817013,33.907682],[-117.816822,33.907638],[-117.816776,33.907609],[-117.81666,33.907605],[-117.816547,33.907642],[-117.816424,33.907724],[-117.816372,33.907781],[-117.816323,33.907974],[-117.81629,33.908013],[-117.815909,33.90817],[-117.815863,33.908221],[-117.815856,33.908275],[-117.815894,33.908359],[-117.816067,33.908585],[-117.816153,33.908674],[-117.816275,33.908822],[-117.816233,33.908854],[-117.816137,33.908864],[-117.815902,33.908833],[-117.815492,33.908738],[-117.815414,33.908751],[-117.815279,33.908818],[-117.815204,33.908842],[-117.814974,33.908862],[-117.814878,33.908881],[-117.81467,33.908946],[-117.814478,33.908989],[-117.814339,33.909004],[-117.814178,33.908971],[-117.813988,33.908911],[-117.813867,33.908856],[-117.813801,33.908784],[-117.81376,33.908777],[-117.813711,33.908798],[-117.813588,33.90889],[-117.813536,33.908973],[-117.813544,33.909061],[-117.81359,33.909124],[-117.813648,33.909166],[-117.814056,33.909309],[-117.814102,33.909342],[-117.814128,33.909404],[-117.814118,33.909458],[-117.814076,33.909483],[-117.814015,33.909492],[-117.813929,33.909477],[-117.813727,33.909402],[-117.813638,33.909385],[-117.813556,33.909349],[-117.813436,33.90927],[-117.813105,33.909171],[-117.813023,33.909166],[-117.81285,33.909195],[-117.812775,33.909191],[-117.812611,33.909138],[-117.8125,33.909142],[-117.812394,33.909167],[-117.812276,33.909174],[-117.812217,33.909168],[-117.81207,33.909125],[-117.811922,33.909042],[-117.811857,33.908985],[-117.811784,33.908944],[-117.811546,33.908876],[-117.81133,33.908803],[-117.811097,33.908791],[-117.810982,33.90874],[-117.810944,33.908707],[-117.810758,33.908613],[-117.81073,33.908566],[-117.81073,33.908466],[-117.810706,33.908394],[-117.810595,33.908241],[-117.810561,33.908215],[-117.810536,33.908207],[-117.810493,33.908198],[-117.810419,33.908212],[-117.810322,33.90825],[-117.810178,33.908287],[-117.809909,33.908336],[-117.80986,33.908369],[-117.809833,33.908449],[-117.809843,33.90861],[-117.809781,33.908541],[-117.809689,33.908414],[-117.809663,33.908355],[-117.809679,33.908257],[-117.809856,33.908108],[-117.809838,33.908073],[-117.809579,33.908049],[-117.809388,33.908066],[-117.809217,33.908057],[-117.808899,33.908065],[-117.808742,33.908096],[-117.808458,33.908194],[-117.808208,33.908254],[-117.808011,33.908366],[-117.807917,33.908403],[-117.807701,33.908393],[-117.807497,33.908364],[-117.807138,33.90817],[-117.806934,33.908078],[-117.806864,33.908031],[-117.806788,33.907889],[-117.806744,33.90784],[-117.806436,33.907643],[-117.806371,33.907573],[-117.806314,33.907537],[-117.806187,33.907498],[-117.806095,33.907413],[-117.806054,33.907326],[-117.806058,33.907241],[-117.806131,33.907133],[-117.806222,33.907053],[-117.806285,33.907034],[-117.806379,33.907039],[-117.806557,33.907121],[-117.806699,33.907174],[-117.806808,33.907238],[-117.806917,33.907257],[-117.80701,33.907246],[-117.807088,33.907223],[-117.807123,33.907174],[-117.807094,33.907122],[-117.806898,33.907016],[-117.806422,33.90679],[-117.806329,33.906765],[-117.806035,33.906717],[-117.805926,33.906681],[-117.805841,33.906601],[-117.805728,33.906529],[-117.805578,33.906456],[-117.805392,33.906389],[-117.805296,33.906322],[-117.805225,33.906287],[-117.804973,33.906266],[-117.804806,33.906171],[-117.804646,33.906116],[-117.804468,33.906075],[-117.804419,33.905999],[-117.804432,33.905901],[-117.804464,33.905789],[-117.804433,33.90565],[-117.804371,33.905582],[-117.804203,33.905538],[-117.803988,33.905496],[-117.803792,33.905445],[-117.803648,33.905385],[-117.803516,33.905391],[-117.803418,33.905406],[-117.803084,33.905309],[-117.80292,33.905251],[-117.802731,33.905213],[-117.802606,33.905211],[-117.802463,33.905271],[-117.802323,33.905357],[-117.802183,33.905475],[-117.802093,33.905519],[-117.802027,33.905513],[-117.801921,33.905419],[-117.801733,33.905409],[-117.801596,33.905421],[-117.801344,33.905368],[-117.801266,33.905385],[-117.801186,33.905446],[-117.801131,33.905547],[-117.801087,33.905603],[-117.801029,33.905611],[-117.801009,33.905575],[-117.801045,33.905444],[-117.801012,33.905209],[-117.801018,33.904976],[-117.801059,33.904889],[-117.801065,33.904807],[-117.801106,33.904741],[-117.801166,33.904714],[-117.801272,33.904707],[-117.801348,33.90469],[-117.801398,33.904655],[-117.80143,33.904553],[-117.801575,33.904191],[-117.801633,33.903847],[-117.801696,33.903707],[-117.801768,33.903438],[-117.801862,33.903254],[-117.801944,33.903157],[-117.80207,33.90291],[-117.802374,33.902372],[-117.802389,33.902327],[-117.802391,33.902191],[-117.802422,33.902105],[-117.802479,33.902],[-117.802561,33.901924],[-117.802615,33.901914]]}},{"type":"Feature","properties":{"k":"path"},"geometry":{"type":"LineString","coordinates":[[-117.806135,33.906003],[-117.806301,33.906019],[-117.806498,33.905969],[-117.806566,33.905968],[-117.806882,33.906086],[-117.807363,33.906159],[-117.807627,33.906215],[-117.807729,33.906268],[-117.807854,33.906364],[-117.807887,33.906402],[-117.8077,33.906482],[-117.80757,33.906509],[-117.807297,33.90643],[-117.807195,33.906442],[-117.807067,33.906482],[-117.806883,33.906476],[-117.806479,33.906404],[-117.80638,33.906346],[-117.806202,33.906198],[-117.806123,33.906199]]}},{"type":"Feature","properties":{"k":"path"},"geometry":{"type":"LineString","coordinates":[[-117.807887,33.906402],[-117.808286,33.906446],[-117.808899,33.906648],[-117.809124,33.906729],[-117.809194,33.90681],[-117.809261,33.907002],[-117.809293,33.907126],[-117.809235,33.907273],[-117.809215,33.907369],[-117.80927,33.907484],[-117.809388,33.907558],[-117.80989,33.907636],[-117.810173,33.907613],[-117.810269,33.907627],[-117.810364,33.90777],[-117.810415,33.907876],[-117.810491,33.907931],[-117.810614,33.907977],[-117.810536,33.908207]]}},{"type":"Feature","properties":{"k":"path"},"geometry":{"type":"LineString","coordinates":[[-117.810614,33.907977],[-117.811291,33.908133],[-117.811533,33.908166],[-117.811691,33.908201],[-117.811988,33.908338],[-117.8124,33.908505],[-117.812575,33.90854],[-117.812823,33.908612],[-117.812923,33.908629],[-117.813005,33.90862],[-117.813199,33.908555],[-117.813456,33.908449],[-117.813541,33.90839],[-117.813606,33.908237],[-117.813669,33.90817],[-117.813804,33.908094],[-117.813918,33.908062],[-117.814137,33.908045],[-117.8142,33.908032],[-117.814358,33.907976],[-117.814562,33.907926],[-117.814653,33.907917],[-117.814798,33.90794],[-117.814864,33.907937],[-117.815017,33.907907],[-117.815147,33.907932],[-117.815322,33.90801],[-117.815434,33.908043],[-117.815537,33.908032],[-117.81562,33.907987],[-117.815781,33.907826],[-117.815839,33.907798],[-117.815919,33.907795],[-117.815997,33.907838],[-117.816103,33.907932],[-117.816168,33.908063]]}},{"type":"Feature","properties":{"k":"path"},"geometry":{"type":"LineString","coordinates":[[-117.802779,33.901908],[-117.80363,33.901893],[-117.804091,33.901894],[-117.804182,33.901914],[-117.804247,33.901953],[-117.804385,33.902185],[-117.804421,33.902311],[-117.804422,33.902384],[-117.804393,33.902486],[-117.804399,33.90263],[-117.804459,33.902843],[-117.804468,33.902937],[-117.804458,33.903097],[-117.804478,33.903184],[-117.804581,33.903371],[-117.804595,33.903439],[-117.804591,33.903498],[-117.804557,33.90364],[-117.804563,33.903704],[-117.804654,33.90393],[-117.804696,33.904075],[-117.804701,33.904149],[-117.80468,33.904268],[-117.804609,33.904483],[-117.804608,33.904604],[-117.80463,33.904712],[-117.804603,33.904811],[-117.804533,33.904913],[-117.804486,33.904998],[-117.804473,33.905073],[-117.804509,33.905175],[-117.804517,33.905257],[-117.804489,33.905336],[-117.804515,33.905396],[-117.804645,33.90546],[-117.804764,33.905501],[-117.804969,33.905552],[-117.80509,33.905596],[-117.805232,33.905668],[-117.805329,33.905702],[-117.805573,33.90575],[-117.805735,33.905836],[-117.805868,33.905885],[-117.806025,33.905931],[-117.806135,33.906003],[-117.806136,33.9061],[-117.806123,33.906199],[-117.805946,33.906365],[-117.805841,33.906601]]}},{"type":"Feature","properties":{"k":"bunker"},"geometry":{"type":"Polygon","coordinates":[[[-117.814665,33.908828],[-117.814578,33.908835],[-117.814566,33.908829],[-117.814555,33.908806],[-117.81462,33.908759],[-117.814647,33.908755],[-117.814677,33.908772],[-117.814684,33.908802],[-117.814665,33.908828]]]}},{"type":"Feature","properties":{"k":"bunker"},"geometry":{"type":"Polygon","coordinates":[[[-117.814599,33.90873],[-117.814564,33.908748],[-117.814536,33.908746],[-117.81452,33.908722],[-117.814477,33.908696],[-117.814476,33.908679],[-117.814507,33.908658],[-117.814527,33.908654],[-117.814614,33.908656],[-117.814634,33.908673],[-117.814636,33.908693],[-117.814599,33.90873]]]}},{"type":"Feature","properties":{"k":"green"},"geometry":{"type":"Polygon","coordinates":[[[-117.814487,33.908803],[-117.81447,33.908829],[-117.81442,33.908842],[-117.814335,33.908839],[-117.814285,33.908825],[-117.814234,33.908795],[-117.814207,33.908765],[-117.814196,33.908741],[-117.814207,33.908702],[-117.814233,33.908678],[-117.814281,33.908664],[-117.814382,33.908673],[-117.814458,33.90873],[-117.814474,33.90875],[-117.814487,33.908803]]]}},{"type":"Feature","properties":{"k":"bunker"},"geometry":{"type":"Polygon","coordinates":[[[-117.815273,33.908139],[-117.815266,33.908154],[-117.815232,33.90817],[-117.815205,33.908169],[-117.81518,33.908151],[-117.815184,33.908129],[-117.815241,33.908113],[-117.815263,33.908121],[-117.815273,33.908139]]]}},{"type":"Feature","properties":{"k":"bunker"},"geometry":{"type":"Polygon","coordinates":[[[-117.81521,33.908071],[-117.815211,33.908086],[-117.815187,33.9081],[-117.815157,33.908098],[-117.815143,33.908084],[-117.81515,33.908067],[-117.815164,33.908059],[-117.815196,33.908056],[-117.81521,33.908071]]]}},{"type":"Feature","properties":{"k":"green"},"geometry":{"type":"Polygon","coordinates":[[[-117.815585,33.908302],[-117.81561,33.908353],[-117.815608,33.908411],[-117.815575,33.90844],[-117.815546,33.908447],[-117.815516,33.908442],[-117.815498,33.908434],[-117.815421,33.908362],[-117.81532,33.908297],[-117.815287,33.90826],[-117.815281,33.908246],[-117.815287,33.90822],[-117.815317,33.908197],[-117.815354,33.908184],[-117.815414,33.90818],[-117.815445,33.908187],[-117.815493,33.908211],[-117.815585,33.908302]]]}},{"type":"Feature","properties":{"k":"bunker"},"geometry":{"type":"Polygon","coordinates":[[[-117.813147,33.908468],[-117.813097,33.908415],[-117.813107,33.908392],[-117.813165,33.908391],[-117.813194,33.908409],[-117.813189,33.908452],[-117.813164,33.908469],[-117.813147,33.908468]]]}},{"type":"Feature","properties":{"k":"bunker"},"geometry":{"type":"Polygon","coordinates":[[[-117.812031,33.908607],[-117.81206,33.90864],[-117.812063,33.908657],[-117.81206,33.908674],[-117.812029,33.908696],[-117.812002,33.908694],[-117.811931,33.908652],[-117.811934,33.908619],[-117.811955,33.908599],[-117.811979,33.908589],[-117.812009,33.908593],[-117.812031,33.908607]]]}},{"type":"Feature","properties":{"k":"bunker"},"geometry":{"type":"Polygon","coordinates":[[[-117.811817,33.908562],[-117.811808,33.908553],[-117.811806,33.908524],[-117.811835,33.908507],[-117.811894,33.90851],[-117.811911,33.908523],[-117.811918,33.908551],[-117.811887,33.908574],[-117.811853,33.908576],[-117.811817,33.908562]]]}},{"type":"Feature","properties":{"k":"bunker"},"geometry":{"type":"Polygon","coordinates":[[[-117.811788,33.908461],[-117.811781,33.908484],[-117.811756,33.908496],[-117.811717,33.908471],[-117.811713,33.908439],[-117.81174,33.90843],[-117.811758,33.908433],[-117.811788,33.908461]]]}},{"type":"Feature","properties":{"k":"green"},"geometry":{"type":"Polygon","coordinates":[[[-117.810198,33.908477],[-117.810215,33.908488],[-117.810225,33.908529],[-117.810084,33.908654],[-117.810045,33.908665],[-117.810014,33.908665],[-117.809991,33.908657],[-117.80994,33.908593],[-117.809929,33.908546],[-117.809949,33.908502],[-117.810036,33.90847],[-117.81012,33.908461],[-117.810198,33.908477]]]}},{"type":"Feature","properties":{"k":"bunker"},"geometry":{"type":"Polygon","coordinates":[[[-117.810283,33.908617],[-117.810271,33.908644],[-117.810254,33.908657],[-117.810239,33.908657],[-117.810212,33.908641],[-117.810193,33.908609],[-117.810215,33.908591],[-117.810248,33.908586],[-117.810264,33.908592],[-117.810283,33.908617]]]}},{"type":"Feature","properties":{"k":"bunker"},"geometry":{"type":"Polygon","coordinates":[[[-117.807728,33.907897],[-117.807691,33.907909],[-117.807581,33.907869],[-117.807509,33.90783],[-117.807428,33.907821],[-117.807347,33.907788],[-117.807323,33.907771],[-117.80718,33.907727],[-117.807161,33.907718],[-117.807148,33.907695],[-117.807156,33.907683],[-117.807186,33.907677],[-117.807555,33.907809],[-117.807655,33.90784],[-117.807724,33.907842],[-117.807744,33.907877],[-117.807728,33.907897]]]}},{"type":"Feature","properties":{"k":"green"},"geometry":{"type":"Polygon","coordinates":[[[-117.806548,33.907344],[-117.806539,33.907359],[-117.806495,33.907372],[-117.806403,33.907336],[-117.806289,33.907336],[-117.80625,33.907303],[-117.806229,33.907265],[-117.806226,33.90723],[-117.806235,33.907209],[-117.806264,33.907183],[-117.80631,33.907164],[-117.806329,33.907164],[-117.806487,33.907209],[-117.806527,33.907238],[-117.806542,33.907267],[-117.806548,33.907344]]]}},{"type":"Feature","properties":{"k":"bunker"},"geometry":{"type":"Polygon","coordinates":[[[-117.802797,33.905717],[-117.802792,33.905754],[-117.802763,33.905781],[-117.802743,33.90578],[-117.802716,33.905755],[-117.802666,33.905745],[-117.802653,33.905735],[-117.802666,33.905711],[-117.802712,33.905699],[-117.802742,33.905677],[-117.802768,33.905674],[-117.802791,33.905685],[-117.802797,33.905717]]]}},{"type":"Feature","properties":{"k":"green"},"geometry":{"type":"Polygon","coordinates":[[[-117.80259,33.9057],[-117.802525,33.905725],[-117.802487,33.905723],[-117.802418,33.905693],[-117.802385,33.905667],[-117.802345,33.905614],[-117.802333,33.905562],[-117.802345,33.905539],[-117.802385,33.905512],[-117.802436,33.905504],[-117.802454,33.90551],[-117.802564,33.905585],[-117.802645,33.905613],[-117.802659,33.905624],[-117.80266,33.905639],[-117.80259,33.9057]]]}},{"type":"Feature","properties":{"k":"bunker"},"geometry":{"type":"Polygon","coordinates":[[[-117.802729,33.905346],[-117.802754,33.905519],[-117.802743,33.90554],[-117.802722,33.905557],[-117.802699,33.90556],[-117.802572,33.905538],[-117.802528,33.905504],[-117.802523,33.905487],[-117.802545,33.905466],[-117.8026,33.905466],[-117.80261,33.90546],[-117.802618,33.905433],[-117.802613,33.905418],[-117.802578,33.9054],[-117.802555,33.905377],[-117.802546,33.905353],[-117.802554,33.905327],[-117.80259,33.905297],[-117.802647,33.905288],[-117.802701,33.905317],[-117.802729,33.905346]]]}},{"type":"Feature","properties":{"k":"bunker"},"geometry":{"type":"Polygon","coordinates":[[[-117.801308,33.903719],[-117.801309,33.903732],[-117.80129,33.90375],[-117.801261,33.903738],[-117.801279,33.903701],[-117.801296,33.903705],[-117.801308,33.903719]]]}},{"type":"Feature","properties":{"k":"bunker"},"geometry":{"type":"Polygon","coordinates":[[[-117.801765,33.902658],[-117.801732,33.902696],[-117.80169,33.902707],[-117.801672,33.902701],[-117.801646,33.902662],[-117.801635,33.902603],[-117.801667,33.902548],[-117.801691,33.902522],[-117.801711,33.902513],[-117.801766,33.902528],[-117.801784,33.902549],[-117.801765,33.902658]]]}},{"type":"Feature","properties":{"k":"bunker"},"geometry":{"type":"Polygon","coordinates":[[[-117.801771,33.902461],[-117.801752,33.902471],[-117.801733,33.902462],[-117.801757,33.902416],[-117.801778,33.902427],[-117.801771,33.902461]]]}},{"type":"Feature","properties":{"k":"green"},"geometry":{"type":"Polygon","coordinates":[[[-117.802049,33.902447],[-117.802,33.902505],[-117.80197,33.902525],[-117.801933,33.902533],[-117.801905,33.90253],[-117.801879,33.902516],[-117.801855,33.902475],[-117.801852,33.902433],[-117.801869,33.902387],[-117.802057,33.902259],[-117.802101,33.902265],[-117.802133,33.902286],[-117.80215,33.902341],[-117.802139,33.902386],[-117.802049,33.902447]]]}},{"type":"Feature","properties":{"k":"bunker"},"geometry":{"type":"Polygon","coordinates":[[[-117.804826,33.903996],[-117.804834,33.904033],[-117.804824,33.904058],[-117.804803,33.904064],[-117.804776,33.904048],[-117.804764,33.904004],[-117.804771,33.903987],[-117.804795,33.903976],[-117.804814,33.903982],[-117.804826,33.903996]]]}},{"type":"Feature","properties":{"k":"bunker"},"geometry":{"type":"Polygon","coordinates":[[[-117.805215,33.903965],[-117.805211,33.903993],[-117.805182,33.904005],[-117.805149,33.903991],[-117.805133,33.90396],[-117.805153,33.903942],[-117.80518,33.903938],[-117.805201,33.903947],[-117.805215,33.903965]]]}},{"type":"Feature","properties":{"k":"bunker"},"geometry":{"type":"Polygon","coordinates":[[[-117.805191,33.904233],[-117.805187,33.90425],[-117.805168,33.904266],[-117.805128,33.904257],[-117.805108,33.904218],[-117.805132,33.904177],[-117.805159,33.904171],[-117.80519,33.904184],[-117.805197,33.904199],[-117.805191,33.904233]]]}},{"type":"Feature","properties":{"k":"bunker"},"geometry":{"type":"Polygon","coordinates":[[[-117.804994,33.90461],[-117.804988,33.904648],[-117.804955,33.904702],[-117.804929,33.904702],[-117.804915,33.904694],[-117.804899,33.904654],[-117.804886,33.904617],[-117.804889,33.904599],[-117.804911,33.904572],[-117.804971,33.904568],[-117.804999,33.90459],[-117.804994,33.90461]]]}},{"type":"Feature","properties":{"k":"bunker"},"geometry":{"type":"Polygon","coordinates":[[[-117.804853,33.904686],[-117.804851,33.904703],[-117.804822,33.904725],[-117.804784,33.904718],[-117.804772,33.904641],[-117.804789,33.904618],[-117.804813,33.904611],[-117.804836,33.904631],[-117.804853,33.904686]]]}},{"type":"Feature","properties":{"k":"bunker"},"geometry":{"type":"Polygon","coordinates":[[[-117.805162,33.904776],[-117.805171,33.904812],[-117.805139,33.904832],[-117.805125,33.904826],[-117.805074,33.904761],[-117.805103,33.904723],[-117.805134,33.904719],[-117.805163,33.904737],[-117.805162,33.904776]]]}},{"type":"Feature","properties":{"k":"green"},"geometry":{"type":"Polygon","coordinates":[[[-117.805072,33.904966],[-117.805028,33.904984],[-117.804983,33.904982],[-117.804848,33.904905],[-117.804827,33.904844],[-117.804836,33.904803],[-117.804848,33.90479],[-117.804879,33.904773],[-117.804918,33.904763],[-117.804959,33.904764],[-117.805001,33.904775],[-117.80507,33.904842],[-117.805092,33.904878],[-117.80509,33.90494],[-117.805072,33.904966]]]}},{"type":"Feature","properties":{"k":"bunker"},"geometry":{"type":"Polygon","coordinates":[[[-117.805887,33.905715],[-117.805895,33.90576],[-117.805916,33.905792],[-117.805902,33.905815],[-117.805887,33.905817],[-117.805863,33.905809],[-117.805813,33.905753],[-117.80581,33.905737],[-117.805816,33.905718],[-117.805854,33.905703],[-117.805887,33.905715]]]}},{"type":"Feature","properties":{"k":"green"},"geometry":{"type":"Polygon","coordinates":[[[-117.806219,33.905658],[-117.806215,33.905692],[-117.806189,33.905735],[-117.806142,33.905769],[-117.806117,33.905777],[-117.806076,33.90578],[-117.806002,33.905761],[-117.805978,33.905739],[-117.805963,33.905705],[-117.805962,33.905674],[-117.80599,33.905617],[-117.806028,33.905584],[-117.806069,33.905563],[-117.806112,33.905556],[-117.806159,33.905566],[-117.806192,33.905601],[-117.806219,33.905658]]]}},{"type":"Feature","properties":{"k":"bunker"},"geometry":{"type":"Polygon","coordinates":[[[-117.809082,33.90718],[-117.809082,33.907204],[-117.809051,33.907241],[-117.80901,33.907254],[-117.808977,33.907248],[-117.808969,33.907224],[-117.808989,33.90719],[-117.809031,33.907173],[-117.809069,33.907168],[-117.809082,33.90718]]]}},{"type":"Feature","properties":{"k":"bunker"},"geometry":{"type":"Polygon","coordinates":[[[-117.809411,33.907183],[-117.809443,33.907197],[-117.80944,33.90721],[-117.809425,33.907219],[-117.809398,33.907212],[-117.809411,33.907183]]]}},{"type":"Feature","properties":{"k":"bunker"},"geometry":{"type":"Polygon","coordinates":[[[-117.809444,33.90725],[-117.809466,33.907251],[-117.809489,33.907264],[-117.809496,33.907275],[-117.809481,33.907293],[-117.809451,33.907295],[-117.809432,33.907284],[-117.809427,33.90727],[-117.809444,33.90725]]]}},{"type":"Feature","properties":{"k":"bunker"},"geometry":{"type":"Polygon","coordinates":[[[-117.809761,33.907242],[-117.809776,33.907246],[-117.809811,33.907278],[-117.809814,33.907296],[-117.809795,33.907307],[-117.809779,33.907311],[-117.809691,33.907272],[-117.809689,33.90725],[-117.809708,33.907229],[-117.809733,33.907226],[-117.809761,33.907242]]]}},{"type":"Feature","properties":{"k":"green"},"geometry":{"type":"Polygon","coordinates":[[[-117.810091,33.907348],[-117.810139,33.907388],[-117.81014,33.907413],[-117.810129,33.907432],[-117.810101,33.907451],[-117.809988,33.907484],[-117.809897,33.907498],[-117.809866,33.907496],[-117.809815,33.907466],[-117.809768,33.907411],[-117.809765,33.907379],[-117.809774,33.907362],[-117.809891,33.907324],[-117.80999,33.907319],[-117.810091,33.907348]]]}},{"type":"Feature","properties":{"k":"fairway"},"geometry":{"type":"Polygon","coordinates":[[[-117.822791,33.908632],[-117.822836,33.90872],[-117.822759,33.908747],[-117.822711,33.908656],[-117.822791,33.908632]]]}},{"type":"Feature","properties":{"k":"fairway"},"geometry":{"type":"Polygon","coordinates":[[[-117.822696,33.908433],[-117.822778,33.908589],[-117.822674,33.908626],[-117.822592,33.908471],[-117.822696,33.908433]]]}},{"type":"Feature","properties":{"k":"fairway"},"geometry":{"type":"Polygon","coordinates":[[[-117.822657,33.908221],[-117.822716,33.908369],[-117.822588,33.908404],[-117.822529,33.908257],[-117.822657,33.908221]]]}},{"type":"Feature","properties":{"k":"fairway"},"geometry":{"type":"Polygon","coordinates":[[[-117.822609,33.908008],[-117.822659,33.908127],[-117.822518,33.908168],[-117.822468,33.908049],[-117.822609,33.908008]]]}},{"type":"Feature","properties":{"k":"fairway"},"geometry":{"type":"Polygon","coordinates":[[[-117.822533,33.907838],[-117.82259,33.907933],[-117.822492,33.907973],[-117.822436,33.907878],[-117.822533,33.907838]]]}},{"type":"Feature","properties":{"k":"rough"},"geometry":{"type":"Polygon","coordinates":[[[-117.814331,33.909031],[-117.814055,33.908957],[-117.813852,33.908875],[-117.813782,33.908801],[-117.813706,33.908675],[-117.813709,33.908565],[-117.813512,33.90851],[-117.813389,33.908519],[-117.813202,33.908578],[-117.812958,33.908639],[-117.812773,33.908623],[-117.812552,33.908553],[-117.812404,33.908525],[-117.812102,33.908398],[-117.812109,33.908358],[-117.811801,33.908141],[-117.811683,33.907915],[-117.811614,33.90787],[-117.811363,33.907813],[-117.811263,33.907745],[-117.811208,33.90759],[-117.811213,33.907467],[-117.810576,33.907364],[-117.810378,33.907542],[-117.810563,33.907599],[-117.810522,33.907701],[-117.810779,33.907821],[-117.810823,33.907874],[-117.811042,33.907961],[-117.810955,33.908084],[-117.81046,33.907942],[-117.810382,33.907872],[-117.810261,33.907656],[-117.810195,33.907631],[-117.809917,33.907656],[-117.809395,33.907575],[-117.808863,33.907946],[-117.809016,33.907925],[-117.809204,33.90791],[-117.809833,33.90793],[-117.80983,33.908044],[-117.809299,33.90808],[-117.809278,33.908302],[-117.809458,33.908309],[-117.809709,33.908752],[-117.80983,33.908786],[-117.809821,33.908514],[-117.809837,33.908377],[-117.80991,33.908321],[-117.81033,33.908231],[-117.810476,33.908188],[-117.810884,33.908266],[-117.81106,33.908279],[-117.811272,33.908339],[-117.811398,33.908355],[-117.811473,33.908385],[-117.811594,33.908402],[-117.811733,33.908383],[-117.811868,33.908434],[-117.811881,33.908468],[-117.811943,33.908517],[-117.811968,33.90855],[-117.812107,33.908637],[-117.812157,33.908728],[-117.812244,33.908743],[-117.812283,33.908741],[-117.812328,33.908775],[-117.812376,33.908775],[-117.812431,33.908798],[-117.812472,33.908803],[-117.812554,33.908868],[-117.812687,33.908896],[-117.812919,33.908932],[-117.813004,33.908985],[-117.813084,33.909017],[-117.813284,33.909067],[-117.813412,33.909116],[-117.813537,33.909226],[-117.813777,33.909292],[-117.813841,33.909299],[-117.81388,33.909326],[-117.814037,33.909352],[-117.814078,33.909369],[-117.814062,33.909441],[-117.814201,33.909466],[-117.814386,33.909031],[-117.814331,33.909031]]]}},{"type":"Feature","properties":{"k":"tee"},"geometry":{"type":"Polygon","coordinates":[[[-117.81406,33.909378],[-117.814041,33.909454],[-117.813915,33.90943],[-117.813941,33.909359],[-117.81406,33.909378]]]}},{"type":"Feature","properties":{"k":"tee"},"geometry":{"type":"Polygon","coordinates":[[[-117.8139,33.909349],[-117.81388,33.909413],[-117.813777,33.909388],[-117.813791,33.909325],[-117.8139,33.909349]]]}},{"type":"Feature","properties":{"k":"tee"},"geometry":{"type":"Polygon","coordinates":[[[-117.813763,33.909317],[-117.81375,33.909374],[-117.81364,33.909353],[-117.813653,33.909292],[-117.813763,33.909317]]]}},{"type":"Feature","properties":{"k":"tee"},"geometry":{"type":"Polygon","coordinates":[[[-117.813375,33.90914],[-117.813342,33.909206],[-117.813223,33.909169],[-117.813254,33.909092],[-117.813375,33.90914]]]}},{"type":"Feature","properties":{"k":"tee"},"geometry":{"type":"Polygon","coordinates":[[[-117.812929,33.909109],[-117.812899,33.909164],[-117.81282,33.909137],[-117.81285,33.909083],[-117.812929,33.909109]]]}},{"type":"Feature","properties":{"k":"tee"},"geometry":{"type":"Polygon","coordinates":[[[-117.812704,33.909047],[-117.812667,33.9091],[-117.812588,33.909068],[-117.812624,33.909015],[-117.812704,33.909047]]]}},{"type":"Feature","properties":{"k":"fairway"},"geometry":{"type":"Polygon","coordinates":[[[-117.812577,33.908982],[-117.812573,33.909056],[-117.812427,33.909143],[-117.812322,33.909154],[-117.812153,33.909134],[-117.812027,33.909067],[-117.811861,33.908931],[-117.811749,33.908874],[-117.811259,33.908747],[-117.811049,33.908736],[-117.810789,33.908594],[-117.81075,33.908537],[-117.810754,33.908463],[-117.810791,33.90842],[-117.810827,33.908395],[-117.810914,33.908357],[-117.81104,33.908354],[-117.811249,33.908374],[-117.811389,33.908399],[-117.811578,33.908467],[-117.811651,33.908503],[-117.811952,33.908713],[-117.812119,33.908802],[-117.812449,33.908916],[-117.812541,33.90894],[-117.812577,33.908982]]]}},{"type":"Feature","properties":{"k":"tee"},"geometry":{"type":"Polygon","coordinates":[[[-117.809807,33.90795],[-117.809814,33.908024],[-117.809661,33.908029],[-117.809661,33.907944],[-117.809807,33.90795]]]}},{"type":"Feature","properties":{"k":"tee"},"geometry":{"type":"Polygon","coordinates":[[[-117.809544,33.907944],[-117.809556,33.908028],[-117.809234,33.908028],[-117.809232,33.90793],[-117.809544,33.907944]]]}},{"type":"Feature","properties":{"k":"tee"},"geometry":{"type":"Polygon","coordinates":[[[-117.809117,33.907944],[-117.809122,33.908041],[-117.808913,33.908049],[-117.808901,33.907958],[-117.809117,33.907944]]]}},{"type":"Feature","properties":{"k":"tee"},"geometry":{"type":"Polygon","coordinates":[[[-117.808674,33.908018],[-117.808669,33.908088],[-117.808552,33.908088],[-117.80855,33.90802],[-117.808674,33.908018]]]}},{"type":"Feature","properties":{"k":"rough"},"geometry":{"type":"Polygon","coordinates":[[[-117.808863,33.907946],[-117.808742,33.907924],[-117.808498,33.907856],[-117.808428,33.907858],[-117.808155,33.907903],[-117.808055,33.907907],[-117.80793,33.907893],[-117.80782,33.907866],[-117.80775,33.907835],[-117.807586,33.907786],[-117.807407,33.907714],[-117.807264,33.907673],[-117.807107,33.90759],[-117.807048,33.907519],[-117.807037,33.907471],[-117.806988,33.907383],[-117.806894,33.907276],[-117.806685,33.907144],[-117.806554,33.907105],[-117.806373,33.907017],[-117.806267,33.907017],[-117.80619,33.907045],[-117.806038,33.90722],[-117.805953,33.90735],[-117.806192,33.907599],[-117.806281,33.907582],[-117.806375,33.907623],[-117.806485,33.907771],[-117.80679,33.90807],[-117.806919,33.908135],[-117.806319,33.907997],[-117.806075,33.907788],[-117.80589,33.9075],[-117.805855,33.907243],[-117.805925,33.907128],[-117.805953,33.907023],[-117.80596,33.906881],[-117.805735,33.906758],[-117.805475,33.906585],[-117.805261,33.906459],[-117.805126,33.906351],[-117.805242,33.906342],[-117.805409,33.906416],[-117.805564,33.906474],[-117.805838,33.906624],[-117.805883,33.906562],[-117.805923,33.906453],[-117.805958,33.906396],[-117.805902,33.906219],[-117.805847,33.90612],[-117.805768,33.906027],[-117.805644,33.905954],[-117.805392,33.905941],[-117.805313,33.905923],[-117.805156,33.905783],[-117.805069,33.905764],[-117.804947,33.905752],[-117.804776,33.905694],[-117.804644,33.905676],[-117.804508,33.905643],[-117.804445,33.905616],[-117.804379,33.905563],[-117.804189,33.905513],[-117.803797,33.905434],[-117.803641,33.905364],[-117.803444,33.90539],[-117.803109,33.905307],[-117.802883,33.905225],[-117.80265,33.905192],[-117.802652,33.905083],[-117.803398,33.905147],[-117.803704,33.904975],[-117.80399,33.905057],[-117.803948,33.905155],[-117.804363,33.905267],[-117.804459,33.905337],[-117.804499,33.905419],[-117.804593,33.90546],[-117.80483,33.90554],[-117.805031,33.905594],[-117.805249,33.905698],[-117.805566,33.905766],[-117.80573,33.905851],[-117.805843,33.905896],[-117.806014,33.905945],[-117.80611,33.906007],[-117.806249,33.905881],[-117.806307,33.905659],[-117.806328,33.905623],[-117.806389,33.90562],[-117.806537,33.905844],[-117.806786,33.90596],[-117.807234,33.906023],[-117.807595,33.90605],[-117.807567,33.906165],[-117.80726,33.906108],[-117.80694,33.906071],[-117.806755,33.906023],[-117.806596,33.905956],[-117.806504,33.905947],[-117.806448,33.906106],[-117.806511,33.906167],[-117.806617,33.9062],[-117.80679,33.906194],[-117.806978,33.906239],[-117.807053,33.906233],[-117.807227,33.906287],[-117.807328,33.906279],[-117.807435,33.906311],[-117.807614,33.906404],[-117.807604,33.906443],[-117.807529,33.90647],[-117.807335,33.906427],[-117.807079,33.906511],[-117.806884,33.906498],[-117.806453,33.906427],[-117.806342,33.906361],[-117.806066,33.906566],[-117.805995,33.906681],[-117.806021,33.906739],[-117.806333,33.906784],[-117.806408,33.906805],[-117.807124,33.907115],[-117.807173,33.907029],[-117.807117,33.906971],[-117.806565,33.90669],[-117.806518,33.906696],[-117.806497,33.906717],[-117.806366,33.906717],[-117.806096,33.90657],[-117.806352,33.906385],[-117.806474,33.906451],[-117.806992,33.906521],[-117.807114,33.906523],[-117.807285,33.906457],[-117.807276,33.90661],[-117.807414,33.906673],[-117.807515,33.906807],[-117.807804,33.90692],[-117.807839,33.906963],[-117.808026,33.906988],[-117.808392,33.907097],[-117.808615,33.907179],[-117.8087,33.907235],[-117.808911,33.907336],[-117.809185,33.907449],[-117.80937,33.907572],[-117.808863,33.907946]]]}},{"type":"Feature","properties":{"k":"tee"},"geometry":{"type":"Polygon","coordinates":[[[-117.807162,33.907028],[-117.807113,33.907101],[-117.806998,33.907049],[-117.807051,33.906976],[-117.807162,33.907028]]]}},{"type":"Feature","properties":{"k":"tee"},"geometry":{"type":"Polygon","coordinates":[[[-117.807027,33.906937],[-117.80697,33.907018],[-117.80672,33.906901],[-117.806775,33.906819],[-117.807027,33.906937]]]}},{"type":"Feature","properties":{"k":"tee"},"geometry":{"type":"Polygon","coordinates":[[[-117.806719,33.906808],[-117.806672,33.906874],[-117.806513,33.906801],[-117.806561,33.906726],[-117.806719,33.906808]]]}},{"type":"Feature","properties":{"k":"tee"},"geometry":{"type":"Polygon","coordinates":[[[-117.806196,33.906647],[-117.806148,33.906717],[-117.806043,33.906681],[-117.806082,33.906602],[-117.806196,33.906647]]]}},{"type":"Feature","properties":{"k":"fairway"},"geometry":{"type":"Polygon","coordinates":[[[-117.805646,33.906227],[-117.805636,33.906322],[-117.805572,33.906383],[-117.805374,33.906274],[-117.805205,33.906205],[-117.804972,33.906197],[-117.804898,33.906171],[-117.804572,33.906001],[-117.804491,33.905975],[-117.804471,33.905919],[-117.804487,33.905866],[-117.804496,33.905757],[-117.804692,33.905805],[-117.804804,33.905825],[-117.804972,33.905897],[-117.805192,33.906011],[-117.805352,33.90606],[-117.805553,33.906107],[-117.80565,33.90615],[-117.805667,33.906198],[-117.805646,33.906227]]]}},{"type":"Feature","properties":{"k":"tee"},"geometry":{"type":"Polygon","coordinates":[[[-117.80098,33.905529],[-117.800963,33.905603],[-117.800845,33.905576],[-117.800862,33.90551],[-117.80098,33.905529]]]}},{"type":"Feature","properties":{"k":"tee"},"geometry":{"type":"Polygon","coordinates":[[[-117.800984,33.905315],[-117.800978,33.905403],[-117.800859,33.905401],[-117.800866,33.905309],[-117.800984,33.905315]]]}},{"type":"Feature","properties":{"k":"tee"},"geometry":{"type":"Polygon","coordinates":[[[-117.800988,33.90511],[-117.800975,33.905216],[-117.800828,33.905213],[-117.800832,33.9051],[-117.800988,33.90511]]]}},{"type":"Feature","properties":{"k":"tee"},"geometry":{"type":"Polygon","coordinates":[[[-117.801012,33.904899],[-117.800982,33.905025],[-117.800888,33.905009],[-117.800904,33.904884],[-117.801012,33.904899]]]}},{"type":"Feature","properties":{"k":"tee"},"geometry":{"type":"Polygon","coordinates":[[[-117.801236,33.90458],[-117.801222,33.904664],[-117.801119,33.904656],[-117.801133,33.904567],[-117.801236,33.90458]]]}},{"type":"Feature","properties":{"k":"rough"},"geometry":{"type":"Polygon","coordinates":[[[-117.802629,33.905076],[-117.802626,33.905197],[-117.802545,33.905219],[-117.802427,33.905271],[-117.802238,33.905397],[-117.802122,33.905464],[-117.802083,33.905576],[-117.802049,33.905647],[-117.802041,33.905752],[-117.800959,33.905797],[-117.800681,33.905618],[-117.800619,33.905409],[-117.800604,33.90513],[-117.800631,33.904887],[-117.800596,33.904681],[-117.800612,33.904582],[-117.800897,33.90463],[-117.801141,33.904688],[-117.801419,33.90472],[-117.801398,33.904655],[-117.801523,33.904823],[-117.801774,33.904951],[-117.802049,33.905028],[-117.802362,33.905098],[-117.802629,33.905076]]]}},{"type":"Feature","properties":{"k":"rough"},"geometry":{"type":"Polygon","coordinates":[[[-117.802416,33.901956],[-117.802362,33.902106],[-117.802153,33.9021],[-117.801987,33.902145],[-117.801867,33.902215],[-117.801786,33.90228],[-117.801604,33.902533],[-117.801454,33.902645],[-117.801257,33.902895],[-117.80104,33.903328],[-117.800901,33.90353],[-117.800836,33.903726],[-117.800712,33.903742],[-117.800685,33.903594],[-117.800739,33.903351],[-117.800975,33.902886],[-117.801342,33.902235],[-117.801639,33.901837],[-117.80201,33.901879],[-117.802416,33.901956]]]}},{"type":"Feature","properties":{"k":"tee"},"geometry":{"type":"Polygon","coordinates":[[[-117.804514,33.902016],[-117.804554,33.902143],[-117.804461,33.902159],[-117.804428,33.902028],[-117.804514,33.902016]]]}},{"type":"Feature","properties":{"k":"tee"},"geometry":{"type":"Polygon","coordinates":[[[-117.804559,33.902156],[-117.804621,33.902393],[-117.804524,33.902412],[-117.804466,33.902171],[-117.804559,33.902156]]]}},{"type":"Feature","properties":{"k":"tee"},"geometry":{"type":"Polygon","coordinates":[[[-117.804521,33.902554],[-117.804546,33.902666],[-117.804469,33.902681],[-117.804439,33.902568],[-117.804521,33.902554]]]}},{"type":"Feature","properties":{"k":"tee"},"geometry":{"type":"Polygon","coordinates":[[[-117.804609,33.90284],[-117.804626,33.902944],[-117.804546,33.902955],[-117.804524,33.902853],[-117.804609,33.90284]]]}},{"type":"Feature","properties":{"k":"tee"},"geometry":{"type":"Polygon","coordinates":[[[-117.80414,33.905097],[-117.804113,33.905168],[-117.804008,33.905149],[-117.804029,33.905081],[-117.80414,33.905097]]]}},{"type":"Feature","properties":{"k":"tee"},"geometry":{"type":"Polygon","coordinates":[[[-117.804194,33.905093],[-117.804442,33.905161],[-117.804409,33.905257],[-117.804158,33.905186],[-117.804194,33.905093]]]}},{"type":"Feature","properties":{"k":"tee"},"geometry":{"type":"Polygon","coordinates":[[[-117.804564,33.905242],[-117.804683,33.90527],[-117.804657,33.905365],[-117.804524,33.905336],[-117.804564,33.905242]]]}},{"type":"Feature","properties":{"k":"tee"},"geometry":{"type":"Polygon","coordinates":[[[-117.804759,33.905289],[-117.804851,33.905308],[-117.804826,33.90538],[-117.804728,33.905358],[-117.804759,33.905289]]]}},{"type":"Feature","properties":{"k":"tee"},"geometry":{"type":"Polygon","coordinates":[[[-117.804857,33.905426],[-117.804965,33.905444],[-117.804943,33.905517],[-117.804836,33.905494],[-117.804857,33.905426]]]}},{"type":"Feature","properties":{"k":"rough"},"geometry":{"type":"Polygon","coordinates":[[[-117.804345,33.904986],[-117.804296,33.905031],[-117.804296,33.905065],[-117.804429,33.905071],[-117.804679,33.905238],[-117.804832,33.90526],[-117.80492,33.905308],[-117.804896,33.90538],[-117.804971,33.905405],[-117.805016,33.90543],[-117.805058,33.905528],[-117.805142,33.905605],[-117.8052,33.90562],[-117.8052,33.905583],[-117.805236,33.905413],[-117.805296,33.905393],[-117.805368,33.90541],[-117.805482,33.90547],[-117.805564,33.905478],[-117.805823,33.905403],[-117.805973,33.905388],[-117.806085,33.9054],[-117.806211,33.90556],[-117.806307,33.905659],[-117.806359,33.905593],[-117.806337,33.90554],[-117.80625,33.905393],[-117.806199,33.905335],[-117.806076,33.905258],[-117.805949,33.905218],[-117.805549,33.90525],[-117.805386,33.905218],[-117.80529,33.904975],[-117.805398,33.904653],[-117.805365,33.904563],[-117.805272,33.904578],[-117.805236,33.904846],[-117.805166,33.905018],[-117.804986,33.90517],[-117.804926,33.90517],[-117.804844,33.905135],[-117.804793,33.90508],[-117.804766,33.905026],[-117.804661,33.904901],[-117.804465,33.904908],[-117.804345,33.904986]]]}},{"type":"Feature","properties":{"k":"fairway"},"geometry":{"type":"Polygon","coordinates":[[[-117.805275,33.905455],[-117.805254,33.905503],[-117.805227,33.905628],[-117.805275,33.905663],[-117.805474,33.905695],[-117.805537,33.905695],[-117.805657,33.905745],[-117.805763,33.90581],[-117.80579,33.905805],[-117.805766,33.905735],[-117.805766,33.905698],[-117.805778,33.90568],[-117.805814,33.905668],[-117.805859,33.905668],[-117.805901,33.905683],[-117.805862,33.905618],[-117.805766,33.905568],[-117.805699,33.905505],[-117.805576,33.90553],[-117.805275,33.905455]]]}},{"type":"Feature","properties":{"k":"tee"},"geometry":{"type":"Polygon","coordinates":[[[-117.806539,33.906002],[-117.806497,33.906092],[-117.806696,33.906167],[-117.806759,33.906082],[-117.806539,33.906002]]]}},{"type":"Feature","properties":{"k":"tee"},"geometry":{"type":"Polygon","coordinates":[[[-117.806837,33.906107],[-117.806807,33.906167],[-117.806985,33.906207],[-117.807012,33.906152],[-117.806837,33.906107]]]}},{"type":"Feature","properties":{"k":"tee"},"geometry":{"type":"Polygon","coordinates":[[[-117.807129,33.906157],[-117.807093,33.906225],[-117.807226,33.906267],[-117.807259,33.906192],[-117.807129,33.906157]]]}},{"type":"Feature","properties":{"k":"tee"},"geometry":{"type":"Polygon","coordinates":[[[-117.807508,33.906235],[-117.807442,33.906295],[-117.807602,33.90637],[-117.807671,33.906305],[-117.807508,33.906235]]]}},{"type":"Feature","properties":{"k":"fairway"},"geometry":{"type":"Polygon","coordinates":[[[-117.809152,33.906902],[-117.809026,33.906839],[-117.808857,33.906794],[-117.808622,33.906697],[-117.808282,33.906605],[-117.807716,33.90651],[-117.807617,33.906525],[-117.807551,33.906525],[-117.807403,33.906485],[-117.807364,33.90649],[-117.807367,33.906547],[-117.807337,33.906579],[-117.807334,33.906605],[-117.80737,33.906627],[-117.80743,33.906639],[-117.807475,33.906695],[-117.807514,33.906709],[-117.807743,33.906754],[-117.807876,33.906792],[-117.808231,33.906914],[-117.808363,33.906982],[-117.808508,33.907037],[-117.808806,33.907124],[-117.808902,33.907162],[-117.808962,33.907164],[-117.809029,33.907152],[-117.80914,33.907157],[-117.809182,33.907129],[-117.809203,33.907062],[-117.809188,33.906949],[-117.809152,33.906902]]]}},{"type":"Feature","properties":{"k":"tee"},"geometry":{"type":"Polygon","coordinates":[[[-117.810482,33.907619],[-117.810457,33.907685],[-117.81036,33.907663],[-117.810384,33.907598],[-117.810482,33.907619]]]}},{"type":"Feature","properties":{"k":"tee"},"geometry":{"type":"Polygon","coordinates":[[[-117.810507,33.907779],[-117.810469,33.907871],[-117.810721,33.907936],[-117.810751,33.90784],[-117.810507,33.907779]]]}},{"type":"Feature","properties":{"k":"tee"},"geometry":{"type":"Polygon","coordinates":[[[-117.810855,33.90792],[-117.810822,33.907993],[-117.810947,33.90803],[-117.810982,33.90795],[-117.810855,33.90792]]]}},{"type":"Feature","properties":{"k":"tee"},"geometry":{"type":"Polygon","coordinates":[[[-117.810271,33.907929],[-117.810276,33.90805],[-117.810381,33.908053],[-117.810389,33.907945],[-117.810271,33.907929]]]}},{"type":"Feature","properties":{"k":"tee"},"geometry":{"type":"Polygon","coordinates":[[[-117.811472,33.908079],[-117.811458,33.908126],[-117.811347,33.908113],[-117.811364,33.908059],[-117.811472,33.908079]]]}},{"type":"Feature","properties":{"k":"tee"},"geometry":{"type":"Polygon","coordinates":[[[-117.811712,33.908132],[-117.811594,33.90811],[-117.811584,33.908155],[-117.811702,33.908175],[-117.811712,33.908132]]]}},{"type":"Feature","properties":{"k":"fairway"},"geometry":{"type":"Polygon","coordinates":[[[-117.81234,33.90817],[-117.812289,33.908198],[-117.81226,33.90823],[-117.81225,33.908256],[-117.812256,33.908292],[-117.812274,33.908324],[-117.812326,33.908376],[-117.812372,33.908404],[-117.812657,33.908494],[-117.812763,33.90847],[-117.812963,33.908372],[-117.813053,33.908356],[-117.813115,33.908354],[-117.813463,33.908409],[-117.813518,33.908379],[-117.813531,33.908355],[-117.813543,33.908281],[-117.813533,33.908245],[-117.813485,33.908189],[-117.813354,33.908145],[-117.812842,33.908099],[-117.812395,33.908157],[-117.81234,33.90817]]]}},{"type":"Feature","properties":{"k":"path"},"geometry":{"type":"LineString","coordinates":[[-117.827721,33.909686],[-117.827812,33.909693],[-117.82814,33.909762]]}},{"type":"Feature","properties":{"k":"fairway"},"geometry":{"type":"Polygon","coordinates":[[[-117.818152,33.906741],[-117.818179,33.90682],[-117.818073,33.906845],[-117.818047,33.906766],[-117.818152,33.906741]]]}},{"type":"Feature","properties":{"k":"fairway"},"geometry":{"type":"Polygon","coordinates":[[[-117.818344,33.906701],[-117.818371,33.906784],[-117.818222,33.906818],[-117.818195,33.906736],[-117.818344,33.906701]]]}},{"type":"Feature","properties":{"k":"fairway"},"geometry":{"type":"Polygon","coordinates":[[[-117.818547,33.90667],[-117.818574,33.906767],[-117.818422,33.906797],[-117.818394,33.9067],[-117.818547,33.90667]]]}},{"type":"Feature","properties":{"k":"fairway"},"geometry":{"type":"Polygon","coordinates":[[[-117.818782,33.906651],[-117.818809,33.906738],[-117.81866,33.906769],[-117.818634,33.906682],[-117.818782,33.906651]]]}},{"type":"Feature","properties":{"k":"fairway"},"geometry":{"type":"Polygon","coordinates":[[[-117.819196,33.906694],[-117.81922,33.906755],[-117.819119,33.906782],[-117.819095,33.906721],[-117.819196,33.906694]]]}},{"type":"Feature","properties":{"k":"fairway"},"geometry":{"type":"Polygon","coordinates":[[[-117.819714,33.906606],[-117.819622,33.906587],[-117.819581,33.906555],[-117.819558,33.906505],[-117.81956,33.906412],[-117.819575,33.906391],[-117.819608,33.906367],[-117.819725,33.906316],[-117.820046,33.906235],[-117.820162,33.906192],[-117.820275,33.906109],[-117.820392,33.905968],[-117.82047,33.905903],[-117.820529,33.905885],[-117.820616,33.905881],[-117.820668,33.90589],[-117.820706,33.905914],[-117.820823,33.906029],[-117.820852,33.906085],[-117.820866,33.906139],[-117.820857,33.906181],[-117.820746,33.906305],[-117.82066,33.90636],[-117.820571,33.906391],[-117.81979,33.906599],[-117.819714,33.906606]]]}},{"type":"Feature","properties":{"k":"bunker"},"geometry":{"type":"Polygon","coordinates":[[[-117.820306,33.906014],[-117.820299,33.906039],[-117.820267,33.906075],[-117.820202,33.906105],[-117.820162,33.906151],[-117.82008,33.90618],[-117.82006,33.906178],[-117.820043,33.906163],[-117.820076,33.906102],[-117.820097,33.906081],[-117.820187,33.906057],[-117.820258,33.905994],[-117.820291,33.905996],[-117.820306,33.906014]]]}},{"type":"Feature","properties":{"k":"fairway"},"geometry":{"type":"Polygon","coordinates":[[[-117.821403,33.905793],[-117.821362,33.905742],[-117.821357,33.905687],[-117.821401,33.905606],[-117.821454,33.905569],[-117.821486,33.905557],[-117.821563,33.905554],[-117.821702,33.90557],[-117.821848,33.905572],[-117.821868,33.905567],[-117.821889,33.905545],[-117.821924,33.905531],[-117.821936,33.905551],[-117.821985,33.905583],[-117.822046,33.905594],[-117.822078,33.905591],[-117.82211,33.905578],[-117.822129,33.905561],[-117.822135,33.905593],[-117.822111,33.905634],[-117.822062,33.905657],[-117.821945,33.905652],[-117.82191,33.905662],[-117.821713,33.905757],[-117.821573,33.905809],[-117.821488,33.905817],[-117.821447,33.905812],[-117.821403,33.905793]]]}},{"type":"Feature","properties":{"k":"green"},"geometry":{"type":"Polygon","coordinates":[[[-117.822167,33.905394],[-117.822183,33.905433],[-117.82218,33.905486],[-117.822155,33.905537],[-117.82211,33.905578],[-117.822078,33.905591],[-117.822014,33.905591],[-117.821985,33.905583],[-117.821936,33.905551],[-117.821924,33.905531],[-117.821925,33.905501],[-117.821956,33.90539],[-117.82198,33.905361],[-117.822023,33.905343],[-117.822071,33.905341],[-117.822122,33.90535],[-117.822144,33.905363],[-117.822167,33.905394]]]}},{"type":"Feature","properties":{"k":"bunker"},"geometry":{"type":"Polygon","coordinates":[[[-117.821907,33.905467],[-117.821877,33.905493],[-117.821815,33.905524],[-117.821765,33.905534],[-117.82173,33.905513],[-117.821718,33.905486],[-117.821719,33.905442],[-117.821775,33.905406],[-117.821801,33.905364],[-117.821823,33.905353],[-117.821852,33.905359],[-117.82187,33.905381],[-117.821905,33.905398],[-117.821907,33.905467]]]}},{"type":"Feature","properties":{"k":"green"},"geometry":{"type":"Polygon","coordinates":[[[-117.817693,33.906926],[-117.817687,33.90696],[-117.817673,33.906979],[-117.817567,33.907038],[-117.817515,33.907037],[-117.817483,33.907005],[-117.817499,33.906965],[-117.817516,33.906951],[-117.817623,33.906884],[-117.817645,33.906884],[-117.817677,33.906896],[-117.817693,33.906926]]]}},{"type":"Feature","properties":{"k":"green"},"geometry":{"type":"Polygon","coordinates":[[[-117.817467,33.907075],[-117.817461,33.907112],[-117.817422,33.907147],[-117.817357,33.907158],[-117.817326,33.907142],[-117.817321,33.907117],[-117.817357,33.907053],[-117.817375,33.907038],[-117.817426,33.907033],[-117.817447,33.907041],[-117.817467,33.907075]]]}},{"type":"Feature","properties":{"k":"bunker"},"geometry":{"type":"Polygon","coordinates":[[[-117.817326,33.907046],[-117.817298,33.907099],[-117.817267,33.907112],[-117.817249,33.907108],[-117.817239,33.907089],[-117.817272,33.907033],[-117.817312,33.907026],[-117.817326,33.907046]]]}},{"type":"Feature","properties":{"k":"fairway"},"geometry":{"type":"Polygon","coordinates":[[[-117.822585,33.905563],[-117.822637,33.905767],[-117.822765,33.905744],[-117.822713,33.905541],[-117.822585,33.905563]]]}},{"type":"Feature","properties":{"k":"fairway"},"geometry":{"type":"Polygon","coordinates":[[[-117.822805,33.905878],[-117.822674,33.905902],[-117.822729,33.906113],[-117.82286,33.906089],[-117.822805,33.905878]]]}},{"type":"Feature","properties":{"k":"fairway"},"geometry":{"type":"Polygon","coordinates":[[[-117.822846,33.90618],[-117.822746,33.906194],[-117.822778,33.906351],[-117.822878,33.906337],[-117.822846,33.90618]]]}},{"type":"Feature","properties":{"k":"fairway"},"geometry":{"type":"Polygon","coordinates":[[[-117.822929,33.907037],[-117.822883,33.907044],[-117.822836,33.907077],[-117.822819,33.907143],[-117.822824,33.907173],[-117.82289,33.907281],[-117.823031,33.907397],[-117.823045,33.907426],[-117.823052,33.907466],[-117.823046,33.907495],[-117.822948,33.907608],[-117.822935,33.907636],[-117.822944,33.907723],[-117.822975,33.907783],[-117.823004,33.907811],[-117.823086,33.907839],[-117.823168,33.907834],[-117.823233,33.907816],[-117.823273,33.907819],[-117.823316,33.907846],[-117.823326,33.907865],[-117.823325,33.907903],[-117.823386,33.907823],[-117.823401,33.907819],[-117.823423,33.907816],[-117.823461,33.907825],[-117.823512,33.907873],[-117.823515,33.907832],[-117.823477,33.907741],[-117.823453,33.907734],[-117.823224,33.907766],[-117.823178,33.907745],[-117.823142,33.907711],[-117.823131,33.907682],[-117.823131,33.907616],[-117.82316,33.907565],[-117.823371,33.907473],[-117.823401,33.907443],[-117.823414,33.907417],[-117.823416,33.907369],[-117.823402,33.907343],[-117.823372,33.907321],[-117.823188,33.907229],[-117.823137,33.907195],[-117.823095,33.907136],[-117.823023,33.907073],[-117.822989,33.907053],[-117.822929,33.907037]]]}},{"type":"Feature","properties":{"k":"bunker"},"geometry":{"type":"Polygon","coordinates":[[[-117.823,33.907395],[-117.822997,33.907446],[-117.823014,33.907474],[-117.823012,33.907497],[-117.822982,33.907515],[-117.822959,33.907515],[-117.822944,33.907508],[-117.82293,33.907484],[-117.822938,33.907419],[-117.822962,33.907387],[-117.822984,33.907386],[-117.823,33.907395]]]}},{"type":"Feature","properties":{"k":"bunker"},"geometry":{"type":"Polygon","coordinates":[[[-117.823425,33.907581],[-117.823444,33.907606],[-117.823445,33.907638],[-117.823439,33.907654],[-117.823423,33.907666],[-117.823396,33.907668],[-117.823342,33.907593],[-117.823346,33.907547],[-117.823369,33.907531],[-117.823407,33.907536],[-117.823425,33.907581]]]}},{"type":"Feature","properties":{"k":"bunker"},"geometry":{"type":"Polygon","coordinates":[[[-117.823328,33.907679],[-117.823335,33.907703],[-117.823319,33.907716],[-117.823264,33.907704],[-117.823241,33.907711],[-117.823211,33.907705],[-117.823182,33.907654],[-117.823176,33.907627],[-117.823199,33.90757],[-117.823219,33.907553],[-117.823253,33.90755],[-117.823279,33.907566],[-117.823287,33.907605],[-117.823328,33.907679]]]}},{"type":"Feature","properties":{"k":"bunker"},"geometry":{"type":"Polygon","coordinates":[[[-117.82329,33.907851],[-117.823298,33.907866],[-117.823293,33.907883],[-117.823266,33.907892],[-117.823253,33.907916],[-117.82324,33.907925],[-117.823178,33.90793],[-117.823163,33.90792],[-117.823144,33.907889],[-117.823159,33.907864],[-117.823222,33.907826],[-117.823258,33.907829],[-117.82329,33.907851]]]}},{"type":"Feature","properties":{"k":"green"},"geometry":{"type":"Polygon","coordinates":[[[-117.823444,33.907819],[-117.823478,33.907837],[-117.82353,33.907901],[-117.823534,33.907946],[-117.823514,33.907997],[-117.823485,33.90803],[-117.823389,33.908071],[-117.823307,33.908066],[-117.823279,33.908051],[-117.82325,33.908022],[-117.823249,33.907985],[-117.823264,33.907962],[-117.8233,33.907936],[-117.823386,33.907823],[-117.823423,33.907816],[-117.823444,33.907819]]]}},{"type":"Feature","properties":{"k":"fairway"},"geometry":{"type":"Polygon","coordinates":[[[-117.824884,33.907623],[-117.824809,33.907678],[-117.824736,33.907609],[-117.82481,33.907555],[-117.824884,33.907623]]]}},{"type":"Feature","properties":{"k":"fairway"},"geometry":{"type":"Polygon","coordinates":[[[-117.824855,33.907809],[-117.824784,33.90785],[-117.824719,33.907772],[-117.82479,33.907731],[-117.824855,33.907809]]]}},{"type":"Feature","properties":{"k":"fairway"},"geometry":{"type":"Polygon","coordinates":[[[-117.825075,33.908091],[-117.825008,33.908147],[-117.824797,33.90797],[-117.824865,33.907915],[-117.825075,33.908091]]]}},{"type":"Feature","properties":{"k":"fairway"},"geometry":{"type":"Polygon","coordinates":[[[-117.825247,33.908209],[-117.825153,33.908286],[-117.82504,33.908191],[-117.825134,33.908114],[-117.825247,33.908209]]]}},{"type":"Feature","properties":{"k":"fairway"},"geometry":{"type":"Polygon","coordinates":[[[-117.825292,33.908511],[-117.825238,33.908555],[-117.825136,33.90847],[-117.825189,33.908426],[-117.825292,33.908511]]]}},{"type":"Feature","properties":{"k":"fairway"},"geometry":{"type":"Polygon","coordinates":[[[-117.825865,33.908755],[-117.825798,33.908729],[-117.825752,33.908726],[-117.825709,33.908738],[-117.825683,33.908758],[-117.825673,33.908785],[-117.825675,33.908816],[-117.825864,33.909003],[-117.825915,33.909079],[-117.82595,33.909167],[-117.825997,33.909339],[-117.826029,33.909421],[-117.826075,33.90949],[-117.826176,33.909576],[-117.826215,33.909591],[-117.826609,33.909674],[-117.826653,33.909711],[-117.82669,33.909826],[-117.826721,33.909856],[-117.826753,33.909872],[-117.826864,33.909884],[-117.826939,33.909869],[-117.82699,33.909816],[-117.827001,33.90978],[-117.827002,33.909753],[-117.826972,33.909708],[-117.826924,33.909682],[-117.826879,33.909679],[-117.826844,33.909666],[-117.826657,33.909526],[-117.826596,33.909488],[-117.826567,33.909448],[-117.826538,33.909367],[-117.826459,33.909284],[-117.826411,33.909257],[-117.826212,33.909177],[-117.826145,33.909131],[-117.825988,33.908967],[-117.825907,33.908813],[-117.825865,33.908755]]]}},{"type":"Feature","properties":{"k":"green"},"geometry":{"type":"Polygon","coordinates":[[[-117.827457,33.909861],[-117.82745,33.909906],[-117.827418,33.90995],[-117.827357,33.90999],[-117.8273,33.910011],[-117.827206,33.91001],[-117.827143,33.909965],[-117.827134,33.909923],[-117.827162,33.909859],[-117.827184,33.909838],[-117.827273,33.909805],[-117.827347,33.90979],[-117.827418,33.909802],[-117.827444,33.909825],[-117.827457,33.909861]]]}},{"type":"Feature","properties":{"k":"bunker"},"geometry":{"type":"Polygon","coordinates":[[[-117.826348,33.908991],[-117.82624,33.908955],[-117.826174,33.908964],[-117.82615,33.908979],[-117.826141,33.909002],[-117.826142,33.909049],[-117.826152,33.909065],[-117.826217,33.909114],[-117.82628,33.909135],[-117.826356,33.90914],[-117.82639,33.909158],[-117.826405,33.90918],[-117.826489,33.909221],[-117.826588,33.909298],[-117.826615,33.90933],[-117.826624,33.909356],[-117.826615,33.909429],[-117.826627,33.909463],[-117.826641,33.909472],[-117.826673,33.909467],[-117.826701,33.909426],[-117.826719,33.909358],[-117.826699,33.909304],[-117.82664,33.909216],[-117.826577,33.909168],[-117.826535,33.909112],[-117.826509,33.909091],[-117.826448,33.909064],[-117.826348,33.908991]]]}},{"type":"Feature","properties":{"k":"bunker"},"geometry":{"type":"Polygon","coordinates":[[[-117.826932,33.909578],[-117.826907,33.909608],[-117.826888,33.909615],[-117.826853,33.909617],[-117.826831,33.909604],[-117.826835,33.909569],[-117.826861,33.909546],[-117.826875,33.909542],[-117.826908,33.909548],[-117.826929,33.909567],[-117.826932,33.909578]]]}},{"type":"Feature","properties":{"k":"bunker"},"geometry":{"type":"Polygon","coordinates":[[[-117.82657,33.909726],[-117.826546,33.909754],[-117.826498,33.909747],[-117.826462,33.909764],[-117.826448,33.909764],[-117.82643,33.909748],[-117.826428,33.909735],[-117.826443,33.909716],[-117.826486,33.909704],[-117.826543,33.909702],[-117.826566,33.909716],[-117.82657,33.909726]]]}},{"type":"Feature","properties":{"k":"bunker"},"geometry":{"type":"Polygon","coordinates":[[[-117.827193,33.909771],[-117.827197,33.90979],[-117.827187,33.909798],[-117.82716,33.909803],[-117.827114,33.909778],[-117.827105,33.909763],[-117.827118,33.909744],[-117.827144,33.909736],[-117.82717,33.909746],[-117.827193,33.909771]]]}},{"type":"Feature","properties":{"k":"bunker"},"geometry":{"type":"Polygon","coordinates":[[[-117.827098,33.90986],[-117.827103,33.909879],[-117.827097,33.909887],[-117.827064,33.909894],[-117.827004,33.90988],[-117.826997,33.909853],[-117.827017,33.909826],[-117.827029,33.909824],[-117.827098,33.90986]]]}},{"type":"Feature","properties":{"k":"fairway"},"geometry":{"type":"Polygon","coordinates":[[[-117.8283,33.910746],[-117.828199,33.910755],[-117.828209,33.910839],[-117.82831,33.910831],[-117.8283,33.910746]]]}},{"type":"Feature","properties":{"k":"fairway"},"geometry":{"type":"Polygon","coordinates":[[[-117.828614,33.910716],[-117.828623,33.910789],[-117.828424,33.910807],[-117.828415,33.910733],[-117.828614,33.910716]]]}},{"type":"Feature","properties":{"k":"fairway"},"geometry":{"type":"Polygon","coordinates":[[[-117.828863,33.910661],[-117.828878,33.910745],[-117.828688,33.910768],[-117.828674,33.910684],[-117.828863,33.910661]]]}},{"type":"Feature","properties":{"k":"fairway"},"geometry":{"type":"Polygon","coordinates":[[[-117.829199,33.910646],[-117.829204,33.910715],[-117.829044,33.910723],[-117.829039,33.910654],[-117.829199,33.910646]]]}},{"type":"Feature","properties":{"k":"fairway"},"geometry":{"type":"Polygon","coordinates":[[[-117.829463,33.910638],[-117.82946,33.910714],[-117.829339,33.910711],[-117.829342,33.910635],[-117.829463,33.910638]]]}},{"type":"Feature","properties":{"k":"fairway"},"geometry":{"type":"Polygon","coordinates":[[[-117.830192,33.910623],[-117.830174,33.910646],[-117.830181,33.910718],[-117.830221,33.910754],[-117.830252,33.910761],[-117.830313,33.910754],[-117.830375,33.91073],[-117.830536,33.910689],[-117.83066,33.910694],[-117.830762,33.910712],[-117.830937,33.910795],[-117.831115,33.910861],[-117.831187,33.910878],[-117.831307,33.910889],[-117.831445,33.910889],[-117.831605,33.910871],[-117.831948,33.910789],[-117.832358,33.91078],[-117.83242,33.910762],[-117.832671,33.91061],[-117.832806,33.910551],[-117.832872,33.910533],[-117.833001,33.910518],[-117.833252,33.910524],[-117.833304,33.910506],[-117.833262,33.910492],[-117.833216,33.910466],[-117.83321,33.910443],[-117.833225,33.910414],[-117.833134,33.910442],[-117.832828,33.910401],[-117.832796,33.910405],[-117.832594,33.910478],[-117.83247,33.910509],[-117.832196,33.91052],[-117.831923,33.910519],[-117.831747,33.910426],[-117.831676,33.91041],[-117.831569,33.910406],[-117.830988,33.91046],[-117.8305,33.910527],[-117.830311,33.910572],[-117.83021,33.910608],[-117.830192,33.910623]]]}},{"type":"Feature","properties":{"k":"bunker"},"geometry":{"type":"Polygon","coordinates":[[[-117.830579,33.910755],[-117.830555,33.910787],[-117.830529,33.9108],[-117.830487,33.910796],[-117.83045,33.910801],[-117.830425,33.910775],[-117.830426,33.910751],[-117.830457,33.910735],[-117.83056,33.910743],[-117.830579,33.910755]]]}},{"type":"Feature","properties":{"k":"bunker"},"geometry":{"type":"Polygon","coordinates":[[[-117.831953,33.910437],[-117.831934,33.910464],[-117.831898,33.910474],[-117.831865,33.910446],[-117.831863,33.910428],[-117.831888,33.910412],[-117.83192,33.910414],[-117.831953,33.910437]]]}},{"type":"Feature","properties":{"k":"bunker"},"geometry":{"type":"Polygon","coordinates":[[[-117.832802,33.910672],[-117.832789,33.910688],[-117.832749,33.910695],[-117.832724,33.910684],[-117.832714,33.910653],[-117.832735,33.910634],[-117.832769,33.910632],[-117.832786,33.910643],[-117.832802,33.910672]]]}},{"type":"Feature","properties":{"k":"bunker"},"geometry":{"type":"Polygon","coordinates":[[[-117.833105,33.910592],[-117.833104,33.910608],[-117.83308,33.910629],[-117.833028,33.910627],[-117.83298,33.910641],[-117.832939,33.910634],[-117.832928,33.910619],[-117.832928,33.910593],[-117.832941,33.910572],[-117.832985,33.910551],[-117.833068,33.910558],[-117.833088,33.910566],[-117.833105,33.910592]]]}},{"type":"Feature","properties":{"k":"bunker"},"geometry":{"type":"Polygon","coordinates":[[[-117.833203,33.910351],[-117.833198,33.910375],[-117.833183,33.910386],[-117.833155,33.910389],[-117.833137,33.910376],[-117.833136,33.910356],[-117.833149,33.910345],[-117.833173,33.910342],[-117.833203,33.910351]]]}},{"type":"Feature","properties":{"k":"bunker"},"geometry":{"type":"Polygon","coordinates":[[[-117.833285,33.910262],[-117.833286,33.910278],[-117.833271,33.910292],[-117.833198,33.910311],[-117.833185,33.910309],[-117.833168,33.91029],[-117.833183,33.910262],[-117.833235,33.910244],[-117.833272,33.910244],[-117.833285,33.910262]]]}},{"type":"Feature","properties":{"k":"green"},"geometry":{"type":"Polygon","coordinates":[[[-117.833512,33.910382],[-117.833494,33.910427],[-117.833468,33.910455],[-117.833433,33.910477],[-117.833339,33.910507],[-117.833304,33.910506],[-117.833262,33.910492],[-117.833213,33.91046],[-117.83321,33.910443],[-117.833225,33.910414],[-117.833337,33.910322],[-117.833364,33.910312],[-117.833401,33.910308],[-117.833468,33.910321],[-117.833494,33.91034],[-117.833512,33.910382]]]}},{"type":"Feature","properties":{"k":"fairway"},"geometry":{"type":"Polygon","coordinates":[[[-117.833248,33.90968],[-117.833249,33.909741],[-117.833113,33.909744],[-117.833112,33.909682],[-117.833248,33.90968]]]}},{"type":"Feature","properties":{"k":"fairway"},"geometry":{"type":"Polygon","coordinates":[[[-117.83306,33.909733],[-117.833057,33.90965],[-117.832732,33.909658],[-117.832735,33.909741],[-117.83306,33.909733]]]}},{"type":"Feature","properties":{"k":"fairway"},"geometry":{"type":"Polygon","coordinates":[[[-117.83266,33.909667],[-117.832667,33.90973],[-117.832493,33.909743],[-117.832486,33.90968],[-117.83266,33.909667]]]}},{"type":"Feature","properties":{"k":"fairway"},"geometry":{"type":"Polygon","coordinates":[[[-117.832048,33.909724],[-117.832047,33.909798],[-117.831918,33.909797],[-117.831919,33.909723],[-117.832048,33.909724]]]}},{"type":"Feature","properties":{"k":"fairway"},"geometry":{"type":"Polygon","coordinates":[[[-117.8317,33.90987],[-117.831689,33.909936],[-117.831574,33.909922],[-117.831584,33.909857],[-117.8317,33.90987]]]}},{"type":"Feature","properties":{"k":"bunker"},"geometry":{"type":"Polygon","coordinates":[[[-117.830934,33.909627],[-117.830919,33.909643],[-117.830866,33.909643],[-117.830855,33.909629],[-117.830875,33.909614],[-117.830925,33.909618],[-117.830934,33.909627]]]}},{"type":"Feature","properties":{"k":"bunker"},"geometry":{"type":"Polygon","coordinates":[[[-117.830807,33.909639],[-117.830799,33.90967],[-117.830751,33.909662],[-117.830734,33.909648],[-117.830737,33.909628],[-117.830748,33.909621],[-117.830774,33.909624],[-117.830807,33.909639]]]}},{"type":"Feature","properties":{"k":"bunker"},"geometry":{"type":"Polygon","coordinates":[[[-117.83082,33.909593],[-117.830787,33.909605],[-117.830772,33.909599],[-117.830771,33.909586],[-117.830778,33.909577],[-117.830795,33.909573],[-117.830812,33.909578],[-117.83082,33.909593]]]}},{"type":"Feature","properties":{"k":"bunker"},"geometry":{"type":"Polygon","coordinates":[[[-117.830322,33.909895],[-117.830315,33.909919],[-117.8303,33.90993],[-117.83027,33.909937],[-117.830247,33.909928],[-117.830239,33.909914],[-117.830241,33.909888],[-117.830203,33.909852],[-117.8302,33.909836],[-117.830209,33.909819],[-117.83025,33.909798],[-117.830283,33.90981],[-117.830322,33.909895]]]}},{"type":"Feature","properties":{"k":"bunker"},"geometry":{"type":"Polygon","coordinates":[[[-117.828979,33.909712],[-117.828974,33.909733],[-117.828927,33.909756],[-117.828903,33.909754],[-117.828884,33.909734],[-117.82889,33.909719],[-117.828936,33.909697],[-117.828964,33.909697],[-117.828979,33.909712]]]}},{"type":"Feature","properties":{"k":"bunker"},"geometry":{"type":"Polygon","coordinates":[[[-117.828831,33.909779],[-117.828813,33.909803],[-117.828775,33.909818],[-117.828736,33.909814],[-117.828724,33.909802],[-117.82872,33.909784],[-117.828744,33.909763],[-117.828786,33.909751],[-117.828819,33.909755],[-117.828831,33.909779]]]}},{"type":"Feature","properties":{"k":"fairway"},"geometry":{"type":"Polygon","coordinates":[[[-117.831352,33.90978],[-117.831325,33.909847],[-117.83126,33.909901],[-117.831144,33.909959],[-117.83107,33.909983],[-117.830929,33.910012],[-117.830764,33.91002],[-117.830686,33.91001],[-117.830601,33.909979],[-117.830483,33.909912],[-117.830287,33.909772],[-117.83013,33.909743],[-117.830081,33.909719],[-117.830056,33.909683],[-117.830057,33.909658],[-117.830076,33.909605],[-117.830122,33.909573],[-117.830168,33.909562],[-117.830317,33.909566],[-117.830578,33.909608],[-117.830727,33.909683],[-117.83076,33.909691],[-117.830906,33.909687],[-117.831041,33.909661],[-117.831239,33.90964],[-117.831275,33.909645],[-117.831321,33.909676],[-117.83134,33.909707],[-117.831352,33.90978]]]}},{"type":"Feature","properties":{"k":"fairway"},"geometry":{"type":"Polygon","coordinates":[[[-117.829801,33.909627],[-117.829774,33.909676],[-117.829713,33.909715],[-117.829402,33.909714],[-117.829302,33.909692],[-117.829178,33.909638],[-117.829088,33.909608],[-117.829043,33.909604],[-117.828978,33.909632],[-117.829,33.909605],[-117.829006,33.909583],[-117.828995,33.909565],[-117.828945,33.909538],[-117.829079,33.909529],[-117.82927,33.909469],[-117.829472,33.909451],[-117.829594,33.909467],[-117.829722,33.909509],[-117.829761,33.909531],[-117.829792,33.909559],[-117.829804,33.909591],[-117.829801,33.909627]]]}},{"type":"Feature","properties":{"k":"green"},"geometry":{"type":"Polygon","coordinates":[[[-117.828995,33.909565],[-117.829005,33.909592],[-117.828978,33.909632],[-117.828935,33.909665],[-117.828813,33.909715],[-117.828758,33.909724],[-117.828695,33.909723],[-117.828653,33.909698],[-117.828641,33.909662],[-117.828642,33.909633],[-117.828657,33.909603],[-117.828683,33.90958],[-117.828735,33.909555],[-117.828817,33.909535],[-117.828912,33.909531],[-117.828945,33.909538],[-117.828995,33.909565]]]}},{"type":"Feature","properties":{"k":"fairway"},"geometry":{"type":"Polygon","coordinates":[[[-117.827795,33.909412],[-117.827729,33.909467],[-117.827654,33.909404],[-117.827719,33.909349],[-117.827795,33.909412]]]}},{"type":"Feature","properties":{"k":"fairway"},"geometry":{"type":"Polygon","coordinates":[[[-117.827675,33.909256],[-117.827586,33.909341],[-117.827397,33.909206],[-117.827486,33.909121],[-117.827675,33.909256]]]}},{"type":"Feature","properties":{"k":"fairway"},"geometry":{"type":"Polygon","coordinates":[[[-117.827318,33.909272],[-117.827222,33.90937],[-117.827122,33.909303],[-117.827217,33.909205],[-117.827318,33.909272]]]}},{"type":"Feature","properties":{"k":"fairway"},"geometry":{"type":"Polygon","coordinates":[[[-117.826929,33.909126],[-117.826851,33.909175],[-117.826792,33.909111],[-117.826871,33.909062],[-117.826929,33.909126]]]}},{"type":"Feature","properties":{"k":"bunker"},"geometry":{"type":"Polygon","coordinates":[[[-117.825376,33.90792],[-117.825379,33.907953],[-117.825361,33.907965],[-117.825336,33.907968],[-117.825303,33.907948],[-117.825294,33.907906],[-117.825304,33.907888],[-117.825334,33.907885],[-117.82536,33.907899],[-117.825376,33.90792]]]}},{"type":"Feature","properties":{"k":"bunker"},"geometry":{"type":"Polygon","coordinates":[[[-117.825441,33.907803],[-117.825425,33.90783],[-117.825379,33.907843],[-117.825338,33.907823],[-117.825319,33.9078],[-117.825309,33.907757],[-117.825329,33.907735],[-117.825334,33.907714],[-117.825366,33.90769],[-117.825397,33.907693],[-117.825426,33.907715],[-117.825441,33.907803]]]}},{"type":"Feature","properties":{"k":"bunker"},"geometry":{"type":"Polygon","coordinates":[[[-117.825371,33.907295],[-117.825355,33.907325],[-117.825332,33.907334],[-117.825303,33.907326],[-117.825281,33.907295],[-117.82531,33.907263],[-117.825342,33.90726],[-117.825365,33.907267],[-117.825371,33.907295]]]}},{"type":"Feature","properties":{"k":"bunker"},"geometry":{"type":"Polygon","coordinates":[[[-117.825126,33.906417],[-117.825065,33.906464],[-117.825028,33.906509],[-117.824995,33.90652],[-117.824962,33.906515],[-117.824901,33.906456],[-117.824887,33.906416],[-117.824865,33.906385],[-117.824865,33.906369],[-117.824868,33.906354],[-117.824897,33.906323],[-117.824897,33.906261],[-117.824905,33.906231],[-117.824925,33.906212],[-117.824937,33.906205],[-117.824961,33.906207],[-117.824987,33.906228],[-117.825017,33.906277],[-117.825085,33.906261],[-117.82512,33.906268],[-117.825152,33.906293],[-117.825157,33.906335],[-117.825126,33.906417]]]}},{"type":"Feature","properties":{"k":"bunker"},"geometry":{"type":"Polygon","coordinates":[[[-117.825075,33.906118],[-117.825041,33.906169],[-117.825012,33.906176],[-117.824983,33.906168],[-117.824974,33.906157],[-117.824977,33.906122],[-117.824944,33.90609],[-117.824945,33.906064],[-117.824968,33.906049],[-117.825043,33.906061],[-117.825066,33.90608],[-117.825075,33.906118]]]}},{"type":"Feature","properties":{"k":"fairway"},"geometry":{"type":"Polygon","coordinates":[[[-117.826245,33.908529],[-117.826211,33.908572],[-117.826179,33.908584],[-117.826148,33.908585],[-117.826108,33.908572],[-117.82597,33.908486],[-117.825821,33.90837],[-117.825714,33.908256],[-117.82556,33.908115],[-117.825498,33.908032],[-117.825481,33.907988],[-117.825479,33.90784],[-117.825494,33.907763],[-117.825487,33.907712],[-117.825422,33.907534],[-117.825413,33.907482],[-117.825417,33.907436],[-117.82547,33.907364],[-117.825551,33.907313],[-117.825633,33.907305],[-117.825688,33.90731],[-117.825722,33.907331],[-117.825752,33.907364],[-117.825792,33.907452],[-117.825841,33.907663],[-117.825887,33.907766],[-117.826086,33.908104],[-117.826124,33.908183],[-117.826135,33.908272],[-117.826154,33.908327],[-117.826241,33.908497],[-117.826245,33.908529]]]}},{"type":"Feature","properties":{"k":"fairway"},"geometry":{"type":"Polygon","coordinates":[[[-117.825341,33.906941],[-117.82533,33.906973],[-117.825307,33.906998],[-117.82528,33.907014],[-117.825178,33.907045],[-117.825133,33.907045],[-117.825082,33.907033],[-117.825016,33.906999],[-117.824966,33.906958],[-117.8249,33.906861],[-117.82484,33.906723],[-117.824778,33.906544],[-117.824748,33.906431],[-117.82474,33.906368],[-117.824774,33.906388],[-117.824794,33.90639],[-117.824834,33.906367],[-117.824843,33.906442],[-117.824859,33.90649],[-117.824888,33.906531],[-117.824923,33.906563],[-117.825026,33.906628],[-117.825126,33.906679],[-117.825232,33.906747],[-117.825301,33.906815],[-117.825326,33.906862],[-117.825341,33.906941]]]}},{"type":"Feature","properties":{"k":"green"},"geometry":{"type":"Polygon","coordinates":[[[-117.824927,33.906164],[-117.824878,33.906223],[-117.824862,33.906258],[-117.824852,33.906345],[-117.824806,33.906387],[-117.824774,33.906388],[-117.824722,33.906351],[-117.824708,33.906298],[-117.824702,33.906161],[-117.824724,33.906103],[-117.824766,33.906067],[-117.824821,33.906059],[-117.82485,33.906066],[-117.824893,33.906089],[-117.824914,33.906112],[-117.824928,33.906141],[-117.824927,33.906164]]]}},{"type":"Feature","properties":{"k":"fairway"},"geometry":{"type":"Polygon","coordinates":[[[-117.824205,33.90641],[-117.824202,33.906517],[-117.82411,33.906515],[-117.824113,33.906408],[-117.824205,33.90641]]]}},{"type":"Feature","properties":{"k":"fairway"},"geometry":{"type":"Polygon","coordinates":[[[-117.824337,33.906577],[-117.824324,33.906845],[-117.824098,33.906837],[-117.824111,33.90657],[-117.824337,33.906577]]]}},{"type":"Feature","properties":{"k":"fairway"},"geometry":{"type":"Polygon","coordinates":[[[-117.824331,33.906921],[-117.824326,33.907033],[-117.824206,33.907028],[-117.824212,33.906916],[-117.824331,33.906921]]]}},{"type":"Feature","properties":{"k":"green"},"geometry":{"type":"Polygon","coordinates":[[[-117.824281,33.907748],[-117.824292,33.907768],[-117.824294,33.907816],[-117.824279,33.90786],[-117.824257,33.907891],[-117.824199,33.907926],[-117.824147,33.907939],[-117.824054,33.907942],[-117.823989,33.907932],[-117.823958,33.907902],[-117.823952,33.907881],[-117.823971,33.907841],[-117.823995,33.907824],[-117.824067,33.9078],[-117.82412,33.907767],[-117.824174,33.907717],[-117.824223,33.907709],[-117.824281,33.907748]]]}},{"type":"Feature","properties":{"k":"bunker"},"geometry":{"type":"Polygon","coordinates":[[[-117.82412,33.907657],[-117.824108,33.907696],[-117.824118,33.907716],[-117.824113,33.907739],[-117.824089,33.907762],[-117.824039,33.907789],[-117.824011,33.907793],[-117.82398,33.907767],[-117.823993,33.907728],[-117.823992,33.90772],[-117.823976,33.907715],[-117.823945,33.907732],[-117.823949,33.907802],[-117.823935,33.90783],[-117.823914,33.907839],[-117.82388,33.907839],[-117.823842,33.907826],[-117.823821,33.907797],[-117.823821,33.907752],[-117.823831,33.907728],[-117.823881,33.907684],[-117.824087,33.907609],[-117.824101,33.907609],[-117.82413,33.90763],[-117.82412,33.907657]]]}},{"type":"Feature","properties":{"k":"bunker"},"geometry":{"type":"Polygon","coordinates":[[[-117.822109,33.907095],[-117.822086,33.907145],[-117.822049,33.90715],[-117.82202,33.907129],[-117.822004,33.907079],[-117.822016,33.907061],[-117.822056,33.907051],[-117.822088,33.907061],[-117.822109,33.907095]]]}},{"type":"Feature","properties":{"k":"green"},"geometry":{"type":"Polygon","coordinates":[[[-117.822005,33.907003],[-117.821955,33.907077],[-117.821937,33.907137],[-117.821913,33.907163],[-117.82186,33.907185],[-117.821806,33.907161],[-117.821771,33.907112],[-117.821767,33.907084],[-117.821798,33.906988],[-117.821814,33.906968],[-117.821887,33.906913],[-117.821936,33.906898],[-117.821952,33.9069],[-117.821973,33.906908],[-117.822001,33.906934],[-117.822015,33.906976],[-117.822005,33.907003]]]}},{"type":"Feature","properties":{"k":"fairway"},"geometry":{"type":"Polygon","coordinates":[[[-117.82233,33.906199],[-117.822208,33.906256],[-117.822162,33.90619],[-117.822284,33.906132],[-117.82233,33.906199]]]}},{"type":"Feature","properties":{"k":"fairway"},"geometry":{"type":"Polygon","coordinates":[[[-117.822159,33.906286],[-117.821957,33.906396],[-117.821888,33.906308],[-117.82209,33.906199],[-117.822159,33.906286]]]}},{"type":"Feature","properties":{"k":"fairway"},"geometry":{"type":"Polygon","coordinates":[[[-117.821827,33.906466],[-117.821691,33.906531],[-117.821753,33.906621],[-117.821889,33.906556],[-117.821827,33.906466]]]}},{"type":"Feature","properties":{"k":"fairway"},"geometry":{"type":"Polygon","coordinates":[[[-117.821383,33.90681],[-117.821273,33.906854],[-117.821311,33.906918],[-117.821421,33.906874],[-117.821383,33.90681]]]}},{"type":"Feature","properties":{"k":"bunker"},"geometry":{"type":"Polygon","coordinates":[[[-117.820771,33.906841],[-117.820766,33.906873],[-117.820743,33.906893],[-117.820721,33.906891],[-117.820688,33.906871],[-117.820677,33.906852],[-117.820702,33.906816],[-117.820732,33.906808],[-117.82075,33.906813],[-117.820771,33.906841]]]}},{"type":"Feature","properties":{"k":"bunker"},"geometry":{"type":"Polygon","coordinates":[[[-117.820541,33.906853],[-117.820546,33.906879],[-117.82052,33.90689],[-117.820498,33.906861],[-117.820501,33.906855],[-117.820519,33.906847],[-117.820541,33.906853]]]}},{"type":"Feature","properties":{"k":"bunker"},"geometry":{"type":"Polygon","coordinates":[[[-117.820452,33.906952],[-117.82044,33.906967],[-117.820416,33.906973],[-117.820384,33.906967],[-117.82037,33.906944],[-117.820384,33.906924],[-117.820407,33.906916],[-117.820434,33.906924],[-117.820452,33.906952]]]}},{"type":"Feature","properties":{"k":"bunker"},"geometry":{"type":"Polygon","coordinates":[[[-117.820389,33.906852],[-117.820365,33.906889],[-117.820334,33.906894],[-117.82032,33.906885],[-117.820316,33.906858],[-117.820343,33.906833],[-117.820371,33.90683],[-117.820389,33.906852]]]}},{"type":"Feature","properties":{"k":"bunker"},"geometry":{"type":"Polygon","coordinates":[[[-117.820233,33.90689],[-117.820234,33.906913],[-117.820207,33.906925],[-117.820131,33.906913],[-117.820118,33.906892],[-117.820136,33.906869],[-117.820164,33.906864],[-117.82021,33.906873],[-117.820233,33.90689]]]}},{"type":"Feature","properties":{"k":"bunker"},"geometry":{"type":"Polygon","coordinates":[[[-117.820202,33.906991],[-117.820196,33.907005],[-117.820179,33.907013],[-117.820125,33.907016],[-117.820109,33.907009],[-117.820102,33.906996],[-117.82011,33.906978],[-117.820136,33.906969],[-117.820191,33.906973],[-117.820202,33.906991]]]}},{"type":"Feature","properties":{"k":"bunker"},"geometry":{"type":"Polygon","coordinates":[[[-117.820053,33.906971],[-117.820042,33.906984],[-117.820011,33.906989],[-117.819976,33.906982],[-117.819964,33.90696],[-117.819985,33.906941],[-117.820022,33.906942],[-117.820048,33.906955],[-117.820053,33.906971]]]}},{"type":"Feature","properties":{"k":"bunker"},"geometry":{"type":"Polygon","coordinates":[[[-117.818869,33.907091],[-117.818855,33.907131],[-117.818827,33.907144],[-117.818677,33.907143],[-117.818612,33.907113],[-117.818612,33.907081],[-117.818633,33.907041],[-117.818673,33.907032],[-117.818817,33.90705],[-117.818858,33.907072],[-117.818869,33.907091]]]}},{"type":"Feature","properties":{"k":"fairway"},"geometry":{"type":"Polygon","coordinates":[[[-117.821162,33.907003],[-117.821129,33.907097],[-117.821112,33.907116],[-117.821021,33.907182],[-117.82096,33.907201],[-117.820592,33.907237],[-117.820451,33.907236],[-117.820357,33.907251],[-117.820034,33.907329],[-117.819849,33.907344],[-117.8197,33.907337],[-117.819487,33.907348],[-117.819057,33.907319],[-117.818941,33.907306],[-117.818898,33.907292],[-117.81872,33.907279],[-117.818736,33.907261],[-117.818738,33.907243],[-117.818728,33.907218],[-117.818705,33.907199],[-117.818808,33.907189],[-117.818974,33.907142],[-117.819047,33.907129],[-117.819892,33.907048],[-117.820116,33.907057],[-117.820361,33.907038],[-117.820593,33.906993],[-117.820749,33.906951],[-117.820846,33.906908],[-117.821016,33.906873],[-117.8211,33.906889],[-117.82113,33.906909],[-117.821152,33.90694],[-117.821162,33.907003]]]}},{"type":"Feature","properties":{"k":"green"},"geometry":{"type":"Polygon","coordinates":[[[-117.818693,33.90719],[-117.818735,33.907229],[-117.818736,33.907261],[-117.818715,33.907283],[-117.818666,33.907302],[-117.818571,33.907317],[-117.818511,33.907304],[-117.818366,33.907201],[-117.8183,33.907144],[-117.818272,33.907106],[-117.818271,33.907057],[-117.81829,33.907029],[-117.818309,33.907018],[-117.818337,33.907013],[-117.818395,33.907019],[-117.818423,33.907032],[-117.818545,33.907126],[-117.818592,33.907153],[-117.818693,33.90719]]]}},{"type":"Feature","properties":{"k":"fairway"},"geometry":{"type":"Polygon","coordinates":[[[-117.81628,33.908937],[-117.816166,33.908926],[-117.816153,33.909014],[-117.816268,33.909025],[-117.81628,33.908937]]]}},{"type":"Feature","properties":{"k":"fairway"},"geometry":{"type":"Polygon","coordinates":[[[-117.816131,33.90891],[-117.816114,33.908996],[-117.815949,33.908973],[-117.815966,33.908886],[-117.816131,33.90891]]]}},{"type":"Feature","properties":{"k":"fairway"},"geometry":{"type":"Polygon","coordinates":[[[-117.81591,33.908875],[-117.815891,33.908949],[-117.815741,33.908923],[-117.81576,33.908849],[-117.81591,33.908875]]]}},{"type":"Feature","properties":{"k":"fairway"},"geometry":{"type":"Polygon","coordinates":[[[-117.815711,33.90884],[-117.815687,33.90892],[-117.815575,33.908897],[-117.815599,33.908817],[-117.815711,33.90884]]]}},{"type":"Feature","properties":{"k":"fairway"},"geometry":{"type":"Polygon","coordinates":[[[-117.815529,33.908803],[-117.815512,33.908875],[-117.815415,33.90886],[-117.815432,33.908788],[-117.815529,33.908803]]]}},{"type":"Feature","properties":{"k":"fairway"},"geometry":{"type":"Polygon","coordinates":[[[-117.824135,33.907748],[-117.824162,33.907682],[-117.824164,33.907617],[-117.824175,33.907571],[-117.824193,33.907557],[-117.824223,33.907555],[-117.824257,33.907566],[-117.82428,33.907614],[-117.82428,33.907701],[-117.824292,33.907768],[-117.824281,33.907748],[-117.824223,33.907709],[-117.824174,33.907717],[-117.824135,33.907748]]]}}]}