{"type":"FeatureCollection","features":[{"type":"Feature","properties":{"k":"hole","ref":"1","par":4},"geometry":{"type":"LineString","coordinates":[[-83.943139,33.679123],[-83.940979,33.678586],[-83.939902,33.678867]]}},{"type":"Feature","properties":{"k":"hole","ref":"2","par":3},"geometry":{"type":"LineString","coordinates":[[-83.938984,33.678601],[-83.940823,33.677616]]}},{"type":"Feature","properties":{"k":"hole","ref":"4","par":4},"geometry":{"type":"LineString","coordinates":[[-83.934984,33.676941],[-83.936025,33.675097],[-83.935218,33.673804]]}},{"type":"Feature","properties":{"k":"hole","ref":"5","par":4},"geometry":{"type":"LineString","coordinates":[[-83.934138,33.673426],[-83.935837,33.671757],[-83.936938,33.671536]]}},{"type":"Feature","properties":{"k":"hole","ref":"6","par":3},"geometry":{"type":"LineString","coordinates":[[-83.938335,33.672522],[-83.937191,33.673988]]}},{"type":"Feature","properties":{"k":"hole","ref":"7","par":4},"geometry":{"type":"LineString","coordinates":[[-83.936283,33.67341],[-83.936846,33.675369],[-83.936596,33.676432]]}},{"type":"Feature","properties":{"k":"hole","ref":"8","par":5},"geometry":{"type":"LineString","coordinates":[[-83.936024,33.677024],[-83.938163,33.677046],[-83.939608,33.675847],[-83.940002,33.675366]]}},{"type":"Feature","properties":{"k":"hole","ref":"9","par":4},"geometry":{"type":"LineString","coordinates":[[-83.940554,33.675101],[-83.941999,33.677084],[-83.943343,33.678026]]}},{"type":"Feature","properties":{"k":"hole","ref":"10","par":4},"geometry":{"type":"LineString","coordinates":[[-83.943099,33.679459],[-83.940633,33.679586],[-83.939022,33.679831]]}},{"type":"Feature","properties":{"k":"hole","ref":"11","par":4},"geometry":{"type":"LineString","coordinates":[[-83.93937,33.679229],[-83.936858,33.679127],[-83.935317,33.67945]]}},{"type":"Feature","properties":{"k":"hole","ref":"12","par":3},"geometry":{"type":"LineString","coordinates":[[-83.934764,33.679568],[-83.934286,33.678]]}},{"type":"Feature","properties":{"k":"hole","ref":"13","par":4},"geometry":{"type":"LineString","coordinates":[[-83.934601,33.677101],[-83.933407,33.675275],[-83.933036,33.673918]]}},{"type":"Feature","properties":{"k":"hole","ref":"14","par":5},"geometry":{"type":"LineString","coordinates":[[-83.933621,33.672989],[-83.934789,33.671681],[-83.93544,33.670558],[-83.936272,33.670479]]}},{"type":"Feature","properties":{"k":"hole","ref":"15","par":3},"geometry":{"type":"LineString","coordinates":[[-83.937204,33.6702],[-83.938704,33.670491]]}},{"type":"Feature","properties":{"k":"hole","ref":"16","par":4},"geometry":{"type":"LineString","coordinates":[[-83.939276,33.67118],[-83.939646,33.673671],[-83.940062,33.674617]]}},{"type":"Feature","properties":{"k":"hole","ref":"17","par":4},"geometry":{"type":"LineString","coordinates":[[-83.941778,33.674003],[-83.943017,33.675215],[-83.943294,33.675959]]}},{"type":"Feature","properties":{"k":"hole","ref":"18","par":5},"geometry":{"type":"LineString","coordinates":[[-83.942111,33.676055],[-83.944215,33.677536],[-83.945592,33.678344],[-83.945082,33.679018]]}},{"type":"Feature","properties":{"k":"stream"},"geometry":{"type":"LineString","coordinates":[[-83.934812,33.678352],[-83.935551,33.677747],[-83.935741,33.677656],[-83.935881,33.677674],[-83.936414,33.677289],[-83.936615,33.677244],[-83.936803,33.677157],[-83.936963,33.677185],[-83.937101,33.677082],[-83.937287,33.676992],[-83.93737,33.676934],[-83.938043,33.676686],[-83.938127,33.676629],[-83.938194,33.676559],[-83.938333,33.676344],[-83.938474,33.676208],[-83.938646,33.6761],[-83.938988,33.675928]]}},{"type":"Feature","properties":{"k":"water"},"geometry":{"type":"Polygon","coordinates":[[[-83.934821,33.674503],[-83.935178,33.673984],[-83.93532,33.673934],[-83.935378,33.673887],[-83.935424,33.673881],[-83.935524,33.6739],[-83.935727,33.674388],[-83.935708,33.674423],[-83.935659,33.674449],[-83.935541,33.674562],[-83.935461,33.674597],[-83.935394,33.674709],[-83.935296,33.674788],[-83.935107,33.674885],[-83.934968,33.674947],[-83.934787,33.674986],[-83.934397,33.675122],[-83.934286,33.675124],[-83.934235,33.6751],[-83.934214,33.675075],[-83.934292,33.674693],[-83.93432,33.67465],[-83.93438,33.674615],[-83.93449,33.674578],[-83.934581,33.674568],[-83.934741,33.674513],[-83.934821,33.674503]]]}},{"type":"Feature","properties":{"k":"stream"},"geometry":{"type":"LineString","coordinates":[[-83.938988,33.675928],[-83.938905,33.675736],[-83.938736,33.675451],[-83.938655,33.675209],[-83.938566,33.675045],[-83.938534,33.674879],[-83.938439,33.67466],[-83.938467,33.674313],[-83.938561,33.674051],[-83.9386,33.673801],[-83.938672,33.673713],[-83.938715,33.673631],[-83.938745,33.673487],[-83.939133,33.672802]]}},{"type":"Feature","properties":{"k":"stream"},"geometry":{"type":"LineString","coordinates":[[-83.940692,33.680561],[-83.94096,33.6803],[-83.941701,33.67951],[-83.942102,33.678988],[-83.942232,33.678899],[-83.942261,33.678803],[-83.94247,33.678534],[-83.942853,33.678224],[-83.943005,33.678124],[-83.943151,33.677875],[-83.943069,33.677648],[-83.943155,33.677253],[-83.943375,33.676887],[-83.943435,33.676443],[-83.943481,33.676377],[-83.943521,33.676265],[-83.943552,33.676105],[-83.943506,33.675915],[-83.943252,33.675749],[-83.943127,33.675745],[-83.943083,33.675758],[-83.942861,33.675735],[-83.942704,33.675647],[-83.942453,33.675598],[-83.942202,33.675674],[-83.942006,33.675659],[-83.941896,33.675632],[-83.941762,33.675644],[-83.941678,33.675635],[-83.941586,33.675595],[-83.941122,33.675633],[-83.940851,33.675755],[-83.940711,33.675753],[-83.940566,33.675771],[-83.940381,33.67575],[-83.940278,33.675721],[-83.940003,33.675564],[-83.939906,33.675528],[-83.939631,33.675471],[-83.939409,33.675658],[-83.938988,33.675928]]}},{"type":"Feature","properties":{"k":"stream"},"geometry":{"type":"LineString","coordinates":[[-83.939133,33.672802],[-83.939484,33.67182],[-83.939589,33.671758],[-83.939691,33.671632],[-83.940012,33.671413],[-83.940067,33.671248],[-83.940343,33.670893],[-83.940384,33.670679],[-83.940475,33.669653],[-83.940494,33.669598]]}},{"type":"Feature","properties":{"k":"stream"},"geometry":{"type":"LineString","coordinates":[[-83.935645,33.674198],[-83.936207,33.673834],[-83.936346,33.673719],[-83.936627,33.67367],[-83.93684,33.673674],[-83.936911,33.673651],[-83.937013,33.673589],[-83.937117,33.673437],[-83.937846,33.673272],[-83.938195,33.673134],[-83.938917,33.672905],[-83.939133,33.672802]]}},{"type":"Feature","properties":{"k":"wood"},"geometry":{"type":"Polygon","coordinates":[[[-83.933896,33.67532],[-83.933607,33.674417],[-83.933494,33.673771],[-83.934268,33.673621],[-83.935996,33.672092],[-83.93625,33.672037],[-83.936974,33.6726],[-83.939003,33.671539],[-83.939094,33.672115],[-83.939047,33.67215],[-83.938532,33.672913],[-83.938271,33.673374],[-83.937904,33.67466],[-83.938846,33.676189],[-83.938114,33.676727],[-83.937426,33.677013],[-83.937083,33.676856],[-83.936987,33.67662],[-83.936987,33.676043],[-83.937124,33.675936],[-83.937302,33.675518],[-83.937255,33.674803],[-83.937194,33.674495],[-83.937443,33.674221],[-83.937648,33.673898],[-83.938735,33.672295],[-83.937915,33.672325],[-83.937202,33.67321],[-83.936029,33.673193],[-83.935863,33.673803],[-83.935272,33.673443],[-83.9347,33.673836],[-83.934982,33.674351],[-83.934418,33.67498],[-83.934509,33.67514],[-83.93541,33.674748],[-83.934731,33.676983],[-83.934169,33.675702],[-83.933896,33.67532]]]}},{"type":"Feature","properties":{"k":"water"},"geometry":{"type":"Polygon","coordinates":[[[-83.945479,33.679122],[-83.945447,33.679043],[-83.945441,33.67898],[-83.945476,33.678932],[-83.945475,33.678909],[-83.945354,33.678829],[-83.945263,33.678805],[-83.945188,33.678815],[-83.945134,33.678826],[-83.945083,33.678868],[-83.94507,33.678904],[-83.945101,33.678938],[-83.945205,33.67898],[-83.945239,33.679025],[-83.945292,33.679063],[-83.945368,33.679092],[-83.945479,33.679122]]]}},{"type":"Feature","properties":{"k":"stream"},"geometry":{"type":"LineString","coordinates":[[-83.940614,33.680637],[-83.940692,33.680561]]}},{"type":"Feature","properties":{"k":"water"},"geometry":{"type":"Polygon","coordinates":[[[-83.939557,33.67195],[-83.939572,33.671911],[-83.939617,33.671906],[-83.939644,33.671941],[-83.939616,33.672093],[-83.939578,33.67214],[-83.939516,33.672388],[-83.939403,33.672623],[-83.939366,33.672743],[-83.939284,33.67291],[-83.939207,33.673139],[-83.939145,33.673238],[-83.939095,33.673364],[-83.939035,33.673571],[-83.939028,33.67364],[-83.938984,33.673625],[-83.938981,33.673581],[-83.939239,33.672902],[-83.939409,33.672485],[-83.939536,33.672048],[-83.939557,33.67195]]]}},{"type":"Feature","properties":{"k":"water"},"geometry":{"type":"Polygon","coordinates":[[[-83.942903,33.675801],[-83.942826,33.675768],[-83.942823,33.67575],[-83.942845,33.675704],[-83.943013,33.675695],[-83.943141,33.675731],[-83.943299,33.675752],[-83.943349,33.675748],[-83.943401,33.675754],[-83.94344,33.675774],[-83.943469,33.675845],[-83.943515,33.675891],[-83.943546,33.675906],[-83.943584,33.675956],[-83.943592,33.675999],[-83.943587,33.676025],[-83.943563,33.676037],[-83.943502,33.676035],[-83.943478,33.675993],[-83.943469,33.675919],[-83.943448,33.675847],[-83.943408,33.675787],[-83.943386,33.67578],[-83.943318,33.675767],[-83.943193,33.675764],[-83.942903,33.675801]]]}},{"type":"Feature","properties":{"k":"tee"},"geometry":{"type":"Polygon","coordinates":[[[-83.943127,33.679073],[-83.943182,33.679101],[-83.943182,33.679145],[-83.943143,33.679157],[-83.943097,33.679146],[-83.943059,33.679119],[-83.943083,33.679082],[-83.943101,33.679073],[-83.943127,33.679073]]]}},{"type":"Feature","properties":{"k":"tee"},"geometry":{"type":"Polygon","coordinates":[[[-83.942851,33.679015],[-83.942935,33.679021],[-83.942966,33.679041],[-83.94298,33.679065],[-83.942968,33.679095],[-83.942903,33.679105],[-83.942862,33.6791],[-83.942825,33.679051],[-83.942851,33.679015]]]}},{"type":"Feature","properties":{"k":"tee"},"geometry":{"type":"Polygon","coordinates":[[[-83.942754,33.678875],[-83.942791,33.678892],[-83.942791,33.678921],[-83.942759,33.678948],[-83.942714,33.678936],[-83.942688,33.678911],[-83.94269,33.678896],[-83.94271,33.678874],[-83.942754,33.678875]]]}},{"type":"Feature","properties":{"k":"tee"},"geometry":{"type":"Polygon","coordinates":[[[-83.942521,33.67877],[-83.942545,33.678791],[-83.942547,33.678806],[-83.942513,33.678825],[-83.942477,33.678822],[-83.942465,33.678801],[-83.942475,33.678766],[-83.942489,33.678759],[-83.942521,33.67877]]]}},{"type":"Feature","properties":{"k":"fairway"},"geometry":{"type":"Polygon","coordinates":[[[-83.941695,33.678511],[-83.941759,33.678547],[-83.941774,33.678584],[-83.941787,33.678648],[-83.941757,33.678707],[-83.941683,33.678743],[-83.941551,33.678746],[-83.941398,33.678711],[-83.941333,33.678758],[-83.941247,33.678854],[-83.941156,33.678905],[-83.941086,33.678914],[-83.941023,33.678887],[-83.940969,33.67884],[-83.940903,33.678848],[-83.940748,33.678899],[-83.940649,33.678919],[-83.940577,33.678894],[-83.940502,33.678799],[-83.940481,33.67873],[-83.940472,33.678533],[-83.940601,33.678335],[-83.940717,33.6783],[-83.941048,33.678297],[-83.941122,33.678317],[-83.941213,33.678355],[-83.941434,33.678487],[-83.941547,33.678507],[-83.941606,33.6785],[-83.941695,33.678511]]]}},{"type":"Feature","properties":{"k":"green"},"geometry":{"type":"Polygon","coordinates":[[[-83.939961,33.678752],[-83.939995,33.678778],[-83.939992,33.678865],[-83.940006,33.678904],[-83.940005,33.678951],[-83.939952,33.678996],[-83.939889,33.678999],[-83.939834,33.678967],[-83.939817,33.67892],[-83.939866,33.678804],[-83.939907,33.678753],[-83.939961,33.678752]]]}},{"type":"Feature","properties":{"k":"bunker"},"geometry":{"type":"Polygon","coordinates":[[[-83.940083,33.678807],[-83.940097,33.678835],[-83.940093,33.678863],[-83.940051,33.678867],[-83.940032,33.678849],[-83.940053,33.678803],[-83.940083,33.678807]]]}},{"type":"Feature","properties":{"k":"bunker"},"geometry":{"type":"Polygon","coordinates":[[[-83.94036,33.678767],[-83.940352,33.678837],[-83.940329,33.678865],[-83.940295,33.678866],[-83.940288,33.678847],[-83.940292,33.67878],[-83.940305,33.678748],[-83.940329,33.678742],[-83.940343,33.678746],[-83.94036,33.678767]]]}},{"type":"Feature","properties":{"k":"bunker"},"geometry":{"type":"Polygon","coordinates":[[[-83.940446,33.67882],[-83.940478,33.67884],[-83.940477,33.678871],[-83.940459,33.678891],[-83.940427,33.678896],[-83.940407,33.67889],[-83.9404,33.678855],[-83.940423,33.678826],[-83.940446,33.67882]]]}},{"type":"Feature","properties":{"k":"tee"},"geometry":{"type":"Polygon","coordinates":[[[-83.939022,33.678549],[-83.939042,33.678554],[-83.93906,33.67858],[-83.939054,33.678605],[-83.938964,33.67863],[-83.938943,33.678607],[-83.938947,33.678576],[-83.939022,33.678549]]]}},{"type":"Feature","properties":{"k":"tee"},"geometry":{"type":"Polygon","coordinates":[[[-83.939217,33.678492],[-83.939249,33.678519],[-83.939244,33.678554],[-83.939223,33.678583],[-83.939189,33.678591],[-83.939147,33.678585],[-83.939127,33.678558],[-83.939124,33.678487],[-83.939156,33.678481],[-83.939217,33.678492]]]}},{"type":"Feature","properties":{"k":"tee"},"geometry":{"type":"Polygon","coordinates":[[[-83.939384,33.678452],[-83.939507,33.678449],[-83.939519,33.678482],[-83.939476,33.67851],[-83.939392,33.678547],[-83.939351,33.678542],[-83.939326,33.67853],[-83.939313,33.678492],[-83.939341,33.67846],[-83.939384,33.678452]]]}},{"type":"Feature","properties":{"k":"tee"},"geometry":{"type":"Polygon","coordinates":[[[-83.939683,33.678346],[-83.93971,33.678363],[-83.939697,33.678397],[-83.939611,33.678448],[-83.939584,33.678439],[-83.93957,33.678414],[-83.939574,33.678387],[-83.939605,33.678361],[-83.939652,33.678346],[-83.939683,33.678346]]]}},{"type":"Feature","properties":{"k":"green"},"geometry":{"type":"Polygon","coordinates":[[[-83.940881,33.677536],[-83.940925,33.677549],[-83.940956,33.677567],[-83.940973,33.677591],[-83.940973,33.67763],[-83.940856,33.677678],[-83.940803,33.677745],[-83.940763,33.677768],[-83.940726,33.677771],[-83.940683,33.677751],[-83.940614,33.677646],[-83.940603,33.677603],[-83.940628,33.67755],[-83.940686,33.677531],[-83.940725,33.677541],[-83.940881,33.677536]]]}},{"type":"Feature","properties":{"k":"bunker"},"geometry":{"type":"Polygon","coordinates":[[[-83.940942,33.677775],[-83.940979,33.677807],[-83.940901,33.677882],[-83.940877,33.677886],[-83.940849,33.677868],[-83.940837,33.677841],[-83.940894,33.677784],[-83.940942,33.677775]]]}},{"type":"Feature","properties":{"k":"bunker"},"geometry":{"type":"Polygon","coordinates":[[[-83.940497,33.67767],[-83.940512,33.677677],[-83.940522,33.677699],[-83.940517,33.677716],[-83.940478,33.677737],[-83.940418,33.67775],[-83.940398,33.67774],[-83.940394,33.677722],[-83.940409,33.677703],[-83.940436,33.677697],[-83.940443,33.677678],[-83.940469,33.677667],[-83.940497,33.67767]]]}},{"type":"Feature","properties":{"k":"bunker"},"geometry":{"type":"Polygon","coordinates":[[[-83.940651,33.677462],[-83.94064,33.677504],[-83.940575,33.677537],[-83.940566,33.677563],[-83.940533,33.677578],[-83.940511,33.677578],[-83.940494,33.677547],[-83.940508,33.67752],[-83.940529,33.677508],[-83.940535,33.677487],[-83.940557,33.677466],[-83.940595,33.67746],[-83.940612,33.677445],[-83.940635,33.677441],[-83.940651,33.677462]]]}},{"type":"Feature","properties":{"k":"bunker"},"geometry":{"type":"Polygon","coordinates":[[[-83.940832,33.677449],[-83.940851,33.677465],[-83.940855,33.677491],[-83.940838,33.677507],[-83.940813,33.677517],[-83.940791,33.677507],[-83.94079,33.677468],[-83.940803,33.677451],[-83.940832,33.677449]]]}},{"type":"Feature","properties":{"k":"bunker"},"geometry":{"type":"Polygon","coordinates":[[[-83.94093,33.677454],[-83.940961,33.677487],[-83.940965,33.677506],[-83.94094,33.677522],[-83.94088,33.677511],[-83.940872,33.677474],[-83.940913,33.677451],[-83.94093,33.677454]]]}},{"type":"Feature","properties":{"k":"tee"},"geometry":{"type":"Polygon","coordinates":[[[-83.94,33.677535],[-83.94005,33.677564],[-83.940069,33.677631],[-83.940026,33.677676],[-83.939735,33.677755],[-83.939562,33.677816],[-83.939464,33.677831],[-83.9394,33.677808],[-83.939395,33.67775],[-83.939467,33.677712],[-83.939565,33.677705],[-83.93967,33.677671],[-83.93975,33.677615],[-83.939881,33.677588],[-83.94,33.677535]]]}},{"type":"Feature","properties":{"k":"tee"},"geometry":{"type":"Polygon","coordinates":[[[-83.938945,33.678047],[-83.938989,33.678038],[-83.939012,33.678056],[-83.939012,33.678084],[-83.93893,33.678128],[-83.938879,33.678131],[-83.938863,33.678106],[-83.938884,33.678073],[-83.938945,33.678047]]]}},{"type":"Feature","properties":{"k":"fairway"},"geometry":{"type":"Polygon","coordinates":[[[-83.938231,33.678045],[-83.938326,33.678072],[-83.938384,33.678099],[-83.938422,33.678154],[-83.93833,33.678256],[-83.938123,33.678385],[-83.937911,33.678439],[-83.937706,33.678507],[-83.9376,33.678522],[-83.937163,33.678469],[-83.936982,33.678459],[-83.936541,33.67853],[-83.936178,33.678572],[-83.935999,33.678546],[-83.935865,33.678476],[-83.935764,33.678378],[-83.935691,33.678277],[-83.935675,33.678235],[-83.935685,33.678115],[-83.935733,33.678082],[-83.935846,33.678095],[-83.935954,33.678183],[-83.936023,33.67827],[-83.936089,33.678301],[-83.93618,33.678254],[-83.936272,33.678249],[-83.936409,33.678332],[-83.936547,33.678337],[-83.936964,33.67827],[-83.937634,33.678141],[-83.937814,33.6781],[-83.938067,33.678077],[-83.938231,33.678045]]]}},{"type":"Feature","properties":{"k":"green"},"geometry":{"type":"Polygon","coordinates":[[[-83.935173,33.67762],[-83.935207,33.677645],[-83.935248,33.677694],[-83.935261,33.677752],[-83.935235,33.677799],[-83.93515,33.67784],[-83.935047,33.677843],[-83.934997,33.677801],[-83.935007,33.677767],[-83.935047,33.677722],[-83.935077,33.677631],[-83.93513,33.677611],[-83.935173,33.67762]]]}},{"type":"Feature","properties":{"k":"bunker"},"geometry":{"type":"Polygon","coordinates":[[[-83.938133,33.677961],[-83.938184,33.677977],[-83.938209,33.678005],[-83.938195,33.678026],[-83.938162,33.678041],[-83.938116,33.678043],[-83.938062,33.678072],[-83.93801,33.678077],[-83.937982,33.678088],[-83.937915,33.678074],[-83.937865,33.678091],[-83.937836,33.678085],[-83.937814,33.678069],[-83.937816,33.678031],[-83.937839,33.678019],[-83.937916,33.67801],[-83.937954,33.677989],[-83.93802,33.677984],[-83.938057,33.677992],[-83.938086,33.677987],[-83.938099,33.677964],[-83.938133,33.677961]]]}},{"type":"Feature","properties":{"k":"tee"},"geometry":{"type":"Polygon","coordinates":[[[-83.934988,33.676909],[-83.935024,33.676905],[-83.935051,33.676928],[-83.935043,33.676961],[-83.935019,33.676991],[-83.934973,33.676984],[-83.934952,33.67696],[-83.934949,33.676936],[-83.934966,33.676913],[-83.934988,33.676909]]]}},{"type":"Feature","properties":{"k":"tee"},"geometry":{"type":"Polygon","coordinates":[[[-83.93511,33.67668],[-83.935092,33.676792],[-83.935068,33.676824],[-83.935041,33.676833],[-83.935019,33.676814],[-83.935013,33.676791],[-83.935039,33.676695],[-83.935067,33.676674],[-83.93511,33.67668]]]}},{"type":"Feature","properties":{"k":"tee"},"geometry":{"type":"Polygon","coordinates":[[[-83.935261,33.676383],[-83.935284,33.676395],[-83.935294,33.676422],[-83.935248,33.676492],[-83.935191,33.676504],[-83.935169,33.676478],[-83.935168,33.676441],[-83.935211,33.676391],[-83.935234,33.676381],[-83.935261,33.676383]]]}},{"type":"Feature","properties":{"k":"tee"},"geometry":{"type":"Polygon","coordinates":[[[-83.935442,33.67618],[-83.935467,33.676196],[-83.935465,33.676256],[-83.935411,33.676288],[-83.93538,33.676278],[-83.935366,33.676235],[-83.935381,33.676187],[-83.935442,33.67618]]]}},{"type":"Feature","properties":{"k":"tee"},"geometry":{"type":"Polygon","coordinates":[[[-83.935704,33.676214],[-83.93572,33.676252],[-83.935693,33.676287],[-83.935648,33.676283],[-83.93563,33.676249],[-83.935635,33.676226],[-83.935704,33.676214]]]}},{"type":"Feature","properties":{"k":"tee"},"geometry":{"type":"Polygon","coordinates":[[[-83.93581,33.676121],[-83.935818,33.676151],[-83.935808,33.676179],[-83.935776,33.676183],[-83.935741,33.676165],[-83.935745,33.676143],[-83.935767,33.67612],[-83.93581,33.676121]]]}},{"type":"Feature","properties":{"k":"green"},"geometry":{"type":"Polygon","coordinates":[[[-83.935333,33.673699],[-83.93538,33.673726],[-83.935416,33.673757],[-83.935401,33.673805],[-83.935303,33.673855],[-83.935255,33.673902],[-83.935196,33.673909],[-83.935145,33.673901],[-83.935117,33.673863],[-83.93511,33.673823],[-83.935131,33.673793],[-83.935213,33.673767],[-83.935267,33.673706],[-83.935333,33.673699]]]}},{"type":"Feature","properties":{"k":"bunker"},"geometry":{"type":"Polygon","coordinates":[[[-83.93517,33.67368],[-83.93522,33.673699],[-83.935216,33.673736],[-83.935154,33.673754],[-83.935131,33.673734],[-83.93513,33.673717],[-83.935151,33.673683],[-83.93517,33.67368]]]}},{"type":"Feature","properties":{"k":"bunker"},"geometry":{"type":"Polygon","coordinates":[[[-83.935422,33.673578],[-83.935438,33.673641],[-83.935435,33.673664],[-83.935405,33.673694],[-83.935397,33.673672],[-83.935329,33.673668],[-83.935285,33.673683],[-83.935259,33.673659],[-83.935256,33.673625],[-83.935269,33.673592],[-83.935362,33.67359],[-83.935388,33.673574],[-83.935422,33.673578]]]}},{"type":"Feature","properties":{"k":"bunker"},"geometry":{"type":"Polygon","coordinates":[[[-83.935724,33.674683],[-83.935745,33.674714],[-83.935749,33.674735],[-83.935729,33.674777],[-83.935752,33.674806],[-83.935729,33.674837],[-83.935694,33.674848],[-83.935671,33.674825],[-83.935672,33.674793],[-83.935661,33.674771],[-83.935686,33.674706],[-83.935703,33.674687],[-83.935724,33.674683]]]}},{"type":"Feature","properties":{"k":"bunker"},"geometry":{"type":"Polygon","coordinates":[[[-83.935756,33.674959],[-83.935771,33.674979],[-83.935766,33.675001],[-83.935739,33.675032],[-83.935772,33.675064],[-83.935766,33.675088],[-83.93573,33.675112],[-83.935719,33.675144],[-83.935687,33.675153],[-83.935655,33.67512],[-83.935677,33.675091],[-83.935669,33.675006],[-83.935691,33.674981],[-83.935728,33.674964],[-83.935756,33.674959]]]}},{"type":"Feature","properties":{"k":"bunker"},"geometry":{"type":"Polygon","coordinates":[[[-83.935825,33.675092],[-83.935851,33.6751],[-83.935857,33.675124],[-83.935841,33.675153],[-83.935845,33.675163],[-83.935869,33.675171],[-83.935883,33.675187],[-83.935877,33.675218],[-83.935851,33.675245],[-83.935813,33.675234],[-83.935791,33.675209],[-83.935792,33.675185],[-83.935774,33.675157],[-83.935775,33.675136],[-83.935794,33.675109],[-83.935825,33.675092]]]}},{"type":"Feature","properties":{"k":"tee"},"geometry":{"type":"Polygon","coordinates":[[[-83.934136,33.673382],[-83.934172,33.673376],[-83.934198,33.673393],[-83.9342,33.673424],[-83.934121,33.673465],[-83.934092,33.673464],[-83.934085,33.673432],[-83.934098,33.673406],[-83.934136,33.673382]]]}},{"type":"Feature","properties":{"k":"tee"},"geometry":{"type":"Polygon","coordinates":[[[-83.934515,33.673177],[-83.934505,33.673228],[-83.934462,33.67328],[-83.934433,33.673296],[-83.934396,33.673292],[-83.934384,33.673268],[-83.934391,33.673239],[-83.934427,33.673192],[-83.934493,33.673163],[-83.934515,33.673177]]]}},{"type":"Feature","properties":{"k":"tee"},"geometry":{"type":"Polygon","coordinates":[[[-83.934632,33.673082],[-83.934658,33.673094],[-83.934672,33.67312],[-83.934628,33.673153],[-83.934608,33.673147],[-83.934597,33.673122],[-83.934604,33.673087],[-83.934632,33.673082]]]}},{"type":"Feature","properties":{"k":"tee"},"geometry":{"type":"Polygon","coordinates":[[[-83.934499,33.672903],[-83.934507,33.672927],[-83.934491,33.672965],[-83.934415,33.672991],[-83.934388,33.672979],[-83.934393,33.67294],[-83.934459,33.672899],[-83.934499,33.672903]]]}},{"type":"Feature","properties":{"k":"tee"},"geometry":{"type":"Polygon","coordinates":[[[-83.934607,33.672809],[-83.934635,33.672834],[-83.934636,33.672861],[-83.9346,33.672891],[-83.934558,33.672875],[-83.934548,33.672856],[-83.934549,33.672824],[-83.934557,33.672807],[-83.934607,33.672809]]]}},{"type":"Feature","properties":{"k":"tee"},"geometry":{"type":"Polygon","coordinates":[[[-83.934704,33.672765],[-83.934723,33.67278],[-83.934725,33.672797],[-83.93471,33.672819],[-83.934691,33.672819],[-83.93467,33.672807],[-83.934666,33.672786],[-83.934673,33.672773],[-83.934704,33.672765]]]}},{"type":"Feature","properties":{"k":"green"},"geometry":{"type":"Polygon","coordinates":[[[-83.937019,33.671425],[-83.936986,33.671487],[-83.937004,33.671529],[-83.937059,33.671604],[-83.937052,33.671644],[-83.936998,33.671675],[-83.936965,33.671672],[-83.936873,33.671568],[-83.936825,33.671535],[-83.936782,33.671521],[-83.936768,33.671492],[-83.936782,33.671463],[-83.936898,33.671428],[-83.936951,33.671385],[-83.936989,33.671372],[-83.937018,33.671396],[-83.937019,33.671425]]]}},{"type":"Feature","properties":{"k":"bunker"},"geometry":{"type":"Polygon","coordinates":[[[-83.93689,33.671671],[-83.936906,33.671669],[-83.936929,33.671697],[-83.936927,33.671714],[-83.936897,33.671725],[-83.936866,33.67172],[-83.936853,33.671692],[-83.936866,33.671674],[-83.93689,33.671671]]]}},{"type":"Feature","properties":{"k":"bunker"},"geometry":{"type":"Polygon","coordinates":[[[-83.936872,33.671609],[-83.936879,33.671639],[-83.936865,33.671668],[-83.936842,33.671681],[-83.936814,33.671683],[-83.936801,33.671669],[-83.936802,33.671648],[-83.936816,33.671624],[-83.936847,33.671606],[-83.936872,33.671609]]]}},{"type":"Feature","properties":{"k":"bunker"},"geometry":{"type":"Polygon","coordinates":[[[-83.936814,33.67158],[-83.936823,33.67159],[-83.936822,33.671603],[-83.9368,33.671625],[-83.936772,33.671633],[-83.936752,33.671619],[-83.936748,33.671594],[-83.936757,33.671563],[-83.936786,33.671561],[-83.936814,33.67158]]]}},{"type":"Feature","properties":{"k":"bunker"},"geometry":{"type":"Polygon","coordinates":[[[-83.935888,33.671493],[-83.935961,33.671527],[-83.93597,33.671552],[-83.93596,33.671577],[-83.935934,33.67159],[-83.935905,33.671587],[-83.935867,33.671549],[-83.935879,33.671602],[-83.935854,33.671611],[-83.935823,33.671612],[-83.935799,33.671581],[-83.93577,33.671596],[-83.935738,33.671596],[-83.93571,33.671575],[-83.9357,33.671547],[-83.935712,33.671521],[-83.935817,33.671495],[-83.935888,33.671493]]]}},{"type":"Feature","properties":{"k":"tee"},"geometry":{"type":"Polygon","coordinates":[[[-83.938401,33.672458],[-83.938419,33.672483],[-83.938402,33.67252],[-83.938347,33.672564],[-83.938311,33.672566],[-83.938271,33.672543],[-83.938277,33.672511],[-83.938305,33.672482],[-83.938343,33.672464],[-83.938401,33.672458]]]}},{"type":"Feature","properties":{"k":"tee"},"geometry":{"type":"Polygon","coordinates":[[[-83.938227,33.672558],[-83.938243,33.672586],[-83.938197,33.672636],[-83.938135,33.672663],[-83.938103,33.672667],[-83.938088,33.67264],[-83.938148,33.672573],[-83.938182,33.672561],[-83.938227,33.672558]]]}},{"type":"Feature","properties":{"k":"tee"},"geometry":{"type":"Polygon","coordinates":[[[-83.937997,33.672709],[-83.938031,33.672713],[-83.938038,33.672749],[-83.937967,33.672847],[-83.937925,33.672834],[-83.937912,33.672809],[-83.937916,33.672774],[-83.937968,33.672717],[-83.937997,33.672709]]]}},{"type":"Feature","properties":{"k":"tee"},"geometry":{"type":"Polygon","coordinates":[[[-83.937754,33.672844],[-83.937769,33.672861],[-83.937775,33.672892],[-83.937755,33.67294],[-83.937718,33.67295],[-83.937679,33.67293],[-83.937683,33.672866],[-83.937732,33.672846],[-83.937754,33.672844]]]}},{"type":"Feature","properties":{"k":"green"},"geometry":{"type":"Polygon","coordinates":[[[-83.937227,33.673835],[-83.937236,33.673944],[-83.937337,33.673993],[-83.937364,33.674055],[-83.937335,33.674078],[-83.937285,33.674099],[-83.937189,33.674061],[-83.937128,33.674019],[-83.93709,33.673977],[-83.937075,33.67394],[-83.937072,33.673889],[-83.937084,33.673841],[-83.937129,33.67381],[-83.937179,33.673801],[-83.937214,33.673802],[-83.937227,33.673835]]]}},{"type":"Feature","properties":{"k":"bunker"},"geometry":{"type":"Polygon","coordinates":[[[-83.937326,33.673766],[-83.937363,33.673788],[-83.937365,33.673802],[-83.937354,33.67382],[-83.93733,33.673824],[-83.937313,33.673846],[-83.937294,33.673846],[-83.937261,33.673825],[-83.937252,33.673796],[-83.937264,33.673783],[-83.937326,33.673766]]]}},{"type":"Feature","properties":{"k":"bunker"},"geometry":{"type":"Polygon","coordinates":[[[-83.937008,33.673941],[-83.937047,33.673956],[-83.937079,33.674035],[-83.937063,33.67406],[-83.937011,33.674059],[-83.936983,33.674074],[-83.936931,33.674037],[-83.936931,33.673995],[-83.936971,33.673966],[-83.936981,33.673948],[-83.937008,33.673941]]]}},{"type":"Feature","properties":{"k":"tee"},"geometry":{"type":"Polygon","coordinates":[[[-83.936334,33.673361],[-83.936362,33.673397],[-83.936362,33.673439],[-83.936328,33.673471],[-83.936251,33.673461],[-83.936165,33.673386],[-83.936185,33.67336],[-83.936252,33.673351],[-83.936334,33.673361]]]}},{"type":"Feature","properties":{"k":"tee"},"geometry":{"type":"Polygon","coordinates":[[[-83.936372,33.673517],[-83.936397,33.673556],[-83.93641,33.673652],[-83.936327,33.673661],[-83.936277,33.673625],[-83.936262,33.673578],[-83.936277,33.673539],[-83.936332,33.67351],[-83.936372,33.673517]]]}},{"type":"Feature","properties":{"k":"fairway"},"geometry":{"type":"Polygon","coordinates":[[[-83.936873,33.674739],[-83.936725,33.674661],[-83.93664,33.674562],[-83.936552,33.674537],[-83.936467,33.67456],[-83.936443,33.674608],[-83.936421,33.674686],[-83.93642,33.674742],[-83.936457,33.674798],[-83.936494,33.674896],[-83.936572,33.674966],[-83.936565,33.675049],[-83.936539,33.675122],[-83.936525,33.675196],[-83.936645,33.675503],[-83.936729,33.675624],[-83.936735,33.675654],[-83.936731,33.675767],[-83.936702,33.675834],[-83.936533,33.67596],[-83.936819,33.675932],[-83.936855,33.675896],[-83.936967,33.675819],[-83.937024,33.67577],[-83.937025,33.675452],[-83.937098,33.675178],[-83.937052,33.674915],[-83.936963,33.674813],[-83.936873,33.674739]]]}},{"type":"Feature","properties":{"k":"green"},"geometry":{"type":"Polygon","coordinates":[[[-83.936609,33.676288],[-83.93661,33.676313],[-83.936641,33.676374],[-83.936705,33.676444],[-83.936696,33.6765],[-83.93666,33.676551],[-83.936581,33.676558],[-83.936519,33.676539],[-83.936512,33.676483],[-83.936515,33.676423],[-83.936504,33.67637],[-83.936511,33.676313],[-83.936565,33.676291],[-83.936609,33.676288]]]}},{"type":"Feature","properties":{"k":"bunker"},"geometry":{"type":"Polygon","coordinates":[[[-83.936874,33.676229],[-83.936887,33.676251],[-83.936866,33.676279],[-83.936835,33.676308],[-83.936804,33.67631],[-83.936779,33.676289],[-83.936785,33.676223],[-83.936803,33.676211],[-83.936874,33.676229]]]}},{"type":"Feature","properties":{"k":"bunker"},"geometry":{"type":"Polygon","coordinates":[[[-83.936737,33.676271],[-83.936757,33.676317],[-83.936804,33.676363],[-83.936814,33.676387],[-83.936769,33.676423],[-83.936734,33.676424],[-83.936716,33.676407],[-83.936712,33.676381],[-83.936665,33.676334],[-83.936673,33.676308],[-83.936673,33.676263],[-83.936692,33.676255],[-83.936737,33.676271]]]}},{"type":"Feature","properties":{"k":"tee"},"geometry":{"type":"Polygon","coordinates":[[[-83.936049,33.676968],[-83.936078,33.676981],[-83.93609,33.677004],[-83.936072,33.677054],[-83.936022,33.67707],[-83.935979,33.677057],[-83.935967,33.677039],[-83.93597,33.676989],[-83.936007,33.676964],[-83.936049,33.676968]]]}},{"type":"Feature","properties":{"k":"tee"},"geometry":{"type":"Polygon","coordinates":[[[-83.936233,33.67693],[-83.936263,33.676957],[-83.936272,33.677007],[-83.936261,33.677037],[-83.936227,33.677049],[-83.936189,33.677038],[-83.936176,33.676996],[-83.936189,33.676937],[-83.936217,33.676927],[-83.936233,33.67693]]]}},{"type":"Feature","properties":{"k":"tee"},"geometry":{"type":"Polygon","coordinates":[[[-83.936458,33.676932],[-83.936483,33.676951],[-83.936485,33.676979],[-83.936449,33.677011],[-83.936405,33.677016],[-83.936362,33.677002],[-83.936359,33.676966],[-83.936388,33.676929],[-83.936436,33.676926],[-83.936458,33.676932]]]}},{"type":"Feature","properties":{"k":"tee"},"geometry":{"type":"Polygon","coordinates":[[[-83.936659,33.676948],[-83.936659,33.676978],[-83.93662,33.677],[-83.93657,33.677011],[-83.936548,33.676998],[-83.936547,33.676968],[-83.936558,33.676941],[-83.936597,33.676931],[-83.936659,33.676948]]]}},{"type":"Feature","properties":{"k":"tee"},"geometry":{"type":"Polygon","coordinates":[[[-83.936784,33.676941],[-83.936814,33.67697],[-83.936817,33.677005],[-83.936781,33.677054],[-83.936739,33.677052],[-83.936726,33.677031],[-83.936728,33.676981],[-83.936748,33.676946],[-83.936784,33.676941]]]}},{"type":"Feature","properties":{"k":"tee"},"geometry":{"type":"Polygon","coordinates":[[[-83.937428,33.677263],[-83.937458,33.677282],[-83.937461,33.677303],[-83.937429,33.677321],[-83.937397,33.677317],[-83.937382,33.677293],[-83.937398,33.677271],[-83.937428,33.677263]]]}},{"type":"Feature","properties":{"k":"fairway"},"geometry":{"type":"Polygon","coordinates":[[[-83.937912,33.677381],[-83.937864,33.677397],[-83.937631,33.677419],[-83.937579,33.67739],[-83.937551,33.677347],[-83.937544,33.677282],[-83.93756,33.67717],[-83.937607,33.677155],[-83.937705,33.677158],[-83.937835,33.6771],[-83.937986,33.677012],[-83.938093,33.676959],[-83.938118,33.676919],[-83.938128,33.676865],[-83.93818,33.676824],[-83.938264,33.676787],[-83.938496,33.67665],[-83.938639,33.676584],[-83.938706,33.676565],[-83.938901,33.676632],[-83.938916,33.67669],[-83.938875,33.676744],[-83.938781,33.676833],[-83.938599,33.676986],[-83.938541,33.67706],[-83.938514,33.677146],[-83.938395,33.677218],[-83.938278,33.677259],[-83.938109,33.67728],[-83.938047,33.677297],[-83.937912,33.677381]]]}},{"type":"Feature","properties":{"k":"fairway"},"geometry":{"type":"Polygon","coordinates":[[[-83.938955,33.676602],[-83.938955,33.676534],[-83.938926,33.676474],[-83.938858,33.676404],[-83.938768,33.676393],[-83.938707,33.676443],[-83.93869,33.676537],[-83.938823,33.676577],[-83.938955,33.676602]]]}},{"type":"Feature","properties":{"k":"fairway"},"geometry":{"type":"Polygon","coordinates":[[[-83.939972,33.675661],[-83.939889,33.675764],[-83.939743,33.675915],[-83.939652,33.67607],[-83.939565,33.676092],[-83.939486,33.676068],[-83.939351,33.675961],[-83.939349,33.67586],[-83.939446,33.675734],[-83.939543,33.675562],[-83.939705,33.675525],[-83.939872,33.675571],[-83.939936,33.6756],[-83.939972,33.675661]]]}},{"type":"Feature","properties":{"k":"green"},"geometry":{"type":"Polygon","coordinates":[[[-83.940085,33.675264],[-83.940138,33.675302],[-83.940149,33.675341],[-83.940134,33.675398],[-83.940084,33.675418],[-83.939999,33.675411],[-83.939866,33.67546],[-83.939798,33.675463],[-83.939758,33.675433],[-83.939765,33.675386],[-83.93981,33.675341],[-83.939977,33.6753],[-83.940038,33.675263],[-83.940085,33.675264]]]}},{"type":"Feature","properties":{"k":"bunker"},"geometry":{"type":"Polygon","coordinates":[[[-83.940167,33.675425],[-83.940187,33.675444],[-83.940166,33.675511],[-83.940125,33.675509],[-83.940106,33.675535],[-83.940068,33.675537],[-83.940045,33.675476],[-83.940054,33.675453],[-83.940111,33.675446],[-83.94013,33.675459],[-83.940142,33.675432],[-83.940167,33.675425]]]}},{"type":"Feature","properties":{"k":"bunker"},"geometry":{"type":"Polygon","coordinates":[[[-83.940035,33.675451],[-83.940029,33.675488],[-83.940044,33.675528],[-83.940029,33.675537],[-83.939939,33.675495],[-83.939933,33.675472],[-83.939947,33.675455],[-83.939984,33.675458],[-83.940017,33.675444],[-83.940035,33.675451]]]}},{"type":"Feature","properties":{"k":"bunker"},"geometry":{"type":"Polygon","coordinates":[[[-83.9381,33.676867],[-83.938117,33.676888],[-83.938109,33.676924],[-83.938079,33.676926],[-83.938086,33.676951],[-83.938066,33.676964],[-83.938037,33.676967],[-83.938024,33.676987],[-83.937995,33.676987],[-83.937975,33.67696],[-83.937976,33.676932],[-83.938028,33.67692],[-83.938018,33.676908],[-83.938047,33.676861],[-83.938076,33.676859],[-83.9381,33.676867]]]}},{"type":"Feature","properties":{"k":"bunker"},"geometry":{"type":"Polygon","coordinates":[[[-83.937847,33.677005],[-83.937873,33.677007],[-83.937891,33.677024],[-83.937879,33.677065],[-83.937854,33.677073],[-83.937814,33.677058],[-83.937811,33.677028],[-83.937823,33.67701],[-83.937847,33.677005]]]}},{"type":"Feature","properties":{"k":"bunker"},"geometry":{"type":"Polygon","coordinates":[[[-83.937784,33.677072],[-83.937787,33.677093],[-83.937771,33.677111],[-83.937699,33.677104],[-83.937687,33.677124],[-83.937661,33.677135],[-83.937639,33.677119],[-83.937636,33.677098],[-83.937657,33.677071],[-83.937692,33.677056],[-83.937772,33.677058],[-83.937784,33.677072]]]}},{"type":"Feature","properties":{"k":"tee"},"geometry":{"type":"Polygon","coordinates":[[[-83.940557,33.675055],[-83.940616,33.675068],[-83.940626,33.6751],[-83.940611,33.675127],[-83.940549,33.675158],[-83.940496,33.67516],[-83.940458,33.67515],[-83.940445,33.675127],[-83.940448,33.675097],[-83.940474,33.67508],[-83.940557,33.675055]]]}},{"type":"Feature","properties":{"k":"tee"},"geometry":{"type":"Polygon","coordinates":[[[-83.940643,33.675197],[-83.940658,33.675222],[-83.940652,33.675268],[-83.94062,33.675291],[-83.940584,33.675277],[-83.940556,33.675234],[-83.940554,33.675202],[-83.940574,33.675185],[-83.940643,33.675197]]]}},{"type":"Feature","properties":{"k":"tee"},"geometry":{"type":"Polygon","coordinates":[[[-83.940544,33.675382],[-83.940592,33.675507],[-83.940546,33.675546],[-83.940485,33.675516],[-83.940462,33.675466],[-83.940448,33.67539],[-83.940466,33.675371],[-83.940507,33.675365],[-83.940544,33.675382]]]}},{"type":"Feature","properties":{"k":"tee"},"geometry":{"type":"Polygon","coordinates":[[[-83.940737,33.675553],[-83.940817,33.67559],[-83.940833,33.67561],[-83.940817,33.675643],[-83.940663,33.675631],[-83.940624,33.6756],[-83.940636,33.67556],[-83.940673,33.675548],[-83.940737,33.675553]]]}},{"type":"Feature","properties":{"k":"tee"},"geometry":{"type":"Polygon","coordinates":[[[-83.941011,33.67614],[-83.941043,33.676154],[-83.94106,33.676183],[-83.941063,33.676219],[-83.941008,33.676227],[-83.94098,33.676196],[-83.940979,33.676159],[-83.941011,33.67614]]]}},{"type":"Feature","properties":{"k":"fairway"},"geometry":{"type":"Polygon","coordinates":[[[-83.94144,33.676368],[-83.941427,33.676313],[-83.941375,33.676265],[-83.941289,33.676237],[-83.941195,33.676243],[-83.941128,33.676282],[-83.941108,33.676319],[-83.941101,33.676371],[-83.941109,33.676427],[-83.941172,33.67648],[-83.941212,33.676499],[-83.941204,33.676578],[-83.941279,33.676687],[-83.941379,33.676752],[-83.941538,33.676824],[-83.941707,33.677031],[-83.941748,33.677098],[-83.9418,33.677226],[-83.94192,33.677315],[-83.942128,33.677403],[-83.942198,33.677466],[-83.942344,33.677559],[-83.942501,33.67769],[-83.942664,33.677846],[-83.942728,33.677836],[-83.942766,33.677737],[-83.942797,33.677608],[-83.942799,33.677516],[-83.942781,33.677452],[-83.942616,33.677288],[-83.942471,33.677204],[-83.942398,33.677147],[-83.942239,33.67691],[-83.942208,33.676845],[-83.942194,33.676784],[-83.942136,33.676689],[-83.94199,33.676609],[-83.941859,33.67656],[-83.941692,33.676551],[-83.941574,33.676556],[-83.941495,33.676489],[-83.941451,33.676418],[-83.94144,33.676368]]]}},{"type":"Feature","properties":{"k":"green"},"geometry":{"type":"Polygon","coordinates":[[[-83.943496,33.677942],[-83.943543,33.677984],[-83.94353,33.678004],[-83.943487,33.678029],[-83.943466,33.678073],[-83.943423,33.678118],[-83.94338,33.678127],[-83.94333,33.678092],[-83.943283,33.67807],[-83.943178,33.678082],[-83.943151,33.678073],[-83.943136,33.67803],[-83.943155,33.677992],[-83.94318,33.677971],[-83.943214,33.677958],[-83.943254,33.67795],[-83.943361,33.677991],[-83.943396,33.677992],[-83.943431,33.677978],[-83.943455,33.677948],[-83.943496,33.677942]]]}},{"type":"Feature","properties":{"k":"bunker"},"geometry":{"type":"Polygon","coordinates":[[[-83.943409,33.677904],[-83.943435,33.677913],[-83.943441,33.677937],[-83.943397,33.677948],[-83.943395,33.677959],[-83.943376,33.677964],[-83.943359,33.677957],[-83.943363,33.677912],[-83.943376,33.677904],[-83.943409,33.677904]]]}},{"type":"Feature","properties":{"k":"bunker"},"geometry":{"type":"Polygon","coordinates":[[[-83.941565,33.67687],[-83.941587,33.676898],[-83.941587,33.676928],[-83.941608,33.676937],[-83.941643,33.676937],[-83.941657,33.676951],[-83.941654,33.676973],[-83.941615,33.677],[-83.941603,33.677028],[-83.941585,33.677042],[-83.941556,33.677031],[-83.941533,33.677011],[-83.941517,33.676981],[-83.941484,33.67696],[-83.941443,33.676949],[-83.94142,33.676931],[-83.941412,33.676903],[-83.941429,33.676878],[-83.941432,33.676851],[-83.941386,33.676838],[-83.941369,33.676814],[-83.941367,33.67679],[-83.941383,33.676782],[-83.941418,33.676795],[-83.941491,33.676806],[-83.941512,33.676819],[-83.941488,33.676875],[-83.941502,33.676885],[-83.941565,33.67687]]]}},{"type":"Feature","properties":{"k":"tee"},"geometry":{"type":"Polygon","coordinates":[[[-83.943107,33.679426],[-83.943148,33.679435],[-83.943162,33.679462],[-83.943141,33.679502],[-83.94309,33.679507],[-83.943063,33.679502],[-83.943024,33.679481],[-83.943024,33.67944],[-83.94305,33.679422],[-83.943107,33.679426]]]}},{"type":"Feature","properties":{"k":"tee"},"geometry":{"type":"Polygon","coordinates":[[[-83.942847,33.679431],[-83.942915,33.679435],[-83.942948,33.679453],[-83.942942,33.679483],[-83.942887,33.679508],[-83.942834,33.67951],[-83.942795,33.679485],[-83.942801,33.679451],[-83.942847,33.679431]]]}},{"type":"Feature","properties":{"k":"tee"},"geometry":{"type":"Polygon","coordinates":[[[-83.94273,33.679347],[-83.942757,33.67937],[-83.942735,33.6794],[-83.942692,33.67942],[-83.942659,33.679414],[-83.942648,33.67939],[-83.942658,33.67936],[-83.942688,33.679348],[-83.94273,33.679347]]]}},{"type":"Feature","properties":{"k":"tee"},"geometry":{"type":"Polygon","coordinates":[[[-83.942523,33.679454],[-83.942562,33.679454],[-83.942589,33.679473],[-83.942578,33.679501],[-83.942543,33.679515],[-83.942499,33.679504],[-83.942491,33.679477],[-83.942523,33.679454]]]}},{"type":"Feature","properties":{"k":"tee"},"geometry":{"type":"Polygon","coordinates":[[[-83.942162,33.679523],[-83.94219,33.679528],[-83.942206,33.679551],[-83.942194,33.679571],[-83.942171,33.679581],[-83.942139,33.679566],[-83.942144,33.679538],[-83.942162,33.679523]]]}},{"type":"Feature","properties":{"k":"green"},"geometry":{"type":"Polygon","coordinates":[[[-83.939061,33.679695],[-83.939086,33.679779],[-83.939111,33.67981],[-83.939156,33.679835],[-83.939171,33.679859],[-83.939167,33.67991],[-83.939105,33.679941],[-83.939057,33.679938],[-83.93895,33.679794],[-83.938915,33.679758],[-83.938931,33.679719],[-83.938968,33.679688],[-83.939017,33.679679],[-83.939061,33.679695]]]}},{"type":"Feature","properties":{"k":"bunker"},"geometry":{"type":"Polygon","coordinates":[[[-83.938883,33.679653],[-83.938905,33.679667],[-83.938903,33.679713],[-83.938858,33.679731],[-83.938819,33.679725],[-83.938811,33.679702],[-83.938857,33.679654],[-83.938883,33.679653]]]}},{"type":"Feature","properties":{"k":"bunker"},"geometry":{"type":"Polygon","coordinates":[[[-83.938855,33.679758],[-83.938879,33.679763],[-83.938895,33.679794],[-83.938877,33.679816],[-83.938843,33.679819],[-83.938819,33.679809],[-83.93881,33.679772],[-83.938833,33.679755],[-83.938855,33.679758]]]}},{"type":"Feature","properties":{"k":"bunker"},"geometry":{"type":"Polygon","coordinates":[[[-83.939324,33.679881],[-83.939347,33.679901],[-83.939346,33.679929],[-83.939284,33.679971],[-83.939254,33.679985],[-83.9392,33.679989],[-83.939172,33.679967],[-83.939171,33.679949],[-83.93921,33.679896],[-83.939255,33.679904],[-83.939275,33.6799],[-83.9393,33.679883],[-83.939324,33.679881]]]}},{"type":"Feature","properties":{"k":"bunker"},"geometry":{"type":"Polygon","coordinates":[[[-83.941148,33.679321],[-83.941207,33.679325],[-83.941237,33.679343],[-83.941221,33.679363],[-83.941162,33.67938],[-83.94114,33.679381],[-83.941112,33.679412],[-83.941091,33.679411],[-83.941076,33.679396],[-83.941079,33.679371],[-83.941059,33.679356],[-83.941041,33.679363],[-83.941032,33.679405],[-83.941023,33.67941],[-83.940989,33.679413],[-83.940966,33.6794],[-83.940982,33.679383],[-83.940972,33.679361],[-83.940947,33.679343],[-83.941023,33.67929],[-83.94111,33.679299],[-83.941113,33.679315],[-83.941099,33.679331],[-83.941104,33.679334],[-83.941148,33.679321]]]}},{"type":"Feature","properties":{"k":"tee"},"geometry":{"type":"Polygon","coordinates":[[[-83.939384,33.679192],[-83.939431,33.679209],[-83.939447,33.679245],[-83.93944,33.679264],[-83.939391,33.67926],[-83.939309,33.679235],[-83.939295,33.679218],[-83.939311,33.679198],[-83.939384,33.679192]]]}},{"type":"Feature","properties":{"k":"tee"},"geometry":{"type":"Polygon","coordinates":[[[-83.93888,33.679094],[-83.939099,33.679111],[-83.939106,33.679144],[-83.939074,33.679163],[-83.938894,33.679157],[-83.938862,33.679138],[-83.938861,33.679119],[-83.93888,33.679094]]]}},{"type":"Feature","properties":{"k":"tee"},"geometry":{"type":"Polygon","coordinates":[[[-83.938639,33.679016],[-83.938692,33.679031],[-83.938694,33.679059],[-83.938652,33.67908],[-83.938604,33.679076],[-83.938562,33.67906],[-83.938558,33.67904],[-83.938574,33.679017],[-83.938639,33.679016]]]}},{"type":"Feature","properties":{"k":"tee"},"geometry":{"type":"Polygon","coordinates":[[[-83.9383,33.679197],[-83.938351,33.679221],[-83.938343,33.679248],[-83.938316,33.679275],[-83.938263,33.679263],[-83.93825,33.679222],[-83.938273,33.679199],[-83.9383,33.679197]]]}},{"type":"Feature","properties":{"k":"fairway"},"geometry":{"type":"Polygon","coordinates":[[[-83.937635,33.678934],[-83.93767,33.67891],[-83.937823,33.678992],[-83.937868,33.679032],[-83.937908,33.679098],[-83.937888,33.6792],[-83.937835,33.67924],[-83.937779,33.679266],[-83.937523,33.679287],[-83.937251,33.679375],[-83.937112,33.679344],[-83.937052,33.679323],[-83.936898,33.679326],[-83.936772,33.67936],[-83.936583,33.679343],[-83.936457,33.679293],[-83.936411,33.679257],[-83.936373,33.679187],[-83.936426,33.679048],[-83.936616,33.678917],[-83.936844,33.678829],[-83.937089,33.678794],[-83.937151,33.678824],[-83.937244,33.678908],[-83.937344,33.678971],[-83.937438,33.679017],[-83.937508,33.679029],[-83.937564,33.679005],[-83.937598,33.678979],[-83.937635,33.678934]]]}},{"type":"Feature","properties":{"k":"green"},"geometry":{"type":"Polygon","coordinates":[[[-83.935347,33.67937],[-83.935422,33.679405],[-83.935502,33.679537],[-83.935434,33.679569],[-83.935339,33.67956],[-83.935235,33.679493],[-83.935202,33.679454],[-83.935202,33.679397],[-83.935249,33.679363],[-83.935304,33.679358],[-83.935347,33.67937]]]}},{"type":"Feature","properties":{"k":"bunker"},"geometry":{"type":"Polygon","coordinates":[[[-83.935489,33.679298],[-83.935504,33.679336],[-83.935484,33.679369],[-83.935444,33.679387],[-83.935425,33.679358],[-83.935362,33.679353],[-83.935356,33.679337],[-83.935361,33.67931],[-83.93539,33.679288],[-83.935489,33.679298]]]}},{"type":"Feature","properties":{"k":"bunker"},"geometry":{"type":"Polygon","coordinates":[[[-83.935521,33.679394],[-83.935538,33.679412],[-83.935536,33.679439],[-83.935513,33.67945],[-83.935482,33.679437],[-83.935473,33.679426],[-83.935476,33.679404],[-83.935494,33.679393],[-83.935521,33.679394]]]}},{"type":"Feature","properties":{"k":"bunker"},"geometry":{"type":"Polygon","coordinates":[[[-83.937329,33.678815],[-83.937374,33.678852],[-83.937376,33.678873],[-83.937337,33.678913],[-83.937294,33.678909],[-83.937267,33.678885],[-83.93727,33.678854],[-83.937218,33.678843],[-83.937213,33.678817],[-83.937227,33.678791],[-83.937281,33.678779],[-83.937298,33.67878],[-83.937309,33.678814],[-83.937329,33.678815]]]}},{"type":"Feature","properties":{"k":"bunker"},"geometry":{"type":"Polygon","coordinates":[[[-83.937499,33.67892],[-83.93754,33.678938],[-83.937541,33.678968],[-83.937506,33.678991],[-83.937477,33.678968],[-83.937477,33.678951],[-83.937439,33.678967],[-83.9374,33.678959],[-83.937389,33.678928],[-83.937407,33.678903],[-83.93743,33.678888],[-83.937464,33.678893],[-83.937499,33.67892]]]}},{"type":"Feature","properties":{"k":"tee"},"geometry":{"type":"Polygon","coordinates":[[[-83.934783,33.679513],[-83.934833,33.679572],[-83.934834,33.679592],[-83.934775,33.679616],[-83.934742,33.679612],[-83.934717,33.679574],[-83.934714,33.679538],[-83.934723,33.679512],[-83.934735,33.679506],[-83.934783,33.679513]]]}},{"type":"Feature","properties":{"k":"tee"},"geometry":{"type":"Polygon","coordinates":[[[-83.934743,33.679319],[-83.934781,33.679426],[-83.934757,33.679473],[-83.934656,33.679477],[-83.934628,33.679431],[-83.934616,33.679356],[-83.934628,33.679316],[-83.934662,33.679298],[-83.934711,33.679303],[-83.934743,33.679319]]]}},{"type":"Feature","properties":{"k":"tee"},"geometry":{"type":"Polygon","coordinates":[[[-83.934634,33.679089],[-83.934675,33.67917],[-83.934663,33.6792],[-83.934605,33.679209],[-83.934476,33.679109],[-83.934469,33.679063],[-83.934523,33.679034],[-83.934551,33.679032],[-83.934581,33.679046],[-83.934634,33.679089]]]}},{"type":"Feature","properties":{"k":"tee"},"geometry":{"type":"Polygon","coordinates":[[[-83.934569,33.678849],[-83.934607,33.678891],[-83.9346,33.678909],[-83.934461,33.678908],[-83.934442,33.678877],[-83.93445,33.678849],[-83.9345,33.67884],[-83.934569,33.678849]]]}},{"type":"Feature","properties":{"k":"green"},"geometry":{"type":"Polygon","coordinates":[[[-83.934405,33.677867],[-83.934442,33.677893],[-83.934452,33.677956],[-83.934383,33.677985],[-83.934323,33.678022],[-83.934298,33.678074],[-83.934284,33.678128],[-83.934249,33.67815],[-83.934198,33.678152],[-83.934191,33.678013],[-83.934231,33.677937],[-83.934285,33.677908],[-83.934324,33.67787],[-83.934405,33.677867]]]}},{"type":"Feature","properties":{"k":"bunker"},"geometry":{"type":"Polygon","coordinates":[[[-83.934444,33.678067],[-83.934463,33.678086],[-83.934458,33.678105],[-83.934419,33.678129],[-83.934423,33.678149],[-83.93444,33.678164],[-83.934425,33.678179],[-83.934396,33.678187],[-83.934366,33.678221],[-83.934338,33.678208],[-83.934322,33.67819],[-83.934361,33.678165],[-83.93434,33.678142],[-83.934347,33.678115],[-83.934365,33.678101],[-83.934371,33.678075],[-83.934388,33.678055],[-83.934428,33.678053],[-83.934444,33.678067]]]}},{"type":"Feature","properties":{"k":"bunker"},"geometry":{"type":"Polygon","coordinates":[[[-83.934175,33.677956],[-83.934186,33.677983],[-83.934155,33.677996],[-83.934141,33.678048],[-83.934172,33.678086],[-83.934116,33.678098],[-83.934094,33.678073],[-83.934089,33.678037],[-83.934127,33.67796],[-83.934147,33.677946],[-83.934175,33.677956]]]}},{"type":"Feature","properties":{"k":"bunker"},"geometry":{"type":"Polygon","coordinates":[[[-83.934286,33.677848],[-83.934284,33.677875],[-83.934265,33.677892],[-83.934236,33.677894],[-83.934214,33.677927],[-83.934181,33.677934],[-83.934152,33.677919],[-83.934199,33.677845],[-83.934263,33.677839],[-83.934286,33.677848]]]}},{"type":"Feature","properties":{"k":"tee"},"geometry":{"type":"Polygon","coordinates":[[[-83.934607,33.677076],[-83.934627,33.677092],[-83.934626,33.67712],[-83.934602,33.677138],[-83.934566,33.677137],[-83.934555,33.677115],[-83.934557,33.677084],[-83.934569,33.677067],[-83.934589,33.677067],[-83.934607,33.677076]]]}},{"type":"Feature","properties":{"k":"tee"},"geometry":{"type":"Polygon","coordinates":[[[-83.934319,33.67678],[-83.934369,33.676814],[-83.934362,33.676855],[-83.934319,33.676862],[-83.934273,33.676844],[-83.934251,33.676808],[-83.93426,33.676775],[-83.934291,33.676772],[-83.934319,33.67678]]]}},{"type":"Feature","properties":{"k":"tee"},"geometry":{"type":"Polygon","coordinates":[[[-83.934262,33.67656],[-83.934307,33.676586],[-83.934327,33.67663],[-83.934322,33.676657],[-83.934281,33.676678],[-83.934207,33.676665],[-83.934181,33.676645],[-83.934156,33.676596],[-83.934152,33.676556],[-83.93416,33.676534],[-83.934262,33.67656]]]}},{"type":"Feature","properties":{"k":"tee"},"geometry":{"type":"Polygon","coordinates":[[[-83.934034,33.676359],[-83.93409,33.676395],[-83.934101,33.676429],[-83.934062,33.676443],[-83.93399,33.67641],[-83.933979,33.676393],[-83.933996,33.676356],[-83.934034,33.676359]]]}},{"type":"Feature","properties":{"k":"green"},"geometry":{"type":"Polygon","coordinates":[[[-83.933028,33.673773],[-83.933062,33.67379],[-83.933093,33.673825],[-83.933084,33.673914],[-83.933105,33.673973],[-83.933154,33.674023],[-83.933141,33.674078],[-83.933114,33.674099],[-83.933015,33.674049],[-83.932954,33.674002],[-83.932958,33.673893],[-83.932935,33.673828],[-83.932964,33.67379],[-83.933028,33.673773]]]}},{"type":"Feature","properties":{"k":"bunker"},"geometry":{"type":"Polygon","coordinates":[[[-83.933012,33.674092],[-83.933044,33.674112],[-83.933048,33.674136],[-83.933025,33.674158],[-83.933009,33.674164],[-83.932979,33.674161],[-83.932956,33.674145],[-83.932892,33.674125],[-83.932883,33.674095],[-83.932897,33.674079],[-83.932927,33.674064],[-83.93295,33.674064],[-83.932996,33.674093],[-83.933012,33.674092]]]}},{"type":"Feature","properties":{"k":"bunker"},"geometry":{"type":"Polygon","coordinates":[[[-83.933666,33.675108],[-83.933716,33.675195],[-83.933701,33.675231],[-83.933668,33.675252],[-83.933635,33.675247],[-83.933622,33.675221],[-83.933636,33.675203],[-83.933599,33.675169],[-83.933596,33.675144],[-83.933609,33.675136],[-83.933598,33.67512],[-83.933603,33.675107],[-83.933627,33.675088],[-83.933636,33.675085],[-83.933666,33.675108]]]}},{"type":"Feature","properties":{"k":"bunker"},"geometry":{"type":"Polygon","coordinates":[[[-83.933207,33.675098],[-83.933233,33.675129],[-83.93323,33.675156],[-83.933218,33.675164],[-83.933195,33.675159],[-83.933144,33.675172],[-83.933123,33.675162],[-83.933138,33.675134],[-83.93316,33.675117],[-83.933153,33.675103],[-83.933112,33.675103],[-83.933088,33.675094],[-83.933083,33.675063],[-83.933109,33.675048],[-83.933153,33.675053],[-83.93317,33.67504],[-83.933214,33.67504],[-83.933204,33.675065],[-83.933207,33.675098]]]}},{"type":"Feature","properties":{"k":"tee"},"geometry":{"type":"Polygon","coordinates":[[[-83.933683,33.672978],[-83.933758,33.673047],[-83.933758,33.673103],[-83.933697,33.67312],[-83.933598,33.673064],[-83.93352,33.673003],[-83.933513,33.672949],[-83.933542,33.672925],[-83.933616,33.672938],[-83.933683,33.672978]]]}},{"type":"Feature","properties":{"k":"tee"},"geometry":{"type":"Polygon","coordinates":[[[-83.933726,33.672746],[-83.933758,33.672773],[-83.933757,33.672806],[-83.933706,33.672845],[-83.933643,33.672837],[-83.933644,33.672799],[-83.933669,33.672765],[-83.933726,33.672746]]]}},{"type":"Feature","properties":{"k":"tee"},"geometry":{"type":"Polygon","coordinates":[[[-83.93395,33.672688],[-83.933983,33.672731],[-83.933958,33.672774],[-83.933916,33.672794],[-83.933872,33.672782],[-83.933859,33.672744],[-83.9339,33.672698],[-83.933919,33.672687],[-83.93395,33.672688]]]}},{"type":"Feature","properties":{"k":"green"},"geometry":{"type":"Polygon","coordinates":[[[-83.936438,33.67034],[-83.936462,33.670384],[-83.936353,33.670555],[-83.936305,33.670582],[-83.936201,33.67057],[-83.936134,33.670548],[-83.936121,33.670502],[-83.936131,33.670459],[-83.936277,33.67042],[-83.936332,33.670336],[-83.936387,33.670313],[-83.936438,33.67034]]]}},{"type":"Feature","properties":{"k":"bunker"},"geometry":{"type":"Polygon","coordinates":[[[-83.936221,33.670266],[-83.936238,33.670277],[-83.936242,33.670291],[-83.936228,33.670315],[-83.936124,33.670315],[-83.936097,33.670326],[-83.936084,33.670342],[-83.936085,33.670371],[-83.936062,33.670381],[-83.936035,33.670375],[-83.936022,33.670344],[-83.936029,33.670328],[-83.936089,33.670283],[-83.936122,33.670274],[-83.936149,33.670283],[-83.9362,33.670264],[-83.936221,33.670266]]]}},{"type":"Feature","properties":{"k":"bunker"},"geometry":{"type":"Polygon","coordinates":[[[-83.936202,33.670341],[-83.936249,33.670383],[-83.936254,33.67041],[-83.936236,33.670425],[-83.936202,33.670413],[-83.936187,33.670415],[-83.936155,33.670438],[-83.936116,33.670436],[-83.936109,33.670411],[-83.936114,33.670395],[-83.936146,33.670384],[-83.936135,33.670366],[-83.93614,33.670349],[-83.936192,33.670336],[-83.936202,33.670341]]]}},{"type":"Feature","properties":{"k":"bunker"},"geometry":{"type":"Polygon","coordinates":[[[-83.936551,33.670411],[-83.936606,33.670476],[-83.936604,33.670497],[-83.936589,33.670512],[-83.936544,33.670526],[-83.936558,33.670541],[-83.936559,33.670566],[-83.936536,33.670589],[-83.936518,33.670594],[-83.936497,33.670588],[-83.936495,33.67062],[-83.936486,33.670636],[-83.936442,33.670647],[-83.936359,33.670633],[-83.93637,33.670586],[-83.936416,33.670568],[-83.936398,33.670536],[-83.936445,33.670506],[-83.936477,33.670513],[-83.936459,33.670494],[-83.936469,33.67049],[-83.936472,33.670435],[-83.936551,33.670411]]]}},{"type":"Feature","properties":{"k":"bunker"},"geometry":{"type":"Polygon","coordinates":[[[-83.936218,33.670723],[-83.936236,33.67074],[-83.936195,33.670793],[-83.936126,33.670814],[-83.936062,33.670819],[-83.93594,33.670778],[-83.935886,33.670791],[-83.935836,33.670781],[-83.935822,33.670746],[-83.935824,33.670717],[-83.935863,33.670663],[-83.935908,33.670705],[-83.935927,33.670707],[-83.935917,33.670646],[-83.935964,33.67063],[-83.936005,33.670645],[-83.936014,33.670661],[-83.936012,33.67069],[-83.936002,33.670695],[-83.936028,33.6707],[-83.936038,33.670735],[-83.936064,33.670724],[-83.936074,33.670704],[-83.936107,33.670692],[-83.936137,33.670703],[-83.936148,33.670723],[-83.936143,33.670755],[-83.93615,33.670755],[-83.936164,33.670719],[-83.936181,33.670713],[-83.936218,33.670723]]]}},{"type":"Feature","properties":{"k":"bunker"},"geometry":{"type":"Polygon","coordinates":[[[-83.935714,33.67063],[-83.935735,33.670667],[-83.935719,33.670695],[-83.935692,33.670712],[-83.935671,33.670704],[-83.935665,33.670679],[-83.935677,33.670638],[-83.93569,33.670628],[-83.93569,33.670636],[-83.935714,33.67063]]]}},{"type":"Feature","properties":{"k":"bunker"},"geometry":{"type":"Polygon","coordinates":[[[-83.935612,33.670715],[-83.935631,33.670739],[-83.935633,33.670788],[-83.935572,33.670823],[-83.935546,33.670853],[-83.935505,33.670842],[-83.935472,33.670783],[-83.935507,33.670745],[-83.935544,33.670767],[-83.935561,33.670768],[-83.935582,33.670716],[-83.935612,33.670715]]]}},{"type":"Feature","properties":{"k":"bunker"},"geometry":{"type":"Polygon","coordinates":[[[-83.935254,33.671141],[-83.935291,33.671158],[-83.935307,33.67118],[-83.935284,33.671214],[-83.935249,33.671239],[-83.935221,33.671209],[-83.935189,33.671198],[-83.935173,33.671153],[-83.935189,33.671114],[-83.935218,33.67109],[-83.935245,33.67111],[-83.935254,33.671141]]]}},{"type":"Feature","properties":{"k":"bunker"},"geometry":{"type":"Polygon","coordinates":[[[-83.93498,33.671027],[-83.935006,33.671062],[-83.934997,33.67109],[-83.934902,33.671143],[-83.934871,33.671181],[-83.934838,33.671192],[-83.934797,33.671171],[-83.934796,33.671142],[-83.934806,33.671112],[-83.934866,33.671088],[-83.934887,33.67104],[-83.934911,33.671041],[-83.934919,33.671029],[-83.934936,33.671033],[-83.93498,33.671027]]]}},{"type":"Feature","properties":{"k":"bunker"},"geometry":{"type":"Polygon","coordinates":[[[-83.934833,33.672093],[-83.934847,33.672134],[-83.934825,33.672169],[-83.934766,33.672186],[-83.934685,33.672187],[-83.934596,33.672203],[-83.934443,33.672244],[-83.934397,33.67221],[-83.934424,33.67215],[-83.934465,33.672177],[-83.93449,33.672139],[-83.934516,33.672141],[-83.934537,33.672165],[-83.93456,33.67215],[-83.93457,33.672128],[-83.934596,33.672123],[-83.934633,33.672134],[-83.934646,33.672117],[-83.934684,33.672119],[-83.934709,33.672146],[-83.934733,33.672115],[-83.934751,33.672109],[-83.934768,33.672125],[-83.93478,33.672124],[-83.934799,33.672089],[-83.934833,33.672093]]]}},{"type":"Feature","properties":{"k":"tee"},"geometry":{"type":"Polygon","coordinates":[[[-83.937226,33.670174],[-83.937258,33.670194],[-83.937276,33.670235],[-83.937248,33.670276],[-83.937199,33.670283],[-83.937147,33.670253],[-83.937162,33.670199],[-83.937187,33.670173],[-83.937226,33.670174]]]}},{"type":"Feature","properties":{"k":"tee"},"geometry":{"type":"Polygon","coordinates":[[[-83.937396,33.670219],[-83.937414,33.670226],[-83.937422,33.670275],[-83.937394,33.670328],[-83.937353,33.670333],[-83.937304,33.670314],[-83.937319,33.670236],[-83.937348,33.670212],[-83.937396,33.670219]]]}},{"type":"Feature","properties":{"k":"tee"},"geometry":{"type":"Polygon","coordinates":[[[-83.93757,33.670344],[-83.937564,33.670355],[-83.937517,33.670371],[-83.937462,33.670356],[-83.937444,33.67033],[-83.937448,33.670291],[-83.937466,33.670268],[-83.937502,33.670265],[-83.937544,33.670288],[-83.937568,33.670309],[-83.93757,33.670344]]]}},{"type":"Feature","properties":{"k":"green"},"geometry":{"type":"Polygon","coordinates":[[[-83.938761,33.670442],[-83.938788,33.670478],[-83.938881,33.670519],[-83.938901,33.670571],[-83.938879,33.67061],[-83.938845,33.670622],[-83.938663,33.670578],[-83.938632,33.670554],[-83.93861,33.670452],[-83.938573,33.67041],[-83.938553,33.670363],[-83.938569,33.670335],[-83.938601,33.670324],[-83.938651,33.670328],[-83.938726,33.670372],[-83.938761,33.670442]]]}},{"type":"Feature","properties":{"k":"bunker"},"geometry":{"type":"Polygon","coordinates":[[[-83.938701,33.670239],[-83.938727,33.670264],[-83.938722,33.670296],[-83.938678,33.670329],[-83.938625,33.670298],[-83.938614,33.670283],[-83.938614,33.670301],[-83.938589,33.670314],[-83.938555,33.670291],[-83.938549,33.670299],[-83.938554,33.670331],[-83.938539,33.670336],[-83.938506,33.67032],[-83.938506,33.670294],[-83.938524,33.670257],[-83.938556,33.670223],[-83.938599,33.670216],[-83.938653,33.670219],[-83.938701,33.670239]]]}},{"type":"Feature","properties":{"k":"bunker"},"geometry":{"type":"Polygon","coordinates":[[[-83.938514,33.670411],[-83.938555,33.670421],[-83.938552,33.670468],[-83.938575,33.670477],[-83.938588,33.670504],[-83.938537,33.67052],[-83.938474,33.670502],[-83.938467,33.670429],[-83.938478,33.670413],[-83.938514,33.670411]]]}},{"type":"Feature","properties":{"k":"bunker"},"geometry":{"type":"Polygon","coordinates":[[[-83.938821,33.670637],[-83.938863,33.67067],[-83.938859,33.670691],[-83.93884,33.670702],[-83.938811,33.6707],[-83.938773,33.670685],[-83.938772,33.670668],[-83.938787,33.670647],[-83.938798,33.670637],[-83.938821,33.670637]]]}},{"type":"Feature","properties":{"k":"bunker"},"geometry":{"type":"Polygon","coordinates":[[[-83.938717,33.670619],[-83.938735,33.670639],[-83.938729,33.670662],[-83.938703,33.670674],[-83.938673,33.670674],[-83.938654,33.670659],[-83.938605,33.670642],[-83.9386,33.67062],[-83.938607,33.670595],[-83.938645,33.670592],[-83.938681,33.670623],[-83.938717,33.670619]]]}},{"type":"Feature","properties":{"k":"tee"},"geometry":{"type":"Polygon","coordinates":[[[-83.93927,33.671144],[-83.93929,33.671154],[-83.939297,33.671168],[-83.939293,33.671202],[-83.939262,33.671212],[-83.93924,33.671203],[-83.939232,33.671161],[-83.939242,33.67115],[-83.93927,33.671144]]]}},{"type":"Feature","properties":{"k":"tee"},"geometry":{"type":"Polygon","coordinates":[[[-83.939288,33.671379],[-83.939326,33.671406],[-83.939329,33.671433],[-83.93926,33.671493],[-83.939257,33.671576],[-83.939229,33.671602],[-83.939181,33.671577],[-83.939181,33.671548],[-83.939202,33.671509],[-83.939205,33.671477],[-83.939194,33.671439],[-83.939205,33.671409],[-83.939288,33.671379]]]}},{"type":"Feature","properties":{"k":"tee"},"geometry":{"type":"Polygon","coordinates":[[[-83.939316,33.671664],[-83.939334,33.671744],[-83.939301,33.671771],[-83.939239,33.671756],[-83.939239,33.671689],[-83.939256,33.671665],[-83.939282,33.67166],[-83.939316,33.671664]]]}},{"type":"Feature","properties":{"k":"tee"},"geometry":{"type":"Polygon","coordinates":[[[-83.939295,33.671917],[-83.939316,33.671956],[-83.939319,33.671979],[-83.939306,33.671996],[-83.939276,33.671983],[-83.939262,33.671947],[-83.939267,33.671914],[-83.939295,33.671917]]]}},{"type":"Feature","properties":{"k":"tee"},"geometry":{"type":"Polygon","coordinates":[[[-83.939394,33.672124],[-83.939414,33.672171],[-83.939395,33.672187],[-83.939379,33.672178],[-83.939359,33.672122],[-83.939368,33.67211],[-83.939394,33.672124]]]}},{"type":"Feature","properties":{"k":"tee"},"geometry":{"type":"Polygon","coordinates":[[[-83.93935,33.672968],[-83.939365,33.673],[-83.939351,33.673036],[-83.939311,33.673034],[-83.939301,33.673004],[-83.939327,33.672979],[-83.93935,33.672968]]]}},{"type":"Feature","properties":{"k":"green"},"geometry":{"type":"Polygon","coordinates":[[[-83.940196,33.674571],[-83.940251,33.674596],[-83.940276,33.674643],[-83.940185,33.674698],[-83.940088,33.674719],[-83.94004,33.674687],[-83.940011,33.674626],[-83.939963,33.674574],[-83.939966,33.674529],[-83.939996,33.674495],[-83.940041,33.67449],[-83.940081,33.674507],[-83.940142,33.674554],[-83.940196,33.674571]]]}},{"type":"Feature","properties":{"k":"bunker"},"geometry":{"type":"Polygon","coordinates":[[[-83.939976,33.674633],[-83.939981,33.674649],[-83.939914,33.674672],[-83.939907,33.674666],[-83.939907,33.67464],[-83.939919,33.674618],[-83.939952,33.674601],[-83.939957,33.674628],[-83.939976,33.674633]]]}},{"type":"Feature","properties":{"k":"bunker"},"geometry":{"type":"Polygon","coordinates":[[[-83.939937,33.67451],[-83.939937,33.674539],[-83.939919,33.674562],[-83.939919,33.674592],[-83.939903,33.674605],[-83.939882,33.674604],[-83.939865,33.67457],[-83.939885,33.674513],[-83.939913,33.674503],[-83.939937,33.67451]]]}},{"type":"Feature","properties":{"k":"bunker"},"geometry":{"type":"Polygon","coordinates":[[[-83.939391,33.673625],[-83.939422,33.673682],[-83.939382,33.673709],[-83.939341,33.673719],[-83.939304,33.673682],[-83.939288,33.673639],[-83.939222,33.673628],[-83.939217,33.673605],[-83.939252,33.673575],[-83.939281,33.673568],[-83.939322,33.673582],[-83.939326,33.673616],[-83.939391,33.673625]]]}},{"type":"Feature","properties":{"k":"bunker"},"geometry":{"type":"Polygon","coordinates":[[[-83.939284,33.673417],[-83.939294,33.673437],[-83.939286,33.673453],[-83.93929,33.673477],[-83.939267,33.673493],[-83.939225,33.673481],[-83.939212,33.673451],[-83.939235,33.673419],[-83.939258,33.6734],[-83.939284,33.673417]]]}},{"type":"Feature","properties":{"k":"tee"},"geometry":{"type":"Polygon","coordinates":[[[-83.941789,33.673959],[-83.941852,33.674],[-83.941876,33.674026],[-83.941862,33.674046],[-83.941776,33.674034],[-83.941708,33.673986],[-83.94172,33.673946],[-83.941761,33.673943],[-83.941789,33.673959]]]}},{"type":"Feature","properties":{"k":"tee"},"geometry":{"type":"Polygon","coordinates":[[[-83.9419,33.673766],[-83.941922,33.673814],[-83.941882,33.673855],[-83.941845,33.673825],[-83.941822,33.673782],[-83.941823,33.673747],[-83.941858,33.673735],[-83.9419,33.673766]]]}},{"type":"Feature","properties":{"k":"tee"},"geometry":{"type":"Polygon","coordinates":[[[-83.942077,33.673998],[-83.942112,33.674024],[-83.942128,33.674064],[-83.9421,33.674096],[-83.942043,33.674077],[-83.941999,33.674045],[-83.942003,33.674014],[-83.94205,33.673997],[-83.942077,33.673998]]]}},{"type":"Feature","properties":{"k":"tee"},"geometry":{"type":"Polygon","coordinates":[[[-83.942315,33.67443],[-83.942349,33.674443],[-83.942353,33.674466],[-83.942325,33.674496],[-83.942269,33.674497],[-83.942266,33.674452],[-83.942292,33.674434],[-83.942315,33.67443]]]}},{"type":"Feature","properties":{"k":"fairway"},"geometry":{"type":"Polygon","coordinates":[[[-83.942914,33.674818],[-83.942817,33.674753],[-83.942751,33.674746],[-83.942678,33.674763],[-83.942639,33.674808],[-83.942637,33.674824],[-83.942683,33.674914],[-83.942755,33.674985],[-83.942783,33.675047],[-83.942791,33.675139],[-83.942824,33.67524],[-83.942937,33.675487],[-83.942948,33.675554],[-83.943004,33.675607],[-83.943128,33.67567],[-83.943246,33.675672],[-83.943307,33.675601],[-83.943324,33.675543],[-83.943203,33.675296],[-83.943232,33.675202],[-83.943236,33.67515],[-83.943199,33.675105],[-83.943123,33.675062],[-83.943066,33.675043],[-83.943032,33.674999],[-83.942988,33.674907],[-83.942914,33.674818]]]}},{"type":"Feature","properties":{"k":"green"},"geometry":{"type":"Polygon","coordinates":[[[-83.94336,33.675867],[-83.943434,33.675947],[-83.943441,33.675984],[-83.943369,33.676095],[-83.943333,33.676105],[-83.943298,33.676092],[-83.943276,33.676029],[-83.943191,33.675959],[-83.943159,33.675914],[-83.943158,33.675864],[-83.943175,33.675821],[-83.943228,33.675821],[-83.943312,33.675839],[-83.94336,33.675867]]]}},{"type":"Feature","properties":{"k":"bunker"},"geometry":{"type":"Polygon","coordinates":[[[-83.943469,33.676095],[-83.943469,33.676166],[-83.943434,33.676176],[-83.943415,33.676198],[-83.943405,33.67623],[-83.943383,33.676242],[-83.943342,33.676231],[-83.943336,33.676176],[-83.943357,33.676136],[-83.943384,33.676129],[-83.943426,33.676091],[-83.943469,33.676095]]]}},{"type":"Feature","properties":{"k":"bunker"},"geometry":{"type":"Polygon","coordinates":[[[-83.943227,33.676054],[-83.943243,33.676068],[-83.943243,33.6761],[-83.943229,33.676114],[-83.9432,33.676108],[-83.943179,33.676113],[-83.943162,33.676097],[-83.943145,33.676037],[-83.943161,33.676007],[-83.943186,33.676006],[-83.943216,33.676025],[-83.943227,33.676054]]]}},{"type":"Feature","properties":{"k":"tee"},"geometry":{"type":"Polygon","coordinates":[[[-83.942141,33.676022],[-83.942198,33.676062],[-83.942205,33.676113],[-83.942157,33.676131],[-83.942068,33.676075],[-83.942078,33.676031],[-83.942141,33.676022]]]}},{"type":"Feature","properties":{"k":"tee"},"geometry":{"type":"Polygon","coordinates":[[[-83.942547,33.676203],[-83.942602,33.676287],[-83.942641,33.676373],[-83.942644,33.676434],[-83.942612,33.676456],[-83.942569,33.676438],[-83.942556,33.676375],[-83.942517,33.676319],[-83.942452,33.676266],[-83.942439,33.676217],[-83.942463,33.676192],[-83.942508,33.676192],[-83.942547,33.676203]]]}},{"type":"Feature","properties":{"k":"tee"},"geometry":{"type":"Polygon","coordinates":[[[-83.942689,33.676532],[-83.942732,33.676649],[-83.942732,33.676678],[-83.9427,33.676716],[-83.94266,33.676725],[-83.942609,33.67669],[-83.942619,33.676625],[-83.942617,33.676575],[-83.942628,33.676525],[-83.942669,33.676517],[-83.942689,33.676532]]]}},{"type":"Feature","properties":{"k":"tee"},"geometry":{"type":"Polygon","coordinates":[[[-83.942928,33.676796],[-83.942975,33.676834],[-83.942967,33.676874],[-83.942934,33.676881],[-83.942894,33.67687],[-83.94288,33.676836],[-83.942881,33.676809],[-83.942928,33.676796]]]}},{"type":"Feature","properties":{"k":"fairway"},"geometry":{"type":"Polygon","coordinates":[[[-83.94418,33.677281],[-83.944034,33.677272],[-83.943932,33.677246],[-83.943797,33.677085],[-83.943735,33.677073],[-83.943557,33.677202],[-83.943506,33.677334],[-83.94352,33.67742],[-83.943658,33.677567],[-83.943886,33.677608],[-83.944124,33.677763],[-83.944251,33.677777],[-83.944365,33.677781],[-83.94444,33.677723],[-83.944518,33.677623],[-83.944449,33.677473],[-83.944345,33.677343],[-83.94418,33.677281]]]}},{"type":"Feature","properties":{"k":"fairway"},"geometry":{"type":"Polygon","coordinates":[[[-83.945256,33.67785],[-83.945148,33.677705],[-83.945066,33.677657],[-83.944922,33.677659],[-83.944824,33.677701],[-83.944807,33.677797],[-83.944859,33.677947],[-83.944927,33.677986],[-83.944991,33.678066],[-83.945119,33.678105],[-83.945204,33.67814],[-83.945282,33.678241],[-83.945324,33.678319],[-83.945335,33.678446],[-83.945302,33.6785],[-83.945287,33.6786],[-83.945265,33.678637],[-83.945271,33.67871],[-83.945338,33.67877],[-83.945492,33.678829],[-83.945554,33.678803],[-83.945825,33.678626],[-83.945877,33.678525],[-83.945892,33.678408],[-83.94585,33.678254],[-83.94574,33.678071],[-83.945615,33.677999],[-83.945526,33.677922],[-83.945358,33.677904],[-83.945256,33.67785]]]}},{"type":"Feature","properties":{"k":"green"},"geometry":{"type":"Polygon","coordinates":[[[-83.945173,33.678991],[-83.945269,33.679088],[-83.945251,33.679128],[-83.94521,33.679153],[-83.945147,33.679155],[-83.94509,33.679111],[-83.945001,33.679085],[-83.944956,33.679045],[-83.944951,33.678935],[-83.944973,33.6789],[-83.944997,33.678896],[-83.945083,33.67896],[-83.945132,33.678984],[-83.945173,33.678991]]]}},{"type":"Feature","properties":{"k":"bunker"},"geometry":{"type":"Polygon","coordinates":[[[-83.945131,33.679189],[-83.94514,33.679219],[-83.945122,33.679236],[-83.945071,33.679245],[-83.945055,33.67924],[-83.945052,33.679225],[-83.945077,33.679178],[-83.945103,33.679176],[-83.945131,33.679189]]]}},{"type":"Feature","properties":{"k":"bunker"},"geometry":{"type":"Polygon","coordinates":[[[-83.945016,33.679148],[-83.944978,33.679155],[-83.944974,33.679171],[-83.944952,33.679194],[-83.944932,33.679188],[-83.944914,33.679142],[-83.944863,33.679126],[-83.944857,33.679111],[-83.944863,33.679085],[-83.944895,33.679074],[-83.944962,33.679113],[-83.945013,33.679126],[-83.945016,33.679148]]]}},{"type":"Feature","properties":{"k":"bunker"},"geometry":{"type":"Polygon","coordinates":[[[-83.944913,33.678761],[-83.944905,33.678823],[-83.944895,33.678841],[-83.94486,33.678838],[-83.944829,33.678816],[-83.944853,33.678753],[-83.944874,33.678745],[-83.944896,33.678748],[-83.944913,33.678761]]]}},{"type":"Feature","properties":{"k":"bunker"},"geometry":{"type":"Polygon","coordinates":[[[-83.944851,33.678599],[-83.944864,33.678625],[-83.944862,33.67864],[-83.944837,33.678659],[-83.944816,33.678654],[-83.944798,33.678626],[-83.944766,33.678602],[-83.944766,33.67856],[-83.944782,33.678545],[-83.944803,33.678542],[-83.944827,33.67856],[-83.944851,33.678599]]]}},{"type":"Feature","properties":{"k":"bunker"},"geometry":{"type":"Polygon","coordinates":[[[-83.945292,33.678294],[-83.945334,33.678313],[-83.945338,33.678346],[-83.9453,33.67837],[-83.94533,33.678391],[-83.945347,33.678418],[-83.945342,33.678448],[-83.945256,33.678463],[-83.945287,33.678514],[-83.945287,33.678549],[-83.945245,33.678559],[-83.94519,33.678526],[-83.945177,33.678483],[-83.945203,33.678395],[-83.945227,33.678354],[-83.945227,33.67832],[-83.945266,33.678297],[-83.945292,33.678294]]]}},{"type":"Feature","properties":{"k":"bunker"},"geometry":{"type":"Polygon","coordinates":[[[-83.945163,33.678332],[-83.945164,33.678361],[-83.945137,33.67838],[-83.945149,33.678419],[-83.945138,33.67845],[-83.945103,33.678451],[-83.945069,33.678436],[-83.945051,33.678413],[-83.945073,33.678375],[-83.945084,33.678334],[-83.945121,33.678325],[-83.945163,33.678332]]]}},{"type":"Feature","properties":{"k":"bunker"},"geometry":{"type":"Polygon","coordinates":[[[-83.945189,33.678147],[-83.945225,33.678161],[-83.945249,33.678186],[-83.945236,33.678216],[-83.945206,33.678222],[-83.945181,33.678206],[-83.945164,33.678182],[-83.945126,33.678168],[-83.945119,33.67815],[-83.945124,33.678126],[-83.94516,33.678117],[-83.945179,33.678121],[-83.945189,33.678147]]]}},{"type":"Feature","properties":{"k":"bunker"},"geometry":{"type":"Polygon","coordinates":[[[-83.944934,33.677979],[-83.944938,33.677993],[-83.944919,33.678021],[-83.94491,33.678074],[-83.944876,33.678099],[-83.94484,33.678087],[-83.944834,33.678048],[-83.944783,33.678012],[-83.944786,33.677963],[-83.944812,33.677948],[-83.944843,33.677953],[-83.944861,33.677988],[-83.944917,33.67797],[-83.944934,33.677979]]]}},{"type":"Feature","properties":{"k":"bunker"},"geometry":{"type":"Polygon","coordinates":[[[-83.943933,33.677154],[-83.943956,33.677185],[-83.943986,33.677198],[-83.943995,33.677212],[-83.943989,33.677233],[-83.943964,33.677247],[-83.943932,33.677231],[-83.943908,33.677237],[-83.943879,33.677223],[-83.943879,33.677178],[-83.943859,33.67715],[-83.943877,33.677133],[-83.943916,33.677132],[-83.943933,33.677154]]]}},{"type":"Feature","properties":{"k":"water"},"geometry":{"type":"Polygon","coordinates":[[[-83.942996,33.678063],[-83.943073,33.677971],[-83.943125,33.677888],[-83.943104,33.677805],[-83.943039,33.677671],[-83.943042,33.677555],[-83.943056,33.677513],[-83.943069,33.677523],[-83.943058,33.67759],[-83.943058,33.677656],[-83.943142,33.677871],[-83.943134,33.677927],[-83.94307,33.678001],[-83.94302,33.678078],[-83.942996,33.678063]]]}},{"type":"Feature","properties":{"k":"water"},"geometry":{"type":"Polygon","coordinates":[[[-83.941037,33.675693],[-83.94088,33.675755],[-83.940779,33.675766],[-83.940742,33.67576],[-83.940734,33.675745],[-83.940807,33.675749],[-83.940859,33.675742],[-83.940971,33.675694],[-83.941034,33.675683],[-83.941037,33.675693]]]}},{"type":"Feature","properties":{"k":"water"},"geometry":{"type":"Polygon","coordinates":[[[-83.940099,33.675675],[-83.940018,33.675619],[-83.939885,33.675544],[-83.939691,33.675507],[-83.939492,33.675487],[-83.939509,33.675469],[-83.939558,33.675468],[-83.939831,33.675503],[-83.939963,33.675556],[-83.940129,33.675654],[-83.940099,33.675675]]]}},{"type":"Feature","properties":{"k":"water"},"geometry":{"type":"Polygon","coordinates":[[[-83.943074,33.677474],[-83.943117,33.677301],[-83.94316,33.677196],[-83.943241,33.677028],[-83.943301,33.676923],[-83.943329,33.676818],[-83.943352,33.67668],[-83.943436,33.676603],[-83.943438,33.676682],[-83.943356,33.676856],[-83.943318,33.677011],[-83.943212,33.677206],[-83.943148,33.677348],[-83.943133,33.677484],[-83.943074,33.677474]]]}}]}