{"type":"FeatureCollection","features":[{"type":"Feature","properties":{"k":"hole","ref":"1","par":5,"hcp":7},"geometry":{"type":"LineString","coordinates":[[-84.673608,34.049759],[-84.675369,34.049799],[-84.677911,34.049927],[-84.678809,34.049799]]}},{"type":"Feature","properties":{"k":"hole","ref":"2","par":4,"hcp":1},"geometry":{"type":"LineString","coordinates":[[-84.679959,34.05001],[-84.67912,34.051937],[-84.679086,34.053274]]}},{"type":"Feature","properties":{"k":"hole","ref":"3","par":3,"hcp":9},"geometry":{"type":"LineString","coordinates":[[-84.678832,34.053497],[-84.680211,34.054414]]}},{"type":"Feature","properties":{"k":"hole","ref":"4","par":4,"hcp":13},"geometry":{"type":"LineString","coordinates":[[-84.68158,34.054734],[-84.683251,34.055962],[-84.683337,34.056651]]}},{"type":"Feature","properties":{"k":"hole","ref":"5","par":3,"hcp":17},"geometry":{"type":"LineString","coordinates":[[-84.683836,34.05713],[-84.685025,34.056362]]}},{"type":"Feature","properties":{"k":"hole","ref":"6","par":4,"hcp":15},"geometry":{"type":"LineString","coordinates":[[-84.684063,34.055993],[-84.682775,34.054433],[-84.681202,34.054225]]}},{"type":"Feature","properties":{"k":"hole","ref":"7","par":5,"hcp":3},"geometry":{"type":"LineString","coordinates":[[-84.680843,34.054173],[-84.680457,34.052141],[-84.680554,34.050538],[-84.680578,34.049862]]}},{"type":"Feature","properties":{"k":"hole","ref":"8","par":3,"hcp":5},"geometry":{"type":"LineString","coordinates":[[-84.679549,34.049766],[-84.678198,34.051029]]}},{"type":"Feature","properties":{"k":"hole","ref":"9","par":5,"hcp":11},"geometry":{"type":"LineString","coordinates":[[-84.678425,34.051899],[-84.676596,34.050421],[-84.674622,34.050404],[-84.673439,34.050384]]}},{"type":"Feature","properties":{"k":"hole","ref":"10","par":4,"hcp":10},"geometry":{"type":"LineString","coordinates":[[-84.67207,34.050303],[-84.669986,34.049219],[-84.668678,34.048637]]}},{"type":"Feature","properties":{"k":"hole","ref":"11","par":4,"hcp":2},"geometry":{"type":"LineString","coordinates":[[-84.668434,34.049025],[-84.670468,34.050287],[-84.672022,34.050778]]}},{"type":"Feature","properties":{"k":"hole","ref":"12","par":4,"hcp":8},"geometry":{"type":"LineString","coordinates":[[-84.672571,34.050514],[-84.674733,34.051693],[-84.675594,34.052764]]}},{"type":"Feature","properties":{"k":"hole","ref":"13","par":3,"hcp":14},"geometry":{"type":"LineString","coordinates":[[-84.675494,34.053204],[-84.677264,34.053984]]}},{"type":"Feature","properties":{"k":"hole","ref":"14","par":4,"hcp":6},"geometry":{"type":"LineString","coordinates":[[-84.67783,34.054106],[-84.676097,34.051821],[-84.675123,34.051037]]}},{"type":"Feature","properties":{"k":"hole","ref":"15","par":5,"hcp":12},"geometry":{"type":"LineString","coordinates":[[-84.675939,34.050939],[-84.677791,34.052068],[-84.678303,34.053472],[-84.678872,34.054376]]}},{"type":"Feature","properties":{"k":"hole","ref":"16","par":3,"hcp":16},"geometry":{"type":"LineString","coordinates":[[-84.678325,34.054437],[-84.677443,34.055199]]}},{"type":"Feature","properties":{"k":"hole","ref":"17","par":4,"hcp":18},"geometry":{"type":"LineString","coordinates":[[-84.677175,34.054694],[-84.675057,34.054216],[-84.67416,34.053827]]}},{"type":"Feature","properties":{"k":"hole","ref":"18","par":4,"hcp":4},"geometry":{"type":"LineString","coordinates":[[-84.675509,34.053651],[-84.673866,34.052057],[-84.672511,34.051023]]}},{"type":"Feature","properties":{"k":"water"},"geometry":{"type":"Polygon","coordinates":[[[-84.677113,34.053336],[-84.677266,34.053517],[-84.677335,34.053522],[-84.677389,34.053537],[-84.677439,34.053576],[-84.677471,34.053658],[-84.677468,34.053704],[-84.677441,34.053745],[-84.677366,34.053769],[-84.677267,34.053779],[-84.677119,34.053759],[-84.676998,34.053774],[-84.676955,34.053791],[-84.676905,34.053825],[-84.676834,34.053818],[-84.676715,34.053757],[-84.676456,34.053644],[-84.676418,34.053605],[-84.676422,34.053502],[-84.676448,34.053319],[-84.67647,34.053253],[-84.676505,34.053227],[-84.676593,34.05319],[-84.676642,34.053189],[-84.67673,34.053215],[-84.676957,34.053196],[-84.677005,34.053199],[-84.677113,34.053336]]]}},{"type":"Feature","properties":{"k":"water"},"geometry":{"type":"Polygon","coordinates":[[[-84.667871,34.046476],[-84.668375,34.046902],[-84.668429,34.046969],[-84.668442,34.047049],[-84.668423,34.047154],[-84.668349,34.047259],[-84.668171,34.047381],[-84.668019,34.047431],[-84.667852,34.047421],[-84.667742,34.047386],[-84.667681,34.047319],[-84.667658,34.047279],[-84.667661,34.04716],[-84.667687,34.047081],[-84.667706,34.046969],[-84.667695,34.046804],[-84.66739,34.046335],[-84.667137,34.046007],[-84.66709,34.045979],[-84.666973,34.045931],[-84.666807,34.045888],[-84.666721,34.04584],[-84.666676,34.045767],[-84.666661,34.04572],[-84.666678,34.045668],[-84.666831,34.045605],[-84.667094,34.045563],[-84.667244,34.045592],[-84.667299,34.04562],[-84.667352,34.045694],[-84.667473,34.045927],[-84.667671,34.046235],[-84.667871,34.046476]]]}},{"type":"Feature","properties":{"k":"green"},"geometry":{"type":"Polygon","coordinates":[[[-84.67318,34.050081],[-84.673197,34.050066],[-84.673203,34.050036],[-84.673197,34.049993],[-84.673182,34.049956],[-84.673148,34.049947],[-84.67301,34.050024],[-84.672977,34.050014],[-84.672929,34.049976],[-84.6729,34.049967],[-84.672865,34.049973],[-84.672838,34.049991],[-84.67283,34.050013],[-84.672828,34.050043],[-84.672836,34.050064],[-84.672901,34.050127],[-84.672879,34.050221],[-84.672883,34.05024],[-84.672904,34.050259],[-84.672934,34.05026],[-84.672957,34.050249],[-84.672977,34.050221],[-84.673003,34.050144],[-84.673086,34.050121],[-84.67318,34.050081]]]}},{"type":"Feature","properties":{"k":"tee"},"geometry":{"type":"Polygon","coordinates":[[[-84.673856,34.049814],[-84.673895,34.049811],[-84.673915,34.049797],[-84.673928,34.049767],[-84.673926,34.049736],[-84.6739,34.049711],[-84.673847,34.049704],[-84.673789,34.049706],[-84.673738,34.049717],[-84.673563,34.049714],[-84.673532,34.049716],[-84.673501,34.049737],[-84.673494,34.049767],[-84.6735,34.049793],[-84.673519,34.049814],[-84.673549,34.049825],[-84.673588,34.049821],[-84.673659,34.049787],[-84.673767,34.049778],[-84.673856,34.049814]]]}},{"type":"Feature","properties":{"k":"tee"},"geometry":{"type":"Polygon","coordinates":[[[-84.674043,34.049815],[-84.674115,34.049815],[-84.674137,34.049801],[-84.674148,34.049777],[-84.674142,34.049759],[-84.67412,34.04974],[-84.67405,34.049711],[-84.674026,34.049709],[-84.674001,34.049716],[-84.673989,34.049732],[-84.673991,34.049765],[-84.674015,34.049806],[-84.674043,34.049815]]]}},{"type":"Feature","properties":{"k":"tee"},"geometry":{"type":"Polygon","coordinates":[[[-84.674285,34.049835],[-84.674373,34.049836],[-84.67441,34.049826],[-84.67443,34.049812],[-84.674423,34.049763],[-84.674397,34.049753],[-84.674359,34.049752],[-84.674229,34.049751],[-84.674207,34.04976],[-84.674194,34.04978],[-84.674201,34.049815],[-84.674225,34.049828],[-84.674285,34.049835]]]}},{"type":"Feature","properties":{"k":"fairway"},"geometry":{"type":"Polygon","coordinates":[[[-84.678567,34.049808],[-84.678601,34.04978],[-84.678581,34.049735],[-84.678472,34.049705],[-84.678201,34.049714],[-84.678044,34.049735],[-84.677973,34.049782],[-84.67776,34.049796],[-84.677411,34.049761],[-84.677166,34.049805],[-84.676969,34.049826],[-84.676684,34.049787],[-84.676468,34.049719],[-84.67586,34.049649],[-84.675581,34.04963],[-84.675286,34.04964],[-84.675063,34.049663],[-84.674886,34.049724],[-84.674849,34.049805],[-84.674925,34.049861],[-84.675151,34.049922],[-84.675775,34.050017],[-84.676133,34.050006],[-84.676479,34.049973],[-84.676848,34.050003],[-84.677008,34.05005],[-84.677287,34.050076],[-84.677729,34.050104],[-84.678058,34.050076],[-84.678252,34.04995],[-84.678373,34.049861],[-84.678567,34.049808]]]}},{"type":"Feature","properties":{"k":"bunker"},"geometry":{"type":"Polygon","coordinates":[[[-84.678534,34.049687],[-84.678572,34.049678],[-84.678587,34.049656],[-84.678574,34.049642],[-84.678504,34.049631],[-84.678486,34.049657],[-84.6785,34.049681],[-84.678534,34.049687]]]}},{"type":"Feature","properties":{"k":"bunker"},"geometry":{"type":"Polygon","coordinates":[[[-84.678551,34.049921],[-84.678642,34.04995],[-84.678688,34.049948],[-84.678741,34.049926],[-84.678753,34.049901],[-84.678742,34.049883],[-84.67862,34.049874],[-84.67855,34.049844],[-84.678513,34.049843],[-84.67848,34.049861],[-84.678469,34.049887],[-84.678453,34.049897],[-84.678353,34.049895],[-84.678332,34.049913],[-84.678341,34.049925],[-84.678398,34.049935],[-84.678431,34.049936],[-84.678525,34.049916],[-84.678551,34.049921]]]}},{"type":"Feature","properties":{"k":"green"},"geometry":{"type":"Polygon","coordinates":[[[-84.678866,34.049883],[-84.678975,34.049893],[-84.679015,34.049876],[-84.679014,34.049852],[-84.678988,34.049811],[-84.678942,34.049779],[-84.678894,34.049771],[-84.67884,34.049772],[-84.678767,34.049724],[-84.678713,34.049717],[-84.678652,34.049739],[-84.678633,34.049773],[-84.678641,34.049814],[-84.678671,34.049824],[-84.678797,34.04984],[-84.678866,34.049883]]]}},{"type":"Feature","properties":{"k":"tee"},"geometry":{"type":"Polygon","coordinates":[[[-84.679889,34.050098],[-84.679923,34.050102],[-84.679962,34.050076],[-84.679999,34.050024],[-84.680014,34.04998],[-84.680006,34.049937],[-84.679958,34.049923],[-84.679924,34.049941],[-84.679867,34.050044],[-84.679868,34.050073],[-84.679889,34.050098]]]}},{"type":"Feature","properties":{"k":"tee"},"geometry":{"type":"Polygon","coordinates":[[[-84.67976,34.050224],[-84.679816,34.050256],[-84.679869,34.050256],[-84.679897,34.05024],[-84.679923,34.050174],[-84.679795,34.050122],[-84.679746,34.050111],[-84.679731,34.050166],[-84.67976,34.050224]]]}},{"type":"Feature","properties":{"k":"tee"},"geometry":{"type":"Polygon","coordinates":[[[-84.679716,34.050383],[-84.679752,34.050417],[-84.679787,34.05042],[-84.679827,34.050405],[-84.679842,34.050358],[-84.679801,34.050316],[-84.679739,34.050297],[-84.679675,34.050265],[-84.679652,34.0503],[-84.679669,34.050338],[-84.679716,34.050383]]]}},{"type":"Feature","properties":{"k":"fairway"},"geometry":{"type":"Polygon","coordinates":[[[-84.6794,34.051206],[-84.679354,34.051096],[-84.679273,34.051067],[-84.679166,34.051115],[-84.67907,34.051289],[-84.678994,34.051758],[-84.678978,34.051936],[-84.678963,34.052406],[-84.678913,34.052609],[-84.67889,34.05279],[-84.678864,34.052894],[-84.67889,34.053037],[-84.678967,34.053084],[-84.679109,34.053075],[-84.679193,34.052834],[-84.679254,34.052152],[-84.679308,34.051892],[-84.679384,34.051689],[-84.679403,34.051425],[-84.6794,34.051206]]]}},{"type":"Feature","properties":{"k":"green"},"geometry":{"type":"Polygon","coordinates":[[[-84.679149,34.053402],[-84.679187,34.053401],[-84.679216,34.053376],[-84.679218,34.053322],[-84.679117,34.053153],[-84.679071,34.053138],[-84.678995,34.053132],[-84.678973,34.053148],[-84.67895,34.053182],[-84.678952,34.05323],[-84.678973,34.053255],[-84.678989,34.053333],[-84.679002,34.053351],[-84.679149,34.053402]]]}},{"type":"Feature","properties":{"k":"bunker"},"geometry":{"type":"Polygon","coordinates":[[[-84.679233,34.053251],[-84.679248,34.053247],[-84.67927,34.053226],[-84.679274,34.053154],[-84.679263,34.053105],[-84.679271,34.05303],[-84.679248,34.053002],[-84.679211,34.052996],[-84.679171,34.053011],[-84.679155,34.053037],[-84.679153,34.053082],[-84.679158,34.053102],[-84.679197,34.05315],[-84.679209,34.053228],[-84.679217,34.053244],[-84.679233,34.053251]]]}},{"type":"Feature","properties":{"k":"tee"},"geometry":{"type":"Polygon","coordinates":[[[-84.678806,34.053521],[-84.67884,34.053548],[-84.678871,34.053552],[-84.678894,34.053537],[-84.678899,34.053521],[-84.678889,34.053497],[-84.678822,34.05345],[-84.67879,34.053442],[-84.678768,34.053457],[-84.67877,34.053476],[-84.678806,34.053521]]]}},{"type":"Feature","properties":{"k":"tee"},"geometry":{"type":"Polygon","coordinates":[[[-84.679061,34.053664],[-84.67908,34.05365],[-84.679087,34.053627],[-84.67907,34.053604],[-84.678972,34.05354],[-84.678947,34.053542],[-84.678926,34.053571],[-84.678941,34.053595],[-84.679033,34.053665],[-84.679061,34.053664]]]}},{"type":"Feature","properties":{"k":"tee"},"geometry":{"type":"Polygon","coordinates":[[[-84.679294,34.05384],[-84.679321,34.053821],[-84.679328,34.053792],[-84.679299,34.053757],[-84.679227,34.053713],[-84.679185,34.053705],[-84.679159,34.053717],[-84.679142,34.053739],[-84.679148,34.053765],[-84.679175,34.053791],[-84.679236,34.053839],[-84.679266,34.053844],[-84.679294,34.05384]]]}},{"type":"Feature","properties":{"k":"bunker"},"geometry":{"type":"Polygon","coordinates":[[[-84.680025,34.05445],[-84.680058,34.054416],[-84.680058,34.054332],[-84.680074,34.05431],[-84.680104,34.054292],[-84.680168,34.054278],[-84.680188,34.05423],[-84.680215,34.054201],[-84.680214,34.054155],[-84.680204,34.054137],[-84.680139,34.054218],[-84.680099,34.054253],[-84.68002,34.054301],[-84.68,34.054406],[-84.680003,34.054432],[-84.680025,34.05445]]]}},{"type":"Feature","properties":{"k":"bunker"},"geometry":{"type":"Polygon","coordinates":[[[-84.680371,34.054493],[-84.68039,34.054482],[-84.680398,34.054457],[-84.680384,34.054413],[-84.680363,34.054411],[-84.680343,34.054425],[-84.680338,34.054445],[-84.680351,34.054483],[-84.680371,34.054493]]]}},{"type":"Feature","properties":{"k":"green"},"geometry":{"type":"Polygon","coordinates":[[[-84.680184,34.05453],[-84.680273,34.054543],[-84.680301,34.05453],[-84.680299,34.054476],[-84.680282,34.054445],[-84.680289,34.054414],[-84.680309,34.054397],[-84.680348,34.054382],[-84.680368,34.054349],[-84.680365,34.05431],[-84.680344,34.054271],[-84.680315,34.054242],[-84.680285,34.054241],[-84.680258,34.054254],[-84.680238,34.054287],[-84.680198,34.054322],[-84.680143,34.054349],[-84.680127,34.054375],[-84.680121,34.054435],[-84.680085,34.054489],[-84.680088,34.054512],[-84.680184,34.05453]]]}},{"type":"Feature","properties":{"k":"tee"},"geometry":{"type":"Polygon","coordinates":[[[-84.682421,34.054969],[-84.682463,34.054971],[-84.682506,34.054941],[-84.682466,34.05488],[-84.682339,34.054795],[-84.682287,34.054775],[-84.682208,34.054777],[-84.68201,34.054671],[-84.681645,34.054696],[-84.681593,34.054689],[-84.681529,34.054664],[-84.681438,34.054666],[-84.681414,34.054701],[-84.681435,34.054744],[-84.681493,34.054767],[-84.681627,34.054792],[-84.681739,34.054775],[-84.68187,34.054767],[-84.681986,34.054769],[-84.68211,34.054807],[-84.682421,34.054969]]]}},{"type":"Feature","properties":{"k":"bunker"},"geometry":{"type":"Polygon","coordinates":[[[-84.682761,34.05589],[-84.682823,34.055899],[-84.682848,34.055886],[-84.682859,34.055856],[-84.682845,34.055822],[-84.682815,34.055791],[-84.682821,34.055699],[-84.682803,34.055688],[-84.682773,34.055697],[-84.682734,34.055765],[-84.682727,34.055856],[-84.682736,34.055875],[-84.682761,34.05589]]]}},{"type":"Feature","properties":{"k":"bunker"},"geometry":{"type":"Polygon","coordinates":[[[-84.683007,34.056021],[-84.683044,34.056027],[-84.683068,34.05601],[-84.683063,34.05598],[-84.683003,34.055942],[-84.68298,34.055908],[-84.682951,34.055896],[-84.682911,34.055905],[-84.682897,34.05593],[-84.682926,34.05597],[-84.682975,34.05598],[-84.683007,34.056021]]]}},{"type":"Feature","properties":{"k":"fairway"},"geometry":{"type":"Polygon","coordinates":[[[-84.683373,34.05644],[-84.68342,34.056448],[-84.683455,34.056429],[-84.683486,34.056348],[-84.683496,34.05624],[-84.683533,34.056173],[-84.68353,34.056083],[-84.683503,34.05602],[-84.683387,34.055971],[-84.683317,34.055925],[-84.683283,34.055795],[-84.683214,34.055752],[-84.683165,34.055682],[-84.683114,34.055559],[-84.68303,34.0555],[-84.682949,34.055392],[-84.682917,34.055363],[-84.682874,34.055296],[-84.682822,34.05528],[-84.682772,34.055301],[-84.682748,34.05534],[-84.682762,34.055567],[-84.682787,34.055606],[-84.68286,34.055662],[-84.682884,34.055766],[-84.682949,34.055829],[-84.68303,34.055892],[-84.683158,34.056023],[-84.683241,34.056163],[-84.683273,34.056234],[-84.683294,34.056341],[-84.683373,34.05644]]]}},{"type":"Feature","properties":{"k":"green"},"geometry":{"type":"Polygon","coordinates":[[[-84.683382,34.056779],[-84.683416,34.056767],[-84.683435,34.056739],[-84.683421,34.0567],[-84.683396,34.056668],[-84.683452,34.056554],[-84.683461,34.056517],[-84.683455,34.056487],[-84.683434,34.056467],[-84.683396,34.056467],[-84.683373,34.0565],[-84.683362,34.056541],[-84.683331,34.056567],[-84.683294,34.056577],[-84.683272,34.056594],[-84.683268,34.056629],[-84.683287,34.056721],[-84.683333,34.056764],[-84.683352,34.056776],[-84.683382,34.056779]]]}},{"type":"Feature","properties":{"k":"bunker"},"geometry":{"type":"Polygon","coordinates":[[[-84.683273,34.056528],[-84.683285,34.056531],[-84.683306,34.056523],[-84.683318,34.056504],[-84.683314,34.056471],[-84.683335,34.056428],[-84.683326,34.056397],[-84.683305,34.056385],[-84.683284,34.05639],[-84.683283,34.056429],[-84.683246,34.056503],[-84.683251,34.056518],[-84.683273,34.056528]]]}},{"type":"Feature","properties":{"k":"bunker"},"geometry":{"type":"Polygon","coordinates":[[[-84.683551,34.056532],[-84.683569,34.056523],[-84.68358,34.056499],[-84.683535,34.056443],[-84.683534,34.056418],[-84.683542,34.056404],[-84.68361,34.056406],[-84.683622,34.056393],[-84.683621,34.056376],[-84.683585,34.056337],[-84.683592,34.056282],[-84.68356,34.056261],[-84.683515,34.056278],[-84.68352,34.056348],[-84.68349,34.056405],[-84.683486,34.056432],[-84.683521,34.056523],[-84.683533,34.056534],[-84.683551,34.056532]]]}},{"type":"Feature","properties":{"k":"tee"},"geometry":{"type":"Polygon","coordinates":[[[-84.683812,34.057176],[-84.683846,34.057185],[-84.683877,34.05717],[-84.683892,34.057138],[-84.683887,34.057117],[-84.683866,34.057095],[-84.683835,34.057091],[-84.683801,34.057098],[-84.683785,34.057113],[-84.683777,34.057135],[-84.683791,34.057161],[-84.683812,34.057176]]]}},{"type":"Feature","properties":{"k":"tee"},"geometry":{"type":"Polygon","coordinates":[[[-84.684016,34.05703],[-84.684026,34.057014],[-84.684011,34.057001],[-84.683964,34.057002],[-84.683912,34.057006],[-84.683881,34.057017],[-84.683877,34.05704],[-84.683887,34.057062],[-84.683907,34.057074],[-84.683945,34.057071],[-84.684016,34.05703]]]}},{"type":"Feature","properties":{"k":"tee"},"geometry":{"type":"Polygon","coordinates":[[[-84.683949,34.056972],[-84.683991,34.056969],[-84.684015,34.056947],[-84.684012,34.05692],[-84.683985,34.056901],[-84.683951,34.056905],[-84.683926,34.056919],[-84.683919,34.056938],[-84.683926,34.056959],[-84.683949,34.056972]]]}},{"type":"Feature","properties":{"k":"tee"},"geometry":{"type":"Polygon","coordinates":[[[-84.684085,34.056896],[-84.684161,34.056866],[-84.68417,34.056839],[-84.684141,34.056781],[-84.684111,34.056773],[-84.684067,34.056783],[-84.684038,34.056804],[-84.684023,34.056827],[-84.684037,34.056872],[-84.684051,34.056888],[-84.684085,34.056896]]]}},{"type":"Feature","properties":{"k":"green"},"geometry":{"type":"Polygon","coordinates":[[[-84.685011,34.056526],[-84.685046,34.056514],[-84.685072,34.056489],[-84.685079,34.056463],[-84.685068,34.056384],[-84.685078,34.056341],[-84.685145,34.05628],[-84.685154,34.056256],[-84.685142,34.056229],[-84.685117,34.056222],[-84.685027,34.056241],[-84.685004,34.05627],[-84.685001,34.056298],[-84.684936,34.056356],[-84.68493,34.056375],[-84.684943,34.056395],[-84.684972,34.056415],[-84.684986,34.056444],[-84.684981,34.056502],[-84.684991,34.056519],[-84.685011,34.056526]]]}},{"type":"Feature","properties":{"k":"bunker"},"geometry":{"type":"Polygon","coordinates":[[[-84.685177,34.056457],[-84.68521,34.056455],[-84.685264,34.05644],[-84.685279,34.056422],[-84.685316,34.056404],[-84.685322,34.056388],[-84.685315,34.056378],[-84.68529,34.056373],[-84.685261,34.056382],[-84.685242,34.05637],[-84.68524,34.056355],[-84.685257,34.056333],[-84.685302,34.056298],[-84.685299,34.056281],[-84.685287,34.056274],[-84.685201,34.056296],[-84.68518,34.05633],[-84.685127,34.056354],[-84.685117,34.056404],[-84.685134,34.056455],[-84.685148,34.056462],[-84.685177,34.056457]]]}},{"type":"Feature","properties":{"k":"bunker"},"geometry":{"type":"Polygon","coordinates":[[[-84.684919,34.056468],[-84.684941,34.056468],[-84.684947,34.056449],[-84.68494,34.05644],[-84.684918,34.056441],[-84.684905,34.056452],[-84.684906,34.056463],[-84.684919,34.056468]]]}},{"type":"Feature","properties":{"k":"bunker"},"geometry":{"type":"Polygon","coordinates":[[[-84.684858,34.056326],[-84.68488,34.056325],[-84.684912,34.056308],[-84.684936,34.056284],[-84.684946,34.056263],[-84.684933,34.056234],[-84.684907,34.056222],[-84.684876,34.056229],[-84.684851,34.056261],[-84.684811,34.056258],[-84.684793,34.056271],[-84.684791,34.056291],[-84.684808,34.056313],[-84.684858,34.056326]]]}},{"type":"Feature","properties":{"k":"fairway"},"geometry":{"type":"Polygon","coordinates":[[[-84.684331,34.056627],[-84.684428,34.056639],[-84.684529,34.056627],[-84.684589,34.056608],[-84.68464,34.056543],[-84.68471,34.056497],[-84.684865,34.056451],[-84.684904,34.056422],[-84.684895,34.056372],[-84.684855,34.056343],[-84.684731,34.056333],[-84.684606,34.056379],[-84.684517,34.056422],[-84.684444,34.056504],[-84.684315,34.056531],[-84.684307,34.056581],[-84.684331,34.056627]]]}},{"type":"Feature","properties":{"k":"tee"},"geometry":{"type":"Polygon","coordinates":[[[-84.68407,34.056025],[-84.684114,34.056044],[-84.684138,34.056026],[-84.68413,34.056002],[-84.684085,34.055955],[-84.684062,34.055948],[-84.68404,34.055949],[-84.684019,34.055963],[-84.68401,34.05598],[-84.684018,34.056003],[-84.684033,34.056016],[-84.68407,34.056025]]]}},{"type":"Feature","properties":{"k":"tee"},"geometry":{"type":"Polygon","coordinates":[[[-84.683971,34.055854],[-84.683986,34.055838],[-84.683988,34.055817],[-84.683969,34.055788],[-84.683943,34.055753],[-84.68391,34.055734],[-84.683886,34.055738],[-84.683854,34.05576],[-84.683861,34.055788],[-84.683885,34.055822],[-84.683926,34.055866],[-84.683948,34.055866],[-84.683971,34.055854]]]}},{"type":"Feature","properties":{"k":"tee"},"geometry":{"type":"Polygon","coordinates":[[[-84.683824,34.055682],[-84.683837,34.055663],[-84.683837,34.055637],[-84.683769,34.055561],[-84.683736,34.055568],[-84.683699,34.055588],[-84.683698,34.055613],[-84.683759,34.055682],[-84.683776,34.055693],[-84.683796,34.055693],[-84.683824,34.055682]]]}},{"type":"Feature","properties":{"k":"tee"},"geometry":{"type":"Polygon","coordinates":[[[-84.683709,34.055543],[-84.683729,34.055523],[-84.683726,34.055494],[-84.683669,34.055426],[-84.683637,34.055426],[-84.683603,34.055451],[-84.683609,34.055479],[-84.683677,34.05555],[-84.683709,34.055543]]]}},{"type":"Feature","properties":{"k":"fairway"},"geometry":{"type":"Polygon","coordinates":[[[-84.683218,34.055166],[-84.683296,34.055198],[-84.683346,34.055177],[-84.683351,34.055058],[-84.683208,34.054601],[-84.683043,34.054421],[-84.68279,34.054218],[-84.682576,34.05414],[-84.681894,34.054129],[-84.681748,34.054142],[-84.681675,34.054114],[-84.681617,34.054164],[-84.681502,34.054201],[-84.681432,34.054238],[-84.681466,34.05435],[-84.681589,34.054391],[-84.681758,34.054409],[-84.681946,34.054417],[-84.682372,34.054421],[-84.682458,34.054469],[-84.682651,34.054558],[-84.6828,34.05464],[-84.682933,34.054742],[-84.683048,34.054865],[-84.683218,34.055166]]]}},{"type":"Feature","properties":{"k":"bunker"},"geometry":{"type":"Polygon","coordinates":[[[-84.68156,34.054167],[-84.681598,34.054119],[-84.681595,34.054097],[-84.681585,34.054092],[-84.681545,34.054091],[-84.681511,34.054078],[-84.681497,34.054092],[-84.681492,34.054125],[-84.681466,34.05413],[-84.681411,34.054098],[-84.681382,34.054104],[-84.681376,34.054121],[-84.681431,34.054186],[-84.681451,34.054182],[-84.681459,34.054171],[-84.681486,34.054167],[-84.681519,34.054178],[-84.68156,34.054167]]]}},{"type":"Feature","properties":{"k":"bunker"},"geometry":{"type":"Polygon","coordinates":[[[-84.681261,34.054383],[-84.681291,34.054384],[-84.681326,34.054372],[-84.681334,34.054335],[-84.681241,34.054319],[-84.681215,34.054325],[-84.681203,34.054339],[-84.681206,34.054369],[-84.681213,34.054378],[-84.681261,34.054383]]]}},{"type":"Feature","properties":{"k":"bunker"},"geometry":{"type":"Polygon","coordinates":[[[-84.681015,34.05441],[-84.681061,34.054403],[-84.681073,34.054381],[-84.681064,34.054352],[-84.681013,34.054346],[-84.680991,34.054352],[-84.680971,34.054368],[-84.680969,34.054389],[-84.680977,34.0544],[-84.680993,34.05441],[-84.681015,34.05441]]]}},{"type":"Feature","properties":{"k":"green"},"geometry":{"type":"Polygon","coordinates":[[[-84.681211,34.054275],[-84.681246,34.05427],[-84.68132,34.054279],[-84.681347,34.054276],[-84.68138,34.054243],[-84.681365,34.054213],[-84.681281,34.054138],[-84.681206,34.054136],[-84.68117,34.054145],[-84.68114,34.054162],[-84.681127,34.054186],[-84.681104,34.054204],[-84.681028,34.054231],[-84.681006,34.054268],[-84.681005,34.054286],[-84.681029,34.054303],[-84.681055,34.054303],[-84.681126,34.054321],[-84.681176,34.054304],[-84.681211,34.054275]]]}},{"type":"Feature","properties":{"k":"tee"},"geometry":{"type":"Polygon","coordinates":[[[-84.68084,34.054221],[-84.680873,34.054195],[-84.680896,34.054155],[-84.68087,34.054118],[-84.680811,34.054112],[-84.680772,34.05413],[-84.68076,34.054178],[-84.680776,34.054208],[-84.680799,34.054223],[-84.68084,34.054221]]]}},{"type":"Feature","properties":{"k":"fairway"},"geometry":{"type":"Polygon","coordinates":[[[-84.680544,34.052942],[-84.680632,34.052879],[-84.680712,34.052733],[-84.680709,34.052561],[-84.680659,34.052323],[-84.680705,34.052231],[-84.680758,34.052091],[-84.680705,34.051862],[-84.680762,34.051627],[-84.680758,34.050928],[-84.68072,34.050398],[-84.680644,34.050344],[-84.680486,34.050385],[-84.680417,34.050474],[-84.680337,34.050773],[-84.68031,34.051065],[-84.680348,34.051411],[-84.680394,34.051678],[-84.680337,34.051999],[-84.680187,34.052383],[-84.680164,34.052501],[-84.680364,34.052873],[-84.680436,34.05293],[-84.680544,34.052942]]]}},{"type":"Feature","properties":{"k":"green"},"geometry":{"type":"Polygon","coordinates":[[[-84.680552,34.050038],[-84.680584,34.050021],[-84.680602,34.049995],[-84.680622,34.049916],[-84.680648,34.049883],[-84.68074,34.049841],[-84.680759,34.049821],[-84.680746,34.049785],[-84.680633,34.049741],[-84.680608,34.049751],[-84.680556,34.049797],[-84.680483,34.04983],[-84.680462,34.049858],[-84.680506,34.050005],[-84.68053,34.050033],[-84.680552,34.050038]]]}},{"type":"Feature","properties":{"k":"tee"},"geometry":{"type":"Polygon","coordinates":[[[-84.67953,34.049813],[-84.679584,34.049817],[-84.67964,34.049761],[-84.679624,34.049731],[-84.679568,34.0497],[-84.679508,34.049687],[-84.679452,34.049707],[-84.679432,34.049746],[-84.679445,34.049772],[-84.679488,34.049802],[-84.67953,34.049813]]]}},{"type":"Feature","properties":{"k":"green"},"geometry":{"type":"Polygon","coordinates":[[[-84.678185,34.051211],[-84.67822,34.051207],[-84.678255,34.051185],[-84.678279,34.05108],[-84.67831,34.051033],[-84.678335,34.051017],[-84.678354,34.050977],[-84.678359,34.050935],[-84.678348,34.050911],[-84.678324,34.050891],[-84.678151,34.050903],[-84.678101,34.05093],[-84.678083,34.050974],[-84.678086,34.051019],[-84.678135,34.051076],[-84.67813,34.051175],[-84.678142,34.051193],[-84.678185,34.051211]]]}},{"type":"Feature","properties":{"k":"fairway"},"geometry":{"type":"Polygon","coordinates":[[[-84.678409,34.050903],[-84.678439,34.051061],[-84.678521,34.051096],[-84.678659,34.051043],[-84.678713,34.050891],[-84.678703,34.050795],[-84.678777,34.050689],[-84.678879,34.050583],[-84.678968,34.050467],[-84.678996,34.050375],[-84.678963,34.050337],[-84.678851,34.05033],[-84.678544,34.05052],[-84.678432,34.050601],[-84.678365,34.050695],[-84.678345,34.050797],[-84.678358,34.050843],[-84.678409,34.050903]]]}},{"type":"Feature","properties":{"k":"tee"},"geometry":{"type":"Polygon","coordinates":[[[-84.67846,34.051936],[-84.678482,34.051903],[-84.678468,34.051866],[-84.678383,34.051832],[-84.678352,34.051862],[-84.678341,34.051893],[-84.678359,34.051925],[-84.678404,34.05194],[-84.67846,34.051936]]]}},{"type":"Feature","properties":{"k":"green"},"geometry":{"type":"Polygon","coordinates":[[[-84.673452,34.050449],[-84.673472,34.05043],[-84.673505,34.050419],[-84.673576,34.050412],[-84.673596,34.0504],[-84.67362,34.050375],[-84.673605,34.050336],[-84.673544,34.050302],[-84.673514,34.0503],[-84.673394,34.05033],[-84.673334,34.050402],[-84.67331,34.050411],[-84.67324,34.050411],[-84.673212,34.050419],[-84.673194,34.050441],[-84.673196,34.050462],[-84.673214,34.05048],[-84.673236,34.050492],[-84.67329,34.050502],[-84.673416,34.05048],[-84.673452,34.050449]]]}},{"type":"Feature","properties":{"k":"tee"},"geometry":{"type":"Polygon","coordinates":[[[-84.67212,34.050355],[-84.672138,34.050347],[-84.672149,34.050321],[-84.672139,34.050296],[-84.672074,34.050246],[-84.672042,34.05023],[-84.672012,34.050228],[-84.671987,34.050272],[-84.67199,34.050302],[-84.672088,34.050356],[-84.67212,34.050355]]]}},{"type":"Feature","properties":{"k":"fairway"},"geometry":{"type":"Polygon","coordinates":[[[-84.670884,34.049801],[-84.670941,34.049807],[-84.67099,34.049785],[-84.670994,34.049701],[-84.670681,34.049457],[-84.670511,34.049293],[-84.67039,34.049239],[-84.67017,34.049217],[-84.670081,34.049115],[-84.669798,34.048975],[-84.669654,34.048931],[-84.669534,34.048953],[-84.66947,34.049025],[-84.669507,34.049098],[-84.669594,34.049204],[-84.66977,34.049367],[-84.670001,34.049541],[-84.670152,34.049598],[-84.670546,34.049682],[-84.67069,34.049744],[-84.670884,34.049801]]]}},{"type":"Feature","properties":{"k":"fairway"},"geometry":{"type":"Polygon","coordinates":[[[-84.669024,34.049037],[-84.669115,34.049053],[-84.669205,34.049023],[-84.669242,34.048956],[-84.669196,34.048903],[-84.669036,34.048808],[-84.668907,34.048708],[-84.668849,34.048694],[-84.668777,34.048709],[-84.668743,34.048761],[-84.668752,34.048836],[-84.668827,34.048909],[-84.669024,34.049037]]]}},{"type":"Feature","properties":{"k":"green"},"geometry":{"type":"Polygon","coordinates":[[[-84.668898,34.048642],[-84.668891,34.048612],[-84.668873,34.0486],[-84.668804,34.048591],[-84.668735,34.048569],[-84.668701,34.048566],[-84.66864,34.048576],[-84.668562,34.048573],[-84.668544,34.048589],[-84.66854,34.048615],[-84.66861,34.04872],[-84.668634,34.048735],[-84.668656,34.048739],[-84.668684,34.048742],[-84.668708,34.048732],[-84.668753,34.048682],[-84.668797,34.048676],[-84.668847,34.048681],[-84.668878,34.048674],[-84.668898,34.048642]]]}},{"type":"Feature","properties":{"k":"tee"},"geometry":{"type":"Polygon","coordinates":[[[-84.668438,34.049063],[-84.668466,34.049053],[-84.66848,34.049032],[-84.668476,34.049004],[-84.668449,34.048978],[-84.66842,34.048969],[-84.66839,34.048981],[-84.66837,34.049008],[-84.668385,34.04904],[-84.66841,34.049057],[-84.668438,34.049063]]]}},{"type":"Feature","properties":{"k":"fairway"},"geometry":{"type":"Polygon","coordinates":[[[-84.671623,34.050719],[-84.671735,34.050687],[-84.671786,34.050616],[-84.671772,34.050513],[-84.671722,34.050421],[-84.671477,34.050351],[-84.670969,34.050266],[-84.670809,34.05021],[-84.670593,34.050157],[-84.670372,34.050015],[-84.670039,34.0499],[-84.669808,34.049789],[-84.669381,34.049524],[-84.669143,34.049341],[-84.66903,34.049324],[-84.668941,34.049406],[-84.668951,34.049506],[-84.66958,34.050012],[-84.670046,34.05048],[-84.670163,34.050527],[-84.670387,34.05048],[-84.670628,34.050457],[-84.67082,34.05046],[-84.671079,34.050513],[-84.671335,34.050613],[-84.671413,34.050657],[-84.671623,34.050719]]]}},{"type":"Feature","properties":{"k":"tee"},"geometry":{"type":"Polygon","coordinates":[[[-84.672564,34.050572],[-84.672599,34.050579],[-84.672633,34.050565],[-84.672655,34.050536],[-84.672644,34.05051],[-84.672612,34.050482],[-84.672537,34.050444],[-84.672506,34.050461],[-84.672486,34.050488],[-84.672486,34.050511],[-84.672513,34.05054],[-84.672564,34.050572]]]}},{"type":"Feature","properties":{"k":"fairway"},"geometry":{"type":"Polygon","coordinates":[[[-84.673697,34.051078],[-84.673818,34.051039],[-84.674104,34.051099],[-84.674286,34.051178],[-84.674545,34.05131],[-84.674709,34.051419],[-84.674828,34.051516],[-84.674859,34.051633],[-84.674919,34.0518],[-84.675275,34.052199],[-84.675381,34.05241],[-84.67536,34.05256],[-84.675237,34.052607],[-84.675112,34.05251],[-84.675072,34.052382],[-84.675025,34.052267],[-84.67496,34.052208],[-84.674821,34.052191],[-84.67472,34.052113],[-84.674673,34.052011],[-84.674662,34.051902],[-84.674617,34.051779],[-84.674496,34.051661],[-84.674077,34.051449],[-84.673708,34.051193],[-84.673681,34.051139],[-84.673697,34.051078]]]}},{"type":"Feature","properties":{"k":"green"},"geometry":{"type":"Polygon","coordinates":[[[-84.675637,34.052848],[-84.675674,34.05285],[-84.675706,34.052864],[-84.675766,34.052861],[-84.675788,34.052836],[-84.675789,34.052808],[-84.675777,34.052772],[-84.675736,34.05273],[-84.67571,34.052716],[-84.675602,34.052699],[-84.675565,34.052673],[-84.675532,34.052672],[-84.675502,34.052681],[-84.675461,34.052722],[-84.67545,34.05275],[-84.675453,34.052808],[-84.675504,34.052845],[-84.675544,34.052861],[-84.675571,34.052864],[-84.675637,34.052848]]]}},{"type":"Feature","properties":{"k":"tee"},"geometry":{"type":"Polygon","coordinates":[[[-84.676142,34.052809],[-84.676172,34.052798],[-84.676195,34.052777],[-84.676195,34.052752],[-84.67615,34.052687],[-84.676118,34.052658],[-84.676086,34.052655],[-84.676055,34.052668],[-84.676054,34.052691],[-84.676081,34.052721],[-84.676103,34.05276],[-84.676113,34.052801],[-84.676142,34.052809]]]}},{"type":"Feature","properties":{"k":"fairway"},"geometry":{"type":"Polygon","coordinates":[[[-84.677057,34.053908],[-84.67696,34.053852],[-84.676917,34.053848],[-84.676847,34.053857],[-84.676771,34.053836],[-84.676683,34.053782],[-84.676588,34.053756],[-84.676512,34.053774],[-84.67649,34.053811],[-84.676481,34.053872],[-84.676514,34.053924],[-84.676586,34.053995],[-84.676761,34.054102],[-84.676889,34.054097],[-84.676999,34.054076],[-84.677075,34.054024],[-84.677081,34.053945],[-84.677057,34.053908]]]}},{"type":"Feature","properties":{"k":"green"},"geometry":{"type":"Polygon","coordinates":[[[-84.677313,34.054063],[-84.677406,34.054078],[-84.677429,34.054076],[-84.677449,34.054065],[-84.677457,34.05405],[-84.677466,34.054029],[-84.677458,34.05401],[-84.677446,34.053993],[-84.677376,34.053968],[-84.677308,34.053901],[-84.67719,34.05387],[-84.67716,34.053868],[-84.677137,34.053891],[-84.677115,34.053959],[-84.677133,34.054012],[-84.677214,34.054086],[-84.677254,34.054089],[-84.677313,34.054063]]]}},{"type":"Feature","properties":{"k":"tee"},"geometry":{"type":"Polygon","coordinates":[[[-84.677853,34.054181],[-84.677882,34.054166],[-84.677898,34.054148],[-84.677889,34.054076],[-84.677869,34.05405],[-84.677845,34.054041],[-84.677811,34.054043],[-84.677772,34.054062],[-84.67776,34.054078],[-84.677771,34.054116],[-84.677814,34.054176],[-84.677831,34.054184],[-84.677853,34.054181]]]}},{"type":"Feature","properties":{"k":"fairway"},"geometry":{"type":"Polygon","coordinates":[[[-84.677039,34.053022],[-84.677103,34.052949],[-84.677066,34.052773],[-84.676953,34.052515],[-84.67681,34.052303],[-84.676606,34.052182],[-84.67649,34.052139],[-84.676399,34.052043],[-84.676292,34.051859],[-84.676195,34.05174],[-84.676015,34.051609],[-84.675903,34.051498],[-84.675738,34.051314],[-84.675619,34.051248],[-84.675443,34.05122],[-84.675318,34.051251],[-84.67526,34.051324],[-84.675217,34.051443],[-84.675239,34.051546],[-84.675418,34.051657],[-84.675607,34.051755],[-84.675726,34.051864],[-84.675973,34.052149],[-84.676171,34.052296],[-84.676329,34.05253],[-84.676451,34.052639],[-84.676637,34.052763],[-84.676758,34.052861],[-84.676838,34.052967],[-84.676926,34.05303],[-84.677039,34.053022]]]}},{"type":"Feature","properties":{"k":"green"},"geometry":{"type":"Polygon","coordinates":[[[-84.675305,34.05117],[-84.675304,34.051098],[-84.675287,34.051041],[-84.675162,34.05094],[-84.675139,34.050934],[-84.674989,34.050967],[-84.674961,34.050987],[-84.674949,34.051011],[-84.674958,34.051044],[-84.675081,34.051138],[-84.675185,34.05115],[-84.675259,34.05118],[-84.675285,34.051182],[-84.675305,34.05117]]]}},{"type":"Feature","properties":{"k":"tee"},"geometry":{"type":"Polygon","coordinates":[[[-84.67594,34.051004],[-84.675985,34.050986],[-84.676006,34.050962],[-84.676013,34.050937],[-84.676,34.050906],[-84.675939,34.050871],[-84.675898,34.050865],[-84.675854,34.050902],[-84.675851,34.050927],[-84.675888,34.050974],[-84.67594,34.051004]]]}},{"type":"Feature","properties":{"k":"fairway"},"geometry":{"type":"Polygon","coordinates":[[[-84.678046,34.053114],[-84.678131,34.053143],[-84.678259,34.053129],[-84.678326,34.053055],[-84.678333,34.052917],[-84.678301,34.052596],[-84.678191,34.052266],[-84.678024,34.052045],[-84.677584,34.051775],[-84.677346,34.051657],[-84.677115,34.051578],[-84.676987,34.051616],[-84.676969,34.051689],[-84.676994,34.051763],[-84.677268,34.051945],[-84.67741,34.052134],[-84.677516,34.052213],[-84.677598,34.052249],[-84.677712,34.052402],[-84.677811,34.052578],[-84.677957,34.052964],[-84.678046,34.053114]]]}},{"type":"Feature","properties":{"k":"fairway"},"geometry":{"type":"Polygon","coordinates":[[[-84.678703,34.054194],[-84.678738,34.054212],[-84.678792,34.054185],[-84.67877,34.054071],[-84.678714,34.053991],[-84.678653,34.053932],[-84.678529,34.053764],[-84.678458,34.053623],[-84.678436,34.053452],[-84.67833,34.053311],[-84.678213,34.053296],[-84.678117,34.053341],[-84.678074,34.053391],[-84.678035,34.053526],[-84.678049,34.053664],[-84.67822,34.053944],[-84.678284,34.054091],[-84.678316,34.054218],[-84.6784,34.054235],[-84.678463,34.054201],[-84.678543,34.054112],[-84.678625,34.054119],[-84.678703,34.054194]]]}},{"type":"Feature","properties":{"k":"green"},"geometry":{"type":"Polygon","coordinates":[[[-84.678979,34.054526],[-84.679018,34.054506],[-84.679034,34.054488],[-84.679041,34.054436],[-84.679008,34.054375],[-84.678993,34.05436],[-84.678901,34.054333],[-84.678879,34.054318],[-84.678845,34.054261],[-84.678815,34.054233],[-84.67876,34.054234],[-84.678748,34.054248],[-84.678747,34.054298],[-84.678716,34.054366],[-84.678715,34.054385],[-84.678727,34.054412],[-84.678737,34.054425],[-84.678782,34.054432],[-84.678865,34.054468],[-84.678925,34.054517],[-84.678979,34.054526]]]}},{"type":"Feature","properties":{"k":"green"},"geometry":{"type":"Polygon","coordinates":[[[-84.677575,34.05518],[-84.677596,34.05515],[-84.677602,34.055111],[-84.677578,34.055088],[-84.677547,34.055089],[-84.677429,34.05516],[-84.677362,34.055173],[-84.677272,34.055174],[-84.677251,34.055186],[-84.677233,34.055211],[-84.677231,34.055233],[-84.677248,34.055249],[-84.677275,34.055259],[-84.67731,34.055262],[-84.677401,34.055252],[-84.677462,34.05526],[-84.677533,34.055222],[-84.677575,34.05518]]]}},{"type":"Feature","properties":{"k":"tee"},"geometry":{"type":"Polygon","coordinates":[[[-84.677197,34.05474],[-84.677248,34.054697],[-84.677245,34.054678],[-84.677226,34.054657],[-84.677183,34.054629],[-84.677156,34.054623],[-84.677136,34.054631],[-84.677102,34.054716],[-84.677112,34.054738],[-84.677137,34.054755],[-84.677166,34.054753],[-84.677197,34.05474]]]}},{"type":"Feature","properties":{"k":"fairway"},"geometry":{"type":"Polygon","coordinates":[[[-84.676064,34.054601],[-84.676146,34.054583],[-84.676192,34.054539],[-84.676168,34.054489],[-84.675849,34.054267],[-84.675462,34.054135],[-84.675276,34.054054],[-84.675188,34.054028],[-84.675114,34.054014],[-84.675047,34.05404],[-84.674958,34.054047],[-84.67489,34.054022],[-84.674807,34.053958],[-84.674655,34.053894],[-84.67459,34.05392],[-84.674573,34.054036],[-84.674607,34.054133],[-84.674645,34.054197],[-84.674737,34.054261],[-84.67502,34.054381],[-84.67516,34.054413],[-84.675385,34.054423],[-84.675578,34.054453],[-84.675716,34.054535],[-84.675849,34.054573],[-84.676064,34.054601]]]}},{"type":"Feature","properties":{"k":"green"},"geometry":{"type":"Polygon","coordinates":[[[-84.674418,34.053929],[-84.674423,34.053916],[-84.674414,34.053899],[-84.674308,34.053855],[-84.674263,34.053759],[-84.674227,34.053739],[-84.674181,34.053743],[-84.674133,34.05377],[-84.674057,34.053791],[-84.674036,34.053805],[-84.674027,34.053823],[-84.674039,34.053863],[-84.674088,34.053898],[-84.674137,34.053901],[-84.67421,34.053892],[-84.674349,34.053949],[-84.674391,34.053946],[-84.674418,34.053929]]]}},{"type":"Feature","properties":{"k":"tee"},"geometry":{"type":"Polygon","coordinates":[[[-84.675508,34.053713],[-84.675533,34.05371],[-84.675584,34.053674],[-84.67558,34.053651],[-84.675526,34.053587],[-84.675498,34.053589],[-84.675434,34.053624],[-84.67543,34.053651],[-84.675477,34.053697],[-84.675508,34.053713]]]}},{"type":"Feature","properties":{"k":"fairway"},"geometry":{"type":"Polygon","coordinates":[[[-84.674377,34.052655],[-84.674425,34.052691],[-84.674501,34.052712],[-84.674565,34.052677],[-84.67459,34.052629],[-84.674574,34.052543],[-84.674433,34.052296],[-84.674323,34.052186],[-84.674275,34.052112],[-84.674199,34.052025],[-84.674116,34.051978],[-84.673927,34.05198],[-84.67383,34.051946],[-84.673728,34.051879],[-84.673627,34.051795],[-84.673525,34.051625],[-84.673376,34.051452],[-84.673229,34.051297],[-84.67309,34.051182],[-84.672954,34.051153],[-84.672778,34.051161],[-84.672684,34.051204],[-84.672697,34.051275],[-84.672807,34.051333],[-84.672873,34.051407],[-84.673032,34.051501],[-84.6733,34.051599],[-84.67331,34.051695],[-84.673298,34.051812],[-84.673368,34.051956],[-84.673548,34.052183],[-84.673774,34.052274],[-84.673896,34.052358],[-84.674004,34.052444],[-84.674131,34.0525],[-84.674377,34.052655]]]}},{"type":"Feature","properties":{"k":"tee"},"geometry":{"type":"Polygon","coordinates":[[[-84.680791,34.054024],[-84.68082,34.054014],[-84.680831,34.053996],[-84.680828,34.053967],[-84.680774,34.053853],[-84.680784,34.053779],[-84.68078,34.053713],[-84.680761,34.053696],[-84.680687,34.053702],[-84.680659,34.053717],[-84.680662,34.053751],[-84.680702,34.053857],[-84.68072,34.053951],[-84.680745,34.054007],[-84.680763,34.054021],[-84.680791,34.054024]]]}},{"type":"Feature","properties":{"k":"tee"},"geometry":{"type":"Polygon","coordinates":[[[-84.680712,34.053593],[-84.680751,34.053587],[-84.680772,34.053576],[-84.680776,34.053559],[-84.680766,34.053477],[-84.680743,34.053448],[-84.680727,34.053443],[-84.680666,34.053452],[-84.680644,34.053467],[-84.680641,34.053495],[-84.680659,34.053578],[-84.680692,34.053595],[-84.680712,34.053593]]]}},{"type":"Feature","properties":{"k":"tee"},"geometry":{"type":"Polygon","coordinates":[[[-84.680657,34.053413],[-84.680688,34.053407],[-84.680709,34.053391],[-84.680717,34.053364],[-84.680707,34.053285],[-84.680688,34.053255],[-84.680678,34.053254],[-84.68065,34.053254],[-84.680599,34.05327],[-84.680588,34.053296],[-84.680587,34.053334],[-84.680605,34.053396],[-84.680625,34.053409],[-84.680657,34.053413]]]}},{"type":"Feature","properties":{"k":"water"},"geometry":{"type":"Polygon","coordinates":[[[-84.680457,34.053109],[-84.680551,34.053107],[-84.680586,34.053096],[-84.680681,34.053026],[-84.680748,34.05279],[-84.680743,34.052778],[-84.680723,34.052786],[-84.680652,34.053001],[-84.680617,34.053056],[-84.680542,34.053086],[-84.680489,34.053095],[-84.68032,34.053087],[-84.680266,34.053094],[-84.68026,34.053112],[-84.680457,34.053109]]]}},{"type":"Feature","properties":{"k":"bunker"},"geometry":{"type":"Polygon","coordinates":[[[-84.680357,34.050205],[-84.680422,34.050173],[-84.68043,34.050155],[-84.680424,34.05013],[-84.680437,34.050064],[-84.680433,34.050044],[-84.680417,34.050033],[-84.680396,34.050033],[-84.680386,34.050045],[-84.680384,34.050105],[-84.680374,34.050119],[-84.680354,34.050123],[-84.680336,34.050095],[-84.68032,34.050085],[-84.680303,34.050086],[-84.680286,34.050106],[-84.6803,34.050213],[-84.680331,34.050221],[-84.680357,34.050205]]]}},{"type":"Feature","properties":{"k":"bunker"},"geometry":{"type":"Polygon","coordinates":[[[-84.680681,34.050004],[-84.680696,34.050006],[-84.680733,34.049983],[-84.68077,34.049972],[-84.680798,34.049944],[-84.680791,34.049889],[-84.680768,34.049881],[-84.680726,34.049907],[-84.680666,34.049916],[-84.680663,34.049983],[-84.680681,34.050004]]]}},{"type":"Feature","properties":{"k":"tee"},"geometry":{"type":"Polygon","coordinates":[[[-84.679503,34.049928],[-84.679521,34.049922],[-84.679535,34.049904],[-84.679539,34.049883],[-84.679532,34.049861],[-84.679513,34.04985],[-84.679468,34.049846],[-84.679401,34.049824],[-84.679373,34.049829],[-84.679334,34.049869],[-84.679331,34.04989],[-84.679356,34.049913],[-84.67943,34.049908],[-84.679486,34.049931],[-84.679503,34.049928]]]}},{"type":"Feature","properties":{"k":"tee"},"geometry":{"type":"Polygon","coordinates":[[[-84.679377,34.05005],[-84.679427,34.050052],[-84.679449,34.050037],[-84.679475,34.049997],[-84.679476,34.049979],[-84.679467,34.049964],[-84.679437,34.049949],[-84.679383,34.049962],[-84.67936,34.04996],[-84.679308,34.049935],[-84.679279,34.049935],[-84.67926,34.04995],[-84.679253,34.049972],[-84.679261,34.049991],[-84.679377,34.05005]]]}},{"type":"Feature","properties":{"k":"bunker"},"geometry":{"type":"Polygon","coordinates":[[[-84.678242,34.050856],[-84.678275,34.050848],[-84.678313,34.05081],[-84.678327,34.050721],[-84.678361,34.050683],[-84.678364,34.050668],[-84.678354,34.050655],[-84.678306,34.050665],[-84.678275,34.050685],[-84.678251,34.050717],[-84.678242,34.050736],[-84.678259,34.050777],[-84.678222,34.050819],[-84.678218,34.050835],[-84.678225,34.05085],[-84.678242,34.050856]]]}},{"type":"Feature","properties":{"k":"bunker"},"geometry":{"type":"Polygon","coordinates":[[[-84.678131,34.050864],[-84.678155,34.050856],[-84.678159,34.050806],[-84.678193,34.050777],[-84.678191,34.050753],[-84.678176,34.050745],[-84.678134,34.050756],[-84.678112,34.05078],[-84.678114,34.05082],[-84.678106,34.050849],[-84.678131,34.050864]]]}},{"type":"Feature","properties":{"k":"tee"},"geometry":{"type":"Polygon","coordinates":[[[-84.678211,34.051773],[-84.678236,34.051764],[-84.678261,34.051742],[-84.67828,34.051712],[-84.678272,34.051685],[-84.678222,34.051644],[-84.678197,34.051628],[-84.67817,34.051625],[-84.678138,34.051647],[-84.67813,34.051675],[-84.678141,34.051697],[-84.678167,34.051715],[-84.678179,34.051761],[-84.678211,34.051773]]]}},{"type":"Feature","properties":{"k":"tee"},"geometry":{"type":"Polygon","coordinates":[[[-84.67801,34.051615],[-84.678038,34.051623],[-84.678061,34.051619],[-84.678084,34.051597],[-84.678093,34.051573],[-84.67806,34.051528],[-84.678,34.051501],[-84.677969,34.051512],[-84.677944,34.051535],[-84.677938,34.051561],[-84.677957,34.051584],[-84.67801,34.051615]]]}},{"type":"Feature","properties":{"k":"tee"},"geometry":{"type":"Polygon","coordinates":[[[-84.677676,34.051254],[-84.677695,34.051255],[-84.677717,34.051241],[-84.677717,34.051202],[-84.677678,34.05116],[-84.677647,34.05114],[-84.677604,34.051145],[-84.67758,34.051183],[-84.677589,34.051203],[-84.677606,34.051221],[-84.677676,34.051254]]]}},{"type":"Feature","properties":{"k":"bunker"},"geometry":{"type":"Polygon","coordinates":[[[-84.674195,34.050303],[-84.674201,34.050284],[-84.674194,34.050272],[-84.674153,34.050265],[-84.674136,34.050276],[-84.674168,34.050304],[-84.674195,34.050303]]]}},{"type":"Feature","properties":{"k":"bunker"},"geometry":{"type":"Polygon","coordinates":[[[-84.67427,34.050245],[-84.674297,34.050246],[-84.674314,34.050239],[-84.674317,34.050213],[-84.674286,34.0502],[-84.674251,34.050199],[-84.674239,34.050206],[-84.674228,34.050231],[-84.67427,34.050245]]]}},{"type":"Feature","properties":{"k":"bunker"},"geometry":{"type":"Polygon","coordinates":[[[-84.673761,34.050571],[-84.673874,34.050537],[-84.673891,34.05049],[-84.673933,34.050461],[-84.673935,34.050433],[-84.673911,34.050405],[-84.673866,34.050407],[-84.673793,34.050442],[-84.673773,34.050444],[-84.673667,34.050422],[-84.673646,34.050426],[-84.673619,34.05045],[-84.673609,34.050482],[-84.673646,34.050502],[-84.67369,34.050498],[-84.673744,34.050472],[-84.673776,34.050473],[-84.673798,34.050483],[-84.673802,34.050494],[-84.673785,34.050516],[-84.673738,34.050524],[-84.673719,34.050544],[-84.673733,34.050565],[-84.673761,34.050571]]]}},{"type":"Feature","properties":{"k":"bunker"},"geometry":{"type":"Polygon","coordinates":[[[-84.673632,34.05057],[-84.673658,34.050544],[-84.67364,34.050529],[-84.67356,34.050534],[-84.673539,34.050549],[-84.673539,34.05057],[-84.67355,34.050581],[-84.673589,34.050569],[-84.673632,34.05057]]]}},{"type":"Feature","properties":{"k":"bunker"},"geometry":{"type":"Polygon","coordinates":[[[-84.67351,34.050495],[-84.673535,34.05049],[-84.673547,34.050478],[-84.673546,34.050463],[-84.673529,34.050453],[-84.673496,34.050455],[-84.67348,34.050471],[-84.673487,34.050486],[-84.67351,34.050495]]]}},{"type":"Feature","properties":{"k":"tee"},"geometry":{"type":"Polygon","coordinates":[[[-84.673247,34.05093],[-84.673264,34.050911],[-84.673271,34.050882],[-84.67325,34.050859],[-84.673149,34.050813],[-84.673114,34.05083],[-84.673092,34.050858],[-84.673092,34.050872],[-84.673099,34.050888],[-84.673128,34.050911],[-84.673161,34.05093],[-84.673208,34.050943],[-84.673232,34.050944],[-84.673247,34.05093]]]}},{"type":"Feature","properties":{"k":"tee"},"geometry":{"type":"Polygon","coordinates":[[[-84.672943,34.050778],[-84.672985,34.050759],[-84.672997,34.050721],[-84.672899,34.050655],[-84.672861,34.05066],[-84.672838,34.050702],[-84.672843,34.050717],[-84.672943,34.050778]]]}},{"type":"Feature","properties":{"k":"tee"},"geometry":{"type":"Polygon","coordinates":[[[-84.672766,34.050678],[-84.672787,34.050678],[-84.672803,34.050662],[-84.672822,34.050632],[-84.672823,34.050615],[-84.672811,34.0506],[-84.672735,34.050557],[-84.672711,34.05055],[-84.672686,34.050557],[-84.672668,34.050581],[-84.672661,34.050616],[-84.672692,34.050645],[-84.672766,34.050678]]]}},{"type":"Feature","properties":{"k":"tee"},"geometry":{"type":"Polygon","coordinates":[[[-84.671861,34.050242],[-84.671886,34.050233],[-84.671906,34.050195],[-84.67189,34.050143],[-84.671855,34.050125],[-84.671785,34.050104],[-84.671759,34.050111],[-84.671732,34.050139],[-84.671721,34.050175],[-84.671797,34.050227],[-84.671827,34.05024],[-84.671861,34.050242]]]}},{"type":"Feature","properties":{"k":"tee"},"geometry":{"type":"Polygon","coordinates":[[[-84.671589,34.050138],[-84.671649,34.050144],[-84.671668,34.050138],[-84.67168,34.050123],[-84.671685,34.050069],[-84.671674,34.050049],[-84.671629,34.050024],[-84.671569,34.050028],[-84.671548,34.050043],[-84.671519,34.050096],[-84.671522,34.050108],[-84.671589,34.050138]]]}},{"type":"Feature","properties":{"k":"tee"},"geometry":{"type":"Polygon","coordinates":[[[-84.671488,34.050054],[-84.671508,34.050023],[-84.671507,34.050001],[-84.671496,34.049986],[-84.671394,34.049945],[-84.671353,34.04994],[-84.671332,34.049951],[-84.671308,34.049993],[-84.671311,34.05001],[-84.671324,34.050024],[-84.67143,34.050063],[-84.671464,34.050065],[-84.671488,34.050054]]]}},{"type":"Feature","properties":{"k":"bunker"},"geometry":{"type":"Polygon","coordinates":[[[-84.669353,34.048847],[-84.669373,34.048841],[-84.669403,34.048847],[-84.669424,34.048838],[-84.669427,34.048809],[-84.669377,34.048782],[-84.669266,34.048751],[-84.669093,34.048625],[-84.669071,34.048594],[-84.66902,34.048551],[-84.668942,34.048517],[-84.668913,34.048486],[-84.668896,34.048452],[-84.668867,34.048436],[-84.668785,34.048453],[-84.668763,34.048469],[-84.668755,34.048505],[-84.668767,34.048524],[-84.66879,34.048539],[-84.668908,34.048569],[-84.668937,34.048587],[-84.668965,34.048617],[-84.66898,34.048642],[-84.668973,34.048662],[-84.668938,34.048695],[-84.668944,34.048714],[-84.668968,34.048731],[-84.669032,34.048749],[-84.669083,34.048797],[-84.669145,34.048816],[-84.66919,34.048847],[-84.669206,34.04888],[-84.669236,34.048894],[-84.669287,34.0489],[-84.669353,34.048847]]]}},{"type":"Feature","properties":{"k":"tee"},"geometry":{"type":"Polygon","coordinates":[[[-84.668601,34.049222],[-84.668611,34.049198],[-84.668605,34.049181],[-84.668582,34.049162],[-84.668547,34.049142],[-84.66852,34.049143],[-84.668501,34.049159],[-84.668515,34.0492],[-84.668547,34.049221],[-84.668571,34.049231],[-84.668601,34.049222]]]}},{"type":"Feature","properties":{"k":"tee"},"geometry":{"type":"Polygon","coordinates":[[[-84.668752,34.049309],[-84.668768,34.049275],[-84.668759,34.049263],[-84.668654,34.04921],[-84.66863,34.049219],[-84.668599,34.049265],[-84.668616,34.049288],[-84.668713,34.049328],[-84.668731,34.049329],[-84.668752,34.049309]]]}},{"type":"Feature","properties":{"k":"tee"},"geometry":{"type":"Polygon","coordinates":[[[-84.668931,34.049383],[-84.668983,34.049323],[-84.668973,34.049298],[-84.668914,34.049257],[-84.668892,34.049248],[-84.668869,34.04925],[-84.668845,34.04926],[-84.668798,34.049313],[-84.668791,34.049332],[-84.668794,34.049355],[-84.668831,34.049388],[-84.668864,34.049399],[-84.668906,34.0494],[-84.668931,34.049383]]]}},{"type":"Feature","properties":{"k":"green"},"geometry":{"type":"Polygon","coordinates":[[[-84.672244,34.050982],[-84.672257,34.05098],[-84.672265,34.050963],[-84.672211,34.050914],[-84.672204,34.05087],[-84.672169,34.050819],[-84.672138,34.050735],[-84.672111,34.050711],[-84.672058,34.05069],[-84.672008,34.050687],[-84.671901,34.050707],[-84.67188,34.050722],[-84.671874,34.050758],[-84.671912,34.050828],[-84.671946,34.050849],[-84.671991,34.050863],[-84.672066,34.050859],[-84.672096,34.050867],[-84.672157,34.050932],[-84.672244,34.050982]]]}},{"type":"Feature","properties":{"k":"green"},"geometry":{"type":"Polygon","coordinates":[[[-84.672276,34.050997],[-84.672263,34.050986],[-84.672276,34.05097],[-84.672315,34.050975],[-84.672345,34.05097],[-84.672371,34.050948],[-84.672392,34.050889],[-84.672409,34.050876],[-84.672435,34.05088],[-84.672464,34.050893],[-84.672542,34.050962],[-84.672601,34.050988],[-84.672618,34.051025],[-84.672621,34.051076],[-84.67264,34.051108],[-84.672636,34.051148],[-84.672605,34.051177],[-84.672564,34.05119],[-84.672522,34.051191],[-84.672494,34.051173],[-84.672454,34.051058],[-84.67241,34.051031],[-84.672299,34.051008],[-84.672276,34.050997]]]}},{"type":"Feature","properties":{"k":"bunker"},"geometry":{"type":"Polygon","coordinates":[[[-84.671935,34.050648],[-84.671956,34.050639],[-84.671965,34.050625],[-84.671964,34.05061],[-84.671945,34.050589],[-84.671963,34.050562],[-84.671954,34.050544],[-84.671936,34.050531],[-84.671892,34.050523],[-84.671839,34.05053],[-84.671821,34.05055],[-84.671812,34.050612],[-84.671819,34.050626],[-84.671846,34.050631],[-84.671881,34.05065],[-84.671935,34.050648]]]}},{"type":"Feature","properties":{"k":"bunker"},"geometry":{"type":"Polygon","coordinates":[[[-84.672748,34.051114],[-84.672759,34.051098],[-84.672727,34.051061],[-84.672691,34.051056],[-84.672683,34.051071],[-84.672687,34.051084],[-84.672748,34.051114]]]}},{"type":"Feature","properties":{"k":"bunker"},"geometry":{"type":"Polygon","coordinates":[[[-84.672818,34.051388],[-84.672803,34.051355],[-84.67279,34.051346],[-84.672728,34.051333],[-84.672607,34.05126],[-84.672568,34.051262],[-84.67245,34.051214],[-84.672401,34.051085],[-84.672379,34.051071],[-84.672355,34.051076],[-84.672359,34.051106],[-84.672443,34.051252],[-84.672552,34.051302],[-84.672619,34.051324],[-84.672753,34.051389],[-84.672794,34.051395],[-84.672818,34.051388]]]}},{"type":"Feature","properties":{"k":"bunker"},"geometry":{"type":"Polygon","coordinates":[[[-84.674589,34.051913],[-84.674622,34.0519],[-84.674636,34.051875],[-84.674631,34.051857],[-84.674587,34.051803],[-84.67456,34.051778],[-84.674487,34.051745],[-84.674446,34.051678],[-84.674407,34.051639],[-84.67437,34.051644],[-84.67432,34.051687],[-84.67432,34.051717],[-84.674333,34.051746],[-84.674347,34.051762],[-84.674376,34.051773],[-84.674418,34.051825],[-84.674448,34.05183],[-84.674495,34.051825],[-84.674536,34.051847],[-84.674543,34.0519],[-84.674589,34.051913]]]}},{"type":"Feature","properties":{"k":"bunker"},"geometry":{"type":"Polygon","coordinates":[[[-84.675564,34.052619],[-84.675599,34.052607],[-84.675606,34.052593],[-84.675603,34.052566],[-84.675574,34.052553],[-84.675562,34.052537],[-84.675523,34.052531],[-84.675512,34.052541],[-84.675511,34.052572],[-84.675528,34.052596],[-84.675564,34.052619]]]}},{"type":"Feature","properties":{"k":"bunker"},"geometry":{"type":"Polygon","coordinates":[[[-84.675509,34.052492],[-84.67554,34.052498],[-84.675554,34.052492],[-84.675562,34.052454],[-84.675547,34.052448],[-84.675508,34.052449],[-84.675494,34.052419],[-84.675481,34.052411],[-84.675463,34.052405],[-84.675434,34.052409],[-84.675412,34.052442],[-84.675413,34.052472],[-84.675439,34.052497],[-84.675466,34.052509],[-84.675509,34.052492]]]}},{"type":"Feature","properties":{"k":"tee"},"geometry":{"type":"Polygon","coordinates":[[[-84.675515,34.053259],[-84.675546,34.053233],[-84.675567,34.053165],[-84.675542,34.053147],[-84.675511,34.05314],[-84.675441,34.05315],[-84.675424,34.053174],[-84.67542,34.053201],[-84.675433,34.053222],[-84.675487,34.053255],[-84.675515,34.053259]]]}},{"type":"Feature","properties":{"k":"tee"},"geometry":{"type":"Polygon","coordinates":[[[-84.675745,34.053369],[-84.675779,34.053355],[-84.675809,34.053324],[-84.67582,34.053299],[-84.675819,34.053266],[-84.675774,34.053236],[-84.675718,34.053222],[-84.67567,34.053231],[-84.675635,34.053265],[-84.675635,34.053304],[-84.675656,34.053328],[-84.675745,34.053369]]]}},{"type":"Feature","properties":{"k":"tee"},"geometry":{"type":"Polygon","coordinates":[[[-84.675895,34.053409],[-84.67593,34.053422],[-84.67598,34.053391],[-84.675976,34.053355],[-84.675885,34.053303],[-84.675861,34.053309],[-84.675833,34.053337],[-84.675823,34.053362],[-84.675895,34.053409]]]}},{"type":"Feature","properties":{"k":"tee"},"geometry":{"type":"Polygon","coordinates":[[[-84.675905,34.053526],[-84.675942,34.053538],[-84.67597,34.053534],[-84.675991,34.05351],[-84.675998,34.053488],[-84.675981,34.053462],[-84.675905,34.053429],[-84.67587,34.05342],[-84.67584,34.053428],[-84.675821,34.053479],[-84.675833,34.053498],[-84.675905,34.053526]]]}},{"type":"Feature","properties":{"k":"tee"},"geometry":{"type":"Polygon","coordinates":[[[-84.676118,34.053724],[-84.676141,34.053724],[-84.676168,34.05371],[-84.676202,34.053644],[-84.676199,34.053615],[-84.676066,34.053561],[-84.676031,34.053569],[-84.676011,34.053601],[-84.675991,34.053665],[-84.676005,34.053685],[-84.676118,34.053724]]]}},{"type":"Feature","properties":{"k":"bunker"},"geometry":{"type":"Polygon","coordinates":[[[-84.677472,34.053947],[-84.677494,34.053942],[-84.677515,34.053924],[-84.677515,34.053898],[-84.677496,34.053886],[-84.677475,34.053889],[-84.677437,34.053875],[-84.67742,34.053814],[-84.677109,34.05377],[-84.677049,34.053773],[-84.677007,34.053784],[-84.676963,34.053822],[-84.676969,34.053843],[-84.677041,34.053889],[-84.677073,34.053883],[-84.677077,34.053869],[-84.677086,34.053868],[-84.677083,34.053829],[-84.677115,34.053815],[-84.677276,34.053845],[-84.677344,34.053863],[-84.67737,34.05388],[-84.677426,34.053943],[-84.677472,34.053947]]]}},{"type":"Feature","properties":{"k":"tee"},"geometry":{"type":"Polygon","coordinates":[[[-84.677749,34.053937],[-84.677785,34.053915],[-84.677792,34.053897],[-84.677784,34.053874],[-84.677715,34.053787],[-84.677693,34.05377],[-84.67767,34.053772],[-84.677622,34.053796],[-84.677612,34.053833],[-84.677697,34.053946],[-84.677723,34.053947],[-84.677749,34.053937]]]}},{"type":"Feature","properties":{"k":"tee"},"geometry":{"type":"Polygon","coordinates":[[[-84.677602,34.053712],[-84.677654,34.053688],[-84.677659,34.05367],[-84.677651,34.053646],[-84.677599,34.053577],[-84.677571,34.053555],[-84.677542,34.053554],[-84.677499,34.053577],[-84.677493,34.053594],[-84.677504,34.053632],[-84.67754,34.053705],[-84.677561,34.053717],[-84.677602,34.053712]]]}},{"type":"Feature","properties":{"k":"tee"},"geometry":{"type":"Polygon","coordinates":[[[-84.677355,34.053457],[-84.677383,34.053439],[-84.677391,34.053408],[-84.6773,34.053308],[-84.67728,34.053305],[-84.677264,34.05331],[-84.677206,34.053353],[-84.677203,34.053375],[-84.677216,34.053406],[-84.677277,34.053473],[-84.677304,34.053477],[-84.677355,34.053457]]]}},{"type":"Feature","properties":{"k":"bunker"},"geometry":{"type":"Polygon","coordinates":[[[-84.675038,34.05122],[-84.675055,34.051183],[-84.675006,34.051144],[-84.674989,34.051119],[-84.674956,34.051122],[-84.674943,34.051138],[-84.674944,34.051156],[-84.674977,34.051176],[-84.675002,34.05122],[-84.675016,34.051227],[-84.675038,34.05122]]]}},{"type":"Feature","properties":{"k":"tee"},"geometry":{"type":"Polygon","coordinates":[[[-84.676236,34.051164],[-84.676287,34.05112],[-84.676296,34.051097],[-84.676284,34.051075],[-84.676231,34.051043],[-84.676175,34.051033],[-84.676139,34.051017],[-84.676122,34.05102],[-84.676079,34.051065],[-84.676074,34.051087],[-84.676081,34.051114],[-84.676108,34.051139],[-84.676169,34.051172],[-84.676202,34.051175],[-84.676236,34.051164]]]}},{"type":"Feature","properties":{"k":"tee"},"geometry":{"type":"Polygon","coordinates":[[[-84.676393,34.051271],[-84.67641,34.051272],[-84.676427,34.051259],[-84.676463,34.051216],[-84.676466,34.051192],[-84.676395,34.051135],[-84.676373,34.051127],[-84.676352,34.051132],[-84.676333,34.051149],[-84.676277,34.05121],[-84.676281,34.05123],[-84.676293,34.051243],[-84.676393,34.051271]]]}},{"type":"Feature","properties":{"k":"tee"},"geometry":{"type":"Polygon","coordinates":[[[-84.676665,34.051369],[-84.676679,34.051353],[-84.676679,34.051334],[-84.676666,34.051318],[-84.676551,34.051241],[-84.676522,34.051243],[-84.676479,34.051284],[-84.676479,34.051325],[-84.6765,34.051349],[-84.676582,34.051396],[-84.676611,34.0514],[-84.676637,34.051394],[-84.676665,34.051369]]]}},{"type":"Feature","properties":{"k":"bunker"},"geometry":{"type":"Polygon","coordinates":[[[-84.678654,34.054324],[-84.67867,34.054324],[-84.678687,34.054312],[-84.678706,34.054269],[-84.678627,34.054149],[-84.678582,34.054139],[-84.678573,34.054145],[-84.678556,34.054185],[-84.678578,34.054226],[-84.678636,34.054259],[-84.678643,34.054274],[-84.678636,34.054305],[-84.67864,34.054317],[-84.678654,34.054324]]]}},{"type":"Feature","properties":{"k":"bunker"},"geometry":{"type":"Polygon","coordinates":[[[-84.678949,34.054305],[-84.678963,34.054297],[-84.678966,34.054279],[-84.678949,34.054218],[-84.678951,34.05418],[-84.678902,34.054132],[-84.678899,34.054066],[-84.67886,34.054045],[-84.678828,34.054045],[-84.678805,34.054067],[-84.6788,34.054087],[-84.678812,34.054164],[-84.67884,34.054202],[-84.678863,34.054209],[-84.678903,34.054288],[-84.678928,34.054306],[-84.678949,34.054305]]]}},{"type":"Feature","properties":{"k":"bunker"},"geometry":{"type":"Polygon","coordinates":[[[-84.67882,34.054004],[-84.678811,34.05397],[-84.678785,34.053934],[-84.678786,34.053911],[-84.678816,34.05388],[-84.678817,34.05386],[-84.678784,34.053819],[-84.678771,34.053772],[-84.678713,34.053729],[-84.678705,34.053666],[-84.678676,34.053599],[-84.67861,34.053554],[-84.678552,34.05358],[-84.67852,34.053642],[-84.678523,34.053677],[-84.678588,34.053834],[-84.67862,34.053878],[-84.678667,34.053877],[-84.678691,34.053894],[-84.678744,34.053992],[-84.678775,34.054008],[-84.678802,34.054011],[-84.67882,34.054004]]]}},{"type":"Feature","properties":{"k":"bunker"},"geometry":{"type":"Polygon","coordinates":[[[-84.677382,34.055135],[-84.677401,34.055127],[-84.677413,34.055111],[-84.677406,34.055091],[-84.677374,34.055091],[-84.67736,34.055102],[-84.677356,34.055126],[-84.677366,34.055135],[-84.677382,34.055135]]]}},{"type":"Feature","properties":{"k":"tee"},"geometry":{"type":"Polygon","coordinates":[[[-84.677016,34.054732],[-84.677041,34.054723],[-84.677061,34.054704],[-84.677086,34.054655],[-84.677089,34.054628],[-84.677078,34.054608],[-84.677057,34.054596],[-84.676985,34.054582],[-84.676963,34.05459],[-84.676951,34.054607],[-84.67693,34.054674],[-84.676934,34.054698],[-84.676963,34.054723],[-84.677016,34.054732]]]}},{"type":"Feature","properties":{"k":"tee"},"geometry":{"type":"Polygon","coordinates":[[[-84.676821,34.054677],[-84.676847,34.054683],[-84.676874,34.054674],[-84.676887,34.05466],[-84.676917,34.054591],[-84.676895,34.054565],[-84.67684,34.054567],[-84.676812,34.054552],[-84.676782,34.054557],[-84.67677,34.054567],[-84.676752,34.054609],[-84.676761,34.054653],[-84.676773,34.054663],[-84.676821,34.054677]]]}},{"type":"Feature","properties":{"k":"tee"},"geometry":{"type":"Polygon","coordinates":[[[-84.676647,34.054629],[-84.676669,34.054634],[-84.676692,34.054626],[-84.67671,34.054609],[-84.676725,34.054549],[-84.676708,34.054537],[-84.676635,34.054528],[-84.676617,34.054544],[-84.676601,34.054574],[-84.676605,34.05461],[-84.676619,34.054623],[-84.676647,34.054629]]]}},{"type":"Feature","properties":{"k":"bunker"},"geometry":{"type":"Polygon","coordinates":[[[-84.675058,34.053955],[-84.675088,34.053956],[-84.675097,34.053937],[-84.675091,34.053923],[-84.67505,34.053912],[-84.675027,34.053925],[-84.675025,34.053936],[-84.675058,34.053955]]]}},{"type":"Feature","properties":{"k":"bunker"},"geometry":{"type":"Polygon","coordinates":[[[-84.674972,34.053991],[-84.675012,34.054013],[-84.675038,34.054009],[-84.675044,34.053999],[-84.675031,34.053972],[-84.674999,34.053962],[-84.674965,34.05394],[-84.674936,34.053941],[-84.674919,34.053957],[-84.674928,34.053977],[-84.674972,34.053991]]]}},{"type":"Feature","properties":{"k":"bunker"},"geometry":{"type":"Polygon","coordinates":[[[-84.674556,34.054024],[-84.67453,34.054013],[-84.674476,34.054022],[-84.67439,34.053994],[-84.674369,34.053999],[-84.674361,34.054012],[-84.674375,34.054041],[-84.674386,34.054046],[-84.674429,34.054052],[-84.674534,34.05409],[-84.674562,34.054062],[-84.674556,34.054024]]]}},{"type":"Feature","properties":{"k":"bunker"},"geometry":{"type":"Polygon","coordinates":[[[-84.674511,34.053906],[-84.674562,34.053882],[-84.67457,34.053868],[-84.674563,34.053856],[-84.674518,34.053843],[-84.674479,34.053816],[-84.674405,34.053805],[-84.67438,34.053774],[-84.674366,34.05377],[-84.674335,34.053779],[-84.674325,34.053803],[-84.67433,34.053818],[-84.674423,34.053835],[-84.674462,34.053902],[-84.674511,34.053906]]]}},{"type":"Feature","properties":{"k":"tee"},"geometry":{"type":"Polygon","coordinates":[[[-84.675439,34.053567],[-84.675454,34.053549],[-84.675449,34.053526],[-84.675384,34.053462],[-84.675348,34.053449],[-84.675321,34.053454],[-84.675304,34.053469],[-84.67529,34.053488],[-84.675288,34.053514],[-84.675344,34.05356],[-84.675399,34.053584],[-84.675423,34.053582],[-84.675439,34.053567]]]}},{"type":"Feature","properties":{"k":"tee"},"geometry":{"type":"Polygon","coordinates":[[[-84.675278,34.053409],[-84.675278,34.053381],[-84.675267,34.053362],[-84.675209,34.053306],[-84.67518,34.053296],[-84.675158,34.053297],[-84.675131,34.053313],[-84.67512,34.053335],[-84.675141,34.053379],[-84.675197,34.053431],[-84.675229,34.053442],[-84.675259,34.053435],[-84.675278,34.053409]]]}},{"type":"Feature","properties":{"k":"tee"},"geometry":{"type":"Polygon","coordinates":[[[-84.675049,34.053289],[-84.675079,34.05328],[-84.675092,34.053268],[-84.675092,34.053224],[-84.675038,34.053151],[-84.674999,34.053136],[-84.674972,34.053146],[-84.674975,34.053201],[-84.674965,34.053233],[-84.674972,34.053255],[-84.674995,34.053282],[-84.675049,34.053289]]]}},{"type":"Feature","properties":{"k":"bunker"},"geometry":{"type":"Polygon","coordinates":[[[-84.673983,34.051962],[-84.673993,34.051959],[-84.674013,34.051932],[-84.674023,34.051895],[-84.674015,34.051869],[-84.673991,34.051841],[-84.673966,34.051835],[-84.673931,34.051857],[-84.673875,34.051836],[-84.673828,34.051828],[-84.673798,34.051803],[-84.67378,34.051773],[-84.673696,34.051712],[-84.67366,34.051704],[-84.673623,34.051717],[-84.673613,34.051731],[-84.673619,34.051755],[-84.673688,34.051786],[-84.673714,34.05185],[-84.673805,34.051882],[-84.673864,34.05194],[-84.673915,34.051956],[-84.673983,34.051962]]]}},{"type":"Feature","properties":{"k":"tee"},"geometry":{"type":"Polygon","coordinates":[[[-84.679946,34.052932],[-84.679999,34.052917],[-84.680028,34.05288],[-84.67999,34.052842],[-84.679917,34.052858],[-84.679869,34.052877],[-84.679867,34.052915],[-84.679895,34.052935],[-84.679946,34.052932]]]}},{"type":"Feature","properties":{"k":"tee"},"geometry":{"type":"Polygon","coordinates":[[[-84.680049,34.053154],[-84.680118,34.053142],[-84.680152,34.053128],[-84.680167,34.053104],[-84.680139,34.053049],[-84.680039,34.05301],[-84.679991,34.053027],[-84.679955,34.053116],[-84.67997,34.053142],[-84.679993,34.053159],[-84.680049,34.053154]]]}},{"type":"Feature","properties":{"k":"tee"},"geometry":{"type":"Polygon","coordinates":[[[-84.680204,34.053621],[-84.680246,34.053632],[-84.680284,34.053614],[-84.6803,34.053545],[-84.680298,34.053494],[-84.68024,34.053418],[-84.68022,34.05335],[-84.680213,34.053283],[-84.68019,34.053233],[-84.680133,34.053203],[-84.680074,34.053207],[-84.680046,34.053237],[-84.680037,34.053274],[-84.680045,34.053313],[-84.680162,34.053432],[-84.680184,34.053485],[-84.68019,34.053549],[-84.680182,34.0536],[-84.680204,34.053621]]]}},{"type":"Feature","properties":{"k":"tee"},"geometry":{"type":"Polygon","coordinates":[[[-84.67836,34.054526],[-84.678408,34.054493],[-84.678428,34.054455],[-84.6784,34.054406],[-84.678305,34.054332],[-84.67826,34.054342],[-84.67822,34.054386],[-84.67823,34.054433],[-84.678319,34.054517],[-84.67836,34.054526]]]}},{"type":"Feature","properties":{"k":"tee"},"geometry":{"type":"Polygon","coordinates":[[[-84.678162,34.054605],[-84.678206,34.054606],[-84.678236,34.054595],[-84.678254,34.054574],[-84.678262,34.054545],[-84.678238,34.054511],[-84.678203,34.054486],[-84.678157,34.054487],[-84.678123,34.054513],[-84.678113,34.054547],[-84.678127,34.054578],[-84.678162,34.054605]]]}},{"type":"Feature","properties":{"k":"tee"},"geometry":{"type":"Polygon","coordinates":[[[-84.67807,34.054676],[-84.6781,34.054669],[-84.67813,34.054645],[-84.678136,34.054617],[-84.678117,34.054594],[-84.678063,34.054558],[-84.678022,34.054569],[-84.677996,34.054589],[-84.677995,34.054621],[-84.678038,34.054661],[-84.67807,34.054676]]]}},{"type":"Feature","properties":{"k":"tee"},"geometry":{"type":"Polygon","coordinates":[[[-84.677998,34.054734],[-84.67802,34.054719],[-84.678034,34.054691],[-84.678017,34.054663],[-84.677991,34.054635],[-84.677956,34.054629],[-84.677923,34.05464],[-84.677905,34.054665],[-84.677927,34.054707],[-84.677953,34.054727],[-84.677998,34.054734]]]}},{"type":"Feature","properties":{"k":"bunker"},"geometry":{"type":"Polygon","coordinates":[[[-84.677591,34.055022],[-84.677617,34.054992],[-84.677619,34.054981],[-84.677605,34.054976],[-84.677543,34.054984],[-84.677508,34.055004],[-84.677496,34.055028],[-84.67744,34.055045],[-84.67743,34.055054],[-84.67743,34.055066],[-84.677448,34.055085],[-84.677464,34.055081],[-84.677507,34.055045],[-84.677579,34.055033],[-84.677591,34.055022]]]}}]}