{"type":"FeatureCollection","features":[{"type":"Feature","properties":{"k":"hole","ref":"1","par":4,"hcp":7},"geometry":{"type":"LineString","coordinates":[[-117.224039,33.494694],[-117.222174,33.496502],[-117.221091,33.496852]]}},{"type":"Feature","properties":{"k":"hole","ref":"2","par":4,"hcp":5},"geometry":{"type":"LineString","coordinates":[[-117.220733,33.496226],[-117.218806,33.497953],[-117.218015,33.49864]]}},{"type":"Feature","properties":{"k":"hole","ref":"3","par":3,"hcp":15},"geometry":{"type":"LineString","coordinates":[[-117.217653,33.498253],[-117.218769,33.496992]]}},{"type":"Feature","properties":{"k":"hole","ref":"4","par":4,"hcp":13},"geometry":{"type":"LineString","coordinates":[[-117.21799,33.496679],[-117.215878,33.497111],[-117.215024,33.497635]]}},{"type":"Feature","properties":{"k":"hole","ref":"5","par":5,"hcp":11},"geometry":{"type":"LineString","coordinates":[[-117.216059,33.497732],[-117.214095,33.498833],[-117.213244,33.500198],[-117.212827,33.500675]]}},{"type":"Feature","properties":{"k":"hole","ref":"6","par":4,"hcp":3},"geometry":{"type":"LineString","coordinates":[[-117.21217,33.501664],[-117.215313,33.502276],[-117.216512,33.502097]]}},{"type":"Feature","properties":{"k":"hole","ref":"7","par":5,"hcp":17},"geometry":{"type":"LineString","coordinates":[[-117.215612,33.501748],[-117.21842,33.501474],[-117.219728,33.501212],[-117.220754,33.500896]]}},{"type":"Feature","properties":{"k":"hole","ref":"8","par":3,"hcp":9},"geometry":{"type":"LineString","coordinates":[[-117.222389,33.500458],[-117.220451,33.499732]]}},{"type":"Feature","properties":{"k":"hole","ref":"9","par":4,"hcp":1},"geometry":{"type":"LineString","coordinates":[[-117.219769,33.499643],[-117.221717,33.49773],[-117.223081,33.497014]]}},{"type":"Feature","properties":{"k":"hole","ref":"10","par":4,"hcp":14},"geometry":{"type":"LineString","coordinates":[[-117.22724,33.495412],[-117.229771,33.495433],[-117.230717,33.495221]]}},{"type":"Feature","properties":{"k":"hole","ref":"11","par":4,"hcp":6},"geometry":{"type":"LineString","coordinates":[[-117.230712,33.495877],[-117.233548,33.497301],[-117.23417,33.497743]]}},{"type":"Feature","properties":{"k":"hole","ref":"12","par":3,"hcp":18},"geometry":{"type":"LineString","coordinates":[[-117.234582,33.497464],[-117.235563,33.498749]]}},{"type":"Feature","properties":{"k":"hole","ref":"13","par":4,"hcp":4},"geometry":{"type":"LineString","coordinates":[[-117.235525,33.499212],[-117.23739,33.497631],[-117.238698,33.497817]]}},{"type":"Feature","properties":{"k":"hole","ref":"14","par":5,"hcp":12},"geometry":{"type":"LineString","coordinates":[[-117.238925,33.497315],[-117.237287,33.496069],[-117.235832,33.495341],[-117.234934,33.495101]]}},{"type":"Feature","properties":{"k":"hole","ref":"15","par":4,"hcp":8},"geometry":{"type":"LineString","coordinates":[[-117.233545,33.494725],[-117.232269,33.492507],[-117.231639,33.491677]]}},{"type":"Feature","properties":{"k":"hole","ref":"16","par":4,"hcp":10},"geometry":{"type":"LineString","coordinates":[[-117.231886,33.491127],[-117.229975,33.492428],[-117.228662,33.492975]]}},{"type":"Feature","properties":{"k":"hole","ref":"17","par":3,"hcp":16},"geometry":{"type":"LineString","coordinates":[[-117.228159,33.492571],[-117.228649,33.491305]]}},{"type":"Feature","properties":{"k":"tee"},"geometry":{"type":"Polygon","coordinates":[[[-117.224038,33.494737],[-117.224102,33.494676],[-117.224056,33.494641],[-117.223989,33.494703],[-117.224038,33.494737]]]}},{"type":"Feature","properties":{"k":"tee"},"geometry":{"type":"Polygon","coordinates":[[[-117.223749,33.495013],[-117.223939,33.494833],[-117.223876,33.494793],[-117.223695,33.494977],[-117.223749,33.495013]]]}},{"type":"Feature","properties":{"k":"tee"},"geometry":{"type":"Polygon","coordinates":[[[-117.223489,33.495198],[-117.223596,33.4951],[-117.22353,33.495053],[-117.223416,33.49515],[-117.223489,33.495198]]]}},{"type":"Feature","properties":{"k":"tee"},"geometry":{"type":"Polygon","coordinates":[[[-117.223232,33.495373],[-117.2233,33.49531],[-117.223251,33.49526],[-117.223176,33.49532],[-117.223232,33.495373]]]}},{"type":"Feature","properties":{"k":"tee"},"geometry":{"type":"Polygon","coordinates":[[[-117.223205,33.495887],[-117.22328,33.495843],[-117.223236,33.495797],[-117.223165,33.495835],[-117.223205,33.495887]]]}},{"type":"Feature","properties":{"k":"green"},"geometry":{"type":"Polygon","coordinates":[[[-117.221147,33.496762],[-117.221224,33.496782],[-117.221266,33.496814],[-117.221277,33.496831],[-117.221278,33.496862],[-117.221263,33.496905],[-117.221235,33.496917],[-117.221129,33.496918],[-117.221037,33.496909],[-117.220963,33.496879],[-117.220943,33.496844],[-117.220941,33.496815],[-117.220945,33.496777],[-117.220967,33.49676],[-117.221026,33.496779],[-117.221058,33.496779],[-117.221111,33.496762],[-117.221147,33.496762]]]}},{"type":"Feature","properties":{"k":"bunker"},"geometry":{"type":"Polygon","coordinates":[[[-117.221054,33.496648],[-117.221071,33.496674],[-117.221066,33.496699],[-117.221048,33.496724],[-117.221024,33.496738],[-117.220994,33.496734],[-117.220975,33.496689],[-117.22098,33.496659],[-117.220995,33.496644],[-117.221033,33.496637],[-117.221054,33.496648]]]}},{"type":"Feature","properties":{"k":"bunker"},"geometry":{"type":"Polygon","coordinates":[[[-117.221357,33.49666],[-117.2214,33.496697],[-117.221404,33.496716],[-117.22138,33.496742],[-117.221352,33.496755],[-117.22125,33.496768],[-117.221214,33.496738],[-117.221213,33.49671],[-117.221233,33.496689],[-117.2213,33.496682],[-117.221357,33.49666]]]}},{"type":"Feature","properties":{"k":"tee"},"geometry":{"type":"Polygon","coordinates":[[[-117.220737,33.496266],[-117.220805,33.496203],[-117.220762,33.496165],[-117.220682,33.496229],[-117.220737,33.496266]]]}},{"type":"Feature","properties":{"k":"tee"},"geometry":{"type":"Polygon","coordinates":[[[-117.22036,33.496576],[-117.220544,33.496419],[-117.2205,33.496381],[-117.220309,33.496537],[-117.22036,33.496576]]]}},{"type":"Feature","properties":{"k":"tee"},"geometry":{"type":"Polygon","coordinates":[[[-117.220056,33.496811],[-117.220159,33.496725],[-117.220107,33.496677],[-117.21999,33.496768],[-117.220056,33.496811]]]}},{"type":"Feature","properties":{"k":"tee"},"geometry":{"type":"Polygon","coordinates":[[[-117.219753,33.497017],[-117.219825,33.496969],[-117.219757,33.496909],[-117.219693,33.496971],[-117.219753,33.497017]]]}},{"type":"Feature","properties":{"k":"tee"},"geometry":{"type":"Polygon","coordinates":[[[-117.219566,33.497196],[-117.219639,33.497126],[-117.219575,33.497073],[-117.219501,33.497137],[-117.219566,33.497196]]]}},{"type":"Feature","properties":{"k":"green"},"geometry":{"type":"Polygon","coordinates":[[[-117.218185,33.498564],[-117.218165,33.498613],[-117.218137,33.498656],[-117.218047,33.498727],[-117.218011,33.49874],[-117.217947,33.498742],[-117.217906,33.498725],[-117.217889,33.498656],[-117.2179,33.498613],[-117.217943,33.498565],[-117.218043,33.498508],[-117.218089,33.498492],[-117.218124,33.49849],[-117.218148,33.498491],[-117.218179,33.498517],[-117.218185,33.498564]]]}},{"type":"Feature","properties":{"k":"bunker"},"geometry":{"type":"Polygon","coordinates":[[[-117.218272,33.498486],[-117.218284,33.498493],[-117.21827,33.498534],[-117.218244,33.498537],[-117.218228,33.498531],[-117.218215,33.498506],[-117.218226,33.498486],[-117.218244,33.498478],[-117.218272,33.498486]]]}},{"type":"Feature","properties":{"k":"bunker"},"geometry":{"type":"Polygon","coordinates":[[[-117.218362,33.498211],[-117.21838,33.498228],[-117.218385,33.49827],[-117.218359,33.498284],[-117.218338,33.498285],[-117.218309,33.49827],[-117.2183,33.498221],[-117.218311,33.49821],[-117.218336,33.498207],[-117.218362,33.498211]]]}},{"type":"Feature","properties":{"k":"bunker"},"geometry":{"type":"Polygon","coordinates":[[[-117.218952,33.498026],[-117.218975,33.498026],[-117.21902,33.498051],[-117.21902,33.498089],[-117.218989,33.498108],[-117.21894,33.498103],[-117.21887,33.498144],[-117.218818,33.498114],[-117.218822,33.498075],[-117.218837,33.49806],[-117.218877,33.498053],[-117.218915,33.498029],[-117.218952,33.498026]]]}},{"type":"Feature","properties":{"k":"tee"},"geometry":{"type":"Polygon","coordinates":[[[-117.217664,33.498309],[-117.217722,33.498238],[-117.217642,33.498191],[-117.217586,33.498268],[-117.217664,33.498309]]]}},{"type":"Feature","properties":{"k":"tee"},"geometry":{"type":"Polygon","coordinates":[[[-117.217729,33.498181],[-117.217832,33.498063],[-117.217729,33.498003],[-117.217628,33.498111],[-117.217729,33.498181]]]}},{"type":"Feature","properties":{"k":"tee"},"geometry":{"type":"Polygon","coordinates":[[[-117.217859,33.497995],[-117.217797,33.497952],[-117.217881,33.497849],[-117.217952,33.497895],[-117.217859,33.497995]]]}},{"type":"Feature","properties":{"k":"tee"},"geometry":{"type":"Polygon","coordinates":[[[-117.218012,33.497861],[-117.217918,33.497804],[-117.217998,33.497719],[-117.218088,33.497778],[-117.218012,33.497861]]]}},{"type":"Feature","properties":{"k":"tee"},"geometry":{"type":"Polygon","coordinates":[[[-117.218118,33.497686],[-117.218065,33.49766],[-117.218132,33.497579],[-117.218183,33.497607],[-117.218118,33.497686]]]}},{"type":"Feature","properties":{"k":"tee"},"geometry":{"type":"Polygon","coordinates":[[[-117.218258,33.497525],[-117.218194,33.497484],[-117.218255,33.497416],[-117.218318,33.497465],[-117.218258,33.497525]]]}},{"type":"Feature","properties":{"k":"green"},"geometry":{"type":"Polygon","coordinates":[[[-117.218853,33.496939],[-117.218864,33.496981],[-117.218889,33.497023],[-117.21888,33.497055],[-117.218827,33.497118],[-117.218791,33.49713],[-117.218747,33.497122],[-117.218709,33.4971],[-117.218665,33.497059],[-117.218641,33.496985],[-117.218648,33.496945],[-117.21867,33.496922],[-117.218703,33.496904],[-117.218757,33.496883],[-117.218788,33.49688],[-117.218806,33.496881],[-117.218825,33.496892],[-117.218853,33.496939]]]}},{"type":"Feature","properties":{"k":"bunker"},"geometry":{"type":"Polygon","coordinates":[[[-117.218705,33.497138],[-117.218719,33.497178],[-117.218709,33.497199],[-117.218676,33.497217],[-117.218632,33.497224],[-117.218621,33.497209],[-117.218619,33.497182],[-117.21866,33.49714],[-117.218684,33.497134],[-117.218705,33.497138]]]}},{"type":"Feature","properties":{"k":"bunker"},"geometry":{"type":"Polygon","coordinates":[[[-117.218585,33.497068],[-117.218621,33.497084],[-117.218621,33.497108],[-117.218583,33.497148],[-117.218566,33.497155],[-117.218551,33.497151],[-117.21854,33.497101],[-117.218556,33.497079],[-117.218585,33.497068]]]}},{"type":"Feature","properties":{"k":"tee"},"geometry":{"type":"Polygon","coordinates":[[[-117.218046,33.496695],[-117.217944,33.496709],[-117.217941,33.496653],[-117.218034,33.496633],[-117.218046,33.496695]]]}},{"type":"Feature","properties":{"k":"tee"},"geometry":{"type":"Polygon","coordinates":[[[-117.217814,33.496738],[-117.217594,33.496753],[-117.21759,33.496704],[-117.217801,33.496672],[-117.217814,33.496738]]]}},{"type":"Feature","properties":{"k":"tee"},"geometry":{"type":"Polygon","coordinates":[[[-117.217336,33.49673],[-117.217221,33.496746],[-117.217203,33.49668],[-117.217317,33.496661],[-117.217336,33.49673]]]}},{"type":"Feature","properties":{"k":"tee"},"geometry":{"type":"Polygon","coordinates":[[[-117.21712,33.496668],[-117.217029,33.496682],[-117.217004,33.496619],[-117.217095,33.496597],[-117.21712,33.496668]]]}},{"type":"Feature","properties":{"k":"green"},"geometry":{"type":"Polygon","coordinates":[[[-117.215121,33.497517],[-117.215164,33.497535],[-117.21517,33.497557],[-117.215166,33.497587],[-117.215087,33.497712],[-117.215063,33.49774],[-117.215029,33.49776],[-117.214979,33.497762],[-117.214945,33.497746],[-117.214923,33.497724],[-117.214899,33.497684],[-117.214908,33.497641],[-117.214921,33.49762],[-117.214989,33.497551],[-117.215048,33.497518],[-117.21509,33.497508],[-117.215121,33.497517]]]}},{"type":"Feature","properties":{"k":"bunker"},"geometry":{"type":"Polygon","coordinates":[[[-117.215689,33.497309],[-117.21571,33.497318],[-117.215718,33.497331],[-117.21571,33.497354],[-117.215655,33.497365],[-117.215645,33.4974],[-117.215606,33.497449],[-117.215581,33.497456],[-117.215558,33.497449],[-117.215545,33.497432],[-117.215558,33.497363],[-117.215596,33.497336],[-117.215689,33.497309]]]}},{"type":"Feature","properties":{"k":"tee"},"geometry":{"type":"Polygon","coordinates":[[[-117.216115,33.497733],[-117.216041,33.497768],[-117.216006,33.497712],[-117.216081,33.497679],[-117.216115,33.497733]]]}},{"type":"Feature","properties":{"k":"tee"},"geometry":{"type":"Polygon","coordinates":[[[-117.216016,33.497801],[-117.215925,33.497867],[-117.215936,33.497893],[-117.215814,33.497948],[-117.215783,33.497896],[-117.215887,33.497841],[-117.215862,33.49779],[-117.215958,33.497741],[-117.216016,33.497801]]]}},{"type":"Feature","properties":{"k":"tee"},"geometry":{"type":"Polygon","coordinates":[[[-117.21493,33.498051],[-117.21487,33.49799],[-117.214982,33.49791],[-117.215044,33.497962],[-117.21493,33.498051]]]}},{"type":"Feature","properties":{"k":"tee"},"geometry":{"type":"Polygon","coordinates":[[[-117.214639,33.498185],[-117.214683,33.49815],[-117.214627,33.498099],[-117.214568,33.498148],[-117.214624,33.498201],[-117.214639,33.498185]]]}},{"type":"Feature","properties":{"k":"fairway"},"geometry":{"type":"Polygon","coordinates":[[[-117.21437,33.498848],[-117.214477,33.498727],[-117.214531,33.498623],[-117.214547,33.498555],[-117.214531,33.498496],[-117.214474,33.498441],[-117.214417,33.498415],[-117.214363,33.498401],[-117.214287,33.498401],[-117.214238,33.498416],[-117.214152,33.498458],[-117.214011,33.498654],[-117.213863,33.498823],[-117.213721,33.498939],[-117.213534,33.499141],[-117.213493,33.499192],[-117.213503,33.499249],[-117.213524,33.499299],[-117.213562,33.49933],[-117.213615,33.499351],[-117.213672,33.499353],[-117.213719,33.499335],[-117.21402,33.499123],[-117.214116,33.49907],[-117.214167,33.499018],[-117.21437,33.498848]]]}},{"type":"Feature","properties":{"k":"fairway"},"geometry":{"type":"Polygon","coordinates":[[[-117.213497,33.499625],[-117.213461,33.499728],[-117.213389,33.499796],[-117.213329,33.499814],[-117.213254,33.499811],[-117.213201,33.499781],[-117.213175,33.499751],[-117.213166,33.499709],[-117.213184,33.499537],[-117.213228,33.499471],[-117.213275,33.499427],[-117.213323,33.499405],[-117.21338,33.499409],[-117.213451,33.499447],[-117.213487,33.499477],[-117.21351,33.499518],[-117.213497,33.499625]]]}},{"type":"Feature","properties":{"k":"green"},"geometry":{"type":"Polygon","coordinates":[[[-117.212964,33.50058],[-117.212985,33.500615],[-117.212985,33.50064],[-117.212968,33.500665],[-117.212924,33.500683],[-117.212867,33.500735],[-117.212783,33.500765],[-117.212737,33.500766],[-117.21272,33.500757],[-117.212687,33.50072],[-117.212684,33.500692],[-117.212693,33.500662],[-117.212708,33.500644],[-117.212783,33.500623],[-117.212883,33.500557],[-117.212912,33.500555],[-117.212964,33.50058]]]}},{"type":"Feature","properties":{"k":"bunker"},"geometry":{"type":"Polygon","coordinates":[[[-117.213096,33.50058],[-117.213126,33.500585],[-117.213127,33.500618],[-117.213003,33.500737],[-117.212975,33.500743],[-117.212963,33.500738],[-117.21296,33.500703],[-117.213003,33.500674],[-117.213021,33.500635],[-117.213041,33.500615],[-117.213096,33.50058]]]}},{"type":"Feature","properties":{"k":"bunker"},"geometry":{"type":"Polygon","coordinates":[[[-117.213103,33.500302],[-117.213123,33.500315],[-117.21312,33.500349],[-117.213096,33.500378],[-117.213053,33.500385],[-117.213029,33.500374],[-117.213031,33.500336],[-117.213049,33.500315],[-117.213103,33.500302]]]}},{"type":"Feature","properties":{"k":"tee"},"geometry":{"type":"Polygon","coordinates":[[[-117.212208,33.501712],[-117.212127,33.501689],[-117.212149,33.501635],[-117.212217,33.501648],[-117.212208,33.501712]]]}},{"type":"Feature","properties":{"k":"tee"},"geometry":{"type":"Polygon","coordinates":[[[-117.212443,33.501757],[-117.212485,33.501679],[-117.212377,33.501657],[-117.212339,33.501735],[-117.212443,33.501757]]]}},{"type":"Feature","properties":{"k":"tee"},"geometry":{"type":"Polygon","coordinates":[[[-117.212786,33.501861],[-117.212813,33.501782],[-117.212552,33.501718],[-117.212526,33.501801],[-117.212786,33.501861]]]}},{"type":"Feature","properties":{"k":"tee"},"geometry":{"type":"Polygon","coordinates":[[[-117.213028,33.501954],[-117.213057,33.501876],[-117.212922,33.501833],[-117.212893,33.501915],[-117.213028,33.501954]]]}},{"type":"Feature","properties":{"k":"tee"},"geometry":{"type":"Polygon","coordinates":[[[-117.213235,33.502008],[-117.213257,33.501945],[-117.213162,33.50191],[-117.213139,33.501986],[-117.213235,33.502008]]]}},{"type":"Feature","properties":{"k":"tee"},"geometry":{"type":"Polygon","coordinates":[[[-117.214013,33.502275],[-117.214009,33.502219],[-117.213912,33.502213],[-117.213914,33.502274],[-117.214013,33.502275]]]}},{"type":"Feature","properties":{"k":"green"},"geometry":{"type":"Polygon","coordinates":[[[-117.216601,33.501992],[-117.216648,33.502028],[-117.216673,33.502078],[-117.216674,33.502102],[-117.21666,33.502129],[-117.216624,33.502153],[-117.216445,33.502195],[-117.216374,33.502183],[-117.216295,33.502142],[-117.216291,33.502118],[-117.216303,33.502096],[-117.216385,33.502055],[-117.216431,33.501998],[-117.216478,33.501985],[-117.216601,33.501992]]]}},{"type":"Feature","properties":{"k":"bunker"},"geometry":{"type":"Polygon","coordinates":[[[-117.216387,33.501909],[-117.216399,33.501915],[-117.216402,33.501932],[-117.21639,33.501952],[-117.216357,33.501966],[-117.21631,33.502013],[-117.216276,33.502024],[-117.216264,33.502012],[-117.216262,33.501992],[-117.216275,33.501967],[-117.216316,33.501931],[-117.216371,33.501907],[-117.216387,33.501909]]]}},{"type":"Feature","properties":{"k":"bunker"},"geometry":{"type":"Polygon","coordinates":[[[-117.215878,33.502125],[-117.215906,33.502142],[-117.215914,33.502166],[-117.215894,33.502179],[-117.215859,33.502186],[-117.215829,33.502206],[-117.215792,33.502186],[-117.215792,33.502163],[-117.21581,33.50214],[-117.215852,33.502123],[-117.215878,33.502125]]]}},{"type":"Feature","properties":{"k":"bunker"},"geometry":{"type":"Polygon","coordinates":[[[-117.215156,33.502153],[-117.215198,33.502154],[-117.215213,33.502164],[-117.215221,33.502177],[-117.215217,33.502195],[-117.215207,33.502202],[-117.21512,33.502203],[-117.215104,33.502164],[-117.215115,33.502153],[-117.215156,33.502153]]]}},{"type":"Feature","properties":{"k":"water"},"geometry":{"type":"Polygon","coordinates":[[[-117.21481,33.501856],[-117.214857,33.501887],[-117.215028,33.501945],[-117.215057,33.501967],[-117.215063,33.501999],[-117.215058,33.502029],[-117.215005,33.502044],[-117.214836,33.502043],[-117.214667,33.502086],[-117.214562,33.502079],[-117.214421,33.502046],[-117.214343,33.502017],[-117.214312,33.501986],[-117.214302,33.501853],[-117.214322,33.501827],[-117.21441,33.501796],[-117.214546,33.501725],[-117.214623,33.501713],[-117.214699,33.501728],[-117.214759,33.50177],[-117.21481,33.501856]]]}},{"type":"Feature","properties":{"k":"tee"},"geometry":{"type":"Polygon","coordinates":[[[-117.215677,33.501789],[-117.215669,33.501699],[-117.215558,33.501707],[-117.215572,33.501801],[-117.215677,33.501789]]]}},{"type":"Feature","properties":{"k":"tee"},"geometry":{"type":"Polygon","coordinates":[[[-117.216131,33.501736],[-117.216106,33.501632],[-117.215843,33.50164],[-117.215839,33.501756],[-117.216131,33.501736]]]}},{"type":"Feature","properties":{"k":"tee"},"geometry":{"type":"Polygon","coordinates":[[[-117.216334,33.501625],[-117.216326,33.501538],[-117.216197,33.501541],[-117.216203,33.501624],[-117.216334,33.501625]]]}},{"type":"Feature","properties":{"k":"tee"},"geometry":{"type":"Polygon","coordinates":[[[-117.216943,33.501861],[-117.216929,33.501768],[-117.216804,33.501782],[-117.216826,33.501877],[-117.216943,33.501861]]]}},{"type":"Feature","properties":{"k":"green"},"geometry":{"type":"Polygon","coordinates":[[[-117.220882,33.500799],[-117.220903,33.500825],[-117.220904,33.500857],[-117.220893,33.500902],[-117.220867,33.500951],[-117.220838,33.500978],[-117.220763,33.501007],[-117.220701,33.501015],[-117.220585,33.501004],[-117.220561,33.500987],[-117.220553,33.500972],[-117.220556,33.500941],[-117.220587,33.50092],[-117.220654,33.500852],[-117.220753,33.500794],[-117.220807,33.500773],[-117.22083,33.500772],[-117.220866,33.50078],[-117.220882,33.500799]]]}},{"type":"Feature","properties":{"k":"bunker"},"geometry":{"type":"Polygon","coordinates":[[[-117.220559,33.500782],[-117.220578,33.500787],[-117.220602,33.50081],[-117.220597,33.500844],[-117.220511,33.500865],[-117.220501,33.500857],[-117.220497,33.500835],[-117.220505,33.500809],[-117.220559,33.500782]]]}},{"type":"Feature","properties":{"k":"bunker"},"geometry":{"type":"Polygon","coordinates":[[[-117.220459,33.501071],[-117.220479,33.501075],[-117.22049,33.501113],[-117.220471,33.501125],[-117.220459,33.501173],[-117.220437,33.501177],[-117.220373,33.50117],[-117.220359,33.501156],[-117.220399,33.501073],[-117.220423,33.501066],[-117.220459,33.501071]]]}},{"type":"Feature","properties":{"k":"bunker"},"geometry":{"type":"Polygon","coordinates":[[[-117.22015,33.500865],[-117.220185,33.500894],[-117.220189,33.500921],[-117.220151,33.500954],[-117.220127,33.500959],[-117.220109,33.500951],[-117.220098,33.500933],[-117.220096,33.500906],[-117.22011,33.500882],[-117.22015,33.500865]]]}},{"type":"Feature","properties":{"k":"bunker"},"geometry":{"type":"Polygon","coordinates":[[[-117.220003,33.500975],[-117.220043,33.500978],[-117.220054,33.500992],[-117.220054,33.501011],[-117.220025,33.501029],[-117.219988,33.501069],[-117.219962,33.501078],[-117.219919,33.501114],[-117.219895,33.501115],[-117.219874,33.501102],[-117.219871,33.501086],[-117.219884,33.501063],[-117.219934,33.501037],[-117.219967,33.501001],[-117.220003,33.500975]]]}},{"type":"Feature","properties":{"k":"bunker"},"geometry":{"type":"Polygon","coordinates":[[[-117.219111,33.501112],[-117.219127,33.501123],[-117.219134,33.50114],[-117.219126,33.501176],[-117.219104,33.501214],[-117.218996,33.501346],[-117.218949,33.501334],[-117.218937,33.501325],[-117.218935,33.501304],[-117.218954,33.501279],[-117.219015,33.501261],[-117.219063,33.501215],[-117.219083,33.501129],[-117.219111,33.501112]]]}},{"type":"Feature","properties":{"k":"bunker"},"geometry":{"type":"Polygon","coordinates":[[[-117.2178,33.501255],[-117.217829,33.50128],[-117.217811,33.501315],[-117.217767,33.501321],[-117.21773,33.501305],[-117.217728,33.501286],[-117.217744,33.501266],[-117.217763,33.501253],[-117.2178,33.501255]]]}},{"type":"Feature","properties":{"k":"bunker"},"geometry":{"type":"Polygon","coordinates":[[[-117.217689,33.501362],[-117.217675,33.501375],[-117.217639,33.501388],[-117.217622,33.501392],[-117.217603,33.501385],[-117.217601,33.501361],[-117.217613,33.501337],[-117.217664,33.501318],[-117.217693,33.501338],[-117.217689,33.501362]]]}},{"type":"Feature","properties":{"k":"bunker"},"geometry":{"type":"Polygon","coordinates":[[[-117.217483,33.501377],[-117.217509,33.501398],[-117.217508,33.501421],[-117.217496,33.501434],[-117.217447,33.501452],[-117.217425,33.501447],[-117.217412,33.501436],[-117.217414,33.50142],[-117.217483,33.501377]]]}},{"type":"Feature","properties":{"k":"bunker"},"geometry":{"type":"Polygon","coordinates":[[[-117.217425,33.501489],[-117.21743,33.501504],[-117.217418,33.501522],[-117.217343,33.501556],[-117.217321,33.501552],[-117.217313,33.501528],[-117.217325,33.501501],[-117.217371,33.501481],[-117.217403,33.501477],[-117.217425,33.501489]]]}},{"type":"Feature","properties":{"k":"bunker"},"geometry":{"type":"Polygon","coordinates":[[[-117.217229,33.501575],[-117.217279,33.501573],[-117.217283,33.501593],[-117.217265,33.501606],[-117.217259,33.501619],[-117.217219,33.501624],[-117.217209,33.501615],[-117.217229,33.501575]]]}},{"type":"Feature","properties":{"k":"tee"},"geometry":{"type":"Polygon","coordinates":[[[-117.222417,33.500506],[-117.222463,33.500431],[-117.222381,33.5004],[-117.222333,33.50047],[-117.222417,33.500506]]]}},{"type":"Feature","properties":{"k":"tee"},"geometry":{"type":"Polygon","coordinates":[[[-117.222283,33.500442],[-117.222315,33.500378],[-117.22221,33.500337],[-117.222153,33.500424],[-117.222275,33.500473],[-117.222283,33.500442]]]}},{"type":"Feature","properties":{"k":"tee"},"geometry":{"type":"Polygon","coordinates":[[[-117.222049,33.500452],[-117.222102,33.500339],[-117.221999,33.500293],[-117.221933,33.500412],[-117.222049,33.500452]]]}},{"type":"Feature","properties":{"k":"tee"},"geometry":{"type":"Polygon","coordinates":[[[-117.221839,33.50041],[-117.221913,33.500304],[-117.221784,33.500247],[-117.221706,33.500362],[-117.221839,33.50041]]]}},{"type":"Feature","properties":{"k":"tee"},"geometry":{"type":"Polygon","coordinates":[[[-117.221631,33.500345],[-117.221689,33.500264],[-117.221572,33.500222],[-117.221524,33.500304],[-117.221631,33.500345]]]}},{"type":"Feature","properties":{"k":"green"},"geometry":{"type":"Polygon","coordinates":[[[-117.220546,33.499666],[-117.220607,33.499782],[-117.220563,33.499851],[-117.220544,33.499859],[-117.220497,33.49986],[-117.220451,33.49985],[-117.220418,33.499824],[-117.22037,33.499758],[-117.220348,33.499713],[-117.220337,33.49967],[-117.220338,33.499628],[-117.220354,33.499594],[-117.220373,33.499578],[-117.220456,33.49956],[-117.220495,33.499576],[-117.220546,33.499666]]]}},{"type":"Feature","properties":{"k":"bunker"},"geometry":{"type":"Polygon","coordinates":[[[-117.220585,33.49991],[-117.220609,33.499926],[-117.220612,33.499942],[-117.220611,33.499976],[-117.220593,33.499992],[-117.220509,33.500008],[-117.220466,33.500001],[-117.220404,33.49996],[-117.220406,33.499921],[-117.220416,33.499913],[-117.220585,33.49991]]]}},{"type":"Feature","properties":{"k":"water"},"geometry":{"type":"Polygon","coordinates":[[[-117.22103,33.499468],[-117.221101,33.499543],[-117.221133,33.499607],[-117.221146,33.499733],[-117.221118,33.499777],[-117.221157,33.499883],[-117.221123,33.49991],[-117.22105,33.499906],[-117.221017,33.499829],[-117.220985,33.49979],[-117.22091,33.499783],[-117.220805,33.499743],[-117.220753,33.499715],[-117.220715,33.499668],[-117.220689,33.499595],[-117.220644,33.49953],[-117.220522,33.499484],[-117.220335,33.499496],[-117.220296,33.499488],[-117.220269,33.49945],[-117.220288,33.499355],[-117.220348,33.499282],[-117.220545,33.499124],[-117.220582,33.499083],[-117.220657,33.499078],[-117.220762,33.49911],[-117.220844,33.499183],[-117.220929,33.499341],[-117.22103,33.499468]]]}},{"type":"Feature","properties":{"k":"tee"},"geometry":{"type":"Polygon","coordinates":[[[-117.219769,33.499684],[-117.219815,33.499636],[-117.219771,33.499599],[-117.219724,33.499642],[-117.219769,33.499684]]]}},{"type":"Feature","properties":{"k":"tee"},"geometry":{"type":"Polygon","coordinates":[[[-117.21992,33.499582],[-117.219993,33.499498],[-117.219921,33.499452],[-117.219851,33.499531],[-117.21992,33.499582]]]}},{"type":"Feature","properties":{"k":"tee"},"geometry":{"type":"Polygon","coordinates":[[[-117.220038,33.499395],[-117.220131,33.499304],[-117.22005,33.499243],[-117.219962,33.499337],[-117.220038,33.499395]]]}},{"type":"Feature","properties":{"k":"tee"},"geometry":{"type":"Polygon","coordinates":[[[-117.220125,33.499184],[-117.220236,33.499103],[-117.220174,33.499045],[-117.220065,33.499134],[-117.220125,33.499184]]]}},{"type":"Feature","properties":{"k":"tee"},"geometry":{"type":"Polygon","coordinates":[[[-117.220333,33.498967],[-117.220445,33.498886],[-117.220357,33.498818],[-117.220261,33.498908],[-117.220333,33.498967]]]}},{"type":"Feature","properties":{"k":"tee"},"geometry":{"type":"Polygon","coordinates":[[[-117.220637,33.498529],[-117.220737,33.498464],[-117.22067,33.498387],[-117.220577,33.498445],[-117.220637,33.498529]]]}},{"type":"Feature","properties":{"k":"fairway"},"geometry":{"type":"Polygon","coordinates":[[[-117.221299,33.498196],[-117.221013,33.498319],[-117.220905,33.498325],[-117.220857,33.498304],[-117.220834,33.498265],[-117.220834,33.49822],[-117.220874,33.498155],[-117.221146,33.497889],[-117.221257,33.49776],[-117.221375,33.497653],[-117.221504,33.497591],[-117.221564,33.497571],[-117.221668,33.497538],[-117.221803,33.497512],[-117.221899,33.497516],[-117.221956,33.497527],[-117.222008,33.497549],[-117.222088,33.497607],[-117.222115,33.497641],[-117.22213,33.497674],[-117.222133,33.497706],[-117.222115,33.497754],[-117.222047,33.497812],[-117.221718,33.49796],[-117.221474,33.498089],[-117.221299,33.498196]]]}},{"type":"Feature","properties":{"k":"fairway"},"geometry":{"type":"Polygon","coordinates":[[[-117.222397,33.497521],[-117.22232,33.497565],[-117.222196,33.497545],[-117.222045,33.497441],[-117.222026,33.49742],[-117.222016,33.497393],[-117.222014,33.497344],[-117.222143,33.49719],[-117.222208,33.497153],[-117.222338,33.497148],[-117.222384,33.497168],[-117.222414,33.4972],[-117.222424,33.497257],[-117.222385,33.497411],[-117.222398,33.497465],[-117.222397,33.497521]]]}},{"type":"Feature","properties":{"k":"green"},"geometry":{"type":"Polygon","coordinates":[[[-117.223141,33.496867],[-117.223173,33.496892],[-117.2232,33.496928],[-117.223204,33.497012],[-117.223183,33.497056],[-117.223157,33.497087],[-117.223094,33.497108],[-117.222999,33.497135],[-117.222912,33.497141],[-117.222869,33.497108],[-117.22287,33.497085],[-117.222894,33.49705],[-117.222983,33.496959],[-117.223024,33.496899],[-117.223097,33.496864],[-117.223141,33.496867]]]}},{"type":"Feature","properties":{"k":"bunker"},"geometry":{"type":"Polygon","coordinates":[[[-117.223052,33.497157],[-117.223084,33.497176],[-117.22309,33.497197],[-117.223077,33.497218],[-117.22305,33.497228],[-117.223013,33.497227],[-117.222989,33.497212],[-117.222993,33.497181],[-117.223033,33.497156],[-117.223052,33.497157]]]}},{"type":"Feature","properties":{"k":"bunker"},"geometry":{"type":"Polygon","coordinates":[[[-117.222801,33.497268],[-117.222832,33.497274],[-117.222853,33.497289],[-117.222848,33.497319],[-117.222806,33.497354],[-117.222763,33.497346],[-117.222742,33.497333],[-117.222739,33.497313],[-117.222748,33.497292],[-117.222801,33.497268]]]}},{"type":"Feature","properties":{"k":"water"},"geometry":{"type":"Polygon","coordinates":[[[-117.223104,33.496553],[-117.223158,33.496556],[-117.223218,33.496573],[-117.22327,33.49661],[-117.223281,33.496671],[-117.223255,33.49671],[-117.223173,33.49674],[-117.223027,33.496808],[-117.222861,33.496975],[-117.222743,33.497054],[-117.222652,33.49709],[-117.222573,33.497101],[-117.222499,33.497103],[-117.222433,33.497065],[-117.222428,33.496931],[-117.222459,33.496877],[-117.222646,33.496744],[-117.222954,33.496607],[-117.223104,33.496553]]]}},{"type":"Feature","properties":{"k":"tee"},"geometry":{"type":"Polygon","coordinates":[[[-117.227303,33.495443],[-117.22731,33.495371],[-117.227174,33.495376],[-117.227174,33.49544],[-117.227303,33.495443]]]}},{"type":"Feature","properties":{"k":"tee"},"geometry":{"type":"Polygon","coordinates":[[[-117.227581,33.495264],[-117.227586,33.495204],[-117.227346,33.495195],[-117.227335,33.495254],[-117.227581,33.495264]]]}},{"type":"Feature","properties":{"k":"tee"},"geometry":{"type":"Polygon","coordinates":[[[-117.227931,33.49529],[-117.227935,33.49522],[-117.227778,33.495208],[-117.227768,33.49527],[-117.227931,33.49529]]]}},{"type":"Feature","properties":{"k":"tee"},"geometry":{"type":"Polygon","coordinates":[[[-117.228343,33.495328],[-117.228354,33.495249],[-117.228233,33.495234],[-117.228213,33.495304],[-117.228343,33.495328]]]}},{"type":"Feature","properties":{"k":"tee"},"geometry":{"type":"Polygon","coordinates":[[[-117.228739,33.495373],[-117.228761,33.495282],[-117.228647,33.495265],[-117.228618,33.495356],[-117.228739,33.495373]]]}},{"type":"Feature","properties":{"k":"green"},"geometry":{"type":"Polygon","coordinates":[[[-117.230819,33.495128],[-117.230852,33.495169],[-117.230847,33.495239],[-117.23079,33.495285],[-117.230703,33.495324],[-117.23066,33.495333],[-117.23053,33.495304],[-117.230517,33.495286],[-117.230522,33.49525],[-117.230549,33.495204],[-117.230636,33.495143],[-117.230693,33.495118],[-117.23079,33.495114],[-117.230819,33.495128]]]}},{"type":"Feature","properties":{"k":"bunker"},"geometry":{"type":"Polygon","coordinates":[[[-117.230572,33.495369],[-117.230575,33.495407],[-117.230567,33.495425],[-117.230518,33.495448],[-117.230499,33.495448],[-117.230476,33.495435],[-117.230472,33.495413],[-117.230524,33.495356],[-117.230572,33.495369]]]}},{"type":"Feature","properties":{"k":"bunker"},"geometry":{"type":"Polygon","coordinates":[[[-117.230535,33.495093],[-117.230535,33.49515],[-117.23049,33.495152],[-117.230472,33.495131],[-117.230474,33.495118],[-117.230488,33.495104],[-117.230535,33.495093]]]}},{"type":"Feature","properties":{"k":"bunker"},"geometry":{"type":"Polygon","coordinates":[[[-117.229834,33.495327],[-117.229853,33.49536],[-117.229834,33.495386],[-117.229815,33.495394],[-117.229792,33.49538],[-117.229756,33.495325],[-117.229711,33.495291],[-117.229716,33.495268],[-117.229808,33.49527],[-117.229824,33.495283],[-117.229834,33.495327]]]}},{"type":"Feature","properties":{"k":"bunker"},"geometry":{"type":"Polygon","coordinates":[[[-117.229486,33.495536],[-117.229512,33.495559],[-117.22951,33.49558],[-117.229492,33.495595],[-117.229457,33.495592],[-117.229428,33.49556],[-117.229431,33.495543],[-117.229467,33.495531],[-117.229486,33.495536]]]}},{"type":"Feature","properties":{"k":"tee"},"geometry":{"type":"Polygon","coordinates":[[[-117.230737,33.495937],[-117.230786,33.495873],[-117.230704,33.495832],[-117.23065,33.495887],[-117.230737,33.495937]]]}},{"type":"Feature","properties":{"k":"tee"},"geometry":{"type":"Polygon","coordinates":[[[-117.231069,33.496113],[-117.231114,33.496051],[-117.230878,33.495912],[-117.230838,33.49598],[-117.231069,33.496113]]]}},{"type":"Feature","properties":{"k":"tee"},"geometry":{"type":"Polygon","coordinates":[[[-117.231306,33.496265],[-117.231347,33.496209],[-117.231249,33.496157],[-117.231204,33.496208],[-117.231306,33.496265]]]}},{"type":"Feature","properties":{"k":"tee"},"geometry":{"type":"Polygon","coordinates":[[[-117.231656,33.496578],[-117.231694,33.496525],[-117.231607,33.496474],[-117.231567,33.496538],[-117.231656,33.496578]]]}},{"type":"Feature","properties":{"k":"green"},"geometry":{"type":"Polygon","coordinates":[[[-117.234269,33.497639],[-117.234316,33.497683],[-117.234304,33.497767],[-117.234274,33.497812],[-117.234238,33.497828],[-117.23413,33.49784],[-117.234084,33.497825],[-117.234037,33.497794],[-117.233996,33.497728],[-117.234002,33.497656],[-117.234059,33.497624],[-117.234103,33.497618],[-117.234221,33.49762],[-117.234269,33.497639]]]}},{"type":"Feature","properties":{"k":"bunker"},"geometry":{"type":"Polygon","coordinates":[[[-117.233723,33.497529],[-117.233743,33.497524],[-117.233774,33.497533],[-117.233782,33.497548],[-117.233745,33.497614],[-117.233705,33.497592],[-117.233685,33.497572],[-117.233686,33.497558],[-117.233723,33.497529]]]}},{"type":"Feature","properties":{"k":"bunker"},"geometry":{"type":"Polygon","coordinates":[[[-117.232866,33.496753],[-117.232889,33.496769],[-117.232888,33.496811],[-117.232832,33.496817],[-117.232789,33.496793],[-117.232782,33.496779],[-117.232794,33.496761],[-117.232866,33.496753]]]}},{"type":"Feature","properties":{"k":"tee"},"geometry":{"type":"Polygon","coordinates":[[[-117.234662,33.497479],[-117.23457,33.497535],[-117.2345,33.497449],[-117.234604,33.497402],[-117.234662,33.497479]]]}},{"type":"Feature","properties":{"k":"tee"},"geometry":{"type":"Polygon","coordinates":[[[-117.234846,33.497686],[-117.234746,33.497743],[-117.234652,33.497614],[-117.234749,33.497569],[-117.234846,33.497686]]]}},{"type":"Feature","properties":{"k":"tee"},"geometry":{"type":"Polygon","coordinates":[[[-117.234945,33.497965],[-117.23489,33.497995],[-117.234808,33.49788],[-117.234859,33.49785],[-117.234945,33.497965]]]}},{"type":"Feature","properties":{"k":"tee"},"geometry":{"type":"Polygon","coordinates":[[[-117.23509,33.498179],[-117.235026,33.498215],[-117.234994,33.498156],[-117.235047,33.49812],[-117.23509,33.498179]]]}},{"type":"Feature","properties":{"k":"green"},"geometry":{"type":"Polygon","coordinates":[[[-117.235607,33.498614],[-117.235675,33.498641],[-117.23569,33.498663],[-117.235696,33.498741],[-117.235679,33.49877],[-117.23557,33.498839],[-117.235537,33.49885],[-117.235491,33.498856],[-117.235447,33.498845],[-117.235413,33.498817],[-117.235406,33.498792],[-117.235411,33.498714],[-117.235452,33.498668],[-117.235509,33.498628],[-117.235558,33.498612],[-117.235607,33.498614]]]}},{"type":"Feature","properties":{"k":"bunker"},"geometry":{"type":"Polygon","coordinates":[[[-117.235622,33.498518],[-117.235641,33.498541],[-117.235641,33.498561],[-117.235617,33.498581],[-117.235571,33.498579],[-117.235554,33.498542],[-117.235556,33.498517],[-117.235578,33.49851],[-117.235622,33.498518]]]}},{"type":"Feature","properties":{"k":"bunker"},"geometry":{"type":"Polygon","coordinates":[[[-117.235481,33.498518],[-117.235506,33.498526],[-117.23551,33.498547],[-117.235503,33.498587],[-117.235489,33.498596],[-117.235428,33.498555],[-117.235433,33.498534],[-117.235481,33.498518]]]}},{"type":"Feature","properties":{"k":"tee"},"geometry":{"type":"Polygon","coordinates":[[[-117.235518,33.499267],[-117.235586,33.499217],[-117.235539,33.499167],[-117.235456,33.499217],[-117.235518,33.499267]]]}},{"type":"Feature","properties":{"k":"tee"},"geometry":{"type":"Polygon","coordinates":[[[-117.23568,33.499131],[-117.235761,33.49907],[-117.235685,33.499016],[-117.235621,33.499085],[-117.23568,33.499131]]]}},{"type":"Feature","properties":{"k":"tee"},"geometry":{"type":"Polygon","coordinates":[[[-117.235845,33.498999],[-117.235921,33.498933],[-117.235848,33.498888],[-117.23578,33.498955],[-117.235845,33.498999]]]}},{"type":"Feature","properties":{"k":"tee"},"geometry":{"type":"Polygon","coordinates":[[[-117.235987,33.498844],[-117.236041,33.498784],[-117.23596,33.498739],[-117.235902,33.498795],[-117.235987,33.498844]]]}},{"type":"Feature","properties":{"k":"tee"},"geometry":{"type":"Polygon","coordinates":[[[-117.236076,33.49866],[-117.236124,33.498611],[-117.236062,33.49857],[-117.236013,33.498626],[-117.236076,33.49866]]]}},{"type":"Feature","properties":{"k":"tee"},"geometry":{"type":"Polygon","coordinates":[[[-117.236443,33.497988],[-117.23636,33.498017],[-117.236332,33.497962],[-117.236408,33.497929],[-117.236443,33.497988]]]}},{"type":"Feature","properties":{"k":"fairway"},"geometry":{"type":"Polygon","coordinates":[[[-117.237021,33.497499],[-117.237075,33.4975],[-117.237124,33.497512],[-117.237247,33.497557],[-117.237262,33.49758],[-117.237265,33.497622],[-117.237257,33.497664],[-117.237205,33.497706],[-117.236857,33.497876],[-117.236782,33.497892],[-117.236706,33.497874],[-117.236649,33.497843],[-117.236629,33.497766],[-117.236629,33.49772],[-117.236693,33.4976],[-117.236714,33.497584],[-117.23681,33.497553],[-117.237021,33.497499]]]}},{"type":"Feature","properties":{"k":"fairway"},"geometry":{"type":"Polygon","coordinates":[[[-117.2378,33.497582],[-117.237878,33.497576],[-117.237932,33.497594],[-117.237987,33.497629],[-117.237997,33.497653],[-117.238002,33.497744],[-117.237987,33.497781],[-117.237891,33.497805],[-117.237833,33.497801],[-117.237761,33.49776],[-117.237745,33.4977],[-117.237745,33.497642],[-117.237764,33.49761],[-117.2378,33.497582]]]}},{"type":"Feature","properties":{"k":"green"},"geometry":{"type":"Polygon","coordinates":[[[-117.238733,33.497692],[-117.23877,33.497722],[-117.238799,33.497763],[-117.238811,33.497796],[-117.238816,33.497853],[-117.23881,33.497882],[-117.238786,33.497906],[-117.238759,33.497921],[-117.238712,33.497922],[-117.238667,33.497909],[-117.238608,33.497865],[-117.238568,33.497826],[-117.23855,33.497784],[-117.238568,33.497733],[-117.238592,33.497707],[-117.238629,33.497687],[-117.238658,33.497683],[-117.238733,33.497692]]]}},{"type":"Feature","properties":{"k":"bunker"},"geometry":{"type":"Polygon","coordinates":[[[-117.2385,33.497657],[-117.238517,33.497664],[-117.238528,33.497714],[-117.238497,33.497729],[-117.238455,33.497727],[-117.238446,33.497689],[-117.238473,33.497657],[-117.2385,33.497657]]]}},{"type":"Feature","properties":{"k":"tee"},"geometry":{"type":"Polygon","coordinates":[[[-117.238925,33.497361],[-117.238994,33.497306],[-117.238927,33.497244],[-117.238857,33.497304],[-117.238925,33.497361]]]}},{"type":"Feature","properties":{"k":"tee"},"geometry":{"type":"Polygon","coordinates":[[[-117.238745,33.497255],[-117.238861,33.497168],[-117.238773,33.497083],[-117.238652,33.497184],[-117.238745,33.497255]]]}},{"type":"Feature","properties":{"k":"tee"},"geometry":{"type":"Polygon","coordinates":[[[-117.238642,33.497079],[-117.238709,33.497016],[-117.238633,33.496953],[-117.238556,33.497008],[-117.238642,33.497079]]]}},{"type":"Feature","properties":{"k":"tee"},"geometry":{"type":"Polygon","coordinates":[[[-117.238539,33.496915],[-117.238601,33.496862],[-117.238536,33.496802],[-117.23846,33.49685],[-117.238539,33.496915]]]}},{"type":"Feature","properties":{"k":"tee"},"geometry":{"type":"Polygon","coordinates":[[[-117.238327,33.496702],[-117.238391,33.496652],[-117.238322,33.496596],[-117.238261,33.496646],[-117.238327,33.496702]]]}},{"type":"Feature","properties":{"k":"fairway"},"geometry":{"type":"Polygon","coordinates":[[[-117.23712,33.49566],[-117.237237,33.495708],[-117.23729,33.495752],[-117.237324,33.495796],[-117.237378,33.495929],[-117.237385,33.495968],[-117.237422,33.496038],[-117.237472,33.496106],[-117.23751,33.496137],[-117.237573,33.496158],[-117.237617,33.496182],[-117.237637,33.496253],[-117.23758,33.496331],[-117.237513,33.496353],[-117.237432,33.496353],[-117.237337,33.496327],[-117.23723,33.496268],[-117.237138,33.496204],[-117.237094,33.496155],[-117.237068,33.496079],[-117.237063,33.496002],[-117.237039,33.495961],[-117.236622,33.495722],[-117.236554,33.495676],[-117.23647,33.495637],[-117.236288,33.495587],[-117.236269,33.495536],[-117.23629,33.495489],[-117.236307,33.495472],[-117.236384,33.495455],[-117.236458,33.495458],[-117.236602,33.495516],[-117.236891,33.495611],[-117.23712,33.49566]]]}},{"type":"Feature","properties":{"k":"green"},"geometry":{"type":"Polygon","coordinates":[[[-117.234946,33.494994],[-117.235003,33.495015],[-117.235044,33.495057],[-117.235065,33.495092],[-117.235072,33.495154],[-117.235072,33.495176],[-117.235057,33.495205],[-117.235024,33.495225],[-117.234974,33.495233],[-117.234932,33.495226],[-117.234901,33.495208],[-117.234875,33.495139],[-117.234802,33.495076],[-117.234806,33.49503],[-117.234829,33.495016],[-117.234882,33.494988],[-117.234946,33.494994]]]}},{"type":"Feature","properties":{"k":"bunker"},"geometry":{"type":"Polygon","coordinates":[[[-117.235144,33.495259],[-117.235185,33.495281],[-117.235186,33.495293],[-117.235176,33.495308],[-117.235121,33.495319],[-117.23511,33.495303],[-117.235114,33.495267],[-117.235144,33.495259]]]}},{"type":"Feature","properties":{"k":"bunker"},"geometry":{"type":"Polygon","coordinates":[[[-117.235024,33.49527],[-117.235053,33.495285],[-117.235064,33.4953],[-117.235064,33.495317],[-117.23505,33.49533],[-117.235021,33.495331],[-117.234988,33.495306],[-117.234991,33.495278],[-117.235024,33.49527]]]}},{"type":"Feature","properties":{"k":"bunker"},"geometry":{"type":"Polygon","coordinates":[[[-117.235452,33.495289],[-117.235498,33.495353],[-117.235497,33.495377],[-117.23548,33.495393],[-117.235452,33.495397],[-117.23543,33.495392],[-117.235385,33.4953],[-117.235355,33.495263],[-117.235376,33.495231],[-117.235362,33.495179],[-117.235385,33.495155],[-117.235409,33.495151],[-117.235426,33.495158],[-117.235434,33.495185],[-117.235433,33.495257],[-117.235452,33.495289]]]}},{"type":"Feature","properties":{"k":"bunker"},"geometry":{"type":"Polygon","coordinates":[[[-117.236996,33.495958],[-117.23702,33.495973],[-117.237045,33.496014],[-117.237037,33.496044],[-117.237017,33.49605],[-117.23699,33.496044],[-117.236969,33.496029],[-117.23694,33.495984],[-117.236951,33.495957],[-117.236973,33.495951],[-117.236996,33.495958]]]}},{"type":"Feature","properties":{"k":"bunker"},"geometry":{"type":"Polygon","coordinates":[[[-117.237614,33.495976],[-117.237639,33.495986],[-117.237653,33.496015],[-117.237655,33.496043],[-117.23764,33.496081],[-117.237622,33.496094],[-117.237586,33.496083],[-117.237551,33.496041],[-117.237557,33.495996],[-117.237571,33.49598],[-117.237587,33.495969],[-117.237614,33.495976]]]}},{"type":"Feature","properties":{"k":"tee"},"geometry":{"type":"Polygon","coordinates":[[[-117.233602,33.494747],[-117.233564,33.494683],[-117.233484,33.494716],[-117.233524,33.494778],[-117.233602,33.494747]]]}},{"type":"Feature","properties":{"k":"tee"},"geometry":{"type":"Polygon","coordinates":[[[-117.233513,33.494601],[-117.233411,33.494649],[-117.233344,33.494504],[-117.233463,33.494476],[-117.233513,33.494601]]]}},{"type":"Feature","properties":{"k":"tee"},"geometry":{"type":"Polygon","coordinates":[[[-117.23334,33.494309],[-117.233273,33.49434],[-117.233238,33.494271],[-117.233318,33.494249],[-117.23334,33.494309]]]}},{"type":"Feature","properties":{"k":"tee"},"geometry":{"type":"Polygon","coordinates":[[[-117.233042,33.493899],[-117.232985,33.493916],[-117.232943,33.493829],[-117.232998,33.493809],[-117.233042,33.493899]]]}},{"type":"Feature","properties":{"k":"green"},"geometry":{"type":"Polygon","coordinates":[[[-117.231671,33.49158],[-117.231761,33.491636],[-117.231807,33.491718],[-117.231806,33.491765],[-117.231786,33.491791],[-117.231762,33.491801],[-117.231703,33.491797],[-117.23156,33.491748],[-117.231513,33.491703],[-117.231504,33.49165],[-117.231517,33.491624],[-117.231539,33.491605],[-117.231592,33.491578],[-117.231624,33.491573],[-117.231671,33.49158]]]}},{"type":"Feature","properties":{"k":"bunker"},"geometry":{"type":"Polygon","coordinates":[[[-117.232352,33.492563],[-117.232368,33.492572],[-117.232374,33.492605],[-117.232368,33.492622],[-117.232334,33.492645],[-117.232313,33.492638],[-117.232303,33.492599],[-117.232328,33.492573],[-117.232352,33.492563]]]}},{"type":"Feature","properties":{"k":"tee"},"geometry":{"type":"Polygon","coordinates":[[[-117.231928,33.491136],[-117.231882,33.491171],[-117.231838,33.491115],[-117.231902,33.491078],[-117.231928,33.491136]]]}},{"type":"Feature","properties":{"k":"tee"},"geometry":{"type":"Polygon","coordinates":[[[-117.231741,33.491276],[-117.231596,33.49136],[-117.231565,33.49131],[-117.2317,33.491233],[-117.231741,33.491276]]]}},{"type":"Feature","properties":{"k":"tee"},"geometry":{"type":"Polygon","coordinates":[[[-117.231425,33.491448],[-117.231331,33.491512],[-117.231278,33.49146],[-117.231386,33.4914],[-117.231425,33.491448]]]}},{"type":"Feature","properties":{"k":"tee"},"geometry":{"type":"Polygon","coordinates":[[[-117.231263,33.491601],[-117.231199,33.491648],[-117.231159,33.491606],[-117.231229,33.491559],[-117.231263,33.491601]]]}},{"type":"Feature","properties":{"k":"fairway"},"geometry":{"type":"Polygon","coordinates":[[[-117.230478,33.492194],[-117.230601,33.492066],[-117.230639,33.492014],[-117.230641,33.491988],[-117.230604,33.491937],[-117.230553,33.491895],[-117.23052,33.49187],[-117.230479,33.491856],[-117.23043,33.491863],[-117.230229,33.491987],[-117.230183,33.492026],[-117.230097,33.492065],[-117.229977,33.492103],[-117.229913,33.492162],[-117.229804,33.492444],[-117.229691,33.492535],[-117.229653,33.49258],[-117.229647,33.492609],[-117.229666,33.492639],[-117.229753,33.492664],[-117.229785,33.49266],[-117.229926,33.492595],[-117.229998,33.492537],[-117.230242,33.492382],[-117.230478,33.492194]]]}},{"type":"Feature","properties":{"k":"green"},"geometry":{"type":"Polygon","coordinates":[[[-117.228763,33.492842],[-117.228806,33.492854],[-117.228826,33.492873],[-117.228819,33.492926],[-117.228789,33.493001],[-117.228707,33.493091],[-117.228661,33.493108],[-117.228634,33.49311],[-117.228601,33.493109],[-117.228574,33.493097],[-117.228561,33.493073],[-117.228558,33.493018],[-117.228604,33.492914],[-117.228628,33.492879],[-117.228654,33.492859],[-117.228763,33.492842]]]}},{"type":"Feature","properties":{"k":"bunker"},"geometry":{"type":"Polygon","coordinates":[[[-117.228996,33.492682],[-117.229022,33.492708],[-117.22902,33.492723],[-117.228998,33.492736],[-117.228961,33.492733],[-117.228955,33.49272],[-117.228961,33.492697],[-117.228996,33.492682]]]}},{"type":"Feature","properties":{"k":"tee"},"geometry":{"type":"Polygon","coordinates":[[[-117.228168,33.492618],[-117.228203,33.492538],[-117.228151,33.492514],[-117.228103,33.492608],[-117.228168,33.492618]]]}},{"type":"Feature","properties":{"k":"tee"},"geometry":{"type":"Polygon","coordinates":[[[-117.228277,33.492408],[-117.228207,33.492382],[-117.228258,33.492274],[-117.228322,33.492303],[-117.228277,33.492408]]]}},{"type":"Feature","properties":{"k":"tee"},"geometry":{"type":"Polygon","coordinates":[[[-117.228382,33.492221],[-117.228318,33.492204],[-117.228352,33.492118],[-117.228422,33.492142],[-117.228382,33.492221]]]}},{"type":"Feature","properties":{"k":"tee"},"geometry":{"type":"Polygon","coordinates":[[[-117.228451,33.49208],[-117.228406,33.492061],[-117.228456,33.491951],[-117.228506,33.491969],[-117.228451,33.49208]]]}},{"type":"Feature","properties":{"k":"tee"},"geometry":{"type":"Polygon","coordinates":[[[-117.22855,33.491911],[-117.228492,33.491895],[-117.228524,33.491824],[-117.228578,33.491841],[-117.22855,33.491911]]]}},{"type":"Feature","properties":{"k":"green"},"geometry":{"type":"Polygon","coordinates":[[[-117.228758,33.4912],[-117.228804,33.491222],[-117.228807,33.491249],[-117.228799,33.491277],[-117.22867,33.491349],[-117.228624,33.491395],[-117.228582,33.491412],[-117.228552,33.491414],[-117.228525,33.491404],[-117.228504,33.491382],[-117.228504,33.491348],[-117.228552,33.491291],[-117.228701,33.491213],[-117.228758,33.4912]]]}},{"type":"Feature","properties":{"k":"bunker"},"geometry":{"type":"Polygon","coordinates":[[[-117.228551,33.49146],[-117.228555,33.491513],[-117.228475,33.491591],[-117.228448,33.4916],[-117.228425,33.491591],[-117.22842,33.491564],[-117.22844,33.491523],[-117.228479,33.491481],[-117.228486,33.491456],[-117.228504,33.491448],[-117.228551,33.49146]]]}},{"type":"Feature","properties":{"k":"tee"},"geometry":{"type":"Polygon","coordinates":[[[-117.228227,33.492906],[-117.228169,33.492882],[-117.228328,33.492568],[-117.228387,33.492591],[-117.228227,33.492906]]]}},{"type":"Feature","properties":{"k":"tee"},"geometry":{"type":"Polygon","coordinates":[[[-117.228176,33.493172],[-117.228096,33.493135],[-117.228143,33.493056],[-117.228228,33.49309],[-117.228176,33.493172]]]}},{"type":"Feature","properties":{"k":"tee"},"geometry":{"type":"Polygon","coordinates":[[[-117.228146,33.493434],[-117.228074,33.493399],[-117.228137,33.493317],[-117.228203,33.49335],[-117.228146,33.493434]]]}},{"type":"Feature","properties":{"k":"tee"},"geometry":{"type":"Polygon","coordinates":[[[-117.228026,33.493851],[-117.227987,33.493826],[-117.22805,33.493757],[-117.228079,33.49378],[-117.228026,33.493851]]]}},{"type":"Feature","properties":{"k":"fairway"},"geometry":{"type":"Polygon","coordinates":[[[-117.22794,33.494016],[-117.227944,33.493909],[-117.227928,33.493831],[-117.227951,33.493765],[-117.228016,33.493646],[-117.228036,33.493555],[-117.228034,33.493514],[-117.227967,33.493451],[-117.22785,33.493433],[-117.227771,33.493513],[-117.227456,33.493913],[-117.227345,33.494104],[-117.227326,33.494207],[-117.227239,33.494379],[-117.227082,33.494484],[-117.226623,33.494668],[-117.226568,33.494697],[-117.226562,33.494724],[-117.226584,33.494751],[-117.226628,33.494771],[-117.226695,33.494771],[-117.226989,33.494743],[-117.227139,33.494737],[-117.227246,33.494668],[-117.227319,33.49466],[-117.227461,33.494659],[-117.227519,33.494626],[-117.227643,33.494482],[-117.227747,33.4944],[-117.22782,33.494261],[-117.22784,33.494192],[-117.22794,33.494016]]]}},{"type":"Feature","properties":{"k":"green"},"geometry":{"type":"Polygon","coordinates":[[[-117.225592,33.494603],[-117.225643,33.494633],[-117.225716,33.494716],[-117.225722,33.494739],[-117.225714,33.494774],[-117.225689,33.494795],[-117.225651,33.494802],[-117.225609,33.4948],[-117.225554,33.494782],[-117.22545,33.494735],[-117.225406,33.494724],[-117.225377,33.494707],[-117.225364,33.494685],[-117.225364,33.494653],[-117.225388,33.49462],[-117.225422,33.4946],[-117.225523,33.494596],[-117.225592,33.494603]]]}},{"type":"Feature","properties":{"k":"bunker"},"geometry":{"type":"Polygon","coordinates":[[[-117.225831,33.494739],[-117.225859,33.494749],[-117.225879,33.494767],[-117.225891,33.494812],[-117.225871,33.494822],[-117.22581,33.49483],[-117.22579,33.494821],[-117.225778,33.494805],[-117.225776,33.494766],[-117.225801,33.494738],[-117.225831,33.494739]]]}},{"type":"Feature","properties":{"k":"bunker"},"geometry":{"type":"Polygon","coordinates":[[[-117.225643,33.494838],[-117.225657,33.494843],[-117.225663,33.494859],[-117.225658,33.494883],[-117.22563,33.4949],[-117.225565,33.494903],[-117.225555,33.494882],[-117.22556,33.494861],[-117.225643,33.494838]]]}},{"type":"Feature","properties":{"k":"bunker"},"geometry":{"type":"Polygon","coordinates":[[[-117.225476,33.494785],[-117.225489,33.494802],[-117.225484,33.494826],[-117.225465,33.494849],[-117.225441,33.494857],[-117.225412,33.494849],[-117.225398,33.494828],[-117.225401,33.494805],[-117.225419,33.494785],[-117.225444,33.494774],[-117.225476,33.494785]]]}}]}