{"type":"FeatureCollection","features":[{"type":"Feature","properties":{"k":"hole","ref":"1","par":4},"geometry":{"type":"LineString","coordinates":[[-79.409022,43.749421],[-79.411034,43.750711],[-79.411495,43.750642]]}},{"type":"Feature","properties":{"k":"hole","ref":"2","par":4},"geometry":{"type":"LineString","coordinates":[[-79.415314,43.750757],[-79.417102,43.749046],[-79.418519,43.748466]]}},{"type":"Feature","properties":{"k":"hole","ref":"3","par":5},"geometry":{"type":"LineString","coordinates":[[-79.420073,43.748267],[-79.422338,43.748831],[-79.423656,43.749559],[-79.424355,43.750068]]}},{"type":"Feature","properties":{"k":"hole","ref":"4","par":4},"geometry":{"type":"LineString","coordinates":[[-79.424414,43.750665],[-79.422236,43.75073],[-79.420327,43.749778]]}},{"type":"Feature","properties":{"k":"hole","ref":"5","par":3},"geometry":{"type":"LineString","coordinates":[[-79.420586,43.749504],[-79.422247,43.750091]]}},{"type":"Feature","properties":{"k":"hole","ref":"6","par":5},"geometry":{"type":"LineString","coordinates":[[-79.423136,43.750079],[-79.421217,43.749048],[-79.419358,43.748843],[-79.417884,43.749139]]}},{"type":"Feature","properties":{"k":"hole","ref":"7","par":3},"geometry":{"type":"LineString","coordinates":[[-79.417432,43.749663],[-79.419102,43.749391]]}},{"type":"Feature","properties":{"k":"hole","ref":"8","par":5},"geometry":{"type":"LineString","coordinates":[[-79.41863,43.749882],[-79.416654,43.751012],[-79.415098,43.751333],[-79.413801,43.751222]]}},{"type":"Feature","properties":{"k":"hole","ref":"9","par":4},"geometry":{"type":"LineString","coordinates":[[-79.412474,43.750135],[-79.410866,43.748962],[-79.409682,43.748695]]}},{"type":"Feature","properties":{"k":"hole","ref":"10","par":4},"geometry":{"type":"LineString","coordinates":[[-79.409446,43.748444],[-79.411045,43.747159],[-79.411063,43.746462]]}},{"type":"Feature","properties":{"k":"hole","ref":"11","par":4},"geometry":{"type":"LineString","coordinates":[[-79.411524,43.745995],[-79.409555,43.744811],[-79.40929,43.743937]]}},{"type":"Feature","properties":{"k":"hole","ref":"12","par":5},"geometry":{"type":"LineString","coordinates":[[-79.409712,43.743564],[-79.411178,43.744734],[-79.412701,43.745543],[-79.413362,43.746387]]}},{"type":"Feature","properties":{"k":"hole","ref":"13","par":3},"geometry":{"type":"LineString","coordinates":[[-79.413371,43.746937],[-79.412083,43.746221]]}},{"type":"Feature","properties":{"k":"hole","ref":"15","par":3},"geometry":{"type":"LineString","coordinates":[[-79.414336,43.748337],[-79.413345,43.749114]]}},{"type":"Feature","properties":{"k":"hole","ref":"16","par":4},"geometry":{"type":"LineString","coordinates":[[-79.413123,43.749612],[-79.411543,43.748154],[-79.410749,43.747974]]}},{"type":"Feature","properties":{"k":"hole","ref":"17","par":4},"geometry":{"type":"LineString","coordinates":[[-79.410412,43.748227],[-79.411989,43.749227],[-79.412714,43.749775]]}},{"type":"Feature","properties":{"k":"hole","ref":"18","par":4},"geometry":{"type":"LineString","coordinates":[[-79.41211,43.750329],[-79.410636,43.749411],[-79.409525,43.74901]]}},{"type":"Feature","properties":{"k":"path"},"geometry":{"type":"LineString","coordinates":[[-79.41191,43.750442],[-79.411723,43.750321],[-79.410541,43.749823],[-79.410344,43.749715],[-79.410258,43.749612],[-79.410216,43.749512],[-79.410249,43.749358],[-79.410294,43.749227],[-79.410249,43.748282],[-79.410294,43.748106],[-79.410378,43.747935],[-79.410462,43.747796],[-79.410657,43.74769],[-79.411801,43.747245],[-79.411981,43.747108],[-79.4123,43.746706],[-79.41249,43.746394],[-79.412532,43.746257],[-79.412498,43.746059],[-79.412378,43.745935],[-79.412181,43.745829],[-79.411885,43.745778],[-79.411387,43.745778],[-79.410852,43.745699],[-79.41038,43.745754],[-79.410217,43.74573],[-79.410043,43.745649],[-79.409786,43.745432],[-79.409273,43.744877],[-79.409157,43.744861],[-79.409081,43.744882]]}},{"type":"Feature","properties":{"k":"wood"},"geometry":{"type":"Polygon","coordinates":[[[-79.410079,43.750099],[-79.409796,43.750104],[-79.409729,43.750234],[-79.409783,43.750434],[-79.409932,43.750608],[-79.410227,43.750842],[-79.410487,43.750747],[-79.410583,43.750617],[-79.41041,43.750503],[-79.410281,43.750297],[-79.410146,43.750239],[-79.410079,43.750099]]]}},{"type":"Feature","properties":{"k":"path"},"geometry":{"type":"LineString","coordinates":[[-79.410191,43.748301],[-79.409934,43.748294]]}},{"type":"Feature","properties":{"k":"path"},"geometry":{"type":"LineString","coordinates":[[-79.410106,43.749764],[-79.409818,43.749729]]}},{"type":"Feature","properties":{"k":"path"},"geometry":{"type":"LineString","coordinates":[[-79.408464,43.749427],[-79.408533,43.749539],[-79.408666,43.749663],[-79.408763,43.749666],[-79.408952,43.749603],[-79.409248,43.749603],[-79.409515,43.749653],[-79.409818,43.749729]]}},{"type":"Feature","properties":{"k":"path"},"geometry":{"type":"LineString","coordinates":[[-79.408881,43.749627],[-79.408869,43.749453],[-79.408879,43.749341],[-79.409107,43.749134],[-79.409253,43.749204],[-79.409466,43.749278],[-79.409684,43.749386],[-79.409752,43.749386],[-79.409796,43.749358],[-79.40985,43.749338]]}},{"type":"Feature","properties":{"k":"path"},"geometry":{"type":"LineString","coordinates":[[-79.410344,43.749715],[-79.410276,43.749737],[-79.410106,43.749764]]}},{"type":"Feature","properties":{"k":"path"},"geometry":{"type":"LineString","coordinates":[[-79.410249,43.749358],[-79.410156,43.749352]]}},{"type":"Feature","properties":{"k":"path"},"geometry":{"type":"LineString","coordinates":[[-79.4226,43.750466],[-79.42293,43.750443]]}},{"type":"Feature","properties":{"k":"path"},"geometry":{"type":"LineString","coordinates":[[-79.422995,43.750424],[-79.423071,43.750366],[-79.423144,43.750283],[-79.423234,43.750057],[-79.423231,43.749922],[-79.423071,43.74958],[-79.422883,43.749517],[-79.422626,43.749492],[-79.422285,43.74951],[-79.422191,43.7495],[-79.421468,43.749334],[-79.421023,43.749269],[-79.420756,43.749181],[-79.420398,43.749173],[-79.420026,43.749209],[-79.41923,43.749103],[-79.419129,43.749116],[-79.418733,43.749246],[-79.418423,43.749254],[-79.418149,43.749339],[-79.417954,43.749384],[-79.417655,43.749414],[-79.417564,43.749447]]}},{"type":"Feature","properties":{"k":"path"},"geometry":{"type":"LineString","coordinates":[[-79.417662,43.749522],[-79.417564,43.749447]]}},{"type":"Feature","properties":{"k":"path"},"geometry":{"type":"LineString","coordinates":[[-79.423214,43.750438],[-79.423154,43.750354],[-79.423144,43.750283]]}},{"type":"Feature","properties":{"k":"path"},"geometry":{"type":"LineString","coordinates":[[-79.42293,43.750443],[-79.422995,43.750424],[-79.423304,43.750444]]}},{"type":"Feature","properties":{"k":"path"},"geometry":{"type":"LineString","coordinates":[[-79.417655,43.749414],[-79.417676,43.749445],[-79.417658,43.74949],[-79.417676,43.749625],[-79.417721,43.749663]]}},{"type":"Feature","properties":{"k":"path"},"geometry":{"type":"LineString","coordinates":[[-79.41025,43.748305],[-79.410191,43.748301]]}},{"type":"Feature","properties":{"k":"path"},"geometry":{"type":"LineString","coordinates":[[-79.417564,43.749447],[-79.417307,43.749586],[-79.416817,43.749982],[-79.416006,43.750543],[-79.415854,43.750708],[-79.415761,43.751098],[-79.415679,43.751281],[-79.415528,43.751541],[-79.415373,43.751609],[-79.415213,43.751614],[-79.414911,43.751539],[-79.414588,43.75153],[-79.41427,43.751477],[-79.414038,43.751423],[-79.41371,43.751387],[-79.41345,43.751334],[-79.41287,43.751134],[-79.412412,43.750866],[-79.412034,43.750562]]}},{"type":"Feature","properties":{"k":"path"},"geometry":{"type":"LineString","coordinates":[[-79.418771,43.749766],[-79.418785,43.749857],[-79.418749,43.74991],[-79.418706,43.749947],[-79.418607,43.749991],[-79.418382,43.750046],[-79.418083,43.750097],[-79.417936,43.750074],[-79.417804,43.750122]]}},{"type":"Feature","properties":{"k":"path"},"geometry":{"type":"LineString","coordinates":[[-79.415112,43.750749],[-79.415085,43.7508],[-79.414966,43.750855],[-79.414562,43.750913],[-79.414165,43.750921],[-79.413796,43.750874],[-79.413272,43.750834],[-79.413477,43.750961],[-79.413656,43.750966],[-79.413932,43.75105]]}},{"type":"Feature","properties":{"k":"path"},"geometry":{"type":"LineString","coordinates":[[-79.415589,43.750471],[-79.415384,43.750613],[-79.415112,43.750749]]}},{"type":"Feature","properties":{"k":"path"},"geometry":{"type":"LineString","coordinates":[[-79.413126,43.749365],[-79.413603,43.749205],[-79.413669,43.74911],[-79.413672,43.748935],[-79.414111,43.748668],[-79.414201,43.748477],[-79.414097,43.748398],[-79.413993,43.748381],[-79.413844,43.748414],[-79.413708,43.748467],[-79.413584,43.748495],[-79.413471,43.748546]]}},{"type":"Feature","properties":{"k":"path"},"geometry":{"type":"LineString","coordinates":[[-79.409616,43.744095],[-79.409666,43.743882],[-79.409638,43.74384],[-79.409589,43.743798],[-79.409574,43.743753],[-79.409606,43.743718],[-79.409692,43.743688],[-79.40973,43.743693],[-79.409903,43.743814],[-79.410112,43.743911],[-79.410558,43.743978],[-79.410901,43.744095],[-79.411153,43.744308],[-79.411386,43.744658],[-79.411844,43.744969],[-79.412866,43.745466],[-79.413071,43.745627],[-79.413421,43.745791],[-79.413478,43.745888],[-79.413531,43.746092],[-79.413611,43.746119],[-79.413743,43.746039],[-79.413818,43.746021],[-79.413864,43.746059],[-79.413888,43.746399],[-79.413793,43.746489],[-79.413684,43.746729],[-79.4136,43.746732],[-79.413479,43.746676],[-79.413327,43.746718],[-79.413265,43.746783],[-79.413265,43.746842],[-79.413209,43.746842],[-79.413212,43.74675],[-79.413156,43.746711],[-79.412973,43.746693],[-79.412646,43.746777],[-79.412543,43.746824],[-79.412427,43.746793],[-79.4123,43.746706]]}},{"type":"Feature","properties":{"k":"path"},"geometry":{"type":"LineString","coordinates":[[-79.41179,43.749987],[-79.412081,43.750106],[-79.412294,43.750263]]}},{"type":"Feature","properties":{"k":"path"},"geometry":{"type":"LineString","coordinates":[[-79.412351,43.750294],[-79.412505,43.750313],[-79.412597,43.750261],[-79.412663,43.750156],[-79.412628,43.750075],[-79.412519,43.749948],[-79.412305,43.749671],[-79.412299,43.749646],[-79.412342,43.749609],[-79.412707,43.749405],[-79.412836,43.749506],[-79.412889,43.749513],[-79.412955,43.749498],[-79.413096,43.74942],[-79.413126,43.749365]]}},{"type":"Feature","properties":{"k":"path"},"geometry":{"type":"LineString","coordinates":[[-79.410823,43.746359],[-79.410826,43.746263],[-79.410884,43.746241],[-79.411054,43.74624],[-79.411145,43.746224],[-79.411227,43.746155],[-79.41123,43.74591],[-79.411202,43.745836],[-79.411091,43.745734]]}},{"type":"Feature","properties":{"k":"path"},"geometry":{"type":"LineString","coordinates":[[-79.411885,43.747181],[-79.411823,43.74709],[-79.411765,43.746772],[-79.411727,43.746631],[-79.411611,43.746505],[-79.411584,43.746458],[-79.411609,43.746224],[-79.411678,43.746115],[-79.411715,43.74599],[-79.411792,43.745928],[-79.411885,43.745905],[-79.412048,43.745881],[-79.412152,43.745824]]}},{"type":"Feature","properties":{"k":"water"},"geometry":{"type":"Polygon","coordinates":[[[-79.417253,43.75],[-79.417187,43.750024],[-79.417146,43.75005],[-79.417004,43.750098],[-79.416913,43.75015],[-79.416771,43.750211],[-79.4166,43.750318],[-79.416577,43.750341],[-79.416564,43.750341],[-79.416503,43.750388],[-79.416449,43.750453],[-79.416382,43.750497],[-79.416258,43.750597],[-79.416203,43.750663],[-79.416155,43.750756],[-79.416082,43.750864],[-79.416023,43.751295],[-79.415985,43.75141],[-79.415934,43.751506],[-79.415899,43.751534],[-79.415849,43.751602],[-79.415822,43.751625],[-79.415803,43.751671],[-79.415744,43.751756],[-79.415632,43.751885],[-79.41558,43.751915],[-79.41553,43.751922],[-79.415547,43.751936],[-79.415541,43.751944],[-79.415384,43.752022],[-79.415251,43.752045],[-79.415238,43.752045],[-79.415228,43.752028],[-79.415215,43.752025],[-79.415182,43.752038],[-79.415141,43.752036],[-79.415128,43.752033],[-79.41512,43.752016],[-79.415109,43.752012],[-79.415006,43.752005],[-79.414852,43.751967],[-79.414679,43.751889],[-79.414596,43.751843],[-79.414572,43.751822],[-79.414537,43.751812],[-79.414519,43.75181],[-79.4145,43.751824],[-79.414436,43.751941],[-79.414399,43.751943],[-79.414443,43.751846],[-79.414473,43.751801],[-79.414476,43.75178],[-79.414431,43.751744],[-79.414314,43.751681],[-79.414289,43.751659],[-79.414177,43.751606],[-79.414128,43.751594],[-79.413904,43.751585],[-79.413791,43.75159],[-79.413656,43.751606],[-79.413265,43.751629],[-79.413207,43.751649],[-79.41289,43.751675],[-79.412827,43.751692],[-79.412548,43.75171],[-79.412269,43.751715],[-79.411913,43.751686],[-79.411518,43.751616],[-79.411125,43.751458],[-79.41081,43.751211],[-79.410477,43.750918],[-79.410345,43.750815],[-79.410304,43.750751],[-79.41019,43.750629],[-79.410197,43.750574],[-79.410187,43.750548],[-79.410162,43.750527],[-79.410077,43.750504],[-79.410021,43.750427],[-79.409998,43.75034],[-79.409908,43.750205],[-79.409881,43.750093],[-79.409884,43.75],[-79.409988,43.75],[-79.409989,43.750146],[-79.410049,43.750243],[-79.410112,43.750321],[-79.410135,43.750365],[-79.410138,43.750404],[-79.410155,43.750441],[-79.410192,43.750468],[-79.410206,43.750497],[-79.41029,43.75058],[-79.410387,43.750712],[-79.410807,43.751073],[-79.410916,43.751196],[-79.411024,43.751292],[-79.411144,43.751376],[-79.411497,43.751499],[-79.411931,43.751599],[-79.412238,43.751638],[-79.412688,43.751637],[-79.413185,43.75158],[-79.413296,43.751554],[-79.413503,43.751525],[-79.413694,43.751513],[-79.413839,43.751519],[-79.414045,43.751497],[-79.414135,43.751497],[-79.414274,43.751523],[-79.414299,43.751544],[-79.414365,43.751551],[-79.414389,43.751563],[-79.414438,43.751601],[-79.414464,43.751637],[-79.414496,43.751657],[-79.414524,43.751689],[-79.414552,43.751708],[-79.414577,43.751714],[-79.414649,43.751795],[-79.414715,43.751842],[-79.414774,43.75186],[-79.414806,43.751882],[-79.414858,43.751886],[-79.414907,43.751901],[-79.415094,43.751969],[-79.415148,43.751981],[-79.415191,43.751982],[-79.415299,43.751964],[-79.415412,43.751919],[-79.415495,43.751871],[-79.415579,43.751783],[-79.415686,43.751618],[-79.415766,43.751542],[-79.415856,43.751472],[-79.415868,43.751434],[-79.415907,43.751374],[-79.415933,43.751299],[-79.415941,43.751016],[-79.415984,43.750818],[-79.41601,43.750752],[-79.416109,43.750629],[-79.416175,43.750583],[-79.416278,43.750469],[-79.416411,43.750376],[-79.41645,43.750327],[-79.416558,43.750249],[-79.416688,43.750184],[-79.416816,43.750104],[-79.416882,43.750092],[-79.41701,43.750027],[-79.417042,43.75],[-79.41732,43.749908],[-79.417253,43.75]]]}},{"type":"Feature","properties":{"k":"water"},"geometry":{"type":"Polygon","coordinates":[[[-79.412523,43.746671],[-79.412481,43.74665],[-79.412464,43.746625],[-79.412468,43.746569],[-79.412485,43.746523],[-79.412553,43.74643],[-79.412735,43.746277],[-79.412757,43.746193],[-79.412721,43.746144],[-79.412687,43.746114],[-79.412678,43.746001],[-79.412657,43.745958],[-79.412564,43.745894],[-79.41253,43.745844],[-79.412461,43.745789],[-79.412327,43.745735],[-79.412314,43.745719],[-79.41231,43.745682],[-79.412321,43.745665],[-79.41238,43.745648],[-79.412539,43.745653],[-79.412711,43.745695],[-79.41279,43.745728],[-79.412847,43.74578],[-79.412896,43.745846],[-79.412921,43.745949],[-79.41295,43.746],[-79.412997,43.746032],[-79.413068,43.746057],[-79.413139,43.746097],[-79.41317,43.746137],[-79.413194,43.746202],[-79.413189,43.74625],[-79.413162,43.746303],[-79.413105,43.74634],[-79.413032,43.746362],[-79.412901,43.746367],[-79.41285,43.746396],[-79.412808,43.746442],[-79.412781,43.746551],[-79.412744,43.746611],[-79.41266,43.746656],[-79.412586,43.746676],[-79.412523,43.746671]]]}},{"type":"Feature","properties":{"k":"stream"},"geometry":{"type":"LineString","coordinates":[[-79.412412,43.746794],[-79.412354,43.746811],[-79.412284,43.746802]]}},{"type":"Feature","properties":{"k":"stream"},"geometry":{"type":"LineString","coordinates":[[-79.412523,43.746671],[-79.412499,43.746738],[-79.412483,43.746753],[-79.412448,43.74676],[-79.412438,43.746772]]}},{"type":"Feature","properties":{"k":"stream"},"geometry":{"type":"LineString","coordinates":[[-79.411609,43.746421],[-79.411551,43.746399]]}},{"type":"Feature","properties":{"k":"stream"},"geometry":{"type":"LineString","coordinates":[[-79.412438,43.746772],[-79.412412,43.746794]]}},{"type":"Feature","properties":{"k":"stream"},"geometry":{"type":"LineString","coordinates":[[-79.411225,43.746204],[-79.411167,43.746163]]}},{"type":"Feature","properties":{"k":"stream"},"geometry":{"type":"LineString","coordinates":[[-79.412284,43.746802],[-79.412197,43.746763]]}},{"type":"Feature","properties":{"k":"stream"},"geometry":{"type":"LineString","coordinates":[[-79.411551,43.746399],[-79.411479,43.746372],[-79.411371,43.746301],[-79.411308,43.746239],[-79.411225,43.746204]]}},{"type":"Feature","properties":{"k":"stream"},"geometry":{"type":"LineString","coordinates":[[-79.411167,43.746163],[-79.411117,43.746134],[-79.411079,43.746123],[-79.410711,43.746096],[-79.410638,43.74607],[-79.41056,43.746065]]}},{"type":"Feature","properties":{"k":"stream"},"geometry":{"type":"LineString","coordinates":[[-79.412197,43.746763],[-79.4121,43.746711],[-79.412007,43.746621],[-79.411857,43.7465],[-79.411715,43.746429],[-79.4117,43.746414],[-79.411673,43.746411],[-79.411609,43.746421]]}},{"type":"Feature","properties":{"k":"stream"},"geometry":{"type":"LineString","coordinates":[[-79.422687,43.748446],[-79.422348,43.748629],[-79.42194,43.748764],[-79.421904,43.748866],[-79.421898,43.748992],[-79.421687,43.74928],[-79.421681,43.749369],[-79.421435,43.749445]]}},{"type":"Feature","properties":{"k":"tee"},"geometry":{"type":"Polygon","coordinates":[[[-79.40906,43.749496],[-79.409035,43.749505],[-79.408986,43.749502],[-79.408955,43.749474],[-79.408961,43.749386],[-79.408993,43.74934],[-79.40907,43.749349],[-79.40909,43.749367],[-79.409066,43.749437],[-79.409071,43.749476],[-79.40906,43.749496]]]}},{"type":"Feature","properties":{"k":"tee"},"geometry":{"type":"Polygon","coordinates":[[[-79.40962,43.749595],[-79.409578,43.749604],[-79.409535,43.749603],[-79.409491,43.749581],[-79.409455,43.749524],[-79.409456,43.749495],[-79.409476,43.749462],[-79.40952,43.749444],[-79.409565,43.749447],[-79.409611,43.749463],[-79.409654,43.749491],[-79.409672,43.749512],[-79.409674,43.749541],[-79.40966,43.749569],[-79.40962,43.749595]]]}},{"type":"Feature","properties":{"k":"fairway"},"geometry":{"type":"Polygon","coordinates":[[[-79.410395,43.749991],[-79.410346,43.749976],[-79.410287,43.749973],[-79.410248,43.749984],[-79.410218,43.750004],[-79.410189,43.750078],[-79.410226,43.750188],[-79.410264,43.750244],[-79.410366,43.750304],[-79.410389,43.750347],[-79.410446,43.750387],[-79.41073,43.750492],[-79.410836,43.750586],[-79.410839,43.750622],[-79.410772,43.75069],[-79.410755,43.750731],[-79.410777,43.750792],[-79.410819,43.750831],[-79.410908,43.750864],[-79.411068,43.75088],[-79.411133,43.750876],[-79.411191,43.750851],[-79.411297,43.750772],[-79.411381,43.750761],[-79.411315,43.750732],[-79.411289,43.750674],[-79.411299,43.750641],[-79.411265,43.750657],[-79.411235,43.750661],[-79.411193,43.750653],[-79.411159,43.750638],[-79.411117,43.750604],[-79.410974,43.750412],[-79.410956,43.750341],[-79.410912,43.750292],[-79.41076,43.750195],[-79.410559,43.750087],[-79.410466,43.750024],[-79.410395,43.749991]]]}},{"type":"Feature","properties":{"k":"tee"},"geometry":{"type":"Polygon","coordinates":[[[-79.409188,43.749412],[-79.409165,43.749434],[-79.409159,43.749477],[-79.409177,43.749502],[-79.40921,43.749523],[-79.409295,43.749539],[-79.409325,43.749533],[-79.409359,43.749513],[-79.409374,43.749494],[-79.409357,43.749451],[-79.409332,43.749439],[-79.409285,43.749437],[-79.409212,43.749411],[-79.409188,43.749412]]]}},{"type":"Feature","properties":{"k":"bunker"},"geometry":{"type":"Polygon","coordinates":[[[-79.411323,43.750819],[-79.411304,43.750842],[-79.411309,43.75086],[-79.41138,43.750872],[-79.411396,43.750885],[-79.411401,43.75091],[-79.411422,43.75092],[-79.411537,43.750861],[-79.411546,43.750846],[-79.411542,43.750825],[-79.411525,43.750816],[-79.411495,43.750823],[-79.411449,43.750852],[-79.411413,43.750846],[-79.411355,43.75082],[-79.411323,43.750819]]]}},{"type":"Feature","properties":{"k":"green"},"geometry":{"type":"Polygon","coordinates":[[[-79.411299,43.750641],[-79.411292,43.750693],[-79.411315,43.750732],[-79.411381,43.750761],[-79.411451,43.750763],[-79.411514,43.750742],[-79.411658,43.750662],[-79.411675,43.750634],[-79.411677,43.750585],[-79.41163,43.750536],[-79.41156,43.750519],[-79.411514,43.750528],[-79.411434,43.750568],[-79.411346,43.7506],[-79.411299,43.750641]]]}},{"type":"Feature","properties":{"k":"tee"},"geometry":{"type":"Polygon","coordinates":[[[-79.415305,43.750812],[-79.415265,43.750811],[-79.415241,43.7508],[-79.415231,43.750768],[-79.415249,43.750711],[-79.415322,43.750675],[-79.415365,43.750667],[-79.415396,43.750666],[-79.415431,43.75068],[-79.41547,43.750709],[-79.415484,43.750732],[-79.415481,43.750752],[-79.415465,43.750762],[-79.415396,43.750773],[-79.415305,43.750812]]]}},{"type":"Feature","properties":{"k":"tee"},"geometry":{"type":"Polygon","coordinates":[[[-79.415672,43.750662],[-79.415634,43.75068],[-79.415587,43.750687],[-79.415559,43.750679],[-79.415537,43.750667],[-79.41552,43.75064],[-79.415514,43.750603],[-79.415525,43.750576],[-79.415585,43.750545],[-79.415623,43.750545],[-79.415668,43.750559],[-79.415693,43.750577],[-79.415709,43.750603],[-79.415706,43.750629],[-79.415672,43.750662]]]}},{"type":"Feature","properties":{"k":"fairway"},"geometry":{"type":"Polygon","coordinates":[[[-79.416328,43.750112],[-79.416269,43.750131],[-79.416197,43.750136],[-79.416139,43.750115],[-79.416106,43.750091],[-79.416066,43.750043],[-79.416045,43.749993],[-79.416072,43.749925],[-79.416172,43.749794],[-79.416335,43.749642],[-79.416502,43.749451],[-79.416572,43.749335],[-79.416658,43.749232],[-79.41673,43.749174],[-79.416817,43.749145],[-79.416888,43.749097],[-79.417066,43.748907],[-79.417273,43.748818],[-79.417339,43.748742],[-79.417586,43.748596],[-79.417658,43.748564],[-79.417749,43.748548],[-79.417831,43.748549],[-79.418011,43.748582],[-79.418067,43.748586],[-79.4181,43.748578],[-79.418114,43.748566],[-79.418133,43.748516],[-79.418171,43.74849],[-79.418227,43.748471],[-79.418305,43.748464],[-79.4183,43.748493],[-79.418312,43.748529],[-79.418331,43.748553],[-79.418378,43.748578],[-79.418277,43.748596],[-79.418198,43.748633],[-79.418025,43.748768],[-79.417712,43.748877],[-79.417464,43.74899],[-79.417337,43.749059],[-79.417185,43.749159],[-79.416987,43.749313],[-79.416894,43.749391],[-79.416812,43.749473],[-79.416422,43.749976],[-79.416375,43.750068],[-79.416328,43.750112]]]}},{"type":"Feature","properties":{"k":"green"},"geometry":{"type":"Polygon","coordinates":[[[-79.418382,43.748579],[-79.41834,43.748561],[-79.418306,43.748519],[-79.418301,43.748482],[-79.418319,43.748432],[-79.418357,43.748409],[-79.418465,43.748393],[-79.418586,43.748348],[-79.418661,43.748356],[-79.418708,43.748386],[-79.418732,43.748435],[-79.418724,43.748476],[-79.418708,43.748493],[-79.418664,43.748512],[-79.418567,43.748534],[-79.418468,43.748584],[-79.41842,43.748589],[-79.418382,43.748579]]]}},{"type":"Feature","properties":{"k":"bunker"},"geometry":{"type":"Polygon","coordinates":[[[-79.417991,43.748529],[-79.417958,43.748536],[-79.417936,43.748502],[-79.417871,43.748488],[-79.417891,43.748465],[-79.417929,43.748449],[-79.417954,43.748447],[-79.418004,43.748459],[-79.418038,43.748432],[-79.418076,43.748431],[-79.418094,43.74844],[-79.418098,43.748453],[-79.418088,43.748469],[-79.418056,43.748488],[-79.418011,43.748497],[-79.417991,43.748529]]]}},{"type":"Feature","properties":{"k":"tee"},"geometry":{"type":"Polygon","coordinates":[[[-79.419481,43.748247],[-79.419463,43.748252],[-79.419433,43.748241],[-79.419424,43.748228],[-79.419427,43.748207],[-79.419443,43.748194],[-79.419511,43.748178],[-79.419544,43.748198],[-79.419547,43.748221],[-79.419531,43.748235],[-79.419481,43.748247]]]}},{"type":"Feature","properties":{"k":"tee"},"geometry":{"type":"Polygon","coordinates":[[[-79.419708,43.748251],[-79.419724,43.748245],[-79.419729,43.74823],[-79.419687,43.748193],[-79.419653,43.748174],[-79.419615,43.748158],[-79.419587,43.748156],[-79.419557,43.748171],[-79.419544,43.748191],[-79.419558,43.748217],[-79.419585,43.74823],[-79.419708,43.748251]]]}},{"type":"Feature","properties":{"k":"tee"},"geometry":{"type":"Polygon","coordinates":[[[-79.420129,43.748304],[-79.420094,43.748308],[-79.420011,43.748297],[-79.419985,43.748281],[-79.419976,43.74826],[-79.41999,43.748244],[-79.42006,43.748226],[-79.420141,43.74823],[-79.420164,43.748243],[-79.420168,43.748265],[-79.420157,43.748286],[-79.420129,43.748304]]]}},{"type":"Feature","properties":{"k":"tee"},"geometry":{"type":"Polygon","coordinates":[[[-79.420444,43.748125],[-79.420142,43.748108],[-79.420136,43.748067],[-79.420162,43.748047],[-79.420256,43.748038],[-79.420442,43.748047],[-79.420469,43.748075],[-79.420462,43.748116],[-79.420444,43.748125]]]}},{"type":"Feature","properties":{"k":"tee"},"geometry":{"type":"Polygon","coordinates":[[[-79.421481,43.748384],[-79.421459,43.74839],[-79.421413,43.748376],[-79.421295,43.748324],[-79.421289,43.748298],[-79.421308,43.748277],[-79.42133,43.748264],[-79.421368,43.748258],[-79.421412,43.748264],[-79.421459,43.748281],[-79.421515,43.748335],[-79.421517,43.748353],[-79.421502,43.748373],[-79.421481,43.748384]]]}},{"type":"Feature","properties":{"k":"fairway"},"geometry":{"type":"Polygon","coordinates":[[[-79.42138,43.748502],[-79.421308,43.748526],[-79.421282,43.748608],[-79.421342,43.748696],[-79.421494,43.748747],[-79.421884,43.74882],[-79.422349,43.748936],[-79.422592,43.749097],[-79.422806,43.749222],[-79.423165,43.749305],[-79.423292,43.749393],[-79.4235,43.749646],[-79.423588,43.7498],[-79.4238,43.749929],[-79.42387,43.75],[-79.42412,43.750068],[-79.424173,43.750075],[-79.424162,43.75005],[-79.424171,43.750017],[-79.4242,43.74999],[-79.424228,43.749982],[-79.424084,43.74993],[-79.423951,43.749846],[-79.423904,43.749763],[-79.423856,43.749557],[-79.423766,43.749426],[-79.423632,43.749313],[-79.423481,43.749237],[-79.423268,43.749158],[-79.423082,43.74916],[-79.422932,43.749124],[-79.422822,43.74908],[-79.422721,43.748992],[-79.422599,43.748848],[-79.422505,43.748772],[-79.42242,43.748722],[-79.422362,43.748704],[-79.422303,43.748704],[-79.422219,43.748689],[-79.422124,43.748683],[-79.421669,43.748576],[-79.421414,43.7485],[-79.42138,43.748502]]]}},{"type":"Feature","properties":{"k":"green"},"geometry":{"type":"Polygon","coordinates":[[[-79.424228,43.749982],[-79.4242,43.74999],[-79.424171,43.750017],[-79.424162,43.75005],[-79.424173,43.750075],[-79.424201,43.750104],[-79.424273,43.750141],[-79.424345,43.750147],[-79.424454,43.750107],[-79.424532,43.750089],[-79.42457,43.750053],[-79.424561,43.750021],[-79.424497,43.749996],[-79.424314,43.749982],[-79.424228,43.749982]]]}},{"type":"Feature","properties":{"k":"bunker"},"geometry":{"type":"Polygon","coordinates":[[[-79.423349,43.749555],[-79.423358,43.749546],[-79.423352,43.749531],[-79.42333,43.749521],[-79.423293,43.749519],[-79.423273,43.749528],[-79.423269,43.749562],[-79.423282,43.74959],[-79.423317,43.749632],[-79.423352,43.74972],[-79.423377,43.749733],[-79.423409,43.749729],[-79.423425,43.749717],[-79.423425,43.749701],[-79.423372,43.749667],[-79.423376,43.749628],[-79.423327,43.749583],[-79.423349,43.749555]]]}},{"type":"Feature","properties":{"k":"bunker"},"geometry":{"type":"Polygon","coordinates":[[[-79.424193,43.750167],[-79.424183,43.75018],[-79.42415,43.750185],[-79.424074,43.750154],[-79.424051,43.750127],[-79.424042,43.750092],[-79.424053,43.750074],[-79.424099,43.750071],[-79.424133,43.750128],[-79.424185,43.750149],[-79.424193,43.750167]]]}},{"type":"Feature","properties":{"k":"bunker"},"geometry":{"type":"Polygon","coordinates":[[[-79.424419,43.750169],[-79.424389,43.750184],[-79.424382,43.750197],[-79.424406,43.750219],[-79.424436,43.750215],[-79.424456,43.750197],[-79.424451,43.750176],[-79.424419,43.750169]]]}},{"type":"Feature","properties":{"k":"tee"},"geometry":{"type":"Polygon","coordinates":[[[-79.424523,43.750681],[-79.424402,43.750707],[-79.42434,43.75073],[-79.424287,43.750717],[-79.424277,43.750678],[-79.424321,43.75061],[-79.424438,43.750606],[-79.424539,43.750624],[-79.424569,43.75065],[-79.424523,43.750681]]]}},{"type":"Feature","properties":{"k":"tee"},"geometry":{"type":"Polygon","coordinates":[[[-79.42418,43.750732],[-79.424002,43.750767],[-79.423906,43.750775],[-79.423856,43.750716],[-79.423875,43.750677],[-79.423918,43.750655],[-79.423962,43.75065],[-79.424032,43.750657],[-79.42417,43.750658],[-79.424187,43.750672],[-79.424193,43.750706],[-79.42418,43.750732]]]}},{"type":"Feature","properties":{"k":"tee"},"geometry":{"type":"Polygon","coordinates":[[[-79.423784,43.75092],[-79.423741,43.750935],[-79.423699,43.750934],[-79.423646,43.75092],[-79.423631,43.750898],[-79.423636,43.750865],[-79.423665,43.750847],[-79.423698,43.750841],[-79.423748,43.750846],[-79.423792,43.750873],[-79.4238,43.750893],[-79.423784,43.75092]]]}},{"type":"Feature","properties":{"k":"tee"},"geometry":{"type":"Polygon","coordinates":[[[-79.423657,43.750672],[-79.423603,43.750678],[-79.423559,43.750659],[-79.423543,43.750619],[-79.423557,43.750593],[-79.423595,43.750573],[-79.423641,43.750564],[-79.423705,43.750565],[-79.423747,43.750578],[-79.423742,43.750602],[-79.423657,43.750672]]]}},{"type":"Feature","properties":{"k":"fairway"},"geometry":{"type":"Polygon","coordinates":[[[-79.422685,43.750894],[-79.422559,43.750905],[-79.422274,43.750886],[-79.422134,43.750852],[-79.421805,43.7506],[-79.421562,43.750464],[-79.421358,43.750356],[-79.421036,43.750225],[-79.420828,43.750091],[-79.420706,43.750026],[-79.420515,43.749974],[-79.420458,43.749934],[-79.420388,43.749904],[-79.420418,43.749888],[-79.420502,43.749821],[-79.420511,43.749793],[-79.420575,43.749836],[-79.42065,43.749846],[-79.420788,43.749809],[-79.420865,43.749816],[-79.42094,43.749852],[-79.42111,43.749977],[-79.421189,43.750007],[-79.421295,43.750012],[-79.421568,43.750123],[-79.421854,43.750263],[-79.421993,43.750341],[-79.422215,43.7505],[-79.422358,43.750572],[-79.422663,43.750675],[-79.42271,43.7507],[-79.42275,43.75076],[-79.422763,43.750822],[-79.422727,43.750879],[-79.422685,43.750894]]]}},{"type":"Feature","properties":{"k":"green"},"geometry":{"type":"Polygon","coordinates":[[[-79.420388,43.749904],[-79.420343,43.749904],[-79.420308,43.749891],[-79.420242,43.749818],[-79.420166,43.749756],[-79.420158,43.749718],[-79.420169,43.749693],[-79.420192,43.749673],[-79.420241,43.749656],[-79.420309,43.749665],[-79.420388,43.749717],[-79.420494,43.749768],[-79.420511,43.749793],[-79.420502,43.749821],[-79.420425,43.749884],[-79.420388,43.749904]]]}},{"type":"Feature","properties":{"k":"bunker"},"geometry":{"type":"Polygon","coordinates":[[[-79.420644,43.749802],[-79.420593,43.749793],[-79.420582,43.749778],[-79.420592,43.74975],[-79.42057,43.749743],[-79.420499,43.749695],[-79.420498,43.749676],[-79.420514,43.749666],[-79.420545,43.749671],[-79.420568,43.749692],[-79.420612,43.749699],[-79.420635,43.749714],[-79.420706,43.749707],[-79.420718,43.749717],[-79.420718,43.749744],[-79.420664,43.749759],[-79.420644,43.749802]]]}},{"type":"Feature","properties":{"k":"tee"},"geometry":{"type":"Polygon","coordinates":[[[-79.420672,43.74959],[-79.420607,43.749562],[-79.420511,43.749537],[-79.42047,43.749505],[-79.420472,43.749466],[-79.42054,43.749446],[-79.420617,43.749448],[-79.420703,43.749473],[-79.420764,43.749509],[-79.420787,43.749543],[-79.42077,43.749576],[-79.420719,43.749597],[-79.420672,43.74959]]]}},{"type":"Feature","properties":{"k":"tee"},"geometry":{"type":"Polygon","coordinates":[[[-79.420994,43.749659],[-79.420812,43.749617],[-79.420819,43.749594],[-79.420871,43.749572],[-79.420995,43.749595],[-79.421029,43.74961],[-79.421028,43.749642],[-79.420994,43.749659]]]}},{"type":"Feature","properties":{"k":"tee"},"geometry":{"type":"Polygon","coordinates":[[[-79.421238,43.749674],[-79.421172,43.749683],[-79.421101,43.749665],[-79.421069,43.749647],[-79.421095,43.749601],[-79.421131,43.749578],[-79.421202,43.749572],[-79.42126,43.74959],[-79.421276,43.749629],[-79.421238,43.749674]]]}},{"type":"Feature","properties":{"k":"fairway"},"geometry":{"type":"Polygon","coordinates":[[[-79.422056,43.750081],[-79.422005,43.750051],[-79.42194,43.750028],[-79.421864,43.750024],[-79.42172,43.750038],[-79.421674,43.75003],[-79.421631,43.750012],[-79.421607,43.74999],[-79.421588,43.749943],[-79.42159,43.749904],[-79.421653,43.74983],[-79.421706,43.749803],[-79.421761,43.749798],[-79.421817,43.749798],[-79.42189,43.74982],[-79.421931,43.749857],[-79.421943,43.749908],[-79.421961,43.749942],[-79.422002,43.749966],[-79.422078,43.749978],[-79.422165,43.750018],[-79.422076,43.750022],[-79.422054,43.750044],[-79.422056,43.750081]]]}},{"type":"Feature","properties":{"k":"bunker"},"geometry":{"type":"Polygon","coordinates":[[[-79.422012,43.750208],[-79.421975,43.750169],[-79.421953,43.750159],[-79.421913,43.750154],[-79.421836,43.75016],[-79.421825,43.750151],[-79.421831,43.750132],[-79.421855,43.750119],[-79.421905,43.750118],[-79.421926,43.750104],[-79.421955,43.750098],[-79.421997,43.750107],[-79.422016,43.750117],[-79.422023,43.750144],[-79.422072,43.750163],[-79.422081,43.750175],[-79.422075,43.750191],[-79.422054,43.750205],[-79.422012,43.750208]]]}},{"type":"Feature","properties":{"k":"bunker"},"geometry":{"type":"Polygon","coordinates":[[[-79.422132,43.749925],[-79.422119,43.749915],[-79.422097,43.749913],[-79.422064,43.749937],[-79.422027,43.749942],[-79.421998,43.749935],[-79.421978,43.749913],[-79.421974,43.749892],[-79.422021,43.749871],[-79.422046,43.749874],[-79.422067,43.749867],[-79.422063,43.749834],[-79.42209,43.749816],[-79.422119,43.749814],[-79.422149,43.74982],[-79.422161,43.749832],[-79.422168,43.749869],[-79.422193,43.749886],[-79.422205,43.74991],[-79.422234,43.749924],[-79.422232,43.749941],[-79.422217,43.749955],[-79.422162,43.749952],[-79.422132,43.749925]]]}},{"type":"Feature","properties":{"k":"green"},"geometry":{"type":"Polygon","coordinates":[[[-79.422344,43.750209],[-79.422303,43.750207],[-79.422263,43.750195],[-79.422181,43.750141],[-79.422089,43.750115],[-79.422064,43.750095],[-79.422051,43.75007],[-79.42206,43.750032],[-79.422076,43.750022],[-79.422198,43.750015],[-79.422278,43.749994],[-79.422337,43.749996],[-79.422424,43.750119],[-79.422428,43.750147],[-79.422417,43.750173],[-79.422393,43.750192],[-79.422344,43.750209]]]}},{"type":"Feature","properties":{"k":"tee"},"geometry":{"type":"Polygon","coordinates":[[[-79.423155,43.750007],[-79.423087,43.750048],[-79.423018,43.750065],[-79.42299,43.750088],[-79.422987,43.750115],[-79.42302,43.750136],[-79.423065,43.750146],[-79.423108,43.750141],[-79.42316,43.75012],[-79.423183,43.750099],[-79.423192,43.750038],[-79.42319,43.750016],[-79.423175,43.750005],[-79.423155,43.750007]]]}},{"type":"Feature","properties":{"k":"tee"},"geometry":{"type":"Polygon","coordinates":[[[-79.42311,43.749922],[-79.423038,43.749926],[-79.422943,43.749945],[-79.422919,43.749936],[-79.422906,43.749922],[-79.42293,43.74989],[-79.423013,43.749872],[-79.423075,43.749844],[-79.42311,43.749848],[-79.423144,43.749883],[-79.42314,43.749905],[-79.42311,43.749922]]]}},{"type":"Feature","properties":{"k":"tee"},"geometry":{"type":"Polygon","coordinates":[[[-79.423003,43.749834],[-79.422895,43.74985],[-79.42286,43.749835],[-79.422854,43.749805],[-79.422868,43.749787],[-79.422922,43.749767],[-79.422957,43.749734],[-79.422986,43.749731],[-79.423002,43.749742],[-79.423031,43.74979],[-79.423023,43.749825],[-79.423003,43.749834]]]}},{"type":"Feature","properties":{"k":"tee"},"geometry":{"type":"Polygon","coordinates":[[[-79.422851,43.749712],[-79.422817,43.74973],[-79.422786,43.749732],[-79.422744,43.749719],[-79.422723,43.749686],[-79.42272,43.749652],[-79.422732,43.749623],[-79.422759,43.749602],[-79.422791,43.749598],[-79.422818,43.749606],[-79.422846,43.749629],[-79.422865,43.749657],[-79.422866,43.74969],[-79.422851,43.749712]]]}},{"type":"Feature","properties":{"k":"fairway"},"geometry":{"type":"Polygon","coordinates":[[[-79.42183,43.749339],[-79.421405,43.74924],[-79.421144,43.749167],[-79.420701,43.749108],[-79.420419,43.74909],[-79.420306,43.749074],[-79.420068,43.749023],[-79.419782,43.748994],[-79.419247,43.749028],[-79.419057,43.749028],[-79.418849,43.74905],[-79.41868,43.74908],[-79.418582,43.749113],[-79.41831,43.749161],[-79.41811,43.749143],[-79.418129,43.749113],[-79.418124,43.749097],[-79.418103,43.74908],[-79.418176,43.749062],[-79.418244,43.749002],[-79.41855,43.748911],[-79.418738,43.748841],[-79.418894,43.748798],[-79.418999,43.748762],[-79.419089,43.748716],[-79.419181,43.748689],[-79.419249,43.748696],[-79.419472,43.748691],[-79.41982,43.748626],[-79.420165,43.748682],[-79.42139,43.74898],[-79.421576,43.749028],[-79.421982,43.749158],[-79.422034,43.749217],[-79.421989,43.7493],[-79.421912,43.749335],[-79.42183,43.749339]]]}},{"type":"Feature","properties":{"k":"green"},"geometry":{"type":"Polygon","coordinates":[[[-79.418128,43.749121],[-79.41811,43.749143],[-79.417965,43.749183],[-79.417851,43.749241],[-79.417805,43.749253],[-79.417731,43.749231],[-79.417705,43.749212],[-79.417685,43.749178],[-79.417692,43.749132],[-79.417714,43.749096],[-79.417736,43.749074],[-79.417781,43.749066],[-79.417883,43.74908],[-79.418,43.74907],[-79.418087,43.749072],[-79.418122,43.749094],[-79.418128,43.749121]]]}},{"type":"Feature","properties":{"k":"bunker"},"geometry":{"type":"Polygon","coordinates":[[[-79.417943,43.749017],[-79.417887,43.749039],[-79.417856,43.749036],[-79.41784,43.749026],[-79.41784,43.749013],[-79.417854,43.748999],[-79.4179,43.74898],[-79.417947,43.748976],[-79.417998,43.74893],[-79.418032,43.748921],[-79.418049,43.748929],[-79.418049,43.748954],[-79.418026,43.748978],[-79.418077,43.749009],[-79.418067,43.749031],[-79.418007,43.749034],[-79.417957,43.749014],[-79.417943,43.749017]]]}},{"type":"Feature","properties":{"k":"bunker"},"geometry":{"type":"Polygon","coordinates":[[[-79.418156,43.74925],[-79.418125,43.749212],[-79.418119,43.749184],[-79.418105,43.74918],[-79.418054,43.749191],[-79.417999,43.749226],[-79.417979,43.749223],[-79.417929,43.749236],[-79.417902,43.74925],[-79.417894,43.749265],[-79.417901,43.749281],[-79.417942,43.74929],[-79.417963,43.749287],[-79.418022,43.749256],[-79.418085,43.749272],[-79.41814,43.749264],[-79.418156,43.74925]]]}},{"type":"Feature","properties":{"k":"tee"},"geometry":{"type":"Polygon","coordinates":[[[-79.417619,43.74968],[-79.417414,43.749722],[-79.417366,43.749719],[-79.417327,43.749694],[-79.417318,43.749663],[-79.417346,43.749635],[-79.417505,43.749533],[-79.417541,43.749516],[-79.417577,43.749514],[-79.41761,43.749525],[-79.417625,43.749551],[-79.41763,43.749648],[-79.417619,43.74968]]]}},{"type":"Feature","properties":{"k":"tee"},"geometry":{"type":"Polygon","coordinates":[[[-79.417857,43.74952],[-79.417795,43.749557],[-79.417762,43.749556],[-79.417737,43.749538],[-79.417737,43.749507],[-79.417753,43.749487],[-79.417811,43.749443],[-79.417864,43.749445],[-79.417881,43.74946],[-79.417884,43.749481],[-79.417857,43.74952]]]}},{"type":"Feature","properties":{"k":"fairway"},"geometry":{"type":"Polygon","coordinates":[[[-79.418929,43.749491],[-79.418799,43.749483],[-79.418673,43.749494],[-79.418509,43.749556],[-79.418441,43.749547],[-79.418403,43.74951],[-79.418398,43.749473],[-79.41842,43.749389],[-79.418436,43.749356],[-79.418468,43.749334],[-79.418525,43.749319],[-79.418667,43.749306],[-79.418713,43.749315],[-79.418806,43.749359],[-79.418853,43.749369],[-79.418917,43.749368],[-79.418886,43.749427],[-79.418902,43.749465],[-79.418929,43.749491]]]}},{"type":"Feature","properties":{"k":"green"},"geometry":{"type":"Polygon","coordinates":[[[-79.418924,43.749488],[-79.418902,43.749465],[-79.418886,43.749427],[-79.418895,43.749389],[-79.418928,43.749357],[-79.419155,43.74928],[-79.419198,43.749274],[-79.419251,43.749277],[-79.419284,43.749288],[-79.419326,43.749315],[-79.419346,43.749344],[-79.419348,43.749373],[-79.419317,43.749429],[-79.419288,43.749445],[-79.419161,43.749461],[-79.419039,43.749508],[-79.418963,43.749508],[-79.418924,43.749488]]]}},{"type":"Feature","properties":{"k":"bunker"},"geometry":{"type":"Polygon","coordinates":[[[-79.418935,43.749315],[-79.418902,43.749333],[-79.41888,43.749335],[-79.41886,43.749328],[-79.418843,43.749306],[-79.418846,43.749288],[-79.418877,43.749271],[-79.418928,43.749289],[-79.418971,43.749271],[-79.419002,43.749274],[-79.419007,43.749292],[-79.418992,43.749309],[-79.418935,43.749315]]]}},{"type":"Feature","properties":{"k":"bunker"},"geometry":{"type":"Polygon","coordinates":[[[-79.419275,43.749223],[-79.419161,43.749206],[-79.419127,43.749222],[-79.419095,43.749221],[-79.419076,43.749204],[-79.41908,43.749182],[-79.419126,43.749167],[-79.419206,43.749171],[-79.419248,43.749166],[-79.419308,43.749189],[-79.419314,43.749201],[-79.419299,43.74922],[-79.419275,43.749223]]]}},{"type":"Feature","properties":{"k":"tee"},"geometry":{"type":"Polygon","coordinates":[[[-79.418718,43.749912],[-79.418754,43.749875],[-79.418752,43.749842],[-79.418714,43.749826],[-79.418598,43.749834],[-79.41847,43.749876],[-79.418328,43.749907],[-79.418326,43.749956],[-79.418368,43.749981],[-79.418412,43.749989],[-79.41847,43.749982],[-79.418538,43.749949],[-79.418694,43.749927],[-79.418718,43.749912]]]}},{"type":"Feature","properties":{"k":"tee"},"geometry":{"type":"Polygon","coordinates":[[[-79.41823,43.750003],[-79.418131,43.750038],[-79.418076,43.75002],[-79.418059,43.749996],[-79.418086,43.749972],[-79.418132,43.749952],[-79.418184,43.749944],[-79.418212,43.749951],[-79.418241,43.749975],[-79.41823,43.750003]]]}},{"type":"Feature","properties":{"k":"tee"},"geometry":{"type":"Polygon","coordinates":[[[-79.417863,43.750052],[-79.417822,43.750074],[-79.417783,43.750079],[-79.417759,43.750054],[-79.417771,43.750012],[-79.41779,43.749992],[-79.417826,43.749979],[-79.417863,43.749979],[-79.417882,43.749986],[-79.417887,43.750008],[-79.417863,43.750052]]]}},{"type":"Feature","properties":{"k":"fairway"},"geometry":{"type":"Polygon","coordinates":[[[-79.417584,43.750349],[-79.417574,43.750318],[-79.417526,43.750263],[-79.417473,43.750243],[-79.417422,43.750241],[-79.417362,43.75026],[-79.417185,43.750392],[-79.416993,43.750558],[-79.416787,43.750704],[-79.416331,43.75099],[-79.416272,43.751044],[-79.416255,43.751116],[-79.416189,43.751232],[-79.416165,43.751293],[-79.416166,43.751366],[-79.416193,43.751416],[-79.416244,43.751434],[-79.416299,43.751439],[-79.416335,43.751434],[-79.416366,43.751413],[-79.416408,43.751342],[-79.416454,43.751299],[-79.416499,43.751272],[-79.416662,43.751202],[-79.416924,43.751042],[-79.41711,43.750918],[-79.417195,43.750847],[-79.417331,43.750627],[-79.417394,43.750566],[-79.417504,43.75049],[-79.417559,43.750438],[-79.417581,43.750392],[-79.417584,43.750349]]]}},{"type":"Feature","properties":{"k":"fairway"},"geometry":{"type":"Polygon","coordinates":[[[-79.415572,43.751382],[-79.415587,43.751297],[-79.415561,43.751239],[-79.415426,43.751198],[-79.415345,43.751186],[-79.415243,43.751207],[-79.41512,43.751186],[-79.414993,43.751145],[-79.414857,43.751079],[-79.414716,43.751056],[-79.414483,43.751071],[-79.414036,43.75115],[-79.413956,43.751147],[-79.413984,43.751176],[-79.413982,43.751211],[-79.413959,43.751273],[-79.413915,43.751308],[-79.414034,43.751274],[-79.414191,43.751266],[-79.414358,43.751275],[-79.414451,43.7513],[-79.414554,43.751343],[-79.414825,43.751397],[-79.414886,43.751452],[-79.414972,43.751475],[-79.415062,43.751481],[-79.415305,43.751537],[-79.415421,43.75153],[-79.415507,43.751479],[-79.415572,43.751382]]]}},{"type":"Feature","properties":{"k":"bunker"},"geometry":{"type":"Polygon","coordinates":[[[-79.414377,43.75132],[-79.414319,43.7513],[-79.414301,43.751308],[-79.414294,43.751325],[-79.41431,43.751346],[-79.414384,43.751366],[-79.414403,43.751395],[-79.41447,43.751431],[-79.414494,43.751434],[-79.414519,43.751424],[-79.414533,43.751404],[-79.414528,43.751382],[-79.414507,43.751372],[-79.414449,43.751371],[-79.414426,43.751334],[-79.414404,43.751323],[-79.414377,43.75132]]]}},{"type":"Feature","properties":{"k":"green"},"geometry":{"type":"Polygon","coordinates":[[[-79.413945,43.751287],[-79.413915,43.751308],[-79.413861,43.751318],[-79.413736,43.751268],[-79.413644,43.751241],[-79.413624,43.751221],[-79.413619,43.751195],[-79.413632,43.751168],[-79.413655,43.751144],[-79.413691,43.751131],[-79.41372,43.751132],[-79.4138,43.751158],[-79.413956,43.751147],[-79.413984,43.751176],[-79.413982,43.751213],[-79.413974,43.751247],[-79.413945,43.751287]]]}},{"type":"Feature","properties":{"k":"tee"},"geometry":{"type":"Polygon","coordinates":[[[-79.412188,43.75032],[-79.412124,43.750393],[-79.412057,43.750394],[-79.411927,43.750289],[-79.411937,43.750244],[-79.411997,43.750194],[-79.412046,43.75018],[-79.412088,43.750191],[-79.412189,43.750279],[-79.412188,43.75032]]]}},{"type":"Feature","properties":{"k":"tee"},"geometry":{"type":"Polygon","coordinates":[[[-79.411916,43.750158],[-79.411875,43.750201],[-79.411835,43.750226],[-79.411795,43.750214],[-79.411783,43.750182],[-79.411809,43.750152],[-79.4119,43.750076],[-79.411926,43.750069],[-79.411958,43.750083],[-79.411968,43.750099],[-79.411916,43.750158]]]}},{"type":"Feature","properties":{"k":"fairway"},"geometry":{"type":"Polygon","coordinates":[[[-79.411487,43.750034],[-79.411398,43.750039],[-79.41133,43.750019],[-79.411085,43.749872],[-79.410949,43.74982],[-79.410826,43.749713],[-79.41064,43.749614],[-79.410517,43.749489],[-79.410408,43.749432],[-79.410357,43.749385],[-79.410342,43.749344],[-79.410378,43.749192],[-79.410408,43.749163],[-79.410453,43.74915],[-79.410528,43.749152],[-79.410598,43.749168],[-79.410658,43.749197],[-79.410732,43.749265],[-79.410878,43.749367],[-79.410955,43.749474],[-79.411035,43.74954],[-79.41121,43.749641],[-79.411291,43.749676],[-79.411425,43.749716],[-79.411578,43.749817],[-79.411619,43.749889],[-79.411625,43.749934],[-79.411613,43.749969],[-79.411571,43.750005],[-79.411487,43.750034]]]}},{"type":"Feature","properties":{"k":"bunker"},"geometry":{"type":"Polygon","coordinates":[[[-79.411249,43.749619],[-79.411225,43.749586],[-79.411151,43.749559],[-79.411109,43.749523],[-79.4111,43.749507],[-79.411104,43.749495],[-79.411141,43.74949],[-79.411163,43.749498],[-79.411198,43.749558],[-79.411231,43.749569],[-79.411285,43.749563],[-79.411304,43.749576],[-79.411314,43.749608],[-79.411306,43.749622],[-79.411267,43.749631],[-79.411252,43.749628],[-79.411249,43.749619]]]}},{"type":"Feature","properties":{"k":"bunker"},"geometry":{"type":"Polygon","coordinates":[[[-79.410482,43.749594],[-79.410481,43.749541],[-79.410448,43.749507],[-79.410395,43.749492],[-79.410334,43.749495],[-79.410317,43.749514],[-79.410325,43.749532],[-79.410433,43.749566],[-79.410442,43.749577],[-79.410421,43.749622],[-79.410463,43.749647],[-79.41045,43.74968],[-79.410464,43.749694],[-79.410505,43.749706],[-79.410521,43.749701],[-79.41054,43.749676],[-79.410534,43.749656],[-79.410489,43.749621],[-79.410482,43.749594]]]}},{"type":"Feature","properties":{"k":"bunker"},"geometry":{"type":"Polygon","coordinates":[[[-79.40966,43.749283],[-79.409661,43.749263],[-79.409652,43.749256],[-79.409559,43.749249],[-79.409536,43.749237],[-79.409523,43.749217],[-79.409532,43.749201],[-79.409583,43.749203],[-79.409623,43.74922],[-79.409682,43.749209],[-79.409737,43.749262],[-79.409742,43.749285],[-79.409733,43.749303],[-79.409713,43.749311],[-79.409683,43.749311],[-79.40966,43.749299],[-79.40966,43.749283]]]}},{"type":"Feature","properties":{"k":"bunker"},"geometry":{"type":"Polygon","coordinates":[[[-79.409679,43.748867],[-79.409647,43.748865],[-79.409627,43.748877],[-79.409627,43.748898],[-79.409707,43.74899],[-79.409728,43.749002],[-79.409763,43.749007],[-79.409797,43.749],[-79.409848,43.749011],[-79.409875,43.749001],[-79.409879,43.748988],[-79.409851,43.74896],[-79.409867,43.748925],[-79.409866,43.748882],[-79.409853,43.748868],[-79.409828,43.748865],[-79.409804,43.748874],[-79.409792,43.748888],[-79.409823,43.748949],[-79.409788,43.748971],[-79.409766,43.74897],[-79.409739,43.748933],[-79.409704,43.748915],[-79.409679,43.748867]]]}},{"type":"Feature","properties":{"k":"fairway"},"geometry":{"type":"Polygon","coordinates":[[[-79.409662,43.749141],[-79.409765,43.7492],[-79.409811,43.749202],[-79.40984,43.749189],[-79.409854,43.749159],[-79.409854,43.749094],[-79.409807,43.749052],[-79.409698,43.749019],[-79.409697,43.74909],[-79.409662,43.749141]]]}},{"type":"Feature","properties":{"k":"green"},"geometry":{"type":"Polygon","coordinates":[[[-79.409667,43.748999],[-79.409687,43.749026],[-79.409687,43.749082],[-79.409655,43.749122],[-79.409627,43.749133],[-79.409596,43.749134],[-79.409557,43.749129],[-79.409401,43.749051],[-79.409353,43.749007],[-79.409342,43.748971],[-79.409348,43.748945],[-79.409386,43.748896],[-79.409468,43.748861],[-79.409538,43.748792],[-79.40955,43.748769],[-79.409536,43.748675],[-79.409555,43.748645],[-79.409612,43.748604],[-79.409659,43.748592],[-79.409742,43.748605],[-79.409781,43.748629],[-79.409804,43.74866],[-79.409807,43.74869],[-79.409803,43.748805],[-79.409786,43.748823],[-79.40974,43.748835],[-79.40966,43.748802],[-79.409617,43.748796],[-79.409579,43.748808],[-79.409551,43.748835],[-79.409552,43.748881],[-79.409667,43.748999]]]}},{"type":"Feature","properties":{"k":"bunker"},"geometry":{"type":"Polygon","coordinates":[[[-79.409713,43.748544],[-79.409708,43.748559],[-79.409675,43.748563],[-79.409666,43.748557],[-79.409672,43.748537],[-79.409684,43.748534],[-79.409699,43.748534],[-79.409713,43.748544]]]}},{"type":"Feature","properties":{"k":"bunker"},"geometry":{"type":"Polygon","coordinates":[[[-79.409562,43.748595],[-79.409536,43.748609],[-79.409524,43.748607],[-79.409519,43.748593],[-79.409534,43.748577],[-79.409552,43.748576],[-79.409562,43.748595]]]}},{"type":"Feature","properties":{"k":"bunker"},"geometry":{"type":"Polygon","coordinates":[[[-79.409442,43.748655],[-79.409425,43.74866],[-79.409425,43.74867],[-79.409448,43.748679],[-79.409477,43.748678],[-79.409495,43.748669],[-79.40948,43.748655],[-79.409442,43.748655]]]}},{"type":"Feature","properties":{"k":"tee"},"geometry":{"type":"Polygon","coordinates":[[[-79.40933,43.748604],[-79.409316,43.748619],[-79.409283,43.74862],[-79.409229,43.748609],[-79.409248,43.748545],[-79.409277,43.748491],[-79.409303,43.748475],[-79.409367,43.748489],[-79.409377,43.748504],[-79.40933,43.748604]]]}},{"type":"Feature","properties":{"k":"tee"},"geometry":{"type":"Polygon","coordinates":[[[-79.409523,43.748479],[-79.409438,43.748483],[-79.409388,43.748473],[-79.40938,43.748433],[-79.409399,43.748378],[-79.409464,43.748337],[-79.40949,43.748338],[-79.409569,43.748363],[-79.409572,43.748443],[-79.409559,43.748465],[-79.409523,43.748479]]]}},{"type":"Feature","properties":{"k":"tee"},"geometry":{"type":"Polygon","coordinates":[[[-79.409843,43.748172],[-79.409804,43.748188],[-79.409754,43.748182],[-79.409717,43.748157],[-79.409693,43.748126],[-79.409715,43.748083],[-79.409789,43.748026],[-79.409841,43.748039],[-79.409876,43.748066],[-79.4099,43.748102],[-79.409885,43.748142],[-79.409843,43.748172]]]}},{"type":"Feature","properties":{"k":"fairway"},"geometry":{"type":"Polygon","coordinates":[[[-79.410597,43.747599],[-79.41054,43.747605],[-79.410486,43.747551],[-79.410628,43.747294],[-79.410763,43.747124],[-79.410868,43.747082],[-79.410976,43.747052],[-79.411022,43.746985],[-79.411037,43.74689],[-79.410965,43.746795],[-79.410952,43.746736],[-79.410988,43.746692],[-79.411004,43.746637],[-79.410999,43.7466],[-79.411053,43.746621],[-79.411106,43.746618],[-79.41113,43.746607],[-79.411163,43.746568],[-79.411198,43.746627],[-79.411252,43.746646],[-79.411295,43.746686],[-79.4113,43.74675],[-79.411242,43.746834],[-79.41124,43.746893],[-79.411263,43.746944],[-79.411303,43.746985],[-79.411299,43.747039],[-79.411263,43.747097],[-79.411239,43.747165],[-79.41123,43.747326],[-79.411176,43.747387],[-79.411072,43.747455],[-79.410963,43.747511],[-79.410796,43.747536],[-79.410597,43.747599]]]}},{"type":"Feature","properties":{"k":"bunker"},"geometry":{"type":"Polygon","coordinates":[[[-79.410943,43.746991],[-79.410934,43.746958],[-79.410949,43.74695],[-79.410977,43.74695],[-79.410996,43.74696],[-79.411003,43.746992],[-79.410945,43.747045],[-79.410918,43.747055],[-79.41085,43.747048],[-79.410835,43.747011],[-79.410844,43.746992],[-79.410879,43.746983],[-79.410925,43.747002],[-79.410943,43.746991]]]}},{"type":"Feature","properties":{"k":"bunker"},"geometry":{"type":"Polygon","coordinates":[[[-79.411399,43.746926],[-79.41138,43.746938],[-79.411344,43.746939],[-79.411317,43.746926],[-79.411311,43.746903],[-79.411321,43.746885],[-79.411356,43.746877],[-79.411387,43.746882],[-79.411404,43.746892],[-79.411408,43.746909],[-79.411399,43.746926]]]}},{"type":"Feature","properties":{"k":"bunker"},"geometry":{"type":"Polygon","coordinates":[[[-79.411345,43.746842],[-79.41132,43.746859],[-79.411289,43.746861],[-79.411304,43.746795],[-79.411324,43.746771],[-79.411369,43.746779],[-79.411373,43.746793],[-79.411345,43.746842]]]}},{"type":"Feature","properties":{"k":"bunker"},"geometry":{"type":"Polygon","coordinates":[[[-79.410945,43.746617],[-79.410933,43.746634],[-79.410912,43.746642],[-79.410841,43.746636],[-79.410836,43.746603],[-79.410854,43.746568],[-79.410847,43.74653],[-79.410857,43.746508],[-79.410879,43.746499],[-79.410901,43.746502],[-79.410915,43.746514],[-79.410922,43.746559],[-79.410945,43.746617]]]}},{"type":"Feature","properties":{"k":"bunker"},"geometry":{"type":"Polygon","coordinates":[[[-79.411238,43.746623],[-79.411202,43.746595],[-79.411213,43.746547],[-79.411202,43.746461],[-79.411219,43.746444],[-79.411235,43.74644],[-79.411253,43.746444],[-79.411281,43.746469],[-79.411289,43.746491],[-79.41128,43.746536],[-79.411313,43.746583],[-79.411314,43.746604],[-79.411275,43.746627],[-79.411238,43.746623]]]}},{"type":"Feature","properties":{"k":"green"},"geometry":{"type":"Polygon","coordinates":[[[-79.411111,43.746617],[-79.411079,43.746623],[-79.411036,43.746619],[-79.410996,43.746598],[-79.410984,43.746578],[-79.410977,43.746476],[-79.410936,43.746388],[-79.410951,43.74636],[-79.410988,43.746339],[-79.411037,43.746333],[-79.411078,43.746339],[-79.411139,43.74639],[-79.411154,43.746425],[-79.411168,43.746521],[-79.411163,43.746568],[-79.411134,43.746605],[-79.411111,43.746617]]]}},{"type":"Feature","properties":{"k":"tee"},"geometry":{"type":"Polygon","coordinates":[[[-79.411639,43.746049],[-79.411572,43.746074],[-79.411405,43.746025],[-79.411363,43.745979],[-79.411377,43.745932],[-79.411417,43.745905],[-79.411498,43.745927],[-79.41164,43.745948],[-79.411653,43.745956],[-79.411664,43.746001],[-79.411639,43.746049]]]}},{"type":"Feature","properties":{"k":"tee"},"geometry":{"type":"Polygon","coordinates":[[[-79.411586,43.746102],[-79.411557,43.74608],[-79.411417,43.746042],[-79.411366,43.746045],[-79.411351,43.746071],[-79.41137,43.746109],[-79.411432,43.746139],[-79.411517,43.746207],[-79.411556,43.746207],[-79.411584,43.74619],[-79.411603,43.746125],[-79.411586,43.746102]]]}},{"type":"Feature","properties":{"k":"tee"},"geometry":{"type":"Polygon","coordinates":[[[-79.411062,43.745862],[-79.410879,43.745883],[-79.410806,43.745871],[-79.41076,43.745873],[-79.410726,43.745925],[-79.410755,43.745969],[-79.410819,43.745988],[-79.411008,43.746009],[-79.411079,43.745996],[-79.411118,43.745966],[-79.411137,43.745933],[-79.411136,43.745897],[-79.411106,43.745866],[-79.411062,43.745862]]]}},{"type":"Feature","properties":{"k":"fairway"},"geometry":{"type":"Polygon","coordinates":[[[-79.410651,43.745545],[-79.410518,43.745609],[-79.41045,43.745622],[-79.410367,43.745618],[-79.410262,43.745579],[-79.410054,43.745448],[-79.409929,43.745405],[-79.409846,43.745359],[-79.409817,43.745311],[-79.409787,43.745176],[-79.409718,43.745062],[-79.409688,43.74503],[-79.409418,43.744886],[-79.40937,43.74482],[-79.409201,43.744501],[-79.409191,43.744426],[-79.409257,43.744119],[-79.409254,43.744094],[-79.409231,43.744066],[-79.409302,43.74408],[-79.409355,43.744068],[-79.40938,43.74404],[-79.409418,43.744136],[-79.409522,43.744241],[-79.409534,43.744301],[-79.409531,43.744407],[-79.409593,43.744568],[-79.40969,43.744716],[-79.409769,43.744808],[-79.409843,43.744864],[-79.410016,43.744923],[-79.410056,43.74495],[-79.410089,43.74502],[-79.410136,43.74508],[-79.410218,43.745138],[-79.410279,43.745205],[-79.410311,43.745288],[-79.410343,43.745336],[-79.410448,43.745408],[-79.410578,43.745457],[-79.410631,43.745488],[-79.410652,43.745512],[-79.410651,43.745545]]]}},{"type":"Feature","properties":{"k":"bunker"},"geometry":{"type":"Polygon","coordinates":[[[-79.409893,43.744726],[-79.409863,43.744673],[-79.409849,43.744662],[-79.40982,43.744664],[-79.409809,43.744676],[-79.409817,43.7447],[-79.409846,43.744731],[-79.409953,43.744785],[-79.409983,43.744787],[-79.410038,43.744771],[-79.410038,43.744755],[-79.409997,43.744714],[-79.409978,43.744713],[-79.409939,43.744736],[-79.409915,43.744737],[-79.409893,43.744726]]]}},{"type":"Feature","properties":{"k":"bunker"},"geometry":{"type":"Polygon","coordinates":[[[-79.409807,43.744562],[-79.409779,43.744565],[-79.40972,43.744554],[-79.409677,43.744517],[-79.40964,43.744429],[-79.409658,43.744405],[-79.409676,43.744398],[-79.409702,43.744411],[-79.409705,43.744431],[-79.409692,43.744473],[-79.409705,43.744496],[-79.409802,43.744509],[-79.409846,43.744541],[-79.409807,43.744562]]]}},{"type":"Feature","properties":{"k":"bunker"},"geometry":{"type":"Polygon","coordinates":[[[-79.409498,43.743984],[-79.409476,43.743954],[-79.409487,43.74394],[-79.409556,43.743932],[-79.409572,43.74394],[-79.409577,43.74396],[-79.409524,43.744008],[-79.409514,43.744029],[-79.409515,43.744065],[-79.409482,43.744071],[-79.409447,43.744056],[-79.409436,43.744036],[-79.409446,43.744016],[-79.409491,43.743999],[-79.409498,43.743984]]]}},{"type":"Feature","properties":{"k":"bunker"},"geometry":{"type":"Polygon","coordinates":[[[-79.40912,43.743976],[-79.409131,43.743957],[-79.409121,43.743893],[-79.409107,43.743874],[-79.409039,43.743882],[-79.409019,43.743902],[-79.409024,43.743914],[-79.409066,43.743929],[-79.409072,43.743938],[-79.409055,43.743979],[-79.409068,43.743994],[-79.409085,43.743998],[-79.40912,43.743976]]]}},{"type":"Feature","properties":{"k":"green"},"geometry":{"type":"Polygon","coordinates":[[[-79.409355,43.744068],[-79.40933,43.744079],[-79.409278,43.744081],[-79.409231,43.744066],[-79.409186,43.744041],[-79.409173,43.743864],[-79.409188,43.743834],[-79.409246,43.743805],[-79.409314,43.7438],[-79.409356,43.743804],[-79.40942,43.743842],[-79.40942,43.743881],[-79.40938,43.74404],[-79.409355,43.744068]]]}},{"type":"Feature","properties":{"k":"tee"},"geometry":{"type":"Polygon","coordinates":[[[-79.4097,43.743622],[-79.409561,43.743576],[-79.409555,43.743552],[-79.409578,43.743524],[-79.409644,43.743499],[-79.409694,43.74349],[-79.409779,43.743506],[-79.409851,43.743536],[-79.409839,43.743551],[-79.409781,43.743559],[-79.409741,43.743611],[-79.409726,43.74362],[-79.4097,43.743622]]]}},{"type":"Feature","properties":{"k":"tee"},"geometry":{"type":"Polygon","coordinates":[[[-79.41001,43.743801],[-79.409986,43.743797],[-79.409954,43.743779],[-79.409843,43.743688],[-79.409835,43.743656],[-79.409855,43.743623],[-79.409882,43.743605],[-79.409921,43.743594],[-79.409953,43.743593],[-79.41,43.74361],[-79.410054,43.743642],[-79.410114,43.743695],[-79.410113,43.743731],[-79.410101,43.743754],[-79.410045,43.743794],[-79.41001,43.743801]]]}},{"type":"Feature","properties":{"k":"tee"},"geometry":{"type":"Polygon","coordinates":[[[-79.410255,43.743867],[-79.410236,43.743879],[-79.410203,43.743882],[-79.410176,43.743867],[-79.410154,43.743843],[-79.410153,43.743815],[-79.410171,43.7438],[-79.41022,43.743792],[-79.410246,43.74381],[-79.410269,43.743841],[-79.410269,43.743854],[-79.410255,43.743867]]]}},{"type":"Feature","properties":{"k":"fairway"},"geometry":{"type":"Polygon","coordinates":[[[-79.410604,43.744124],[-79.410561,43.744145],[-79.410527,43.744184],[-79.41053,43.744237],[-79.410573,43.744287],[-79.410652,43.744343],[-79.410689,43.744385],[-79.410728,43.744448],[-79.410772,43.744568],[-79.41097,43.744812],[-79.411011,43.744846],[-79.411073,43.74488],[-79.411263,43.744943],[-79.411344,43.744988],[-79.411544,43.745112],[-79.411638,43.74519],[-79.41166,43.745229],[-79.411751,43.745283],[-79.411834,43.745301],[-79.411947,43.745349],[-79.411992,43.745398],[-79.412011,43.745439],[-79.412013,43.745498],[-79.412058,43.745553],[-79.412121,43.745586],[-79.412233,43.745617],[-79.412272,43.745623],[-79.412528,43.745627],[-79.412729,43.745674],[-79.412822,43.745723],[-79.412903,43.745801],[-79.412929,43.745856],[-79.412961,43.745973],[-79.412989,43.746007],[-79.413178,43.746099],[-79.413257,43.746169],[-79.413297,43.746187],[-79.413354,43.746181],[-79.413415,43.746157],[-79.413429,43.746128],[-79.413414,43.74609],[-79.413386,43.746066],[-79.41333,43.74585],[-79.41309,43.74566],[-79.412972,43.745611],[-79.412934,43.745528],[-79.412875,43.7455],[-79.412762,43.745473],[-79.412752,43.745434],[-79.412676,43.745384],[-79.412455,43.745309],[-79.412329,43.745288],[-79.412237,43.745264],[-79.412089,43.745203],[-79.411939,43.74512],[-79.411901,43.745084],[-79.411844,43.744969],[-79.411661,43.74483],[-79.411602,43.744796],[-79.411413,43.744741],[-79.411357,43.744712],[-79.411311,43.74466],[-79.411299,43.744606],[-79.411299,43.744497],[-79.411279,43.744438],[-79.411172,43.744381],[-79.411037,43.744282],[-79.41091,43.744209],[-79.410798,43.744133],[-79.410727,43.744112],[-79.410649,43.744107],[-79.410604,43.744124]]]}},{"type":"Feature","properties":{"k":"bunker"},"geometry":{"type":"Polygon","coordinates":[[[-79.411068,43.745007],[-79.411034,43.745009],[-79.410994,43.744994],[-79.410951,43.744951],[-79.410888,43.744954],[-79.410842,43.74494],[-79.410814,43.744921],[-79.410826,43.744893],[-79.410854,43.744875],[-79.410888,43.744873],[-79.410909,43.744878],[-79.410948,43.744913],[-79.411065,43.744937],[-79.411095,43.744974],[-79.41109,43.744996],[-79.411068,43.745007]]]}},{"type":"Feature","properties":{"k":"bunker"},"geometry":{"type":"Polygon","coordinates":[[[-79.413154,43.746563],[-79.413143,43.746583],[-79.413127,43.746588],[-79.4131,43.746582],[-79.413089,43.746571],[-79.413098,43.746552],[-79.413119,43.746544],[-79.413141,43.746546],[-79.413154,43.746563]]]}},{"type":"Feature","properties":{"k":"green"},"geometry":{"type":"Polygon","coordinates":[[[-79.413467,43.746385],[-79.413332,43.746507],[-79.413304,43.746524],[-79.413265,43.746537],[-79.413225,43.746536],[-79.413202,43.746527],[-79.413182,43.746507],[-79.413175,43.746483],[-79.413182,43.74645],[-79.413296,43.746353],[-79.413353,43.746265],[-79.413399,43.746242],[-79.413448,43.74624],[-79.413475,43.746246],[-79.413501,43.746266],[-79.413513,43.746289],[-79.413491,43.746357],[-79.413467,43.746385]]]}},{"type":"Feature","properties":{"k":"tee"},"geometry":{"type":"Polygon","coordinates":[[[-79.413381,43.746992],[-79.413335,43.746989],[-79.413298,43.746974],[-79.413284,43.746944],[-79.41329,43.746905],[-79.41335,43.746845],[-79.413357,43.74678],[-79.413379,43.746759],[-79.413429,43.746745],[-79.41348,43.746748],[-79.413525,43.746769],[-79.413554,43.746793],[-79.413559,43.746825],[-79.41355,43.746853],[-79.413487,43.746901],[-79.413432,43.746958],[-79.413381,43.746992]]]}},{"type":"Feature","properties":{"k":"tee"},"geometry":{"type":"Polygon","coordinates":[[[-79.413187,43.74693],[-79.413154,43.746962],[-79.413099,43.746967],[-79.413037,43.746965],[-79.412988,43.746955],[-79.412965,43.74693],[-79.412968,43.746906],[-79.412983,43.746888],[-79.413125,43.746851],[-79.413159,43.746859],[-79.413178,43.746876],[-79.41319,43.746904],[-79.413187,43.74693]]]}},{"type":"Feature","properties":{"k":"fairway"},"geometry":{"type":"Polygon","coordinates":[[[-79.412145,43.746323],[-79.412242,43.746354],[-79.4123,43.746398],[-79.412318,43.746452],[-79.412338,43.746466],[-79.41237,43.74647],[-79.412407,43.746457],[-79.412433,43.746427],[-79.412482,43.746336],[-79.412469,43.74631],[-79.412425,43.746297],[-79.412326,43.746289],[-79.412291,43.746274],[-79.412256,43.746237],[-79.412254,43.746273],[-79.412238,43.746299],[-79.412193,43.746322],[-79.412145,43.746323]]]}},{"type":"Feature","properties":{"k":"bunker"},"geometry":{"type":"Polygon","coordinates":[[[-79.41223,43.746471],[-79.412214,43.746477],[-79.412188,43.746474],[-79.412162,43.746445],[-79.41216,43.746412],[-79.412072,43.7464],[-79.412049,43.746387],[-79.412049,43.746367],[-79.412065,43.746356],[-79.412088,43.746353],[-79.41216,43.746377],[-79.412232,43.746374],[-79.412247,43.746395],[-79.412236,43.74641],[-79.41223,43.746471]]]}},{"type":"Feature","properties":{"k":"bunker"},"geometry":{"type":"Polygon","coordinates":[[[-79.412393,43.746257],[-79.412368,43.74627],[-79.412337,43.746272],[-79.412317,43.746259],[-79.412311,43.746199],[-79.41229,43.74618],[-79.412311,43.746156],[-79.412345,43.746142],[-79.412402,43.74615],[-79.412409,43.746168],[-79.41239,43.746202],[-79.412412,43.74621],[-79.412452,43.746189],[-79.412468,43.746191],[-79.412489,43.7462],[-79.4125,43.746217],[-79.412495,43.746233],[-79.41246,43.746258],[-79.41244,43.746264],[-79.412393,43.746257]]]}},{"type":"Feature","properties":{"k":"green"},"geometry":{"type":"Polygon","coordinates":[[[-79.412257,43.746256],[-79.412233,43.746188],[-79.412216,43.746168],[-79.412173,43.746143],[-79.412006,43.746116],[-79.411971,43.74612],[-79.411934,43.746134],[-79.411906,43.746158],[-79.411892,43.746192],[-79.411896,43.746227],[-79.411911,43.746251],[-79.411958,43.746284],[-79.412104,43.746318],[-79.412202,43.746321],[-79.412241,43.746296],[-79.412257,43.746256]]]}},{"type":"Feature","properties":{"k":"tee"},"geometry":{"type":"Polygon","coordinates":[[[-79.411683,43.746638],[-79.41155,43.746492],[-79.411503,43.746497],[-79.411459,43.746522],[-79.411443,43.746553],[-79.41146,43.7466],[-79.411548,43.746691],[-79.411592,43.746705],[-79.411638,43.746696],[-79.411676,43.746674],[-79.411683,43.746638]]]}},{"type":"Feature","properties":{"k":"tee"},"geometry":{"type":"Polygon","coordinates":[[[-79.411769,43.747203],[-79.411747,43.747222],[-79.411691,43.747231],[-79.411646,43.747209],[-79.411645,43.747177],[-79.411659,43.747142],[-79.411696,43.747131],[-79.411727,43.74713],[-79.411754,43.747143],[-79.411771,43.747164],[-79.411769,43.747203]]]}},{"type":"Feature","properties":{"k":"fairway"},"geometry":{"type":"Polygon","coordinates":[[[-79.412237,43.747205],[-79.412194,43.747193],[-79.412126,43.747199],[-79.412053,43.747219],[-79.411872,43.7473],[-79.41181,43.74734],[-79.411771,43.747394],[-79.411767,43.747453],[-79.411812,43.747554],[-79.411854,43.74762],[-79.411894,43.747668],[-79.412042,43.747789],[-79.412056,43.747835],[-79.412105,43.747892],[-79.412234,43.747935],[-79.412383,43.748063],[-79.412529,43.748169],[-79.412749,43.748283],[-79.412812,43.748299],[-79.413085,43.748337],[-79.413184,43.748379],[-79.413253,43.748399],[-79.413302,43.748392],[-79.413342,43.748374],[-79.413455,43.748258],[-79.413517,43.748243],[-79.413591,43.748242],[-79.413642,43.748252],[-79.413704,43.748276],[-79.413684,43.748159],[-79.413641,43.748171],[-79.41358,43.748171],[-79.413538,43.748148],[-79.413503,43.748116],[-79.413458,43.748043],[-79.413009,43.747985],[-79.412944,43.748002],[-79.412739,43.748027],[-79.41267,43.748016],[-79.412574,43.747961],[-79.412489,43.747885],[-79.412446,43.747827],[-79.412317,43.747492],[-79.412326,43.747343],[-79.412315,43.747267],[-79.412288,43.747233],[-79.412237,43.747205]]]}},{"type":"Feature","properties":{"k":"bunker"},"geometry":{"type":"Polygon","coordinates":[[[-79.41361,43.748354],[-79.413616,43.748322],[-79.413593,43.748307],[-79.413537,43.748311],[-79.413527,43.748325],[-79.413528,43.748344],[-79.413551,43.748361],[-79.413547,43.748387],[-79.413454,43.748411],[-79.413431,43.748432],[-79.413437,43.748452],[-79.413457,43.748467],[-79.413501,43.748469],[-79.413523,43.748461],[-79.413553,43.748414],[-79.413572,43.748404],[-79.413647,43.74841],[-79.41366,43.748401],[-79.413659,43.748382],[-79.413611,43.748364],[-79.41361,43.748354]]]}},{"type":"Feature","properties":{"k":"bunker"},"geometry":{"type":"Polygon","coordinates":[[[-79.413679,43.748072],[-79.413659,43.748103],[-79.413645,43.748111],[-79.413622,43.748108],[-79.413608,43.7481],[-79.413596,43.748044],[-79.413574,43.748036],[-79.413511,43.748033],[-79.413494,43.748006],[-79.413524,43.747986],[-79.413581,43.747985],[-79.413621,43.747994],[-79.413641,43.748022],[-79.41366,43.74803],[-79.413767,43.748017],[-79.413812,43.748033],[-79.413814,43.748047],[-79.413781,43.748066],[-79.413706,43.748062],[-79.413679,43.748072]]]}},{"type":"Feature","properties":{"k":"green"},"geometry":{"type":"Polygon","coordinates":[[[-79.413704,43.748276],[-79.413684,43.748159],[-79.413754,43.748103],[-79.413794,43.748086],[-79.413836,43.748079],[-79.413904,43.748092],[-79.413943,43.748117],[-79.413968,43.748155],[-79.413985,43.748203],[-79.413982,43.748245],[-79.41397,43.748275],[-79.413911,43.748335],[-79.413863,43.748346],[-79.413822,43.748342],[-79.413704,43.748276]]]}},{"type":"Feature","properties":{"k":"tee"},"geometry":{"type":"Polygon","coordinates":[[[-79.414351,43.748366],[-79.4143,43.748329],[-79.414351,43.748297],[-79.414375,43.748316],[-79.414351,43.748366]]]}},{"type":"Feature","properties":{"k":"tee"},"geometry":{"type":"Polygon","coordinates":[[[-79.41403,43.748526],[-79.413989,43.748572],[-79.413946,43.748603],[-79.413899,43.748596],[-79.413868,43.748565],[-79.413873,43.748536],[-79.413927,43.748483],[-79.413999,43.748423],[-79.414027,43.748415],[-79.414058,43.748428],[-79.414071,43.748445],[-79.414071,43.748465],[-79.41403,43.748526]]]}},{"type":"Feature","properties":{"k":"tee"},"geometry":{"type":"Polygon","coordinates":[[[-79.414136,43.748471],[-79.414019,43.748619],[-79.414018,43.748649],[-79.414036,43.748661],[-79.414069,43.748662],[-79.414096,43.748644],[-79.414135,43.748596],[-79.414172,43.748503],[-79.414166,43.748474],[-79.414149,43.748466],[-79.414136,43.748471]]]}},{"type":"Feature","properties":{"k":"bunker"},"geometry":{"type":"Polygon","coordinates":[[[-79.413469,43.748862],[-79.413428,43.748869],[-79.413418,43.748886],[-79.413427,43.748905],[-79.413446,43.74891],[-79.413469,43.748905],[-79.413483,43.748894],[-79.413484,43.74887],[-79.413469,43.748862]]]}},{"type":"Feature","properties":{"k":"green"},"geometry":{"type":"Polygon","coordinates":[[[-79.413225,43.749223],[-79.4132,43.7492],[-79.413168,43.749137],[-79.413175,43.749105],[-79.413202,43.749071],[-79.413237,43.749052],[-79.413375,43.749002],[-79.413431,43.749002],[-79.413484,43.749027],[-79.413512,43.749059],[-79.41351,43.749098],[-79.413495,43.749128],[-79.413369,43.749226],[-79.413324,43.749244],[-79.41328,43.749246],[-79.413225,43.749223]]]}},{"type":"Feature","properties":{"k":"tee"},"geometry":{"type":"Polygon","coordinates":[[[-79.413099,43.749392],[-79.413013,43.749423],[-79.412943,43.749478],[-79.412867,43.749425],[-79.412884,43.749386],[-79.41295,43.749342],[-79.413007,43.749334],[-79.413072,43.749361],[-79.413099,43.749392]]]}},{"type":"Feature","properties":{"k":"tee"},"geometry":{"type":"Polygon","coordinates":[[[-79.413135,43.749577],[-79.413092,43.749598],[-79.413061,43.749627],[-79.413055,43.749659],[-79.413115,43.749661],[-79.413159,43.74965],[-79.413189,43.749633],[-79.413194,43.749587],[-79.413168,43.749577],[-79.413135,43.749577]]]}},{"type":"Feature","properties":{"k":"fairway"},"geometry":{"type":"Polygon","coordinates":[[[-79.412539,43.748941],[-79.412453,43.748953],[-79.412333,43.748913],[-79.412069,43.748782],[-79.412002,43.748728],[-79.411805,43.748516],[-79.411691,43.748439],[-79.411463,43.74836],[-79.411446,43.74829],[-79.411409,43.748241],[-79.411326,43.748202],[-79.41125,43.748187],[-79.411182,43.748189],[-79.411044,43.74821],[-79.41095,43.748124],[-79.410905,43.748099],[-79.41085,43.748089],[-79.410888,43.748071],[-79.410918,43.748044],[-79.410926,43.748006],[-79.411015,43.748053],[-79.411096,43.748059],[-79.411135,43.748048],[-79.411265,43.747956],[-79.411331,43.747933],[-79.411411,43.747941],[-79.411699,43.74806],[-79.411792,43.748107],[-79.411839,43.748173],[-79.411941,43.748385],[-79.412194,43.748521],[-79.412484,43.748642],[-79.412579,43.748699],[-79.412639,43.74877],[-79.412639,43.748851],[-79.412597,43.748896],[-79.412539,43.748941]]]}},{"type":"Feature","properties":{"k":"bunker"},"geometry":{"type":"Polygon","coordinates":[[[-79.411369,43.748409],[-79.411385,43.748361],[-79.411378,43.748344],[-79.411352,43.748333],[-79.411324,43.748332],[-79.411306,43.748344],[-79.411301,43.74836],[-79.411319,43.748406],[-79.411298,43.748459],[-79.411308,43.748483],[-79.411335,43.748498],[-79.411371,43.748504],[-79.411389,43.748488],[-79.411392,43.748469],[-79.411366,43.74843],[-79.411369,43.748409]]]}},{"type":"Feature","properties":{"k":"bunker"},"geometry":{"type":"Polygon","coordinates":[[[-79.411009,43.747906],[-79.410961,43.747853],[-79.410933,43.747853],[-79.410919,43.747862],[-79.410919,43.747892],[-79.410933,43.747909],[-79.410983,43.747942],[-79.41102,43.748001],[-79.411049,43.748017],[-79.41108,43.748013],[-79.411089,43.747999],[-79.411079,43.747952],[-79.411085,43.747935],[-79.411136,43.747915],[-79.411156,43.747894],[-79.411148,43.747875],[-79.411121,43.747867],[-79.411091,43.74787],[-79.411075,43.747878],[-79.411068,43.747909],[-79.411052,43.747919],[-79.411033,43.74792],[-79.411009,43.747906]]]}},{"type":"Feature","properties":{"k":"bunker"},"geometry":{"type":"Polygon","coordinates":[[[-79.41088,43.748125],[-79.41082,43.748147],[-79.41074,43.748139],[-79.410701,43.748114],[-79.41067,43.748113],[-79.410655,43.748127],[-79.410657,43.748147],[-79.410687,43.748164],[-79.410746,43.748176],[-79.410802,43.748176],[-79.410895,43.748243],[-79.410917,43.748246],[-79.410932,43.748235],[-79.410931,43.748221],[-79.410884,43.748181],[-79.410887,43.748166],[-79.410912,43.748142],[-79.410911,43.748128],[-79.41088,43.748125]]]}},{"type":"Feature","properties":{"k":"green"},"geometry":{"type":"Polygon","coordinates":[[[-79.410878,43.748078],[-79.41085,43.748089],[-79.41076,43.748101],[-79.410652,43.748062],[-79.410606,43.748032],[-79.410578,43.747993],[-79.410562,43.74795],[-79.410577,43.747917],[-79.410646,43.747874],[-79.410747,43.747864],[-79.410805,43.747881],[-79.410873,43.747916],[-79.410926,43.748006],[-79.410918,43.748044],[-79.410878,43.748078]]]}},{"type":"Feature","properties":{"k":"tee"},"geometry":{"type":"Polygon","coordinates":[[[-79.410499,43.748347],[-79.410456,43.74832],[-79.410408,43.748303],[-79.410343,43.748303],[-79.410311,43.748284],[-79.410323,43.748251],[-79.410317,43.748216],[-79.410358,43.748128],[-79.410396,43.748118],[-79.410435,43.74813],[-79.410607,43.748276],[-79.410689,43.748325],[-79.410699,43.748358],[-79.41065,43.748393],[-79.4106,43.748401],[-79.410554,43.748389],[-79.410499,43.748347]]]}},{"type":"Feature","properties":{"k":"fairway"},"geometry":{"type":"Polygon","coordinates":[[[-79.411081,43.74867],[-79.41109,43.748627],[-79.411113,43.748597],[-79.411169,43.748566],[-79.411221,43.748554],[-79.411319,43.748564],[-79.411386,43.748588],[-79.411494,43.748661],[-79.41171,43.748852],[-79.412023,43.749102],[-79.412247,43.749187],[-79.412323,43.74924],[-79.412432,43.749335],[-79.412519,43.74939],[-79.41252,43.749432],[-79.412465,43.749471],[-79.412373,43.749516],[-79.412249,43.749536],[-79.412121,43.749493],[-79.41197,43.749404],[-79.411848,43.749298],[-79.411742,43.749186],[-79.411602,43.749083],[-79.411506,43.748988],[-79.411089,43.748717],[-79.411081,43.74867]]]}},{"type":"Feature","properties":{"k":"green"},"geometry":{"type":"Polygon","coordinates":[[[-79.412614,43.749689],[-79.412582,43.749734],[-79.412583,43.74976],[-79.412642,43.749823],[-79.412708,43.749868],[-79.412741,43.74988],[-79.412778,43.749881],[-79.412815,43.749871],[-79.412847,43.749833],[-79.412849,43.749808],[-79.412836,43.749777],[-79.412774,43.749723],[-79.412729,43.749663],[-79.412698,43.749659],[-79.412662,43.749664],[-79.412635,43.749672],[-79.412614,43.749689]]]}},{"type":"Feature","properties":{"k":"tee"},"geometry":{"type":"Polygon","coordinates":[[[-79.412561,43.750108],[-79.412556,43.750137],[-79.41249,43.750183],[-79.412423,43.750195],[-79.412382,43.750189],[-79.412352,43.750162],[-79.412351,43.750128],[-79.41245,43.750062],[-79.412485,43.750047],[-79.412523,43.750055],[-79.412554,43.750077],[-79.412561,43.750108]]]}},{"type":"Feature","properties":{"k":"tee"},"geometry":{"type":"Polygon","coordinates":[[[-79.412383,43.75005],[-79.412289,43.750103],[-79.412247,43.750103],[-79.41221,43.750083],[-79.41218,43.750035],[-79.412188,43.749996],[-79.412218,43.749968],[-79.412284,43.749937],[-79.412317,43.749924],[-79.412347,43.749926],[-79.412423,43.749988],[-79.412423,43.750016],[-79.412383,43.75005]]]}},{"type":"Feature","properties":{"k":"bunker"},"geometry":{"type":"Polygon","coordinates":[[[-79.41146,43.74912],[-79.411432,43.749109],[-79.411413,43.749114],[-79.411406,43.749131],[-79.41144,43.749155],[-79.411458,43.749153],[-79.41147,43.749148],[-79.411473,43.749133],[-79.41146,43.74912]]]}},{"type":"Feature","properties":{"k":"fairway"},"geometry":{"type":"Polygon","coordinates":[[[-79.411773,43.749537],[-79.411728,43.749553],[-79.411664,43.749558],[-79.411583,43.749555],[-79.411503,43.749514],[-79.411347,43.749411],[-79.411254,43.749366],[-79.411155,43.749336],[-79.410988,43.749195],[-79.41083,43.749106],[-79.410737,43.749034],[-79.410666,43.748993],[-79.410596,43.74896],[-79.410401,43.74892],[-79.410359,43.748882],[-79.410343,43.748831],[-79.410357,43.748781],[-79.410378,43.748747],[-79.410425,43.748728],[-79.410497,43.748735],[-79.410778,43.748801],[-79.410878,43.748814],[-79.411046,43.748897],[-79.411083,43.748927],[-79.411161,43.74903],[-79.411233,43.749103],[-79.411321,43.749172],[-79.411475,43.749225],[-79.411566,43.74929],[-79.411734,43.74936],[-79.411792,43.749412],[-79.411814,43.749465],[-79.411808,43.749515],[-79.411773,43.749537]]]}},{"type":"Feature","properties":{"k":"bunker"},"geometry":{"type":"Polygon","coordinates":[[[-79.410445,43.749068],[-79.410418,43.749083],[-79.410415,43.749099],[-79.410428,43.749111],[-79.410533,43.749124],[-79.410578,43.749115],[-79.410604,43.749119],[-79.410626,43.749151],[-79.410639,43.749158],[-79.410667,43.749155],[-79.41067,43.749124],[-79.410646,43.749099],[-79.410575,43.749079],[-79.410511,43.749093],[-79.410483,43.749086],[-79.410464,43.74907],[-79.410445,43.749068]]]}},{"type":"Feature","properties":{"k":"bunker"},"geometry":{"type":"Polygon","coordinates":[[[-79.410526,43.748653],[-79.41052,43.748642],[-79.41048,43.74864],[-79.410474,43.748669],[-79.410436,43.748691],[-79.410439,43.748708],[-79.410459,43.748717],[-79.410503,43.74871],[-79.41055,43.748723],[-79.410581,43.748722],[-79.410655,43.748752],[-79.410689,43.748755],[-79.410723,43.748734],[-79.410729,43.74872],[-79.410715,43.748695],[-79.410685,43.748699],[-79.410652,43.748721],[-79.410641,43.748715],[-79.410631,43.748675],[-79.410599,43.748666],[-79.410561,43.748692],[-79.410539,43.748689],[-79.410526,43.748653]]]}},{"type":"Feature","properties":{"k":"path"},"geometry":{"type":"LineString","coordinates":[[-79.423198,43.749543],[-79.423263,43.74971],[-79.423383,43.749847],[-79.423544,43.749989],[-79.423736,43.750107],[-79.424088,43.750301],[-79.423865,43.750516],[-79.423738,43.750532],[-79.423538,43.750503],[-79.423304,43.750444]]}},{"type":"Feature","properties":{"k":"path"},"geometry":{"type":"LineString","coordinates":[[-79.424246,43.750506],[-79.424193,43.750524],[-79.424167,43.750563],[-79.424082,43.750563],[-79.423967,43.750532],[-79.423865,43.750516],[-79.423753,43.75062]]}},{"type":"Feature","properties":{"k":"path"},"geometry":{"type":"LineString","coordinates":[[-79.4226,43.750466],[-79.422343,43.750478]]}},{"type":"Feature","properties":{"k":"path"},"geometry":{"type":"LineString","coordinates":[[-79.4226,43.750466],[-79.422544,43.750365],[-79.422578,43.750267],[-79.422578,43.750215],[-79.422551,43.750169],[-79.422556,43.750123],[-79.422521,43.750062],[-79.422464,43.749985],[-79.422166,43.749795],[-79.4221,43.749767],[-79.421884,43.749779],[-79.421515,43.749702],[-79.421219,43.74973],[-79.420861,43.749673],[-79.420735,43.74967],[-79.42044,43.749572],[-79.420345,43.749585],[-79.420284,43.749559],[-79.420306,43.749516],[-79.420346,43.749506],[-79.42039,43.749512],[-79.42044,43.749572]]}},{"type":"Feature","properties":{"k":"path"},"geometry":{"type":"LineString","coordinates":[[-79.420735,43.74967],[-79.42079,43.749766]]}},{"type":"Feature","properties":{"k":"path"},"geometry":{"type":"LineString","coordinates":[[-79.42315,43.749749],[-79.422954,43.749682],[-79.4229,43.74963],[-79.422879,43.749561],[-79.422835,43.749513]]}},{"type":"Feature","properties":{"k":"water"},"geometry":{"type":"Polygon","coordinates":[[[-79.417272,43.749975],[-79.41732,43.749908],[-79.417482,43.74983],[-79.417844,43.74972],[-79.418283,43.749661],[-79.418859,43.749634],[-79.419032,43.749648],[-79.419324,43.749628],[-79.419495,43.749558],[-79.419708,43.74943],[-79.419938,43.749374],[-79.420085,43.749308],[-79.420307,43.749272],[-79.420453,43.749275],[-79.420554,43.749244],[-79.420592,43.749282],[-79.420632,43.749279],[-79.420642,43.749306],[-79.420721,43.749338],[-79.420872,43.749365],[-79.421301,43.749383],[-79.421498,43.749463],[-79.42164,43.749457],[-79.421941,43.749534],[-79.422053,43.749545],[-79.422254,43.749592],[-79.42255,43.749696],[-79.422703,43.749797],[-79.42272,43.749905],[-79.422753,43.75002],[-79.422818,43.750106],[-79.422789,43.750141],[-79.422911,43.750498],[-79.422963,43.750612],[-79.42317,43.750889],[-79.423073,43.750919],[-79.42296,43.750769],[-79.422895,43.750701],[-79.422878,43.750656],[-79.422859,43.750644],[-79.422816,43.750577],[-79.422771,43.750483],[-79.422708,43.75027],[-79.42269,43.750254],[-79.422672,43.750199],[-79.422679,43.750142],[-79.422637,43.75],[-79.422608,43.749845],[-79.422529,43.74982],[-79.422431,43.74976],[-79.422001,43.749609],[-79.421541,43.749555],[-79.421451,43.749552],[-79.421294,43.749508],[-79.421196,43.749511],[-79.421131,43.749484],[-79.421036,43.749482],[-79.420971,43.749431],[-79.420881,43.749436],[-79.420764,43.749403],[-79.420678,43.74939],[-79.420633,43.749362],[-79.420345,43.749376],[-79.420152,43.749393],[-79.419981,43.749429],[-79.419844,43.74949],[-79.419697,43.749533],[-79.419584,43.74965],[-79.419546,43.749661],[-79.419493,43.749701],[-79.419437,43.749719],[-79.419324,43.749688],[-79.419229,43.74972],[-79.418606,43.749723],[-79.418269,43.749743],[-79.417951,43.749793],[-79.417855,43.749789],[-79.41757,43.74988],[-79.417419,43.749956],[-79.4174,43.749972],[-79.417272,43.749975]]]}},{"type":"Feature","properties":{"k":"path"},"geometry":{"type":"LineString","coordinates":[[-79.415589,43.750471],[-79.415747,43.750241],[-79.415982,43.749949],[-79.416203,43.749701],[-79.416267,43.74966]]}},{"type":"Feature","properties":{"k":"path"},"geometry":{"type":"LineString","coordinates":[[-79.417721,43.749663],[-79.417794,43.749674],[-79.417995,43.749651],[-79.418223,43.749614],[-79.418395,43.749611],[-79.418689,43.749534],[-79.418719,43.749547],[-79.418726,43.749577]]}},{"type":"Feature","properties":{"k":"path"},"geometry":{"type":"LineString","coordinates":[[-79.418726,43.749577],[-79.418763,43.749733]]}},{"type":"Feature","properties":{"k":"path"},"geometry":{"type":"LineString","coordinates":[[-79.418763,43.749733],[-79.418771,43.749766]]}},{"type":"Feature","properties":{"k":"path"},"geometry":{"type":"LineString","coordinates":[[-79.41191,43.750442],[-79.412034,43.750562],[-79.412224,43.750444],[-79.412242,43.750397],[-79.412242,43.75036],[-79.412278,43.750329],[-79.412351,43.750294],[-79.412294,43.750263]]}},{"type":"Feature","properties":{"k":"path"},"geometry":{"type":"LineString","coordinates":[[-79.409818,43.749729],[-79.409791,43.749663],[-79.409803,43.749552],[-79.409795,43.749491],[-79.409684,43.749386]]}},{"type":"Feature","properties":{"k":"path"},"geometry":{"type":"LineString","coordinates":[[-79.409107,43.749134],[-79.409118,43.749034],[-79.409142,43.748967],[-79.409212,43.748858],[-79.40933,43.748703],[-79.409375,43.748587],[-79.409398,43.748551],[-79.409512,43.748512],[-79.409542,43.748508],[-79.409622,43.748435],[-79.409715,43.748399],[-79.409766,43.748388],[-79.40979,43.748326],[-79.409844,43.748296],[-79.409934,43.748294]]}},{"type":"Feature","properties":{"k":"path"},"geometry":{"type":"LineString","coordinates":[[-79.418325,43.748708],[-79.418467,43.748665],[-79.418623,43.74869],[-79.418692,43.748632],[-79.418765,43.748549],[-79.418867,43.748499],[-79.418971,43.748376],[-79.419245,43.748357],[-79.419443,43.748373],[-79.419583,43.748342],[-79.420007,43.748173],[-79.42006,43.748165],[-79.420294,43.748196],[-79.420484,43.748206],[-79.420881,43.748193],[-79.421004,43.74821],[-79.42142,43.748423],[-79.421557,43.748458],[-79.421683,43.748433],[-79.421932,43.74852],[-79.422131,43.748615],[-79.422329,43.748633]]}},{"type":"Feature","properties":{"k":"path"},"geometry":{"type":"LineString","coordinates":[[-79.413272,43.750834],[-79.412505,43.750313]]}},{"type":"Feature","properties":{"k":"path"},"geometry":{"type":"LineString","coordinates":[[-79.409356,43.748635],[-79.409407,43.748625],[-79.409501,43.748552],[-79.40964,43.748493],[-79.409678,43.748448],[-79.409812,43.748438],[-79.409934,43.748294]]}},{"type":"Feature","properties":{"k":"path"},"geometry":{"type":"LineString","coordinates":[[-79.408763,43.749666],[-79.409062,43.749942],[-79.409135,43.750025],[-79.409375,43.750222],[-79.409417,43.750347],[-79.409539,43.750489]]}}]}