{"type":"FeatureCollection","features":[{"type":"Feature","properties":{"k":"path"},"geometry":{"type":"LineString","coordinates":[[-122.245505,38.215464],[-122.245435,38.215483],[-122.245417,38.215496]]}},{"type":"Feature","properties":{"k":"path"},"geometry":{"type":"LineString","coordinates":[[-122.245505,38.215464],[-122.245425,38.215407]]}},{"type":"Feature","properties":{"k":"path"},"geometry":{"type":"LineString","coordinates":[[-122.247693,38.212753],[-122.247487,38.212691],[-122.247372,38.21268],[-122.24724,38.212701],[-122.24696,38.212791],[-122.246903,38.212819],[-122.246864,38.212851],[-122.246828,38.212896],[-122.246757,38.213026],[-122.246716,38.213054],[-122.246425,38.213187],[-122.246354,38.213203],[-122.246249,38.213199],[-122.246087,38.213214],[-122.246033,38.213227],[-122.245957,38.213262],[-122.245909,38.213292],[-122.245854,38.21331],[-122.245743,38.213295],[-122.245642,38.213263],[-122.245575,38.213258],[-122.245438,38.213295],[-122.245295,38.213413],[-122.245261,38.213418],[-122.245224,38.213408],[-122.245215,38.213386],[-122.245229,38.213141],[-122.245216,38.213016],[-122.245221,38.212979],[-122.245238,38.212931],[-122.245285,38.212905],[-122.245434,38.212885],[-122.245662,38.212888],[-122.24571,38.212902],[-122.245799,38.212985],[-122.245875,38.21303],[-122.245971,38.213033],[-122.246005,38.213024],[-122.246111,38.212951],[-122.246252,38.212927],[-122.246303,38.212907],[-122.246345,38.212881],[-122.246419,38.212804],[-122.246446,38.212788],[-122.246538,38.212772],[-122.246627,38.21273],[-122.24675,38.2127],[-122.246808,38.212699],[-122.246934,38.212724],[-122.247028,38.212711],[-122.247098,38.212682],[-122.247214,38.212609],[-122.247268,38.212599],[-122.247438,38.212628],[-122.247509,38.212619],[-122.247578,38.2126],[-122.247646,38.212602],[-122.247711,38.212637],[-122.247816,38.212766],[-122.247818,38.2128]]}},{"type":"Feature","properties":{"k":"path"},"geometry":{"type":"LineString","coordinates":[[-122.245425,38.215407],[-122.245417,38.215496]]}},{"type":"Feature","properties":{"k":"path"},"geometry":{"type":"LineString","coordinates":[[-122.245425,38.215407],[-122.245397,38.215359],[-122.245356,38.215224]]}},{"type":"Feature","properties":{"k":"path"},"geometry":{"type":"LineString","coordinates":[[-122.245868,38.214978],[-122.245722,38.214961],[-122.245615,38.214932]]}},{"type":"Feature","properties":{"k":"path"},"geometry":{"type":"LineString","coordinates":[[-122.245615,38.214932],[-122.245567,38.215013],[-122.245502,38.215091],[-122.245356,38.215224]]}},{"type":"Feature","properties":{"k":"path"},"geometry":{"type":"LineString","coordinates":[[-122.248387,38.211281],[-122.24837,38.211304],[-122.248362,38.211337],[-122.24838,38.211388],[-122.248413,38.211411],[-122.24857,38.211476],[-122.248592,38.211512],[-122.248595,38.211567],[-122.248526,38.211694],[-122.24852,38.211825],[-122.248507,38.211849],[-122.248477,38.211887],[-122.248431,38.211908],[-122.248367,38.211921],[-122.248279,38.211916],[-122.248178,38.211898],[-122.248122,38.211877],[-122.248022,38.211814],[-122.247894,38.211711],[-122.247734,38.211654],[-122.247581,38.211569],[-122.247537,38.211534],[-122.247495,38.211455],[-122.247479,38.211382],[-122.247419,38.21131],[-122.247377,38.211277],[-122.24712,38.211178],[-122.246993,38.211086],[-122.246939,38.211001],[-122.246863,38.210916],[-122.246825,38.210891],[-122.246776,38.210878],[-122.246719,38.210879],[-122.246548,38.210926],[-122.246497,38.210934],[-122.246319,38.210937],[-122.246263,38.21095],[-122.246098,38.211055],[-122.245984,38.211103],[-122.245778,38.211128],[-122.245708,38.211108],[-122.245575,38.211106],[-122.245512,38.211139],[-122.245452,38.211184],[-122.245411,38.211227],[-122.245386,38.211267],[-122.245374,38.211447],[-122.245266,38.211552],[-122.245232,38.211714],[-122.245204,38.211759],[-122.245169,38.2118],[-122.245049,38.211875],[-122.244976,38.211937],[-122.244973,38.211978],[-122.245011,38.21209],[-122.245002,38.212153],[-122.245015,38.212212],[-122.244983,38.212467],[-122.244931,38.212564],[-122.244928,38.212608],[-122.244983,38.212691],[-122.244941,38.21278],[-122.244909,38.21282],[-122.24489,38.21286],[-122.244897,38.21301],[-122.244938,38.213187],[-122.245002,38.213294],[-122.245027,38.213419],[-122.245031,38.213529],[-122.245044,38.213571],[-122.245134,38.213645]]}},{"type":"Feature","properties":{"k":"path"},"geometry":{"type":"LineString","coordinates":[[-122.248492,38.216818],[-122.248438,38.216816],[-122.248378,38.216796],[-122.24821,38.216789],[-122.24815,38.216827],[-122.248077,38.216939],[-122.248068,38.217002],[-122.248024,38.217107],[-122.247996,38.217145],[-122.247891,38.217222],[-122.247828,38.217235]]}},{"type":"Feature","properties":{"k":"path"},"geometry":{"type":"LineString","coordinates":[[-122.247828,38.217235],[-122.247609,38.217235],[-122.247539,38.217213],[-122.247485,38.217173],[-122.247444,38.217128],[-122.247418,38.217066],[-122.247409,38.217011],[-122.247424,38.216913],[-122.247402,38.216896],[-122.247373,38.216901],[-122.247307,38.216981],[-122.247181,38.217064],[-122.247133,38.217079],[-122.246991,38.217082],[-122.246933,38.217054],[-122.246899,38.217017],[-122.246866,38.216922],[-122.246838,38.216882],[-122.246714,38.216835],[-122.246669,38.216785],[-122.246628,38.21672],[-122.246602,38.216645],[-122.24651,38.216555],[-122.24645,38.216525],[-122.246323,38.216505],[-122.246256,38.216486],[-122.246194,38.216449],[-122.246149,38.216376],[-122.246101,38.216268],[-122.246003,38.216171],[-122.245929,38.216138],[-122.245783,38.216091],[-122.245642,38.21601],[-122.245589,38.215955],[-122.245538,38.215858],[-122.245519,38.215806],[-122.245514,38.215753],[-122.245486,38.215689],[-122.245415,38.215611],[-122.245396,38.215569],[-122.245399,38.215528],[-122.245417,38.215496]]}},{"type":"Feature","properties":{"k":"path"},"geometry":{"type":"LineString","coordinates":[[-122.250995,38.217613],[-122.250932,38.217558],[-122.250917,38.21753],[-122.250946,38.217477],[-122.250945,38.217417],[-122.250909,38.217287],[-122.250917,38.217222],[-122.25096,38.217112],[-122.250957,38.21706],[-122.250928,38.217015],[-122.250663,38.216836],[-122.250625,38.216789],[-122.25052,38.216696],[-122.250456,38.216657],[-122.250256,38.216569],[-122.250142,38.216495],[-122.249955,38.216343],[-122.249774,38.216258],[-122.249653,38.216181],[-122.249567,38.216056],[-122.249462,38.215926],[-122.24937,38.215839],[-122.2493,38.215734],[-122.249242,38.215699],[-122.249169,38.215684],[-122.249065,38.215677],[-122.248929,38.215679],[-122.248849,38.215666],[-122.248757,38.215644],[-122.248575,38.215583],[-122.248006,38.215474],[-122.247889,38.215484],[-122.247823,38.215522]]}},{"type":"Feature","properties":{"k":"path"},"geometry":{"type":"LineString","coordinates":[[-122.251535,38.22064],[-122.251341,38.220593],[-122.251201,38.220536],[-122.251035,38.220422],[-122.250568,38.220093],[-122.25047,38.219983],[-122.250392,38.219873],[-122.250314,38.219783],[-122.250236,38.219739],[-122.250148,38.219715],[-122.249931,38.219678],[-122.249827,38.219621],[-122.249734,38.219585],[-122.249651,38.219577],[-122.249476,38.219588],[-122.249387,38.219609],[-122.249333,38.219637],[-122.249312,38.219667],[-122.249259,38.219797],[-122.249218,38.219837],[-122.249066,38.219936],[-122.248907,38.220124],[-122.248861,38.220224],[-122.248794,38.220432],[-122.248742,38.220544],[-122.248645,38.220879],[-122.248615,38.220941],[-122.24856,38.221007],[-122.248446,38.221103],[-122.248293,38.221181],[-122.248204,38.221203],[-122.248081,38.221214],[-122.247909,38.22121],[-122.247779,38.221192],[-122.247578,38.221152],[-122.247236,38.221067],[-122.247055,38.221039],[-122.246837,38.221019],[-122.246465,38.220959],[-122.246247,38.220898],[-122.246062,38.22086],[-122.245777,38.220817],[-122.245678,38.220789],[-122.245378,38.220675],[-122.245109,38.22066],[-122.244842,38.220622],[-122.244688,38.220581],[-122.244456,38.220472],[-122.244294,38.220245],[-122.244218,38.220154],[-122.244121,38.220104],[-122.244031,38.220086],[-122.243896,38.220089],[-122.243761,38.220119],[-122.243622,38.220137],[-122.243277,38.220138],[-122.243176,38.220159],[-122.243086,38.220165],[-122.242985,38.220165],[-122.24285,38.220154],[-122.242546,38.22016],[-122.242317,38.22014],[-122.242231,38.22014],[-122.242164,38.220152],[-122.241935,38.220244],[-122.241654,38.220301],[-122.241475,38.220381],[-122.241359,38.22042],[-122.240872,38.220527],[-122.240692,38.220581],[-122.24061,38.220628],[-122.240393,38.220794],[-122.240348,38.220818],[-122.240277,38.220827],[-122.240213,38.220827],[-122.240153,38.220816],[-122.239962,38.220733],[-122.23986,38.220713],[-122.239808,38.220692],[-122.239745,38.220648],[-122.239551,38.220424]]}},{"type":"Feature","properties":{"k":"path"},"geometry":{"type":"LineString","coordinates":[[-122.251535,38.22064],[-122.251542,38.220381],[-122.251526,38.220286],[-122.251421,38.220032],[-122.251378,38.21995],[-122.25132,38.21987],[-122.251175,38.219742],[-122.251063,38.219678],[-122.250963,38.219647],[-122.250791,38.219567],[-122.250435,38.219478],[-122.250261,38.219346],[-122.249996,38.219127],[-122.249932,38.219065],[-122.249805,38.218879],[-122.249776,38.218806],[-122.249684,38.21849],[-122.249616,38.218363],[-122.249548,38.218268],[-122.249441,38.218168],[-122.24917,38.217985],[-122.24911,38.21793],[-122.249009,38.217799],[-122.248959,38.217685],[-122.248829,38.21755],[-122.248808,38.217508],[-122.248795,38.217399],[-122.2488,38.217301],[-122.248816,38.21721],[-122.248839,38.217147],[-122.248906,38.217043],[-122.248972,38.216983],[-122.249054,38.216925],[-122.249083,38.216879]]}},{"type":"Feature","properties":{"k":"path"},"geometry":{"type":"LineString","coordinates":[[-122.251583,38.217377],[-122.25151,38.21729],[-122.251442,38.217164],[-122.251323,38.217047],[-122.25118,38.216938],[-122.250993,38.216853],[-122.25092,38.216798],[-122.250811,38.216681],[-122.25071,38.216656],[-122.250646,38.216614],[-122.250599,38.216546],[-122.250583,38.216494],[-122.250544,38.216426],[-122.250517,38.216395],[-122.250451,38.216345],[-122.250247,38.216231],[-122.250177,38.216183],[-122.250133,38.216138],[-122.250063,38.216044],[-122.250044,38.215979],[-122.250034,38.215861],[-122.24996,38.215724],[-122.249903,38.215639],[-122.249776,38.215547],[-122.249722,38.215527],[-122.24964,38.215509],[-122.249294,38.215478],[-122.248899,38.215393],[-122.248528,38.215347],[-122.248271,38.215285],[-122.248106,38.215208],[-122.248027,38.21516],[-122.247944,38.21505],[-122.247861,38.214906],[-122.247864,38.214856],[-122.247905,38.214816],[-122.247975,38.21479],[-122.248352,38.214795],[-122.248466,38.214819],[-122.248599,38.214816],[-122.248659,38.214811],[-122.248707,38.214799],[-122.248751,38.214776],[-122.248792,38.214726]]}},{"type":"Feature","properties":{"k":"path"},"geometry":{"type":"LineString","coordinates":[[-122.252003,38.218271],[-122.251938,38.218265],[-122.251894,38.218238],[-122.251787,38.218125],[-122.251659,38.218052],[-122.251608,38.218007],[-122.251524,38.217885],[-122.251492,38.217868],[-122.251436,38.217854],[-122.251366,38.217857],[-122.251003,38.217954]]}},{"type":"Feature","properties":{"k":"path"},"geometry":{"type":"LineString","coordinates":[[-122.252115,38.218349],[-122.252071,38.218271],[-122.252003,38.218271]]}},{"type":"Feature","properties":{"k":"path"},"geometry":{"type":"LineString","coordinates":[[-122.252115,38.218349],[-122.25224,38.218345],[-122.252479,38.218315],[-122.252532,38.218316],[-122.252694,38.218357],[-122.252724,38.218356],[-122.252757,38.218329],[-122.252763,38.218298],[-122.252685,38.218222],[-122.252622,38.218178],[-122.252454,38.218084],[-122.252392,38.218018],[-122.25233,38.217895],[-122.252319,38.217851],[-122.252311,38.217612],[-122.252292,38.217494],[-122.252238,38.217339],[-122.252178,38.2172],[-122.252154,38.216944],[-122.252044,38.216701],[-122.252022,38.21651],[-122.252012,38.21623],[-122.251981,38.216116],[-122.251957,38.216075],[-122.251911,38.216035],[-122.25175,38.215938],[-122.251682,38.215878],[-122.251632,38.215801],[-122.251535,38.21561],[-122.251456,38.215512],[-122.251399,38.215479],[-122.251094,38.215364],[-122.251046,38.215326],[-122.250865,38.215122],[-122.250792,38.215069],[-122.250687,38.215017],[-122.250515,38.214952],[-122.250442,38.214908],[-122.250398,38.214855],[-122.250364,38.214782],[-122.250244,38.21465]]}},{"type":"Feature","properties":{"k":"path"},"geometry":{"type":"LineString","coordinates":[[-122.252943,38.214378],[-122.252902,38.214382],[-122.252717,38.214347],[-122.252651,38.214325],[-122.252558,38.214275],[-122.252503,38.214221],[-122.252486,38.21419],[-122.252425,38.213992],[-122.2524,38.21394],[-122.252267,38.213809],[-122.252209,38.213764],[-122.252112,38.213706],[-122.252065,38.213685],[-122.2519,38.213657],[-122.251694,38.213565],[-122.251628,38.213555],[-122.251533,38.213558],[-122.251497,38.21355],[-122.25147,38.213538],[-122.251361,38.213436],[-122.251306,38.213413],[-122.251237,38.213411],[-122.251096,38.213466],[-122.251027,38.213483],[-122.250907,38.21349],[-122.250776,38.21351],[-122.250714,38.21353],[-122.250488,38.213631],[-122.250424,38.21365],[-122.250281,38.213665],[-122.250138,38.213656],[-122.250018,38.213596],[-122.249947,38.213545],[-122.249892,38.213491],[-122.249837,38.213417],[-122.249763,38.213364],[-122.249595,38.213322],[-122.249489,38.213272],[-122.249425,38.213252],[-122.249054,38.213248],[-122.248953,38.213233],[-122.248902,38.213206],[-122.248847,38.21316],[-122.248812,38.213106],[-122.248635,38.212961],[-122.248467,38.212869],[-122.248353,38.212842],[-122.248261,38.212839],[-122.248079,38.21286],[-122.248024,38.212857],[-122.247818,38.2128]]}},{"type":"Feature","properties":{"k":"path"},"geometry":{"type":"LineString","coordinates":[[-122.252943,38.214378],[-122.252924,38.214337],[-122.252877,38.214292],[-122.25274,38.214195],[-122.252704,38.214158],[-122.25269,38.214127],[-122.252686,38.214092],[-122.252707,38.213987],[-122.252699,38.213938],[-122.252644,38.213843],[-122.252632,38.213747],[-122.252653,38.213701],[-122.252716,38.213622],[-122.252738,38.213576],[-122.252742,38.213523],[-122.25273,38.2134],[-122.252745,38.213305],[-122.252715,38.213208],[-122.252705,38.213082],[-122.252662,38.212978],[-122.252662,38.212924],[-122.252675,38.212897],[-122.252725,38.212851],[-122.252822,38.212786],[-122.252876,38.21274],[-122.25291,38.212687],[-122.252913,38.212616],[-122.252892,38.212562],[-122.252863,38.212538],[-122.252711,38.212508],[-122.252689,38.212498],[-122.252647,38.21245],[-122.252637,38.212413],[-122.252647,38.212348],[-122.252697,38.212167],[-122.252701,38.212121],[-122.252652,38.211982],[-122.252654,38.211904],[-122.252638,38.211866],[-122.252582,38.211811],[-122.252555,38.21176],[-122.252527,38.211663],[-122.252434,38.211556],[-122.252388,38.211518],[-122.25229,38.211475],[-122.252111,38.211413],[-122.252053,38.211378],[-122.251998,38.211325],[-122.251944,38.21122],[-122.251904,38.211199],[-122.251801,38.211178],[-122.251763,38.211162],[-122.251706,38.211117],[-122.251649,38.211043],[-122.251621,38.210958],[-122.251591,38.210929],[-122.251559,38.210921],[-122.251525,38.210922],[-122.251371,38.210952],[-122.251199,38.210954],[-122.2511,38.21094],[-122.250979,38.210911],[-122.250681,38.210806],[-122.250603,38.210804],[-122.250458,38.21083],[-122.250393,38.21083],[-122.250324,38.210814],[-122.250208,38.210814],[-122.250171,38.210818],[-122.250126,38.210836],[-122.250117,38.210868],[-122.250144,38.210976],[-122.250116,38.211069],[-122.250115,38.211112],[-122.250142,38.211179],[-122.250171,38.211221],[-122.25022,38.211271],[-122.250243,38.211329],[-122.250237,38.211351],[-122.250198,38.211394],[-122.250169,38.211409],[-122.250041,38.211439]]}},{"type":"Feature","properties":{"k":"path"},"geometry":{"type":"LineString","coordinates":[[-122.25257,38.215447],[-122.252643,38.215381],[-122.252712,38.215274],[-122.252796,38.215167],[-122.252849,38.215108],[-122.252928,38.215051],[-122.252959,38.215001],[-122.253001,38.214831],[-122.253026,38.214782],[-122.253039,38.214703],[-122.253035,38.21463],[-122.252993,38.214459],[-122.252967,38.2144],[-122.252943,38.214378]]}},{"type":"Feature","properties":{"k":"path"},"geometry":{"type":"LineString","coordinates":[[-122.252366,38.22111],[-122.252252,38.221089],[-122.252092,38.221016],[-122.251801,38.220796],[-122.251535,38.22064]]}},{"type":"Feature","properties":{"k":"path"},"geometry":{"type":"LineString","coordinates":[[-122.251961,38.219021],[-122.252075,38.218985],[-122.252119,38.218959],[-122.252138,38.218939],[-122.252138,38.218919],[-122.252029,38.218683],[-122.252019,38.21859],[-122.252047,38.218554],[-122.252114,38.218432],[-122.252115,38.218349]]}},{"type":"Feature","properties":{"k":"path"},"geometry":{"type":"LineString","coordinates":[[-122.250355,38.211888],[-122.250199,38.21189]]}},{"type":"Feature","properties":{"k":"path"},"geometry":{"type":"LineString","coordinates":[[-122.250118,38.211891],[-122.250108,38.211921],[-122.250079,38.211951],[-122.249938,38.211997],[-122.24988,38.211997],[-122.249817,38.211987],[-122.249741,38.211945],[-122.2497,38.211905],[-122.249661,38.211855],[-122.24961,38.211755],[-122.249559,38.211695],[-122.249407,38.211558],[-122.249286,38.211478],[-122.249172,38.211446],[-122.248978,38.211424],[-122.248928,38.211411],[-122.248874,38.211389],[-122.248667,38.211259],[-122.248601,38.21124],[-122.248553,38.211237],[-122.24849,38.211247],[-122.248387,38.211281]]}},{"type":"Feature","properties":{"k":"path"},"geometry":{"type":"LineString","coordinates":[[-122.250115,38.214513],[-122.249989,38.214423],[-122.249889,38.214399],[-122.249683,38.214367],[-122.249556,38.214324],[-122.249391,38.214256],[-122.249326,38.214198],[-122.249218,38.214055],[-122.249108,38.213797],[-122.248842,38.213407],[-122.248716,38.21328],[-122.248636,38.213241],[-122.248465,38.213194],[-122.248414,38.213164],[-122.248309,38.213032],[-122.248271,38.213009],[-122.247921,38.212904],[-122.247861,38.212859],[-122.247818,38.2128],[-122.247693,38.212753]]}},{"type":"Feature","properties":{"k":"path"},"geometry":{"type":"LineString","coordinates":[[-122.250244,38.21465],[-122.250173,38.214758],[-122.250128,38.214768],[-122.249998,38.214771],[-122.249913,38.214786],[-122.249821,38.214816],[-122.249628,38.214899],[-122.249514,38.21493],[-122.249371,38.214957],[-122.249295,38.214965],[-122.24921,38.214965],[-122.249143,38.214943],[-122.248997,38.214843],[-122.248861,38.214786],[-122.248792,38.214726]]}},{"type":"Feature","properties":{"k":"path"},"geometry":{"type":"LineString","coordinates":[[-122.250917,38.21753],[-122.250857,38.217509],[-122.250285,38.217223],[-122.250231,38.21721],[-122.250062,38.21723],[-122.249704,38.217033],[-122.249528,38.216956],[-122.249212,38.216891],[-122.249083,38.216879]]}},{"type":"Feature","properties":{"k":"path"},"geometry":{"type":"LineString","coordinates":[[-122.248792,38.214726],[-122.248798,38.214699],[-122.248773,38.214641],[-122.248722,38.214621],[-122.248373,38.214615],[-122.24824,38.214597],[-122.24811,38.214568],[-122.247793,38.214528],[-122.247714,38.214506],[-122.247565,38.214491],[-122.247404,38.214574],[-122.247299,38.214609],[-122.247157,38.214632],[-122.247023,38.21464],[-122.246868,38.214638],[-122.246608,38.214608],[-122.246432,38.214607],[-122.246329,38.214621],[-122.246134,38.214677],[-122.24606,38.21469],[-122.245907,38.214673],[-122.245851,38.214675],[-122.245765,38.214712],[-122.245734,38.214738],[-122.245699,38.214777],[-122.245615,38.214932]]}},{"type":"Feature","properties":{"k":"path"},"geometry":{"type":"LineString","coordinates":[[-122.249083,38.216879],[-122.248723,38.216793],[-122.248603,38.216791],[-122.248552,38.216818],[-122.248492,38.216818]]}},{"type":"Feature","properties":{"k":"path"},"geometry":{"type":"LineString","coordinates":[[-122.239272,38.219824],[-122.239134,38.219809],[-122.239047,38.219792],[-122.238947,38.219741],[-122.238843,38.219673],[-122.238785,38.219649],[-122.238719,38.219638],[-122.238555,38.219642],[-122.23852,38.219639],[-122.238475,38.219622]]}},{"type":"Feature","properties":{"k":"clubhouse","name":"Eagle Vines Golf Club"},"geometry":{"type":"Polygon","coordinates":[[[-122.25149,38.218032],[-122.251479,38.218006],[-122.251493,38.218001],[-122.251464,38.217935],[-122.251375,38.21796],[-122.251379,38.21797],[-122.251281,38.217994],[-122.251252,38.217952],[-122.251122,38.217985],[-122.251153,38.218053],[-122.251081,38.218035],[-122.251043,38.218102],[-122.250926,38.218069],[-122.250889,38.21812],[-122.250867,38.218168],[-122.250923,38.218185],[-122.250879,38.218277],[-122.250966,38.218307],[-122.25094,38.218349],[-122.251062,38.218392],[-122.251103,38.218324],[-122.25107,38.218309],[-122.251086,38.218283],[-122.251141,38.218305],[-122.251213,38.218179],[-122.251165,38.218164],[-122.251215,38.218077],[-122.251191,38.218072],[-122.251272,38.218051],[-122.251286,38.218085],[-122.25149,38.218032]]]}},{"type":"Feature","properties":{"k":"water"},"geometry":{"type":"Polygon","coordinates":[[[-122.250862,38.218487],[-122.250922,38.218581],[-122.250936,38.218642],[-122.250936,38.218699],[-122.250899,38.218846],[-122.250895,38.218896],[-122.250874,38.218956],[-122.250827,38.218981],[-122.250675,38.218969],[-122.250605,38.218946],[-122.250554,38.218908],[-122.250568,38.21882],[-122.250559,38.218734],[-122.250569,38.218555],[-122.250548,38.218445],[-122.250425,38.218266],[-122.250412,38.218212],[-122.250425,38.218161],[-122.250453,38.218121],[-122.250515,38.21809],[-122.250603,38.218089],[-122.250625,38.218074],[-122.250666,38.21801],[-122.250681,38.217946],[-122.25066,38.217914],[-122.250581,38.21787],[-122.250575,38.21784],[-122.250556,38.217818],[-122.250585,38.217805],[-122.25063,38.217808],[-122.250695,38.21784],[-122.250739,38.217904],[-122.250721,38.217969],[-122.250767,38.218022],[-122.25077,38.21804],[-122.250752,38.21807],[-122.250706,38.218091],[-122.25068,38.218091],[-122.250667,38.218109],[-122.250709,38.21814],[-122.250839,38.218449],[-122.250862,38.218487]]]}},{"type":"Feature","properties":{"k":"stream"},"geometry":{"type":"LineString","coordinates":[[-122.239384,38.220461],[-122.239501,38.220402],[-122.239607,38.220334],[-122.239721,38.220299]]}},{"type":"Feature","properties":{"k":"stream"},"geometry":{"type":"LineString","coordinates":[[-122.2393,38.220424],[-122.239375,38.220404],[-122.239435,38.220374],[-122.239495,38.220321],[-122.239562,38.220283],[-122.239727,38.220239]]}},{"type":"Feature","properties":{"k":"path"},"geometry":{"type":"LineString","coordinates":[[-122.239449,38.220313],[-122.239294,38.220134],[-122.239284,38.220065],[-122.239338,38.219943],[-122.239338,38.219911],[-122.239316,38.219863],[-122.239272,38.219824]]}},{"type":"Feature","properties":{"k":"path"},"geometry":{"type":"LineString","coordinates":[[-122.239551,38.220424],[-122.239449,38.220313]]}},{"type":"Feature","properties":{"k":"water"},"geometry":{"type":"Polygon","coordinates":[[[-122.248921,38.216378],[-122.248931,38.216425],[-122.248929,38.21648],[-122.248898,38.216568],[-122.248865,38.216603],[-122.248749,38.216632],[-122.248639,38.216633],[-122.248321,38.216611],[-122.24825,38.216621],[-122.248177,38.216647],[-122.248092,38.216751],[-122.248042,38.216766],[-122.248016,38.21682],[-122.248001,38.216864],[-122.248019,38.216894],[-122.248023,38.216953],[-122.248014,38.217016],[-122.247983,38.217101],[-122.247949,38.217134],[-122.247891,38.217163],[-122.24784,38.217171],[-122.247703,38.217171],[-122.24766,38.217166],[-122.247609,38.217143],[-122.24754,38.217075],[-122.247521,38.217039],[-122.247512,38.217006],[-122.24758,38.216793],[-122.247568,38.216738],[-122.247493,38.216667],[-122.247428,38.216634],[-122.247335,38.216605],[-122.247287,38.21659],[-122.247215,38.216583],[-122.247124,38.216534],[-122.247059,38.216514],[-122.24684,38.216504],[-122.246757,38.216467],[-122.246724,38.216442],[-122.246684,38.216373],[-122.246685,38.216334],[-122.246701,38.216226],[-122.246757,38.216166],[-122.246804,38.216143],[-122.247078,38.216073],[-122.247316,38.215975],[-122.247438,38.21597],[-122.247554,38.215984],[-122.24771,38.215949],[-122.247748,38.215927],[-122.247766,38.215881],[-122.24779,38.215759],[-122.247833,38.215642],[-122.24778,38.215572],[-122.247829,38.215542],[-122.247904,38.215644],[-122.247908,38.215696],[-122.24785,38.215826],[-122.247842,38.215881],[-122.247839,38.21595],[-122.247867,38.215989],[-122.247909,38.216017],[-122.248011,38.21603],[-122.248203,38.216019],[-122.248315,38.216044],[-122.248376,38.216069],[-122.2485,38.216171],[-122.248657,38.216269],[-122.248873,38.216337],[-122.248902,38.216353],[-122.248921,38.216378]]]}},{"type":"Feature","properties":{"k":"water"},"geometry":{"type":"Polygon","coordinates":[[[-122.249397,38.217208],[-122.24939,38.217289],[-122.249353,38.217364],[-122.249298,38.217421],[-122.249242,38.217445],[-122.24919,38.21743],[-122.249166,38.217386],[-122.249149,38.217322],[-122.249119,38.217263],[-122.249076,38.217204],[-122.249057,38.217149],[-122.249075,38.217101],[-122.249136,38.217064],[-122.249198,38.217053],[-122.249279,38.21706],[-122.249334,38.217092],[-122.249383,38.217142],[-122.249398,38.217179],[-122.249397,38.217208]]]}},{"type":"Feature","properties":{"k":"water"},"geometry":{"type":"Polygon","coordinates":[[[-122.251907,38.212222],[-122.252001,38.212276],[-122.252036,38.212323],[-122.252051,38.212365],[-122.25207,38.212497],[-122.252098,38.212611],[-122.252193,38.212691],[-122.252252,38.212759],[-122.252259,38.2128],[-122.252213,38.21288],[-122.252144,38.212917],[-122.251911,38.212915],[-122.251863,38.212905],[-122.251844,38.212891],[-122.25172,38.212742],[-122.251697,38.212722],[-122.251645,38.212703],[-122.251431,38.212736],[-122.251363,38.212773],[-122.251246,38.212784],[-122.251135,38.212755],[-122.251007,38.212641],[-122.250708,38.212602],[-122.250579,38.212562],[-122.250486,38.212518],[-122.250411,38.212468],[-122.250357,38.212405],[-122.250311,38.212341],[-122.250274,38.212255],[-122.250237,38.212205],[-122.250167,38.21215],[-122.25013,38.212076],[-122.250146,38.212025],[-122.25021,38.211987],[-122.250256,38.211949],[-122.250267,38.21191],[-122.2503,38.211908],[-122.250318,38.211973],[-122.250414,38.212024],[-122.250453,38.212072],[-122.250463,38.212104],[-122.250516,38.212168],[-122.250548,38.212192],[-122.2506,38.212213],[-122.250779,38.212257],[-122.250851,38.212301],[-122.250944,38.212342],[-122.25099,38.212351],[-122.251045,38.212342],[-122.251086,38.212327],[-122.251121,38.212297],[-122.251121,38.212152],[-122.251131,38.212098],[-122.251233,38.212025],[-122.25125,38.211991],[-122.251249,38.211956],[-122.251235,38.211921],[-122.251161,38.211863],[-122.251075,38.211849],[-122.250985,38.211874],[-122.250893,38.211802],[-122.250747,38.211794],[-122.25067,38.211751],[-122.250581,38.211736],[-122.250534,38.211738],[-122.250451,38.211758],[-122.250368,38.211795],[-122.250312,38.211849],[-122.250261,38.211862],[-122.250233,38.211854],[-122.250087,38.211751],[-122.250026,38.211673],[-122.250059,38.211612],[-122.250121,38.211584],[-122.250203,38.211595],[-122.250301,38.211628],[-122.250374,38.211641],[-122.250488,38.211563],[-122.250545,38.211535],[-122.250647,38.211524],[-122.250771,38.211525],[-122.250855,38.211513],[-122.250951,38.211478],[-122.251016,38.21144],[-122.251115,38.21141],[-122.251216,38.211408],[-122.2513,38.211415],[-122.251404,38.211457],[-122.251505,38.211535],[-122.251608,38.21165],[-122.251702,38.211774],[-122.251825,38.212146],[-122.251907,38.212222]]]}},{"type":"Feature","properties":{"k":"stream"},"geometry":{"type":"LineString","coordinates":[[-122.250281,38.211994],[-122.250289,38.211915],[-122.250272,38.211832]]}},{"type":"Feature","properties":{"k":"path"},"geometry":{"type":"LineString","coordinates":[[-122.250199,38.21189],[-122.250118,38.211891]]}},{"type":"Feature","properties":{"k":"path"},"geometry":{"type":"LineString","coordinates":[[-122.250388,38.211887],[-122.250355,38.211888]]}},{"type":"Feature","properties":{"k":"green"},"geometry":{"type":"Polygon","coordinates":[[[-122.251179,38.211972],[-122.25117,38.212015],[-122.251145,38.212032],[-122.251109,38.21204],[-122.250991,38.212033],[-122.250954,38.21204],[-122.250932,38.212071],[-122.250929,38.212107],[-122.250908,38.212139],[-122.250871,38.212158],[-122.250823,38.212162],[-122.250785,38.212144],[-122.250759,38.212116],[-122.250723,38.212107],[-122.250625,38.212105],[-122.250596,38.212087],[-122.250597,38.212024],[-122.250565,38.211926],[-122.250591,38.211896],[-122.250638,38.211888],[-122.250685,38.211902],[-122.250773,38.21196],[-122.25082,38.211967],[-122.250897,38.211932],[-122.250957,38.211922],[-122.250999,38.211926],[-122.251086,38.211907],[-122.251123,38.21191],[-122.251159,38.211929],[-122.251175,38.211946],[-122.251179,38.211972]]]}},{"type":"Feature","properties":{"k":"bunker"},"geometry":{"type":"Polygon","coordinates":[[[-122.251069,38.212069],[-122.251034,38.212101],[-122.251021,38.212154],[-122.251004,38.212163],[-122.250957,38.212153],[-122.250955,38.212083],[-122.250964,38.212065],[-122.251001,38.21205],[-122.251055,38.212056],[-122.251069,38.212069]]]}},{"type":"Feature","properties":{"k":"bunker"},"geometry":{"type":"Polygon","coordinates":[[[-122.25081,38.212171],[-122.250797,38.212179],[-122.250687,38.212166],[-122.25067,38.212153],[-122.250669,38.212138],[-122.250691,38.212122],[-122.250745,38.212124],[-122.25081,38.212171]]]}},{"type":"Feature","properties":{"k":"bunker"},"geometry":{"type":"Polygon","coordinates":[[[-122.250535,38.211981],[-122.250574,38.212015],[-122.250578,38.21203],[-122.250571,38.212049],[-122.250577,38.212091],[-122.250567,38.212098],[-122.250519,38.21208],[-122.250511,38.212062],[-122.250516,38.212037],[-122.2505,38.212013],[-122.250448,38.211975],[-122.250452,38.211959],[-122.250489,38.211917],[-122.250532,38.21192],[-122.250535,38.211981]]]}},{"type":"Feature","properties":{"k":"bunker"},"geometry":{"type":"Polygon","coordinates":[[[-122.250821,38.211893],[-122.250846,38.21192],[-122.250827,38.211946],[-122.250758,38.21193],[-122.250708,38.211894],[-122.250683,38.211841],[-122.250709,38.211841],[-122.250733,38.21185],[-122.250821,38.211893]]]}},{"type":"Feature","properties":{"k":"stream"},"geometry":{"type":"LineString","coordinates":[[-122.250132,38.211627],[-122.250061,38.21155],[-122.250037,38.211511],[-122.249996,38.211401],[-122.249997,38.211219],[-122.250037,38.211176],[-122.250053,38.211131],[-122.250042,38.211034]]}},{"type":"Feature","properties":{"k":"path"},"geometry":{"type":"LineString","coordinates":[[-122.249983,38.211475],[-122.249908,38.211537],[-122.249886,38.211582],[-122.249891,38.211662],[-122.249926,38.211717],[-122.250097,38.211855],[-122.250118,38.211891]]}},{"type":"Feature","properties":{"k":"path"},"geometry":{"type":"LineString","coordinates":[[-122.250041,38.211439],[-122.249983,38.211475]]}},{"type":"Feature","properties":{"k":"water"},"geometry":{"type":"Polygon","coordinates":[[[-122.250044,38.211461],[-122.250106,38.211511],[-122.250108,38.211528],[-122.250066,38.211563],[-122.250016,38.211569],[-122.249991,38.21153],[-122.249995,38.211506],[-122.250005,38.21148],[-122.250044,38.211461]]]}},{"type":"Feature","properties":{"k":"water"},"geometry":{"type":"Polygon","coordinates":[[[-122.247654,38.214968],[-122.247756,38.215024],[-122.247817,38.215162],[-122.247845,38.21528],[-122.247829,38.215366],[-122.247778,38.215458],[-122.247701,38.215506],[-122.247607,38.215521],[-122.247465,38.215518],[-122.247245,38.215463],[-122.247044,38.215514],[-122.246934,38.215513],[-122.246816,38.21547],[-122.246701,38.215384],[-122.246607,38.215353],[-122.246481,38.215411],[-122.246333,38.215497],[-122.246201,38.215514],[-122.246081,38.215478],[-122.246024,38.215401],[-122.246054,38.21531],[-122.246038,38.215232],[-122.246075,38.215152],[-122.246176,38.21511],[-122.246241,38.214995],[-122.2463,38.214919],[-122.246487,38.214802],[-122.246548,38.214743],[-122.24665,38.214703],[-122.247095,38.214761],[-122.247276,38.214848],[-122.247365,38.214917],[-122.247544,38.214933],[-122.247654,38.214968]]]}},{"type":"Feature","properties":{"k":"path"},"geometry":{"type":"LineString","coordinates":[[-122.247756,38.215565],[-122.247691,38.215654],[-122.247594,38.215867],[-122.247571,38.215892],[-122.247471,38.215915],[-122.247349,38.215924],[-122.247069,38.216017],[-122.246842,38.216063],[-122.246768,38.216069],[-122.246711,38.216052],[-122.24664,38.216011],[-122.246502,38.215961],[-122.246385,38.215952],[-122.246242,38.215836],[-122.24605,38.215706],[-122.245984,38.215685],[-122.245802,38.215659],[-122.245717,38.215553],[-122.245666,38.215516],[-122.245505,38.215464]]}},{"type":"Feature","properties":{"k":"path"},"geometry":{"type":"LineString","coordinates":[[-122.247823,38.215522],[-122.247756,38.215565]]}},{"type":"Feature","properties":{"k":"stream"},"geometry":{"type":"LineString","coordinates":[[-122.247842,38.215614],[-122.247709,38.215449]]}},{"type":"Feature","properties":{"k":"path"},"geometry":{"type":"LineString","coordinates":[[-122.250244,38.21465],[-122.250115,38.214513]]}},{"type":"Feature","properties":{"k":"water"},"geometry":{"type":"Polygon","coordinates":[[[-122.248199,38.219967],[-122.248293,38.220096],[-122.248356,38.220239],[-122.248347,38.220368],[-122.248285,38.220488],[-122.24824,38.220608],[-122.248246,38.220706],[-122.248213,38.220785],[-122.248162,38.220825],[-122.248058,38.220836],[-122.24798,38.220831],[-122.247895,38.220798],[-122.24782,38.220733],[-122.247807,38.220634],[-122.247815,38.220519],[-122.247937,38.220239],[-122.247968,38.220118],[-122.247971,38.220036],[-122.247995,38.219986],[-122.248037,38.219947],[-122.248165,38.21995],[-122.248199,38.219967]]]}},{"type":"Feature","properties":{"k":"green"},"geometry":{"type":"Polygon","coordinates":[[[-122.252778,38.221314],[-122.252811,38.221339],[-122.252819,38.221367],[-122.25281,38.221398],[-122.252773,38.221429],[-122.252739,38.221443],[-122.252586,38.221445],[-122.252545,38.221436],[-122.252501,38.221411],[-122.252487,38.221385],[-122.25249,38.221351],[-122.252515,38.221324],[-122.252557,38.221319],[-122.252625,38.221323],[-122.25273,38.221299],[-122.252749,38.2213],[-122.252778,38.221314]]]}},{"type":"Feature","properties":{"k":"bunker"},"geometry":{"type":"Polygon","coordinates":[[[-122.25273,38.221471],[-122.252743,38.221525],[-122.252727,38.221546],[-122.252703,38.221553],[-122.252641,38.221544],[-122.252593,38.221558],[-122.252561,38.221559],[-122.252486,38.22153],[-122.252472,38.221517],[-122.252447,38.221525],[-122.252429,38.221542],[-122.252371,38.221543],[-122.252321,38.221504],[-122.252302,38.221498],[-122.2523,38.221482],[-122.252366,38.221458],[-122.252411,38.221404],[-122.252433,38.221396],[-122.252462,38.2214],[-122.252486,38.221449],[-122.252553,38.221456],[-122.252603,38.221485],[-122.252636,38.221491],[-122.252695,38.221469],[-122.25273,38.221471]]]}},{"type":"Feature","properties":{"k":"bunker"},"geometry":{"type":"Polygon","coordinates":[[[-122.25281,38.221241],[-122.252823,38.22126],[-122.252827,38.22129],[-122.252821,38.221297],[-122.252794,38.221299],[-122.252725,38.221274],[-122.252632,38.2213],[-122.252578,38.221268],[-122.252607,38.221261],[-122.252669,38.221218],[-122.252688,38.221215],[-122.252725,38.221228],[-122.252776,38.221215],[-122.25281,38.221241]]]}},{"type":"Feature","properties":{"k":"fairway"},"geometry":{"type":"Polygon","coordinates":[[[-122.252425,38.221231],[-122.252489,38.22128],[-122.252458,38.221336],[-122.252224,38.221418],[-122.25185,38.221375],[-122.251674,38.221316],[-122.251488,38.221244],[-122.251406,38.221204],[-122.251172,38.221125],[-122.250858,38.221039],[-122.250698,38.220968],[-122.250418,38.220762],[-122.250353,38.2206],[-122.250372,38.220457],[-122.250327,38.220339],[-122.250339,38.220297],[-122.250368,38.22027],[-122.250419,38.220251],[-122.250531,38.220265],[-122.250685,38.220319],[-122.25078,38.220392],[-122.250808,38.220441],[-122.250836,38.220524],[-122.250912,38.22063],[-122.251019,38.220706],[-122.251184,38.22076],[-122.251361,38.220778],[-122.251652,38.220882],[-122.252165,38.221119],[-122.252425,38.221231]]]}},{"type":"Feature","properties":{"k":"bunker"},"geometry":{"type":"Polygon","coordinates":[[[-122.251179,38.220582],[-122.251193,38.220605],[-122.251184,38.220627],[-122.251167,38.22064],[-122.251093,38.220664],[-122.251056,38.220661],[-122.251018,38.220633],[-122.250998,38.220592],[-122.250931,38.220561],[-122.250935,38.220514],[-122.25095,38.220494],[-122.250975,38.220479],[-122.251011,38.220477],[-122.251039,38.220487],[-122.251055,38.220505],[-122.251059,38.220548],[-122.251139,38.220563],[-122.251179,38.220582]]]}},{"type":"Feature","properties":{"k":"green"},"geometry":{"type":"Polygon","coordinates":[[[-122.248559,38.220544],[-122.248596,38.220569],[-122.248609,38.22062],[-122.248525,38.220763],[-122.248493,38.220789],[-122.248436,38.220794],[-122.248404,38.220785],[-122.248388,38.220751],[-122.248381,38.220645],[-122.248412,38.220598],[-122.248417,38.220554],[-122.248442,38.220522],[-122.248516,38.220519],[-122.248559,38.220544]]]}},{"type":"Feature","properties":{"k":"green"},"geometry":{"type":"Polygon","coordinates":[[[-122.245759,38.219743],[-122.245788,38.219758],[-122.245798,38.219785],[-122.245767,38.219821],[-122.245724,38.219832],[-122.245668,38.219832],[-122.245585,38.219819],[-122.245542,38.219795],[-122.245488,38.219744],[-122.245463,38.219714],[-122.245464,38.219685],[-122.245505,38.219648],[-122.245536,38.219648],[-122.245581,38.219666],[-122.245609,38.219696],[-122.245654,38.219716],[-122.245733,38.219731],[-122.245759,38.219743]]]}},{"type":"Feature","properties":{"k":"stream"},"geometry":{"type":"LineString","coordinates":[[-122.252969,38.214675],[-122.25301,38.214702],[-122.253245,38.214918]]}},{"type":"Feature","properties":{"k":"green"},"geometry":{"type":"Polygon","coordinates":[[[-122.249026,38.217238],[-122.249066,38.217261],[-122.249131,38.217424],[-122.249129,38.217441],[-122.249107,38.217469],[-122.249064,38.217487],[-122.249004,38.217493],[-122.248972,38.217488],[-122.248923,38.217455],[-122.2489,38.217416],[-122.248857,38.217282],[-122.248876,38.217244],[-122.248914,38.217229],[-122.248994,38.217225],[-122.249026,38.217238]]]}},{"type":"Feature","properties":{"k":"fairway"},"geometry":{"type":"Polygon","coordinates":[[[-122.25025,38.218398],[-122.250332,38.218437],[-122.25041,38.218541],[-122.250439,38.218691],[-122.250418,38.218885],[-122.250428,38.218989],[-122.250592,38.219145],[-122.250718,38.219245],[-122.25075,38.219313],[-122.250725,38.219371],[-122.250669,38.21941],[-122.250572,38.219407],[-122.250513,38.219352],[-122.250462,38.219246],[-122.250387,38.219143],[-122.250188,38.219031],[-122.250021,38.218891],[-122.249933,38.21877],[-122.249789,38.218421],[-122.24966,38.218259],[-122.249393,38.217974],[-122.2492,38.21779],[-122.249117,38.217647],[-122.249082,38.217514],[-122.249107,38.217484],[-122.249154,38.217472],[-122.249343,38.217673],[-122.249579,38.217889],[-122.249883,38.218097],[-122.250072,38.218263],[-122.25025,38.218398]]]}},{"type":"Feature","properties":{"k":"green"},"geometry":{"type":"Polygon","coordinates":[[[-122.251183,38.216494],[-122.251226,38.216517],[-122.251243,38.216555],[-122.251228,38.216598],[-122.251191,38.216632],[-122.251151,38.216651],[-122.251103,38.216654],[-122.250957,38.216615],[-122.250912,38.216593],[-122.25089,38.216557],[-122.250886,38.216505],[-122.250907,38.216482],[-122.250951,38.216458],[-122.250997,38.216451],[-122.251183,38.216494]]]}},{"type":"Feature","properties":{"k":"fairway"},"geometry":{"type":"Polygon","coordinates":[[[-122.250703,38.215686],[-122.250831,38.215936],[-122.250932,38.216208],[-122.250956,38.216316],[-122.250957,38.216408],[-122.250925,38.21643],[-122.250866,38.216427],[-122.250799,38.216392],[-122.250363,38.216097],[-122.250306,38.216028],[-122.250266,38.215936],[-122.250311,38.215738],[-122.250314,38.215675],[-122.250286,38.215613],[-122.250208,38.21553],[-122.250013,38.215399],[-122.249888,38.215354],[-122.249774,38.215351],[-122.249612,38.21537],[-122.249482,38.215378],[-122.249345,38.21537],[-122.248938,38.215299],[-122.248817,38.21527],[-122.248716,38.215228],[-122.248665,38.21519],[-122.248661,38.215131],[-122.248706,38.215087],[-122.24881,38.215078],[-122.249301,38.215115],[-122.249893,38.215051],[-122.250023,38.215074],[-122.250158,38.215108],[-122.250275,38.215179],[-122.250421,38.215297],[-122.25053,38.215373],[-122.250603,38.215457],[-122.250685,38.215592],[-122.250703,38.215686]]]}},{"type":"Feature","properties":{"k":"green"},"geometry":{"type":"Polygon","coordinates":[[[-122.250855,38.214634],[-122.250901,38.214644],[-122.250944,38.214674],[-122.250956,38.21472],[-122.250952,38.214771],[-122.250933,38.214847],[-122.250915,38.214869],[-122.250885,38.21488],[-122.250806,38.21487],[-122.250735,38.214833],[-122.250686,38.214825],[-122.250647,38.214806],[-122.250617,38.214768],[-122.250617,38.214746],[-122.250631,38.214724],[-122.250796,38.214642],[-122.250824,38.214632],[-122.250855,38.214634]]]}},{"type":"Feature","properties":{"k":"green"},"geometry":{"type":"Polygon","coordinates":[[[-122.252643,38.214709],[-122.252697,38.214755],[-122.25274,38.214776],[-122.252769,38.214802],[-122.252777,38.214827],[-122.252773,38.214855],[-122.252751,38.214881],[-122.252694,38.214908],[-122.252658,38.214908],[-122.252613,38.214877],[-122.252598,38.214817],[-122.252537,38.214729],[-122.25254,38.214708],[-122.252558,38.2147],[-122.252627,38.2147],[-122.252643,38.214709]]]}},{"type":"Feature","properties":{"k":"green"},"geometry":{"type":"Polygon","coordinates":[[[-122.250332,38.21327],[-122.250358,38.213271],[-122.250395,38.213285],[-122.250416,38.213305],[-122.250426,38.213328],[-122.250417,38.213352],[-122.250397,38.213369],[-122.250321,38.213381],[-122.250257,38.213424],[-122.250189,38.213437],[-122.250165,38.21343],[-122.250124,38.213393],[-122.25005,38.213364],[-122.250033,38.213365],[-122.249997,38.213246],[-122.250002,38.213221],[-122.250028,38.213203],[-122.2501,38.213198],[-122.250163,38.213218],[-122.25021,38.213259],[-122.250249,38.213276],[-122.250332,38.21327]]]}},{"type":"Feature","properties":{"k":"green"},"geometry":{"type":"Polygon","coordinates":[[[-122.250606,38.210929],[-122.25065,38.210948],[-122.250687,38.211039],[-122.250721,38.211081],[-122.250729,38.211113],[-122.250708,38.211134],[-122.25066,38.211144],[-122.250567,38.21114],[-122.250474,38.211184],[-122.250427,38.211197],[-122.25039,38.211186],[-122.25037,38.211164],[-122.250367,38.211113],[-122.250396,38.211085],[-122.250469,38.211053],[-122.250508,38.211027],[-122.250577,38.210939],[-122.250606,38.210929]]]}},{"type":"Feature","properties":{"k":"green"},"geometry":{"type":"Polygon","coordinates":[[[-122.245275,38.212311],[-122.245305,38.212342],[-122.245316,38.212401],[-122.245346,38.212431],[-122.24535,38.212465],[-122.245315,38.212508],[-122.245297,38.212562],[-122.245242,38.212622],[-122.245214,38.212644],[-122.245185,38.212652],[-122.24515,38.212648],[-122.245126,38.21263],[-122.245114,38.212601],[-122.245157,38.212498],[-122.245183,38.212391],[-122.245205,38.212341],[-122.245227,38.212319],[-122.245248,38.212309],[-122.245275,38.212311]]]}},{"type":"Feature","properties":{"k":"green"},"geometry":{"type":"Polygon","coordinates":[[[-122.24567,38.213509],[-122.245703,38.213528],[-122.245713,38.213552],[-122.245698,38.213573],[-122.245643,38.213617],[-122.245414,38.213655],[-122.245381,38.213647],[-122.245362,38.213628],[-122.245353,38.213601],[-122.245377,38.213561],[-122.245399,38.213546],[-122.245487,38.213528],[-122.245537,38.213502],[-122.245565,38.213495],[-122.245624,38.213496],[-122.24567,38.213509]]]}},{"type":"Feature","properties":{"k":"green"},"geometry":{"type":"Polygon","coordinates":[[[-122.252409,38.218138],[-122.252462,38.21817],[-122.252494,38.218199],[-122.252506,38.218223],[-122.252497,38.218246],[-122.252479,38.218261],[-122.252408,38.218272],[-122.252341,38.218263],[-122.252224,38.218279],[-122.252198,38.218272],[-122.252172,38.218253],[-122.252164,38.218233],[-122.252176,38.218209],[-122.252199,38.218182],[-122.252244,38.21816],[-122.252332,38.218129],[-122.252378,38.218127],[-122.252409,38.218138]]]}},{"type":"Feature","properties":{"k":"fairway"},"geometry":{"type":"Polygon","coordinates":[[[-122.252401,38.215866],[-122.252481,38.215986],[-122.252559,38.216145],[-122.252591,38.216222],[-122.252605,38.216299],[-122.252591,38.216395],[-122.252574,38.216443],[-122.252536,38.216491],[-122.25247,38.216613],[-122.252475,38.216664],[-122.252623,38.216756],[-122.252715,38.216841],[-122.252722,38.216915],[-122.25269,38.217019],[-122.252578,38.217163],[-122.252492,38.21724],[-122.252391,38.217259],[-122.252294,38.217227],[-122.252249,38.217179],[-122.252204,38.216831],[-122.252148,38.216526],[-122.25214,38.216375],[-122.252154,38.216191],[-122.252127,38.216076],[-122.252005,38.215936],[-122.25199,38.215874],[-122.252033,38.215761],[-122.252029,38.21571],[-122.25198,38.21566],[-122.2519,38.215631],[-122.251703,38.215644],[-122.251658,38.215622],[-122.251617,38.21556],[-122.25154,38.215475],[-122.251218,38.215262],[-122.250994,38.215044],[-122.250943,38.214982],[-122.250943,38.21494],[-122.251033,38.214911],[-122.251143,38.214838],[-122.251222,38.214808],[-122.25133,38.214797],[-122.251438,38.214821],[-122.251585,38.214907],[-122.251749,38.215068],[-122.251851,38.215115],[-122.251929,38.21518],[-122.25195,38.215243],[-122.251981,38.215447],[-122.252005,38.215504],[-122.252061,38.215569],[-122.252175,38.215662],[-122.252289,38.215738],[-122.252366,38.215805],[-122.252401,38.215866]]]}},{"type":"Feature","properties":{"k":"bunker"},"geometry":{"type":"Polygon","coordinates":[[[-122.251083,38.214668],[-122.251117,38.214696],[-122.251122,38.214718],[-122.251089,38.214756],[-122.251067,38.214807],[-122.251064,38.214851],[-122.251011,38.214867],[-122.250992,38.21486],[-122.25099,38.214848],[-122.250991,38.214789],[-122.251005,38.214769],[-122.251006,38.214744],[-122.250989,38.214698],[-122.251032,38.214651],[-122.251066,38.21465],[-122.251083,38.214668]]]}},{"type":"Feature","properties":{"k":"bunker"},"geometry":{"type":"Polygon","coordinates":[[[-122.250863,38.214924],[-122.250861,38.214944],[-122.250838,38.214944],[-122.250799,38.21496],[-122.250776,38.214956],[-122.250742,38.214939],[-122.250735,38.214917],[-122.250689,38.21491],[-122.250669,38.214895],[-122.25066,38.214876],[-122.250665,38.214859],[-122.250671,38.214851],[-122.250695,38.214849],[-122.250728,38.214853],[-122.250754,38.214878],[-122.250793,38.214894],[-122.250826,38.214917],[-122.250863,38.214924]]]}},{"type":"Feature","properties":{"k":"bunker"},"geometry":{"type":"Polygon","coordinates":[[[-122.252867,38.216238],[-122.252894,38.216294],[-122.252895,38.216369],[-122.252905,38.216391],[-122.252952,38.216436],[-122.252952,38.216453],[-122.252928,38.216475],[-122.252897,38.216489],[-122.252849,38.216491],[-122.252805,38.21646],[-122.252764,38.216398],[-122.252752,38.216368],[-122.252751,38.216336],[-122.252718,38.216273],[-122.252716,38.216246],[-122.252749,38.216207],[-122.25279,38.216196],[-122.25282,38.216199],[-122.252867,38.216238]]]}},{"type":"Feature","properties":{"k":"path"},"geometry":{"type":"LineString","coordinates":[[-122.25209,38.216795],[-122.252055,38.216849],[-122.252019,38.216885],[-122.251966,38.216916],[-122.251837,38.216966],[-122.251764,38.217022],[-122.251739,38.217071],[-122.251728,38.21717],[-122.251678,38.217357]]}},{"type":"Feature","properties":{"k":"tee"},"geometry":{"type":"Polygon","coordinates":[[[-122.252937,38.218381],[-122.25296,38.218392],[-122.25297,38.218434],[-122.252964,38.218446],[-122.252933,38.218455],[-122.252903,38.218438],[-122.252894,38.218416],[-122.252905,38.218387],[-122.252937,38.218381]]]}},{"type":"Feature","properties":{"k":"tee"},"geometry":{"type":"Polygon","coordinates":[[[-122.252926,38.218161],[-122.252949,38.218198],[-122.252949,38.218222],[-122.252941,38.218241],[-122.252912,38.218252],[-122.252868,38.218223],[-122.252856,38.218178],[-122.252865,38.218159],[-122.252884,38.21815],[-122.252914,38.218152],[-122.252926,38.218161]]]}},{"type":"Feature","properties":{"k":"tee"},"geometry":{"type":"Polygon","coordinates":[[[-122.252593,38.217998],[-122.252623,38.218059],[-122.252611,38.218075],[-122.252585,38.21808],[-122.25255,38.218073],[-122.252506,38.218035],[-122.252458,38.217969],[-122.25246,38.217938],[-122.252473,38.21792],[-122.252501,38.217911],[-122.252537,38.217911],[-122.252567,38.217922],[-122.252584,38.217943],[-122.252593,38.217998]]]}},{"type":"Feature","properties":{"k":"tee"},"geometry":{"type":"Polygon","coordinates":[[[-122.252444,38.217541],[-122.252463,38.21756],[-122.252475,38.217591],[-122.25247,38.217619],[-122.25245,38.217637],[-122.252425,38.217644],[-122.252399,38.217639],[-122.252371,38.217618],[-122.252358,38.217568],[-122.252371,38.217548],[-122.252397,38.217538],[-122.252422,38.217534],[-122.252444,38.217541]]]}},{"type":"Feature","properties":{"k":"bunker"},"geometry":{"type":"Polygon","coordinates":[[[-122.252666,38.21209],[-122.252674,38.212108],[-122.252654,38.212158],[-122.252619,38.212183],[-122.252596,38.212186],[-122.252575,38.212178],[-122.252562,38.212162],[-122.25257,38.212124],[-122.252534,38.212101],[-122.252516,38.212071],[-122.252517,38.211999],[-122.252504,38.211963],[-122.252512,38.211911],[-122.252485,38.211886],[-122.252482,38.211866],[-122.252486,38.211848],[-122.252505,38.211833],[-122.252524,38.211829],[-122.252561,38.211842],[-122.252583,38.211842],[-122.252616,38.211876],[-122.25262,38.211922],[-122.252609,38.211947],[-122.252624,38.211978],[-122.252616,38.212025],[-122.252628,38.212039],[-122.252632,38.212074],[-122.252666,38.21209]]]}},{"type":"Feature","properties":{"k":"bunker"},"geometry":{"type":"Polygon","coordinates":[[[-122.252854,38.214842],[-122.25287,38.214864],[-122.252846,38.214906],[-122.252826,38.214914],[-122.252809,38.214942],[-122.252776,38.214943],[-122.252767,38.214914],[-122.252776,38.214886],[-122.25283,38.214843],[-122.252854,38.214842]]]}},{"type":"Feature","properties":{"k":"bunker"},"geometry":{"type":"Polygon","coordinates":[[[-122.252576,38.214841],[-122.252584,38.214914],[-122.252594,38.214926],[-122.252639,38.214949],[-122.252625,38.214978],[-122.252599,38.214988],[-122.252575,38.21497],[-122.252549,38.214974],[-122.252536,38.214964],[-122.252537,38.214928],[-122.252505,38.214926],[-122.252491,38.214917],[-122.252506,38.214864],[-122.252499,38.214853],[-122.252486,38.214846],[-122.252449,38.214851],[-122.252434,38.214842],[-122.252432,38.214826],[-122.252453,38.214781],[-122.252485,38.21478],[-122.252567,38.214813],[-122.252576,38.214841]]]}},{"type":"Feature","properties":{"k":"tee"},"geometry":{"type":"Polygon","coordinates":[[[-122.252639,38.213047],[-122.25267,38.213061],[-122.252688,38.213079],[-122.252696,38.213208],[-122.252719,38.213283],[-122.252711,38.213358],[-122.252699,38.213376],[-122.252677,38.213385],[-122.252643,38.213378],[-122.252631,38.213364],[-122.252649,38.213254],[-122.252644,38.213219],[-122.25259,38.213137],[-122.252586,38.213116],[-122.252596,38.213067],[-122.252616,38.213052],[-122.252639,38.213047]]]}},{"type":"Feature","properties":{"k":"fairway"},"geometry":{"type":"Polygon","coordinates":[[[-122.252297,38.211597],[-122.252365,38.211654],[-122.252398,38.211753],[-122.252409,38.211998],[-122.252427,38.212116],[-122.252527,38.212365],[-122.252538,38.212458],[-122.252499,38.212522],[-122.252448,38.21256],[-122.252373,38.212588],[-122.252306,38.212585],[-122.252243,38.212545],[-122.252201,38.212473],[-122.252167,38.212342],[-122.252122,38.212228],[-122.251952,38.212008],[-122.251875,38.211874],[-122.251791,38.211664],[-122.251715,38.211549],[-122.251532,38.211396],[-122.251426,38.21133],[-122.251307,38.211302],[-122.251205,38.211288],[-122.250988,38.211281],[-122.250842,38.211247],[-122.250762,38.211204],[-122.250761,38.211162],[-122.250805,38.211123],[-122.250903,38.211093],[-122.25102,38.211084],[-122.251159,38.211088],[-122.251366,38.211116],[-122.251464,38.211155],[-122.251528,38.211216],[-122.251574,38.211289],[-122.251664,38.211333],[-122.251772,38.211364],[-122.251896,38.211386],[-122.252028,38.211491],[-122.252297,38.211597]]]}},{"type":"Feature","properties":{"k":"bunker"},"geometry":{"type":"Polygon","coordinates":[[[-122.25081,38.21103],[-122.250829,38.21103],[-122.250842,38.211042],[-122.250846,38.21106],[-122.250835,38.211076],[-122.250806,38.211089],[-122.250766,38.211084],[-122.250748,38.211074],[-122.250717,38.211022],[-122.250726,38.210966],[-122.250752,38.210953],[-122.250765,38.210955],[-122.250771,38.210969],[-122.250764,38.211022],[-122.25081,38.21103]]]}},{"type":"Feature","properties":{"k":"bunker"},"geometry":{"type":"Polygon","coordinates":[[[-122.250712,38.211227],[-122.250727,38.211231],[-122.25073,38.211241],[-122.250705,38.211275],[-122.250623,38.211278],[-122.250604,38.211261],[-122.250617,38.211236],[-122.250689,38.211219],[-122.250712,38.211227]]]}},{"type":"Feature","properties":{"k":"bunker"},"geometry":{"type":"Polygon","coordinates":[[[-122.250665,38.211176],[-122.250676,38.211195],[-122.25065,38.211209],[-122.250621,38.211209],[-122.250537,38.211235],[-122.250501,38.211239],[-122.250497,38.211225],[-122.250518,38.211199],[-122.250553,38.21118],[-122.250631,38.21117],[-122.250665,38.211176]]]}},{"type":"Feature","properties":{"k":"bunker"},"geometry":{"type":"Polygon","coordinates":[[[-122.250376,38.213397],[-122.250414,38.213401],[-122.25043,38.213415],[-122.250411,38.213437],[-122.250359,38.213455],[-122.250347,38.213491],[-122.250306,38.213498],[-122.250251,38.213493],[-122.250244,38.213514],[-122.250212,38.213526],[-122.250195,38.213546],[-122.250178,38.213549],[-122.250152,38.213545],[-122.250112,38.213487],[-122.250099,38.213482],[-122.250076,38.213484],[-122.250041,38.213508],[-122.250018,38.213504],[-122.250004,38.213475],[-122.249972,38.213449],[-122.24997,38.213428],[-122.249989,38.213409],[-122.250031,38.213413],[-122.250064,38.213398],[-122.250118,38.213414],[-122.250165,38.21347],[-122.250202,38.213472],[-122.250294,38.213449],[-122.250332,38.213408],[-122.250376,38.213397]]]}},{"type":"Feature","properties":{"k":"bunker"},"geometry":{"type":"Polygon","coordinates":[[[-122.250228,38.213126],[-122.25028,38.213114],[-122.250319,38.213152],[-122.250321,38.213165],[-122.250304,38.213185],[-122.250314,38.213213],[-122.250306,38.213224],[-122.250264,38.213243],[-122.250223,38.213242],[-122.250147,38.213158],[-122.250102,38.21317],[-122.250061,38.213164],[-122.250048,38.213154],[-122.250017,38.213087],[-122.24999,38.213071],[-122.249989,38.213061],[-122.250106,38.213064],[-122.250119,38.213073],[-122.250118,38.213101],[-122.25019,38.2131],[-122.250228,38.213126]]]}},{"type":"Feature","properties":{"k":"bunker"},"geometry":{"type":"Polygon","coordinates":[[[-122.249824,38.213244],[-122.249871,38.213231],[-122.249917,38.213256],[-122.249956,38.213253],[-122.249969,38.213265],[-122.24998,38.213301],[-122.249979,38.213345],[-122.249967,38.213356],[-122.249934,38.213361],[-122.249906,38.213334],[-122.249894,38.213333],[-122.249902,38.213355],[-122.249894,38.213366],[-122.249879,38.213375],[-122.249856,38.213376],[-122.249827,38.213356],[-122.249833,38.213319],[-122.249823,38.213302],[-122.249808,38.2133],[-122.249768,38.213315],[-122.249732,38.213294],[-122.249699,38.213307],[-122.249671,38.213308],[-122.249653,38.213294],[-122.249649,38.213277],[-122.249661,38.213266],[-122.24971,38.21324],[-122.249737,38.213235],[-122.249759,38.213247],[-122.249786,38.213238],[-122.249824,38.213244]]]}},{"type":"Feature","properties":{"k":"range"},"geometry":{"type":"Polygon","coordinates":[[[-122.251699,38.219063],[-122.251771,38.219217],[-122.25141,38.219304],[-122.251349,38.219148],[-122.251699,38.219063]]]}},{"type":"Feature","properties":{"k":"green"},"geometry":{"type":"Polygon","coordinates":[[[-122.25191,38.219105],[-122.251925,38.219111],[-122.251933,38.219129],[-122.25193,38.21917],[-122.251903,38.219187],[-122.251849,38.219179],[-122.251837,38.219167],[-122.251838,38.219133],[-122.251875,38.219106],[-122.25191,38.219105]]]}},{"type":"Feature","properties":{"k":"bunker"},"geometry":{"type":"Polygon","coordinates":[[[-122.2522,38.219062],[-122.252251,38.219087],[-122.252254,38.219105],[-122.252243,38.219116],[-122.252222,38.219124],[-122.252149,38.219127],[-122.252105,38.219112],[-122.252114,38.219074],[-122.252149,38.219063],[-122.2522,38.219062]]]}},{"type":"Feature","properties":{"k":"path"},"geometry":{"type":"LineString","coordinates":[[-122.25208,38.218805],[-122.252217,38.2188],[-122.252357,38.218752],[-122.252382,38.218751],[-122.25253,38.218778],[-122.252683,38.218775]]}},{"type":"Feature","properties":{"k":"green"},"geometry":{"type":"Polygon","coordinates":[[[-122.249346,38.214663],[-122.249328,38.214687],[-122.249301,38.214702],[-122.249232,38.214709],[-122.249099,38.21464],[-122.249032,38.214587],[-122.249008,38.214549],[-122.249,38.214505],[-122.249017,38.214472],[-122.249056,38.214459],[-122.249099,38.214465],[-122.249136,38.214489],[-122.249256,38.214604],[-122.249327,38.214638],[-122.249343,38.214649],[-122.249346,38.214663]]]}},{"type":"Feature","properties":{"k":"tee"},"geometry":{"type":"Polygon","coordinates":[[[-122.252812,38.213774],[-122.25282,38.213796],[-122.252805,38.21409],[-122.252785,38.214109],[-122.252765,38.214108],[-122.252749,38.214096],[-122.252766,38.213976],[-122.25276,38.213926],[-122.252715,38.213854],[-122.252708,38.213812],[-122.252715,38.213792],[-122.252742,38.213777],[-122.252782,38.21377],[-122.252812,38.213774]]]}}]}