{"type":"FeatureCollection","features":[{"type":"Feature","properties":{"k":"hole","ref":"1","par":4},"geometry":{"type":"LineString","coordinates":[[-73.866138,40.698595],[-73.866995,40.700579],[-73.867135,40.701314]]}},{"type":"Feature","properties":{"k":"hole","ref":"2","par":4},"geometry":{"type":"LineString","coordinates":[[-73.866732,40.701221],[-73.865909,40.699571],[-73.865755,40.698894]]}},{"type":"Feature","properties":{"k":"hole","ref":"3","par":3},"geometry":{"type":"LineString","coordinates":[[-73.865193,40.698486],[-73.865475,40.697496]]}},{"type":"Feature","properties":{"k":"hole","ref":"4","par":5},"geometry":{"type":"LineString","coordinates":[[-73.864129,40.697789],[-73.862087,40.698633],[-73.860644,40.699265]]}},{"type":"Feature","properties":{"k":"hole","ref":"5","par":4},"geometry":{"type":"LineString","coordinates":[[-73.860055,40.699475],[-73.860867,40.698079],[-73.862936,40.697452]]}},{"type":"Feature","properties":{"k":"hole","ref":"6","par":3},"geometry":{"type":"LineString","coordinates":[[-73.862417,40.697326],[-73.861199,40.697536]]}},{"type":"Feature","properties":{"k":"hole","ref":"7","par":4},"geometry":{"type":"LineString","coordinates":[[-73.860047,40.697972],[-73.859614,40.699317],[-73.859817,40.699852]]}},{"type":"Feature","properties":{"k":"hole","ref":"8","par":4},"geometry":{"type":"LineString","coordinates":[[-73.860392,40.699777],[-73.861889,40.701478],[-73.862486,40.702115]]}},{"type":"Feature","properties":{"k":"hole","ref":"9","par":3},"geometry":{"type":"LineString","coordinates":[[-73.863335,40.701891],[-73.864571,40.702402]]}},{"type":"Feature","properties":{"k":"hole","ref":"10","par":4},"geometry":{"type":"LineString","coordinates":[[-73.86469,40.702251],[-73.863175,40.701525],[-73.861965,40.700014]]}},{"type":"Feature","properties":{"k":"hole","ref":"11","par":5},"geometry":{"type":"LineString","coordinates":[[-73.862394,40.699514],[-73.863336,40.700366],[-73.865101,40.702226]]}},{"type":"Feature","properties":{"k":"hole","ref":"12","par":4},"geometry":{"type":"LineString","coordinates":[[-73.865424,40.702139],[-73.864336,40.700506],[-73.863147,40.699313]]}},{"type":"Feature","properties":{"k":"hole","ref":"13","par":3},"geometry":{"type":"LineString","coordinates":[[-73.862438,40.698911],[-73.864445,40.698549]]}},{"type":"Feature","properties":{"k":"hole","ref":"14","par":4},"geometry":{"type":"LineString","coordinates":[[-73.864715,40.699074],[-73.865145,40.700626],[-73.865727,40.702004]]}},{"type":"Feature","properties":{"k":"hole","ref":"15","par":3},"geometry":{"type":"LineString","coordinates":[[-73.866392,40.702146],[-73.866313,40.701034]]}},{"type":"Feature","properties":{"k":"hole","ref":"16","par":4},"geometry":{"type":"LineString","coordinates":[[-73.868082,40.699621],[-73.868238,40.697159]]}},{"type":"Feature","properties":{"k":"hole","ref":"17","par":4},"geometry":{"type":"LineString","coordinates":[[-73.867402,40.697606],[-73.86771,40.699511],[-73.867911,40.70007]]}},{"type":"Feature","properties":{"k":"hole","ref":"18","par":5},"geometry":{"type":"LineString","coordinates":[[-73.867593,40.701207],[-73.867507,40.7009],[-73.86697,40.69882],[-73.866938,40.697944]]}},{"type":"Feature","properties":{"k":"green"},"geometry":{"type":"Polygon","coordinates":[[[-73.865625,40.697487],[-73.865616,40.697523],[-73.86559,40.697556],[-73.865524,40.697603],[-73.865462,40.697616],[-73.865401,40.697601],[-73.865357,40.697549],[-73.865346,40.697486],[-73.865364,40.697441],[-73.865418,40.6974],[-73.865495,40.697388],[-73.865566,40.697395],[-73.865613,40.697414],[-73.865633,40.69745],[-73.865625,40.697487]]]}},{"type":"Feature","properties":{"k":"green"},"geometry":{"type":"Polygon","coordinates":[[[-73.863019,40.697505],[-73.863045,40.697471],[-73.863045,40.697422],[-73.86301,40.697378],[-73.862948,40.697369],[-73.862875,40.697378],[-73.862822,40.697424],[-73.862798,40.697476],[-73.862813,40.697514],[-73.862866,40.697541],[-73.862957,40.697536],[-73.863019,40.697505]]]}},{"type":"Feature","properties":{"k":"green"},"geometry":{"type":"Polygon","coordinates":[[[-73.864536,40.69851],[-73.864488,40.698474],[-73.864437,40.698463],[-73.864372,40.698477],[-73.864355,40.698499],[-73.864347,40.698528],[-73.864357,40.698582],[-73.864401,40.698638],[-73.864441,40.69866],[-73.864492,40.698657],[-73.864529,40.698632],[-73.864553,40.698592],[-73.864557,40.698548],[-73.864536,40.69851]]]}},{"type":"Feature","properties":{"k":"green"},"geometry":{"type":"Polygon","coordinates":[[[-73.865893,40.69897],[-73.865909,40.698909],[-73.865896,40.698858],[-73.865869,40.698824],[-73.865825,40.698801],[-73.865702,40.698781],[-73.865631,40.698796],[-73.8656,40.698827],[-73.865594,40.698886],[-73.865635,40.698927],[-73.865701,40.698972],[-73.865779,40.699002],[-73.865844,40.698999],[-73.865893,40.69897]]]}},{"type":"Feature","properties":{"k":"green"},"geometry":{"type":"Polygon","coordinates":[[[-73.867791,40.700078],[-73.8678,40.700153],[-73.867843,40.700198],[-73.867911,40.700207],[-73.867989,40.700175],[-73.868028,40.700125],[-73.868041,40.700063],[-73.86803,40.700004],[-73.867993,40.699956],[-73.867928,40.699949],[-73.867857,40.699969],[-73.86782,40.700017],[-73.867791,40.700078]]]}},{"type":"Feature","properties":{"k":"tee"},"geometry":{"type":"Polygon","coordinates":[[[-73.866828,40.701369],[-73.866728,40.701063],[-73.866629,40.70108],[-73.866731,40.701383],[-73.866828,40.701369]]]}},{"type":"Feature","properties":{"k":"water"},"geometry":{"type":"Polygon","coordinates":[[[-73.866712,40.701748],[-73.866702,40.701682],[-73.866667,40.701621],[-73.866492,40.701364],[-73.866443,40.701335],[-73.866381,40.701321],[-73.86624,40.701328],[-73.866073,40.701383],[-73.86602,40.701504],[-73.865979,40.701641],[-73.866004,40.701787],[-73.866103,40.701905],[-73.866165,40.701947],[-73.86626,40.70196],[-73.866399,40.701957],[-73.866497,40.701943],[-73.866647,40.701875],[-73.866712,40.701748]]]}},{"type":"Feature","properties":{"k":"green"},"geometry":{"type":"Polygon","coordinates":[[[-73.866399,40.701165],[-73.866422,40.701141],[-73.866429,40.701111],[-73.866424,40.701069],[-73.866358,40.700982],[-73.866297,40.700952],[-73.866241,40.70095],[-73.866209,40.700964],[-73.86619,40.701001],[-73.866207,40.701048],[-73.866262,40.701092],[-73.866326,40.701167],[-73.866365,40.701175],[-73.866399,40.701165]]]}},{"type":"Feature","properties":{"k":"green"},"geometry":{"type":"Polygon","coordinates":[[[-73.867252,40.701303],[-73.867223,40.70123],[-73.867164,40.701189],[-73.867099,40.701187],[-73.86704,40.701227],[-73.867015,40.701279],[-73.867049,40.701415],[-73.867093,40.701459],[-73.867173,40.701455],[-73.867223,40.701419],[-73.867252,40.701303]]]}},{"type":"Feature","properties":{"k":"tee"},"geometry":{"type":"Polygon","coordinates":[[[-73.867647,40.701281],[-73.867639,40.701134],[-73.867543,40.701138],[-73.867542,40.701282],[-73.867647,40.701281]]]}},{"type":"Feature","properties":{"k":"green"},"geometry":{"type":"Polygon","coordinates":[[[-73.866999,40.698085],[-73.867049,40.698047],[-73.867067,40.697984],[-73.86704,40.697859],[-73.867005,40.697817],[-73.866926,40.69781],[-73.866849,40.697826],[-73.866817,40.697886],[-73.866799,40.698],[-73.86684,40.698065],[-73.866911,40.698087],[-73.866999,40.698085]]]}},{"type":"Feature","properties":{"k":"tee"},"geometry":{"type":"Polygon","coordinates":[[[-73.867463,40.697498],[-73.867469,40.69728],[-73.867342,40.697279],[-73.867351,40.697497],[-73.867463,40.697498]]]}},{"type":"Feature","properties":{"k":"tee"},"geometry":{"type":"Polygon","coordinates":[[[-73.868124,40.699684],[-73.868121,40.699568],[-73.868042,40.699569],[-73.868044,40.699686],[-73.868124,40.699684]]]}},{"type":"Feature","properties":{"k":"green"},"geometry":{"type":"Polygon","coordinates":[[[-73.868286,40.697268],[-73.868251,40.697286],[-73.868194,40.69728],[-73.868167,40.697248],[-73.868164,40.697181],[-73.868141,40.697126],[-73.868138,40.697086],[-73.868158,40.69706],[-73.868191,40.697048],[-73.868261,40.697045],[-73.868314,40.697054],[-73.868332,40.697094],[-73.868341,40.697148],[-73.868314,40.697228],[-73.868286,40.697268]]]}},{"type":"Feature","properties":{"k":"green"},"geometry":{"type":"Polygon","coordinates":[[[-73.865651,40.701922],[-73.86562,40.701968],[-73.86562,40.702027],[-73.865649,40.702071],[-73.865734,40.702111],[-73.86579,40.702109],[-73.865831,40.702088],[-73.865856,40.702066],[-73.865867,40.70201],[-73.865832,40.701947],[-73.865796,40.701917],[-73.865759,40.701899],[-73.865717,40.701892],[-73.865678,40.7019],[-73.865651,40.701922]]]}},{"type":"Feature","properties":{"k":"tee"},"geometry":{"type":"Polygon","coordinates":[[[-73.865548,40.70226],[-73.865427,40.701977],[-73.865308,40.702],[-73.865444,40.702283],[-73.865548,40.70226]]]}},{"type":"Feature","properties":{"k":"green"},"geometry":{"type":"Polygon","coordinates":[[[-73.865205,40.702296],[-73.865263,40.702251],[-73.865277,40.702206],[-73.865276,40.702173],[-73.865259,40.702141],[-73.865228,40.702124],[-73.86515,40.702111],[-73.865049,40.702144],[-73.86496,40.702197],[-73.864937,40.702264],[-73.864972,40.702322],[-73.865024,40.702335],[-73.865079,40.702334],[-73.865205,40.702296]]]}},{"type":"Feature","properties":{"k":"tee"},"geometry":{"type":"Polygon","coordinates":[[[-73.86482,40.702323],[-73.864636,40.702147],[-73.86456,40.702194],[-73.86475,40.702362],[-73.86482,40.702323]]]}},{"type":"Feature","properties":{"k":"green"},"geometry":{"type":"Polygon","coordinates":[[[-73.86263,40.702138],[-73.862596,40.702087],[-73.862487,40.702014],[-73.862419,40.70201],[-73.862363,40.702042],[-73.862363,40.702093],[-73.862402,40.70215],[-73.862464,40.702214],[-73.862529,40.702246],[-73.862566,40.702253],[-73.862599,40.70224],[-73.862629,40.702214],[-73.86263,40.702138]]]}},{"type":"Feature","properties":{"k":"green"},"geometry":{"type":"Polygon","coordinates":[[[-73.86471,40.702409],[-73.864711,40.702459],[-73.864678,40.702491],[-73.864637,40.702502],[-73.864579,40.702491],[-73.86447,40.702432],[-73.864425,40.70238],[-73.864433,40.702335],[-73.864478,40.70231],[-73.864554,40.702318],[-73.86466,40.702356],[-73.86471,40.702409]]]}},{"type":"Feature","properties":{"k":"path"},"geometry":{"type":"LineString","coordinates":[[-73.86245,40.701781],[-73.86257,40.701876],[-73.862644,40.701891],[-73.862922,40.701871],[-73.863023,40.701878],[-73.863141,40.70192],[-73.863268,40.701997],[-73.86336,40.702038],[-73.863529,40.702044],[-73.863647,40.702067],[-73.863815,40.702035],[-73.863883,40.702031],[-73.864141,40.702125],[-73.864394,40.702191],[-73.864425,40.702159],[-73.864408,40.702131],[-73.864327,40.702076],[-73.863736,40.70182]]}},{"type":"Feature","properties":{"k":"path"},"geometry":{"type":"LineString","coordinates":[[-73.865006,40.701641],[-73.865152,40.701769],[-73.865234,40.701891],[-73.865228,40.701935],[-73.865192,40.701952],[-73.86515,40.701942],[-73.86504,40.701859],[-73.864939,40.70182]]}},{"type":"Feature","properties":{"k":"tee"},"geometry":{"type":"Polygon","coordinates":[[[-73.863465,40.701903],[-73.863413,40.701982],[-73.863231,40.701915],[-73.863284,40.701825],[-73.863465,40.701903]]]}},{"type":"Feature","properties":{"k":"green"},"geometry":{"type":"Polygon","coordinates":[[[-73.862076,40.700054],[-73.862049,40.700088],[-73.861989,40.700109],[-73.86193,40.700106],[-73.861889,40.700076],[-73.861876,40.700035],[-73.861884,40.699994],[-73.861907,40.69996],[-73.861943,40.699938],[-73.861984,40.699931],[-73.862029,40.699943],[-73.862075,40.699993],[-73.862076,40.700054]]]}},{"type":"Feature","properties":{"k":"tee"},"geometry":{"type":"Polygon","coordinates":[[[-73.862605,40.698921],[-73.862304,40.698965],[-73.862283,40.698899],[-73.862587,40.698852],[-73.862605,40.698921]]]}},{"type":"Feature","properties":{"k":"tee"},"geometry":{"type":"Polygon","coordinates":[[[-73.864733,40.698897],[-73.864626,40.698904],[-73.864621,40.698776],[-73.864725,40.698771],[-73.864733,40.698897]]]}},{"type":"Feature","properties":{"k":"fairway"},"geometry":{"type":"Polygon","coordinates":[[[-73.863121,40.700113],[-73.86333,40.700189],[-73.86414,40.700983],[-73.864401,40.701267],[-73.86443,40.701321],[-73.864433,40.701403],[-73.864392,40.70145],[-73.864305,40.701483],[-73.864225,40.701463],[-73.864091,40.701367],[-73.863187,40.700449],[-73.863137,40.700295],[-73.863037,40.700175],[-73.862624,40.699725],[-73.862615,40.699687],[-73.862648,40.699671],[-73.862688,40.69968],[-73.863121,40.700113]]]}},{"type":"Feature","properties":{"k":"path"},"geometry":{"type":"LineString","coordinates":[[-73.865819,40.698298],[-73.86556,40.698347],[-73.86523,40.698282],[-73.865142,40.698288]]}},{"type":"Feature","properties":{"k":"path"},"geometry":{"type":"LineString","coordinates":[[-73.862613,40.700415],[-73.86237,40.700048],[-73.862218,40.699761],[-73.862172,40.699651],[-73.862212,40.699614],[-73.862325,40.699639],[-73.862484,40.699702],[-73.862618,40.699809],[-73.862694,40.699948],[-73.8628,40.700108],[-73.862836,40.700222],[-73.862942,40.700376],[-73.863121,40.700577]]}},{"type":"Feature","properties":{"k":"path"},"geometry":{"type":"LineString","coordinates":[[-73.861835,40.69952],[-73.861526,40.699225]]}},{"type":"Feature","properties":{"k":"tee"},"geometry":{"type":"Polygon","coordinates":[[[-73.864263,40.697724],[-73.864514,40.697662],[-73.86448,40.697578],[-73.864222,40.697642],[-73.864263,40.697724]]]}},{"type":"Feature","properties":{"k":"green"},"geometry":{"type":"Polygon","coordinates":[[[-73.860704,40.699346],[-73.860742,40.699312],[-73.86076,40.699283],[-73.860766,40.699242],[-73.860751,40.699211],[-73.86072,40.699188],[-73.86066,40.699173],[-73.860596,40.699181],[-73.860541,40.699211],[-73.860504,40.699256],[-73.860504,40.699311],[-73.860544,40.699349],[-73.860596,40.699369],[-73.860654,40.699365],[-73.860704,40.699346]]]}},{"type":"Feature","properties":{"k":"tee"},"geometry":{"type":"Polygon","coordinates":[[[-73.86014,40.69954],[-73.860206,40.699315],[-73.860029,40.699281],[-73.859976,40.699523],[-73.86014,40.69954]]]}},{"type":"Feature","properties":{"k":"green"},"geometry":{"type":"Polygon","coordinates":[[[-73.859736,40.699813],[-73.859782,40.699779],[-73.859814,40.699769],[-73.859851,40.699771],[-73.859882,40.699782],[-73.859914,40.699824],[-73.859908,40.699872],[-73.859892,40.699895],[-73.859844,40.699926],[-73.859809,40.699932],[-73.859773,40.699927],[-73.859725,40.699892],[-73.859718,40.699861],[-73.859736,40.699813]]]}},{"type":"Feature","properties":{"k":"tee"},"geometry":{"type":"Polygon","coordinates":[[[-73.860108,40.698051],[-73.860148,40.69792],[-73.859954,40.697893],[-73.859918,40.698031],[-73.860108,40.698051]]]}},{"type":"Feature","properties":{"k":"green"},"geometry":{"type":"Polygon","coordinates":[[[-73.86131,40.697545],[-73.861291,40.697593],[-73.86127,40.697613],[-73.86124,40.697622],[-73.86118,40.697627],[-73.861126,40.697597],[-73.861098,40.697548],[-73.861112,40.697488],[-73.861152,40.697447],[-73.861219,40.697439],[-73.861278,40.697463],[-73.861304,40.697505],[-73.86131,40.697545]]]}},{"type":"Feature","properties":{"k":"fairway"},"geometry":{"type":"Polygon","coordinates":[[[-73.86327,40.698257],[-73.863312,40.698247],[-73.863664,40.698068],[-73.863686,40.698024],[-73.863676,40.697988],[-73.863627,40.697962],[-73.86356,40.697968],[-73.86318,40.698142],[-73.863178,40.698196],[-73.863217,40.698233],[-73.86327,40.698257]]]}},{"type":"Feature","properties":{"k":"bunker"},"geometry":{"type":"Polygon","coordinates":[[[-73.864166,40.698808],[-73.864172,40.698836],[-73.86421,40.698847],[-73.864264,40.69884],[-73.864303,40.698821],[-73.864307,40.698795],[-73.864296,40.698774],[-73.864267,40.698766],[-73.864227,40.698767],[-73.864166,40.698808]]]}},{"type":"Feature","properties":{"k":"green"},"geometry":{"type":"Polygon","coordinates":[[[-73.863012,40.69931],[-73.863015,40.699344],[-73.863032,40.699375],[-73.863062,40.699401],[-73.8631,40.699418],[-73.863144,40.699426],[-73.863192,40.699422],[-73.863235,40.699406],[-73.863268,40.69938],[-73.863288,40.699347],[-73.863292,40.699311],[-73.86328,40.699275],[-73.863254,40.699246],[-73.863215,40.699224],[-73.863169,40.699213],[-73.863124,40.699215],[-73.863082,40.699227],[-73.863047,40.699248],[-73.863023,40.699277],[-73.863012,40.69931]]]}},{"type":"Feature","properties":{"k":"tee"},"geometry":{"type":"Polygon","coordinates":[[[-73.86519,40.698563],[-73.865272,40.698408],[-73.865193,40.698387],[-73.865113,40.69854],[-73.86519,40.698563]]]}},{"type":"Feature","properties":{"k":"path"},"geometry":{"type":"LineString","coordinates":[[-73.862997,40.698518],[-73.862895,40.698534]]}},{"type":"Feature","properties":{"k":"path"},"geometry":{"type":"LineString","coordinates":[[-73.865775,40.699477],[-73.865725,40.699353],[-73.865611,40.699156],[-73.865534,40.699137],[-73.865465,40.699242],[-73.865383,40.699294],[-73.865263,40.699289],[-73.865124,40.699189],[-73.864979,40.699061],[-73.864894,40.698935],[-73.864884,40.698807],[-73.864927,40.698626],[-73.865032,40.698535],[-73.865142,40.698288],[-73.865104,40.69817],[-73.865036,40.697865],[-73.865033,40.697764],[-73.864983,40.697708],[-73.864624,40.697702],[-73.864145,40.697838],[-73.863912,40.697943],[-73.863748,40.698063],[-73.863552,40.698333],[-73.863399,40.698416],[-73.863186,40.698486],[-73.862997,40.698518],[-73.86259,40.698743],[-73.862468,40.698792],[-73.861929,40.698926],[-73.861756,40.698926],[-73.861335,40.699087],[-73.861165,40.699172],[-73.860752,40.699474],[-73.860615,40.699538],[-73.860484,40.69956],[-73.860401,40.699545],[-73.860246,40.699427],[-73.860303,40.699056],[-73.860338,40.698899],[-73.86047,40.698681],[-73.860556,40.6985],[-73.860541,40.69844],[-73.860435,40.698313],[-73.860489,40.698219],[-73.860682,40.697978],[-73.860817,40.697905],[-73.861056,40.697891],[-73.8614,40.69776],[-73.862144,40.697541],[-73.862338,40.697537],[-73.862565,40.697512],[-73.862677,40.697456],[-73.862804,40.69728],[-73.862834,40.697211],[-73.862777,40.69718],[-73.862668,40.697195],[-73.862387,40.697257],[-73.862208,40.697252],[-73.862106,40.697296],[-73.861918,40.69741],[-73.861738,40.697452],[-73.861512,40.697463],[-73.861247,40.697408],[-73.861,40.697405],[-73.860898,40.69744],[-73.860766,40.697564],[-73.860632,40.697674],[-73.860464,40.697786],[-73.860385,40.697854],[-73.860326,40.697925],[-73.860273,40.698068],[-73.860353,40.698293],[-73.860354,40.698353],[-73.860264,40.698496],[-73.859935,40.698792],[-73.85988,40.698879],[-73.859848,40.699032],[-73.85987,40.699123],[-73.859903,40.699196],[-73.859929,40.699374],[-73.859903,40.69952],[-73.859958,40.699591],[-73.860136,40.699657],[-73.860228,40.699729],[-73.860334,40.699899],[-73.860427,40.699992],[-73.860606,40.700142],[-73.860917,40.700454],[-73.860995,40.700587],[-73.86107,40.70075],[-73.861193,40.700958]]}},{"type":"Feature","properties":{"k":"path"},"geometry":{"type":"LineString","coordinates":[[-73.866239,40.698366],[-73.866215,40.698456],[-73.866239,40.698506],[-73.866333,40.698576],[-73.866385,40.698671],[-73.866546,40.699099]]}},{"type":"Feature","properties":{"k":"path"},"geometry":{"type":"LineString","coordinates":[[-73.866408,40.698287],[-73.866672,40.698291],[-73.866715,40.698316],[-73.866684,40.698397],[-73.866625,40.698506],[-73.86663,40.698873],[-73.866682,40.69899]]}},{"type":"Feature","properties":{"k":"bunker"},"geometry":{"type":"Polygon","coordinates":[[[-73.868514,40.697503],[-73.868505,40.697476],[-73.868459,40.697412],[-73.868417,40.697408],[-73.868394,40.697436],[-73.868394,40.697466],[-73.86845,40.697512],[-73.868487,40.697512],[-73.868514,40.697503]]]}},{"type":"Feature","properties":{"k":"path"},"geometry":{"type":"LineString","coordinates":[[-73.867416,40.699936],[-73.867418,40.700057],[-73.867442,40.700169],[-73.867503,40.700331],[-73.867623,40.700524],[-73.86767,40.700651],[-73.86769,40.700793],[-73.86779,40.700818],[-73.867881,40.700778],[-73.867924,40.700727],[-73.867948,40.700549],[-73.867988,40.700397],[-73.868082,40.700208],[-73.868122,40.699992],[-73.868102,40.699904],[-73.868002,40.699784],[-73.867884,40.699359]]}},{"type":"Feature","properties":{"k":"path"},"geometry":{"type":"LineString","coordinates":[[-73.86675,40.700923],[-73.866865,40.7013],[-73.866887,40.7014],[-73.866882,40.701489],[-73.866858,40.701533],[-73.866792,40.70155],[-73.866748,40.701522],[-73.866704,40.701478],[-73.866572,40.701116],[-73.866557,40.701001],[-73.866212,40.700528]]}},{"type":"Feature","properties":{"k":"bunker"},"geometry":{"type":"Polygon","coordinates":[[[-73.867298,40.70137],[-73.867254,40.701437],[-73.867255,40.701457],[-73.867272,40.701474],[-73.867295,40.701476],[-73.867327,40.701462],[-73.867395,40.701387],[-73.867408,40.701356],[-73.867395,40.701325],[-73.867353,40.701314],[-73.867314,40.701331],[-73.867298,40.70137]]]}},{"type":"Feature","properties":{"k":"bunker"},"geometry":{"type":"Polygon","coordinates":[[[-73.866769,40.698505],[-73.86681,40.69845],[-73.866839,40.698387],[-73.866822,40.698353],[-73.866777,40.698358],[-73.866713,40.698458],[-73.866725,40.698492],[-73.866769,40.698505]]]}},{"type":"Feature","properties":{"k":"tee"},"geometry":{"type":"Polygon","coordinates":[[[-73.867446,40.697669],[-73.867441,40.69755],[-73.867362,40.697553],[-73.867363,40.697668],[-73.867446,40.697669]]]}},{"type":"Feature","properties":{"k":"path"},"geometry":{"type":"LineString","coordinates":[[-73.868102,40.699904],[-73.868169,40.699819],[-73.8682,40.699424],[-73.868171,40.699241],[-73.868165,40.699013],[-73.868196,40.698847],[-73.868263,40.698633]]}},{"type":"Feature","properties":{"k":"path"},"geometry":{"type":"LineString","coordinates":[[-73.868522,40.697544],[-73.868554,40.697423],[-73.868551,40.697297],[-73.868592,40.697176],[-73.868554,40.697055],[-73.868443,40.696982],[-73.868241,40.696963],[-73.868053,40.697002],[-73.867883,40.697061],[-73.867679,40.697119],[-73.867583,40.69716],[-73.867513,40.69725],[-73.86751,40.697347],[-73.867532,40.69753],[-73.86751,40.697783],[-73.867454,40.697976],[-73.867481,40.698153]]}},{"type":"Feature","properties":{"k":"bunker"},"geometry":{"type":"Polygon","coordinates":[[[-73.865212,40.697517],[-73.865256,40.697479],[-73.865257,40.697448],[-73.865239,40.69743],[-73.86521,40.697426],[-73.865181,40.697448],[-73.865163,40.697477],[-73.865154,40.69751],[-73.865173,40.697526],[-73.865212,40.697517]]]}},{"type":"Feature","properties":{"k":"path"},"geometry":{"type":"LineString","coordinates":[[-73.859935,40.698792],[-73.859786,40.698931],[-73.859634,40.699024]]}},{"type":"Feature","properties":{"k":"path"},"geometry":{"type":"LineString","coordinates":[[-73.863597,40.699536],[-73.863589,40.699276],[-73.863545,40.699176],[-73.863474,40.699114],[-73.863352,40.699048],[-73.863181,40.698969],[-73.863409,40.698917],[-73.863683,40.698895],[-73.863965,40.698848],[-73.864077,40.698842],[-73.864133,40.698877],[-73.864212,40.698969],[-73.864292,40.698989],[-73.864448,40.698935],[-73.86453,40.698875],[-73.864597,40.699149],[-73.864661,40.6993],[-73.864705,40.699496],[-73.864774,40.70024],[-73.864827,40.700255]]}},{"type":"Feature","properties":{"k":"path"},"geometry":{"type":"LineString","coordinates":[[-73.865674,40.70136],[-73.865792,40.701752],[-73.865889,40.7019],[-73.866067,40.702073],[-73.86621,40.702252],[-73.866319,40.702259],[-73.866548,40.702187],[-73.86661,40.702114],[-73.866775,40.701819],[-73.866766,40.701732],[-73.866716,40.701581]]}},{"type":"Feature","properties":{"k":"path"},"geometry":{"type":"LineString","coordinates":[[-73.867523,40.7016],[-73.86746,40.701561],[-73.867398,40.701534],[-73.867328,40.701561],[-73.867219,40.701628],[-73.867113,40.701654],[-73.866998,40.701648],[-73.866716,40.701581],[-73.866636,40.701469],[-73.866595,40.701372],[-73.866522,40.701266]]}},{"type":"Feature","properties":{"k":"bunker"},"geometry":{"type":"Polygon","coordinates":[[[-73.86621,40.701103],[-73.86623,40.701136],[-73.866222,40.701156],[-73.866193,40.701166],[-73.866167,40.701157],[-73.866153,40.701145],[-73.86614,40.701102],[-73.866165,40.701089],[-73.86621,40.701103]]]}},{"type":"Feature","properties":{"k":"bunker"},"geometry":{"type":"Polygon","coordinates":[[[-73.861763,40.701629],[-73.861828,40.70167],[-73.861821,40.701705],[-73.861794,40.701721],[-73.861714,40.701703],[-73.861689,40.70167],[-73.861627,40.701637],[-73.861615,40.701591],[-73.861634,40.701566],[-73.861687,40.701556],[-73.861723,40.701582],[-73.861729,40.701607],[-73.861763,40.701629]]]}},{"type":"Feature","properties":{"k":"bunker"},"geometry":{"type":"Polygon","coordinates":[[[-73.862651,40.702058],[-73.862708,40.702043],[-73.862713,40.702011],[-73.862699,40.701986],[-73.862659,40.701965],[-73.862601,40.701959],[-73.86257,40.701981],[-73.862578,40.702029],[-73.862651,40.702058]]]}},{"type":"Feature","properties":{"k":"tee"},"geometry":{"type":"Polygon","coordinates":[[[-73.867651,40.701029],[-73.867647,40.700889],[-73.867507,40.7009],[-73.867518,40.701033],[-73.867651,40.701029]]]}},{"type":"Feature","properties":{"k":"tee"},"geometry":{"type":"Polygon","coordinates":[[[-73.86763,40.700852],[-73.867618,40.700725],[-73.867519,40.70073],[-73.867532,40.700858],[-73.86763,40.700852]]]}},{"type":"Feature","properties":{"k":"tee"},"geometry":{"type":"Polygon","coordinates":[[[-73.866528,40.702171],[-73.866502,40.702072],[-73.86624,40.702105],[-73.866269,40.702207],[-73.866528,40.702171]]]}},{"type":"Feature","properties":{"k":"tee"},"geometry":{"type":"Polygon","coordinates":[[[-73.866333,40.698727],[-73.866304,40.698659],[-73.866062,40.698714],[-73.866086,40.698783],[-73.866333,40.698727]]]}},{"type":"Feature","properties":{"k":"tee"},"geometry":{"type":"Polygon","coordinates":[[[-73.866242,40.698605],[-73.86606,40.698645],[-73.86602,40.698544],[-73.866198,40.698505],[-73.866242,40.698605]]]}},{"type":"Feature","properties":{"k":"path"},"geometry":{"type":"LineString","coordinates":[[-73.864927,40.698626],[-73.864645,40.698717],[-73.864592,40.698761],[-73.86453,40.698875]]}},{"type":"Feature","properties":{"k":"tee"},"geometry":{"type":"Polygon","coordinates":[[[-73.862535,40.697333],[-73.862306,40.697371],[-73.862289,40.697322],[-73.86252,40.69728],[-73.862535,40.697333]]]}},{"type":"Feature","properties":{"k":"tee"},"geometry":{"type":"Polygon","coordinates":[[[-73.862265,40.699354],[-73.862086,40.699154],[-73.862012,40.699186],[-73.862195,40.699391],[-73.862265,40.699354]]]}},{"type":"Feature","properties":{"k":"path"},"geometry":{"type":"LineString","coordinates":[[-73.863181,40.698969],[-73.862893,40.699005],[-73.862805,40.69905],[-73.862746,40.699049],[-73.862739,40.699021],[-73.862809,40.699004],[-73.862893,40.699005]]}},{"type":"Feature","properties":{"k":"tee"},"geometry":{"type":"Polygon","coordinates":[[[-73.866711,40.701018],[-73.86669,40.700947],[-73.866588,40.700964],[-73.866609,40.701034],[-73.866711,40.701018]]]}},{"type":"Feature","properties":{"k":"tee"},"geometry":{"type":"Polygon","coordinates":[[[-73.866857,40.701486],[-73.86684,40.701401],[-73.866765,40.701407],[-73.866781,40.701493],[-73.866857,40.701486]]]}},{"type":"Feature","properties":{"k":"tee"},"geometry":{"type":"Polygon","coordinates":[[[-73.866432,40.698915],[-73.866404,40.69883],[-73.86633,40.698843],[-73.866361,40.69893],[-73.866432,40.698915]]]}},{"type":"Feature","properties":{"k":"tee"},"geometry":{"type":"Polygon","coordinates":[[[-73.86508,40.698666],[-73.865009,40.698864],[-73.864918,40.698844],[-73.86498,40.698645],[-73.86508,40.698666]]]}},{"type":"Feature","properties":{"k":"green"},"geometry":{"type":"Polygon","coordinates":[[[-73.8649,40.697643],[-73.864947,40.697637],[-73.864992,40.697608],[-73.865006,40.697561],[-73.864986,40.697521],[-73.86494,40.697506],[-73.864875,40.69752],[-73.864835,40.697564],[-73.86483,40.697602],[-73.864855,40.697633],[-73.8649,40.697643]]]}},{"type":"Feature","properties":{"k":"tee"},"geometry":{"type":"Polygon","coordinates":[[[-73.864165,40.697798],[-73.864046,40.697843],[-73.863995,40.697767],[-73.864116,40.697723],[-73.864165,40.697798]]]}},{"type":"Feature","properties":{"k":"fairway"},"geometry":{"type":"Polygon","coordinates":[[[-73.862018,40.698772],[-73.862803,40.698467],[-73.862846,40.698425],[-73.86283,40.698374],[-73.862678,40.698278],[-73.862601,40.698247],[-73.862532,40.698251],[-73.862429,40.698282],[-73.861978,40.698451],[-73.861899,40.698516],[-73.861869,40.698588],[-73.861885,40.698657],[-73.861931,40.698742],[-73.861963,40.698771],[-73.862018,40.698772]]]}},{"type":"Feature","properties":{"k":"fairway"},"geometry":{"type":"Polygon","coordinates":[[[-73.860834,40.699248],[-73.860969,40.699179],[-73.861368,40.699002],[-73.861377,40.698955],[-73.861322,40.698889],[-73.861271,40.698884],[-73.861206,40.6989],[-73.860727,40.699149],[-73.860596,40.699181],[-73.86066,40.699173],[-73.86072,40.699188],[-73.860751,40.699211],[-73.860766,40.699242],[-73.86076,40.699283],[-73.860742,40.699312],[-73.860834,40.699248]]]}},{"type":"Feature","properties":{"k":"tee"},"geometry":{"type":"Polygon","coordinates":[[[-73.860156,40.698235],[-73.860169,40.698172],[-73.860081,40.698161],[-73.860066,40.698227],[-73.860156,40.698235]]]}},{"type":"Feature","properties":{"k":"fairway"},"geometry":{"type":"Polygon","coordinates":[[[-73.860213,40.69966],[-73.860492,40.699985],[-73.860601,40.699932],[-73.860345,40.699605],[-73.860213,40.69966]]]}},{"type":"Feature","properties":{"k":"fairway"},"geometry":{"type":"Polygon","coordinates":[[[-73.860592,40.700072],[-73.860687,40.700025],[-73.860892,40.700246],[-73.860798,40.700289],[-73.860592,40.700072]]]}},{"type":"Feature","properties":{"k":"tee"},"geometry":{"type":"Polygon","coordinates":[[[-73.863519,40.701977],[-73.863627,40.702019],[-73.863654,40.701979],[-73.863543,40.701937],[-73.863519,40.701977]]]}},{"type":"Feature","properties":{"k":"tee"},"geometry":{"type":"Polygon","coordinates":[[[-73.863131,40.701881],[-73.863183,40.701792],[-73.863084,40.70175],[-73.863025,40.701843],[-73.863131,40.701881]]]}},{"type":"Feature","properties":{"k":"tee"},"geometry":{"type":"Polygon","coordinates":[[[-73.864857,40.70245],[-73.864922,40.702416],[-73.864876,40.702372],[-73.864811,40.702403],[-73.864857,40.70245]]]}},{"type":"Feature","properties":{"k":"fairway"},"geometry":{"type":"Polygon","coordinates":[[[-73.864442,40.702097],[-73.864479,40.702119],[-73.864522,40.70211],[-73.864538,40.70208],[-73.864515,40.702051],[-73.864465,40.702027],[-73.864392,40.702008],[-73.863688,40.701624],[-73.863618,40.701578],[-73.863543,40.701499],[-73.863437,40.701349],[-73.863319,40.701211],[-73.862743,40.70066],[-73.862628,40.700557],[-73.862474,40.700441],[-73.862163,40.700112],[-73.862119,40.700077],[-73.862081,40.700024],[-73.862076,40.700054],[-73.862049,40.700088],[-73.861989,40.700109],[-73.86193,40.700106],[-73.862024,40.700202],[-73.862238,40.700479],[-73.862324,40.700632],[-73.86246,40.700797],[-73.862814,40.701204],[-73.863021,40.701413],[-73.86316,40.701476],[-73.863503,40.701574],[-73.864405,40.702064],[-73.864442,40.702097]]]}},{"type":"Feature","properties":{"k":"tee"},"geometry":{"type":"Polygon","coordinates":[[[-73.862462,40.699623],[-73.862517,40.699594],[-73.86234,40.699421],[-73.862286,40.699453],[-73.862462,40.699623]]]}},{"type":"Feature","properties":{"k":"fairway"},"geometry":{"type":"Polygon","coordinates":[[[-73.864562,40.701745],[-73.864563,40.701789],[-73.864631,40.701892],[-73.864916,40.702227],[-73.864937,40.702264],[-73.86496,40.702197],[-73.865049,40.702144],[-73.86515,40.702111],[-73.865228,40.702124],[-73.865218,40.702103],[-73.86496,40.7019],[-73.86474,40.701712],[-73.864687,40.701689],[-73.864596,40.70171],[-73.864562,40.701745]]]}},{"type":"Feature","properties":{"k":"tee"},"geometry":{"type":"Polygon","coordinates":[[[-73.864665,40.699198],[-73.864816,40.699176],[-73.864768,40.698964],[-73.864613,40.698984],[-73.864665,40.699198]]]}},{"type":"Feature","properties":{"k":"fairway"},"geometry":{"type":"Polygon","coordinates":[[[-73.866377,40.701225],[-73.86642,40.701223],[-73.866473,40.701208],[-73.866486,40.701167],[-73.866459,40.70111],[-73.866424,40.701069],[-73.866429,40.701111],[-73.866422,40.701141],[-73.866399,40.701165],[-73.866365,40.701175],[-73.866326,40.701167],[-73.866285,40.701121],[-73.866305,40.701211],[-73.866342,40.701223],[-73.866377,40.701225]]]}},{"type":"Feature","properties":{"k":"fairway"},"geometry":{"type":"Polygon","coordinates":[[[-73.867993,40.699956],[-73.86803,40.700004],[-73.86802,40.699949],[-73.867965,40.69983],[-73.867887,40.699615],[-73.867626,40.698619],[-73.867554,40.698416],[-73.867499,40.698326],[-73.86741,40.698303],[-73.867344,40.698331],[-73.867305,40.698413],[-73.867302,40.698548],[-73.867358,40.698729],[-73.867506,40.699126],[-73.867718,40.699659],[-73.867784,40.69991],[-73.867791,40.700078],[-73.86782,40.700017],[-73.867857,40.699969],[-73.867928,40.699949],[-73.867993,40.699956]]]}},{"type":"Feature","properties":{"k":"green"},"geometry":{"type":"Polygon","coordinates":[[[-73.86603,40.698511],[-73.866145,40.698478],[-73.866184,40.698444],[-73.866165,40.698408],[-73.866115,40.69839],[-73.865978,40.698393],[-73.865917,40.698409],[-73.865923,40.698461],[-73.865946,40.698509],[-73.865972,40.698519],[-73.86603,40.698511]]]}},{"type":"Feature","properties":{"k":"fairway"},"geometry":{"type":"Polygon","coordinates":[[[-73.866321,40.699225],[-73.866251,40.699289],[-73.866261,40.699405],[-73.866418,40.699771],[-73.866599,40.700231],[-73.866748,40.700539],[-73.867001,40.701208],[-73.867015,40.701279],[-73.86704,40.701227],[-73.867099,40.701187],[-73.867164,40.701189],[-73.867223,40.70123],[-73.867175,40.701149],[-73.867141,40.701],[-73.867106,40.700554],[-73.867116,40.70043],[-73.867049,40.700216],[-73.866864,40.69975],[-73.866631,40.699281],[-73.866539,40.699222],[-73.866429,40.699194],[-73.866321,40.699225]]]}},{"type":"Feature","properties":{"k":"fairway"},"geometry":{"type":"Polygon","coordinates":[[[-73.866087,40.700333],[-73.866203,40.700344],[-73.866327,40.700302],[-73.866324,40.70021],[-73.866237,40.699938],[-73.86607,40.699517],[-73.865967,40.69922],[-73.865931,40.699157],[-73.865852,40.699156],[-73.86576,40.699201],[-73.865721,40.699504],[-73.865743,40.699757],[-73.865931,40.700278],[-73.866002,40.700314],[-73.866087,40.700333]]]}},{"type":"Feature","properties":{"k":"wood"},"geometry":{"type":"Polygon","coordinates":[[[-73.868541,40.699733],[-73.868433,40.699618],[-73.868378,40.699659],[-73.86828,40.700122],[-73.86814,40.700649],[-73.867977,40.701003],[-73.867942,40.700791],[-73.86775,40.700839],[-73.867708,40.700924],[-73.867725,40.701104],[-73.86772,40.701262],[-73.867634,40.701375],[-73.867498,40.701527],[-73.867554,40.701552],[-73.86793,40.701113],[-73.868035,40.701102],[-73.868124,40.701019],[-73.868248,40.700736],[-73.868541,40.699733]]]}},{"type":"Feature","properties":{"k":"wood"},"geometry":{"type":"Polygon","coordinates":[[[-73.864504,40.702588],[-73.864229,40.702429],[-73.863974,40.702224],[-73.863777,40.702158],[-73.863456,40.702165],[-73.863123,40.701992],[-73.862945,40.701983],[-73.862852,40.702144],[-73.862723,40.702343],[-73.862618,40.702396],[-73.862489,40.702373],[-73.86215,40.702181],[-73.862131,40.702263],[-73.86244,40.702653],[-73.863236,40.70274],[-73.863724,40.70275],[-73.864341,40.702722],[-73.864864,40.702673],[-73.865242,40.702587],[-73.865572,40.702504],[-73.865851,40.702425],[-73.865938,40.702376],[-73.865746,40.702362],[-73.865481,40.702433],[-73.864504,40.702588]]]}},{"type":"Feature","properties":{"k":"wood"},"geometry":{"type":"Polygon","coordinates":[[[-73.86097,40.700306],[-73.861343,40.700529],[-73.861796,40.700894],[-73.862016,40.701117],[-73.862133,40.701283],[-73.862338,40.701251],[-73.862338,40.701007],[-73.862114,40.700593],[-73.861796,40.700278],[-73.861423,40.699938],[-73.861497,40.699725],[-73.86181,40.699704],[-73.861946,40.699672],[-73.861922,40.699605],[-73.861605,40.699471],[-73.861399,40.699283],[-73.861231,40.699233],[-73.861017,40.699386],[-73.860694,40.699587],[-73.860638,40.699687],[-73.860694,40.699917],[-73.86097,40.700306]]]}},{"type":"Feature","properties":{"k":"wood"},"geometry":{"type":"Polygon","coordinates":[[[-73.862413,40.699418],[-73.862721,40.699573],[-73.862828,40.699492],[-73.862796,40.69934],[-73.862917,40.699216],[-73.863165,40.699141],[-73.863351,40.699202],[-73.863235,40.699085],[-73.862973,40.699063],[-73.862674,40.699113],[-73.862492,40.699063],[-73.86224,40.699056],[-73.862077,40.698961],[-73.86182,40.698993],[-73.861614,40.699209],[-73.861843,40.699393],[-73.861936,40.699517],[-73.862072,40.699506],[-73.861955,40.69934],[-73.861988,40.699127],[-73.862193,40.699173],[-73.862357,40.699301],[-73.862413,40.699418]]]}},{"type":"Feature","properties":{"k":"wood"},"geometry":{"type":"Polygon","coordinates":[[[-73.864584,40.699343],[-73.864505,40.699138],[-73.864239,40.699099],[-73.863935,40.699279],[-73.863842,40.699449],[-73.863945,40.699655],[-73.864318,40.70008],[-73.864463,40.700196],[-73.864561,40.700257],[-73.86472,40.700249],[-73.864738,40.700193],[-73.864673,40.700012],[-73.864584,40.699343]]]}},{"type":"Feature","properties":{"k":"wood"},"geometry":{"type":"Polygon","coordinates":[[[-73.865612,40.699237],[-73.865528,40.699053],[-73.865346,40.698915],[-73.865411,40.698777],[-73.865584,40.698667],[-73.865719,40.698663],[-73.865705,40.698536],[-73.865546,40.698444],[-73.865378,40.698486],[-73.865093,40.698869],[-73.864977,40.699311],[-73.865098,40.699793],[-73.865079,40.699924],[-73.865079,40.700076],[-73.865252,40.700239],[-73.865383,40.700469],[-73.86549,40.700703],[-73.865598,40.700894],[-73.865556,40.70105],[-73.865621,40.701149],[-73.865742,40.70169],[-73.865897,40.701793],[-73.865953,40.701627],[-73.865934,40.701379],[-73.865939,40.701145],[-73.865999,40.700905],[-73.866041,40.700625],[-73.865822,40.700441],[-73.865738,40.700264],[-73.86563,40.700083],[-73.86563,40.699927],[-73.865691,40.699743],[-73.865612,40.699237]]]}},{"type":"Feature","properties":{"k":"wood"},"geometry":{"type":"Polygon","coordinates":[[[-73.861343,40.698801],[-73.861848,40.698416],[-73.862343,40.698224],[-73.862716,40.697962],[-73.863188,40.697863],[-73.863496,40.697782],[-73.863543,40.697668],[-73.863912,40.697676],[-73.864211,40.697499],[-73.864673,40.697414],[-73.864869,40.697265],[-73.864738,40.697162],[-73.864323,40.697144],[-73.863921,40.697081],[-73.863632,40.697045],[-73.863249,40.697088],[-73.863277,40.697364],[-73.863263,40.69753],[-73.862987,40.697676],[-73.862399,40.697838],[-73.86182,40.698033],[-73.861283,40.698125],[-73.861086,40.698292],[-73.860802,40.698685],[-73.860652,40.698865],[-73.860634,40.699042],[-73.86097,40.698975],[-73.861343,40.698801]]]}},{"type":"Feature","properties":{"k":"wood"},"geometry":{"type":"Polygon","coordinates":[[[-73.863057,40.698695],[-73.863426,40.698624],[-73.863954,40.698469],[-73.864332,40.698313],[-73.864561,40.698302],[-73.864594,40.698447],[-73.864654,40.698596],[-73.864752,40.698631],[-73.864907,40.698561],[-73.864995,40.698469],[-73.864972,40.698178],[-73.864925,40.698001],[-73.86465,40.697973],[-73.86451,40.697884],[-73.864183,40.697969],[-73.86393,40.6981],[-73.86379,40.698249],[-73.863576,40.698419],[-73.863375,40.698518],[-73.863197,40.698539],[-73.863043,40.698592],[-73.862968,40.698653],[-73.863057,40.698695]]]}},{"type":"Feature","properties":{"k":"wood"},"geometry":{"type":"Polygon","coordinates":[[[-73.865862,40.697455],[-73.865894,40.697723],[-73.866141,40.6978],[-73.866265,40.697642],[-73.866388,40.69752],[-73.866436,40.697386],[-73.866383,40.697304],[-73.866286,40.6973],[-73.865905,40.697353],[-73.865862,40.697455]]]}},{"type":"Feature","properties":{"k":"wood"},"geometry":{"type":"Polygon","coordinates":[[[-73.866785,40.697422],[-73.866769,40.697654],[-73.866989,40.697723],[-73.867128,40.697739],[-73.867225,40.697516],[-73.867241,40.697251],[-73.867391,40.697154],[-73.867761,40.69706],[-73.866865,40.697198],[-73.866742,40.697268],[-73.866785,40.697422]]]}},{"type":"Feature","properties":{"k":"wood"},"geometry":{"type":"Polygon","coordinates":[[[-73.859514,40.697876],[-73.860472,40.697511],[-73.860514,40.697596],[-73.860336,40.697784],[-73.86,40.697802],[-73.859752,40.697929],[-73.859711,40.698198],[-73.859369,40.69857],[-73.859192,40.69886],[-73.859253,40.699087],[-73.859337,40.699292],[-73.859384,40.699444],[-73.859206,40.699678],[-73.859122,40.69936],[-73.858977,40.699062],[-73.858809,40.698591],[-73.85879,40.698375],[-73.858823,40.698248],[-73.858898,40.698135],[-73.859117,40.697986],[-73.859514,40.697876]]]}},{"type":"Feature","properties":{"k":"wood"},"geometry":{"type":"Polygon","coordinates":[[[-73.859995,40.700029],[-73.859898,40.700035],[-73.859849,40.700112],[-73.860139,40.700222],[-73.86041,40.700374],[-73.860633,40.700535],[-73.860749,40.700654],[-73.860881,40.700643],[-73.860749,40.700411],[-73.860604,40.70025],[-73.860422,40.70014],[-73.860274,40.700007],[-73.860234,40.6999],[-73.860129,40.699851],[-73.860058,40.699855],[-73.859995,40.700029]]]}}]}