{"type":"FeatureCollection","features":[{"type":"Feature","properties":{"k":"water"},"geometry":{"type":"Polygon","coordinates":[[[-116.267731,33.730967],[-116.267774,33.730941],[-116.267871,33.730916],[-116.267919,33.730896],[-116.267973,33.730863],[-116.268005,33.730824],[-116.26804,33.730716],[-116.268118,33.730557],[-116.268136,33.730497],[-116.268126,33.730447],[-116.268102,33.730401],[-116.268048,33.730368],[-116.268,33.730325],[-116.267871,33.730184],[-116.267857,33.730151],[-116.26789,33.730041],[-116.26789,33.729993],[-116.267865,33.729954],[-116.267836,33.729924],[-116.267788,33.729901],[-116.267726,33.729885],[-116.267592,33.72991],[-116.267546,33.729946],[-116.26752,33.729977],[-116.267463,33.73001],[-116.267283,33.730091],[-116.267267,33.730122],[-116.267278,33.730157],[-116.267372,33.73022],[-116.267549,33.730365],[-116.267603,33.730418],[-116.267619,33.730455],[-116.267632,33.730572],[-116.267616,33.730613],[-116.267527,33.730729],[-116.267482,33.730807],[-116.267447,33.730896],[-116.267455,33.730954],[-116.267493,33.731005],[-116.267549,33.731032],[-116.267667,33.731006],[-116.267731,33.730967]]]}},{"type":"Feature","properties":{"k":"water"},"geometry":{"type":"Polygon","coordinates":[[[-116.261981,33.733541],[-116.261978,33.733742],[-116.26197,33.733796],[-116.261932,33.733858],[-116.261914,33.733932],[-116.26193,33.733999],[-116.261978,33.73407],[-116.262217,33.73424],[-116.262241,33.734294],[-116.262268,33.734391],[-116.262289,33.734543],[-116.262314,33.734624],[-116.262358,33.73469],[-116.262469,33.73479],[-116.262512,33.734817],[-116.262606,33.734855],[-116.262667,33.734893],[-116.262745,33.734898],[-116.262745,33.734876],[-116.262761,33.734862],[-116.262817,33.734842],[-116.262944,33.73475],[-116.262984,33.734648],[-116.263013,33.734599],[-116.263126,33.734503],[-116.263185,33.73444],[-116.263199,33.734394],[-116.263185,33.734324],[-116.263164,33.734271],[-116.263182,33.734222],[-116.263279,33.734139],[-116.263328,33.734086],[-116.263354,33.73405],[-116.263376,33.733999],[-116.263378,33.733947],[-116.263362,33.73388],[-116.263338,33.733827],[-116.263287,33.733771],[-116.263218,33.733656],[-116.263153,33.733434],[-116.263123,33.733387],[-116.263051,33.73335],[-116.262995,33.733329],[-116.262936,33.73333],[-116.262855,33.733347],[-116.262777,33.733398],[-116.262713,33.733452],[-116.262636,33.733491],[-116.26256,33.733508],[-116.26248,33.733511],[-116.262367,33.733499],[-116.262279,33.733464],[-116.262174,33.733441],[-116.262083,33.733437],[-116.262026,33.733463],[-116.261997,33.733495],[-116.261981,33.733541]]]}},{"type":"Feature","properties":{"k":"sand"},"geometry":{"type":"Polygon","coordinates":[[[-116.266642,33.734237],[-116.266666,33.734153],[-116.266691,33.734126],[-116.266709,33.734088],[-116.266728,33.734023],[-116.266726,33.73399],[-116.266747,33.733946],[-116.266755,33.733908],[-116.26676,33.733793],[-116.266742,33.733773],[-116.266731,33.73374],[-116.266779,33.733722],[-116.266811,33.733726],[-116.266835,33.733742],[-116.266852,33.733767],[-116.26687,33.733856],[-116.266906,33.733932],[-116.266908,33.733963],[-116.266855,33.734041],[-116.26687,33.734124],[-116.266822,33.73419],[-116.266817,33.734226],[-116.266827,33.734289],[-116.266811,33.734335],[-116.266752,33.734447],[-116.266742,33.734507],[-116.26675,33.734567],[-116.266742,33.734605],[-116.266715,33.734628],[-116.26667,33.734622],[-116.26665,33.734592],[-116.26664,33.734549],[-116.266586,33.734514],[-116.266592,33.734494],[-116.266616,33.734478],[-116.266645,33.734471],[-116.266669,33.734445],[-116.266664,33.734391],[-116.266597,33.734336],[-116.266589,33.734311],[-116.266642,33.734237]]]}},{"type":"Feature","properties":{"k":"water"},"geometry":{"type":"Polygon","coordinates":[[[-116.265669,33.723963],[-116.265509,33.724057],[-116.265308,33.724118],[-116.265147,33.724217],[-116.265025,33.724259],[-116.264952,33.724239],[-116.264865,33.724179],[-116.264818,33.724072],[-116.264806,33.723878],[-116.264725,33.723776],[-116.264579,33.723711],[-116.264497,33.723655],[-116.264465,33.723585],[-116.264486,33.72351],[-116.264582,33.723456],[-116.264786,33.72342],[-116.265255,33.723381],[-116.26541,33.723427],[-116.2655,33.723447],[-116.265616,33.72342],[-116.265704,33.723376],[-116.26575,33.723287],[-116.265791,33.723173],[-116.265847,33.723129],[-116.265955,33.723107],[-116.266051,33.723129],[-116.266129,33.723231],[-116.266135,33.723464],[-116.265957,33.723684],[-116.265923,33.72382],[-116.265829,33.723912],[-116.265669,33.723963]]]}},{"type":"Feature","properties":{"k":"water"},"geometry":{"type":"Polygon","coordinates":[[[-116.264365,33.725239],[-116.264345,33.725288],[-116.264276,33.725334],[-116.264197,33.725329],[-116.264154,33.725349],[-116.264089,33.725356],[-116.264032,33.725343],[-116.263997,33.725348],[-116.263989,33.725321],[-116.264008,33.725311],[-116.264016,33.725268],[-116.264107,33.725142],[-116.264151,33.725135],[-116.264201,33.725137],[-116.264238,33.725114],[-116.26426,33.725072],[-116.26425,33.725034],[-116.264283,33.725027],[-116.264292,33.725064],[-116.264314,33.725101],[-116.264307,33.725134],[-116.264355,33.725194],[-116.264365,33.725239]]]}},{"type":"Feature","properties":{"k":"water"},"geometry":{"type":"Polygon","coordinates":[[[-116.264013,33.725753],[-116.263982,33.725767],[-116.263929,33.725805],[-116.263861,33.725826],[-116.263848,33.725811],[-116.263822,33.725813],[-116.263792,33.725779],[-116.263772,33.72578],[-116.26375,33.725687],[-116.263707,33.725632],[-116.263678,33.725566],[-116.263661,33.725565],[-116.263669,33.72554],[-116.26381,33.725512],[-116.26394,33.725572],[-116.264013,33.725685],[-116.264024,33.725719],[-116.264013,33.725753]]]}},{"type":"Feature","properties":{"k":"water"},"geometry":{"type":"Polygon","coordinates":[[[-116.257888,33.72632],[-116.257751,33.72641],[-116.257566,33.726605],[-116.257259,33.726801],[-116.257194,33.726833],[-116.257124,33.726841],[-116.257048,33.726811],[-116.256983,33.726771],[-116.256956,33.726717],[-116.257007,33.726487],[-116.257052,33.726441],[-116.257127,33.7264],[-116.25718,33.72632],[-116.257196,33.726026],[-116.257259,33.725876],[-116.257374,33.725803],[-116.257595,33.725795],[-116.257833,33.72585],[-116.257962,33.725934],[-116.258051,33.726058],[-116.258034,33.726172],[-116.257888,33.72632]]]}}]}