{"type":"FeatureCollection","features":[{"type":"Feature","properties":{"k":"water"},"geometry":{"type":"Polygon","coordinates":[[[-122.560375,38.799942],[-122.560579,38.800116],[-122.560645,38.800199],[-122.560665,38.800258],[-122.560648,38.800303],[-122.560604,38.800332],[-122.560537,38.800341],[-122.560465,38.800326],[-122.560373,38.800277],[-122.560281,38.800186],[-122.560199,38.800079],[-122.560193,38.800025],[-122.560218,38.799971],[-122.560267,38.799936],[-122.560318,38.799926],[-122.560375,38.799942]]]}},{"type":"Feature","properties":{"k":"water"},"geometry":{"type":"Polygon","coordinates":[[[-122.556903,38.796741],[-122.557019,38.796666],[-122.557128,38.796658],[-122.557275,38.796724],[-122.557428,38.796815],[-122.557543,38.796906],[-122.557578,38.797003],[-122.557548,38.797092],[-122.557465,38.79714],[-122.557379,38.797157],[-122.557198,38.797143],[-122.557141,38.797145],[-122.557074,38.797162],[-122.55698,38.79716],[-122.556903,38.797102],[-122.556862,38.797014],[-122.556849,38.796942],[-122.556871,38.796808],[-122.556903,38.796741]]]}},{"type":"Feature","properties":{"k":"path"},"geometry":{"type":"LineString","coordinates":[[-122.57127,38.804914],[-122.571147,38.80487]]}},{"type":"Feature","properties":{"k":"green"},"geometry":{"type":"Polygon","coordinates":[[[-122.559883,38.800148],[-122.559935,38.800137],[-122.559985,38.800117],[-122.560007,38.800066],[-122.560002,38.800034],[-122.559986,38.800004],[-122.559958,38.79998],[-122.559922,38.799963],[-122.559881,38.799956],[-122.559839,38.799959],[-122.559797,38.799974],[-122.559768,38.799995],[-122.559749,38.800027],[-122.559746,38.800063],[-122.55977,38.800124],[-122.559804,38.800144],[-122.559847,38.800151],[-122.559883,38.800148]]]}},{"type":"Feature","properties":{"k":"bunker"},"geometry":{"type":"Polygon","coordinates":[[[-122.559954,38.800233],[-122.559988,38.800202],[-122.559992,38.800187],[-122.559989,38.800157],[-122.559974,38.800154],[-122.559943,38.800156],[-122.559897,38.800172],[-122.559885,38.800191],[-122.559897,38.800228],[-122.559936,38.800237],[-122.559954,38.800233]]]}},{"type":"Feature","properties":{"k":"path"},"geometry":{"type":"LineString","coordinates":[[-122.568582,38.803916],[-122.569042,38.804188],[-122.569078,38.804195],[-122.569146,38.804195],[-122.569392,38.804132],[-122.569532,38.804117],[-122.569618,38.804124],[-122.569695,38.804142],[-122.570436,38.804496],[-122.571147,38.80487]]}},{"type":"Feature","properties":{"k":"path"},"geometry":{"type":"LineString","coordinates":[[-122.557274,38.799514],[-122.557316,38.799493],[-122.557349,38.799422],[-122.557355,38.799303],[-122.557286,38.799059],[-122.557215,38.798888],[-122.557146,38.798742],[-122.55668,38.797871],[-122.556562,38.797676],[-122.556481,38.797577],[-122.55625,38.797345],[-122.556193,38.797247],[-122.556161,38.796931]]}},{"type":"Feature","properties":{"k":"path"},"geometry":{"type":"LineString","coordinates":[[-122.55533,38.795469],[-122.555215,38.795461],[-122.555149,38.795463],[-122.554968,38.795491],[-122.554908,38.795481],[-122.554847,38.79544],[-122.554506,38.795085],[-122.554463,38.795061],[-122.554409,38.795048],[-122.554353,38.795051],[-122.554038,38.795099],[-122.553939,38.79508],[-122.553871,38.795045],[-122.551854,38.79377],[-122.551681,38.793676],[-122.551245,38.793413],[-122.551131,38.79334],[-122.550999,38.793229],[-122.550642,38.793021],[-122.550564,38.793041],[-122.550078,38.792796],[-122.5495,38.792551],[-122.549418,38.792504],[-122.549299,38.792398],[-122.549261,38.792344],[-122.549217,38.792317],[-122.549146,38.792294],[-122.549029,38.792271],[-122.548948,38.792237],[-122.548581,38.792019],[-122.548367,38.791905],[-122.548161,38.791754],[-122.548054,38.791654],[-122.547954,38.791592],[-122.547814,38.791598],[-122.547524,38.791756],[-122.547442,38.791839],[-122.547196,38.791942],[-122.547045,38.792078],[-122.546718,38.792343],[-122.5466,38.792449],[-122.546493,38.792433],[-122.546394,38.792463],[-122.546297,38.792523],[-122.546087,38.792674],[-122.546016,38.792713],[-122.545731,38.792796],[-122.545537,38.792846],[-122.545463,38.792857],[-122.545163,38.792834],[-122.545004,38.792814],[-122.544755,38.79278],[-122.544384,38.792712],[-122.544225,38.792668],[-122.544052,38.792602],[-122.543857,38.792502],[-122.543787,38.792505],[-122.543645,38.792549],[-122.543552,38.792556],[-122.543401,38.79253],[-122.543262,38.792483],[-122.543073,38.792396],[-122.542875,38.792339],[-122.542726,38.792287],[-122.542715,38.792311],[-122.542775,38.792398],[-122.542962,38.792741],[-122.543104,38.792939],[-122.543104,38.792961],[-122.543006,38.792963],[-122.542788,38.792953],[-122.542287,38.792969],[-122.542161,38.792982],[-122.54186,38.792984],[-122.54159,38.792971],[-122.541509,38.792939],[-122.541277,38.792795],[-122.541128,38.792719],[-122.54101,38.792648],[-122.540884,38.792586],[-122.540693,38.792518],[-122.540433,38.792447],[-122.540157,38.792412],[-122.539627,38.792321],[-122.539489,38.792282],[-122.539327,38.792218],[-122.539082,38.792093],[-122.538839,38.791886],[-122.538642,38.791672],[-122.538624,38.791615],[-122.53858,38.791549],[-122.538391,38.791314],[-122.538651,38.791286],[-122.538629,38.791196],[-122.538555,38.791092],[-122.538257,38.790821],[-122.538211,38.790748],[-122.53826,38.790754],[-122.538412,38.790815],[-122.538434,38.790787],[-122.538357,38.790665],[-122.538234,38.790509],[-122.538094,38.790308],[-122.538028,38.790124],[-122.538007,38.789903],[-122.538054,38.789729],[-122.538156,38.789683],[-122.538335,38.789648],[-122.538636,38.789566],[-122.538906,38.789447],[-122.539032,38.789296],[-122.539066,38.789284]]}},{"type":"Feature","properties":{"k":"path"},"geometry":{"type":"LineString","coordinates":[[-122.539138,38.788621],[-122.539287,38.788477],[-122.539371,38.788407],[-122.539487,38.788415],[-122.539601,38.788461],[-122.539737,38.788457],[-122.539837,38.788412],[-122.539883,38.788334],[-122.539819,38.788062],[-122.539748,38.787831],[-122.539751,38.787771],[-122.539793,38.787782],[-122.539912,38.787834],[-122.540267,38.788002],[-122.540419,38.788108],[-122.540617,38.788219],[-122.540818,38.7883],[-122.540994,38.788316],[-122.541015,38.788288],[-122.540965,38.788175],[-122.540892,38.788065],[-122.540745,38.787878],[-122.540643,38.787708],[-122.540671,38.787651],[-122.540706,38.787624],[-122.540769,38.787638],[-122.540893,38.787706],[-122.541014,38.787798],[-122.541186,38.787839],[-122.541996,38.787981],[-122.542138,38.788011],[-122.54219,38.788046],[-122.542535,38.788502],[-122.542747,38.78881],[-122.542801,38.788854],[-122.542898,38.788917],[-122.542993,38.788933],[-122.543097,38.78893],[-122.5434,38.788807],[-122.54355,38.788732],[-122.543828,38.78866],[-122.543959,38.788634],[-122.544138,38.788617],[-122.544263,38.788617],[-122.544454,38.78864],[-122.544548,38.788661],[-122.544798,38.788751],[-122.544887,38.788775],[-122.545036,38.788775],[-122.545097,38.788756],[-122.545138,38.788714],[-122.54515,38.788665],[-122.545123,38.788492],[-122.545134,38.78845],[-122.545159,38.788413],[-122.545209,38.788377],[-122.545268,38.788361],[-122.545929,38.788303],[-122.546016,38.788308],[-122.546119,38.788338],[-122.546256,38.788353],[-122.546401,38.788337],[-122.546463,38.788337],[-122.546516,38.788349],[-122.546574,38.788377],[-122.546676,38.788446],[-122.547131,38.788788],[-122.547218,38.788882],[-122.547284,38.788969],[-122.547345,38.789073],[-122.547461,38.789467],[-122.547563,38.789774],[-122.547754,38.790004],[-122.547849,38.790179],[-122.54788,38.790215],[-122.547943,38.790248],[-122.548005,38.79026],[-122.548394,38.790297],[-122.548764,38.790326],[-122.548863,38.790343],[-122.549246,38.790424],[-122.549684,38.790614],[-122.549821,38.790656],[-122.549977,38.790691],[-122.550209,38.790729],[-122.55114,38.790844],[-122.551353,38.790859],[-122.551701,38.790902],[-122.552024,38.790929],[-122.552162,38.790972],[-122.552431,38.791099],[-122.552764,38.791211],[-122.552845,38.791229],[-122.552949,38.791238],[-122.553294,38.791251],[-122.553585,38.791292],[-122.553699,38.791426],[-122.55396,38.791521],[-122.554092,38.79165],[-122.554138,38.791684],[-122.554242,38.79172],[-122.554681,38.791833],[-122.554771,38.791874],[-122.55484,38.79194],[-122.554865,38.792011],[-122.554867,38.792245],[-122.554882,38.792376],[-122.554856,38.792791],[-122.554856,38.79329],[-122.554837,38.793622],[-122.554812,38.793772],[-122.554787,38.794126],[-122.554787,38.794418],[-122.554814,38.794522],[-122.5549,38.794676],[-122.554959,38.794886],[-122.555029,38.795353],[-122.555061,38.795423],[-122.555149,38.795463]]}},{"type":"Feature","properties":{"k":"path"},"geometry":{"type":"LineString","coordinates":[[-122.554865,38.792011],[-122.554933,38.791939],[-122.555019,38.791792],[-122.555075,38.791232],[-122.555077,38.791136],[-122.555047,38.7911],[-122.554972,38.791092],[-122.554909,38.791105],[-122.554793,38.791341],[-122.554711,38.791446],[-122.554492,38.791653],[-122.554338,38.791744]]}},{"type":"Feature","properties":{"k":"water"},"geometry":{"type":"Polygon","coordinates":[[[-122.572108,38.80919],[-122.572146,38.809185],[-122.572176,38.809167],[-122.572217,38.809114],[-122.572236,38.809057],[-122.572228,38.808931],[-122.572203,38.808904],[-122.572089,38.808883],[-122.572012,38.808885],[-122.571831,38.808932],[-122.571809,38.808944],[-122.571775,38.80903],[-122.57178,38.809089],[-122.571806,38.809129],[-122.571881,38.809165],[-122.572108,38.80919]]]}}]}