{"type":"FeatureCollection","features":[{"type":"Feature","properties":{"k":"hole","ref":"1","par":4,"hcp":5},"geometry":{"type":"LineString","coordinates":[[-155.983753,19.813855],[-155.987548,19.814056]]}},{"type":"Feature","properties":{"k":"hole","ref":"2","par":5,"hcp":7},"geometry":{"type":"LineString","coordinates":[[-155.988877,19.813342],[-155.991907,19.817066]]}},{"type":"Feature","properties":{"k":"hole","ref":"3","par":3,"hcp":11},"geometry":{"type":"LineString","coordinates":[[-155.990683,19.817137],[-155.989572,19.8161]]}},{"type":"Feature","properties":{"k":"hole","ref":"4","par":4,"hcp":1},"geometry":{"type":"LineString","coordinates":[[-155.989278,19.815744],[-155.988938,19.817429],[-155.989142,19.819071]]}},{"type":"Feature","properties":{"k":"hole","ref":"8","par":4,"hcp":3},"geometry":{"type":"LineString","coordinates":[[-155.988741,19.820776],[-155.98785,19.819191],[-155.986437,19.817607]]}},{"type":"Feature","properties":{"k":"hole","ref":"9","par":4,"hcp":9},"geometry":{"type":"LineString","coordinates":[[-155.985855,19.817614],[-155.985183,19.816803],[-155.98451,19.815012]]}},{"type":"Feature","properties":{"k":"hole","ref":"11","par":3,"hcp":14},"geometry":{"type":"LineString","coordinates":[[-155.978701,19.817706],[-155.977764,19.81922]]}},{"type":"Feature","properties":{"k":"hole","ref":"12","par":4,"hcp":8},"geometry":{"type":"LineString","coordinates":[[-155.976736,19.819859],[-155.98028,19.820051]]}},{"type":"Feature","properties":{"k":"hole","ref":"13","par":5,"hcp":16},"geometry":{"type":"LineString","coordinates":[[-155.981171,19.820307],[-155.977348,19.822902]]}},{"type":"Feature","properties":{"k":"hole","ref":"14","par":4,"hcp":2},"geometry":{"type":"LineString","coordinates":[[-155.976185,19.822916],[-155.97546,19.826377]]}},{"type":"Feature","properties":{"k":"hole","ref":"16","par":4,"hcp":12},"geometry":{"type":"LineString","coordinates":[[-155.977749,19.826611],[-155.979592,19.826086],[-155.979623,19.825005]]}},{"type":"Feature","properties":{"k":"hole","ref":"17","par":4,"hcp":4},"geometry":{"type":"LineString","coordinates":[[-155.981164,19.824152],[-155.981111,19.822177],[-155.981609,19.820506]]}},{"type":"Feature","properties":{"k":"rough"},"geometry":{"type":"Polygon","coordinates":[[[-155.983923,19.814327],[-155.987753,19.814493],[-155.98793,19.81409],[-155.987515,19.81365],[-155.986225,19.813528],[-155.983807,19.813618],[-155.983617,19.813899],[-155.983923,19.814327]]]}},{"type":"Feature","properties":{"k":"rough"},"geometry":{"type":"Polygon","coordinates":[[[-155.988833,19.813234],[-155.99089,19.814525],[-155.991325,19.815215],[-155.991284,19.81579],[-155.991889,19.816001],[-155.992249,19.8171],[-155.991651,19.817426],[-155.991284,19.816761],[-155.989261,19.813988],[-155.988833,19.813234]]]}},{"type":"Feature","properties":{"k":"green"},"geometry":{"type":"Polygon","coordinates":[[[-155.98271,19.815906],[-155.982799,19.815759],[-155.982755,19.815612],[-155.982671,19.815586],[-155.982599,19.815775],[-155.98271,19.815906]]]}},{"type":"Feature","properties":{"k":"green"},"geometry":{"type":"Polygon","coordinates":[[[-155.983636,19.814059],[-155.98358,19.814096],[-155.983379,19.814086],[-155.983379,19.813949],[-155.983491,19.813892],[-155.983585,19.81396],[-155.983636,19.814059]]]}},{"type":"Feature","properties":{"k":"rough"},"geometry":{"type":"Polygon","coordinates":[[[-155.982286,19.815691],[-155.982097,19.815247],[-155.982275,19.81493],[-155.981617,19.814899],[-155.979962,19.815565],[-155.979727,19.815596],[-155.979555,19.815759],[-155.979566,19.815969],[-155.979186,19.816409],[-155.978763,19.816991],[-155.978913,19.817427],[-155.979125,19.817437],[-155.979555,19.817248],[-155.980095,19.816378],[-155.98058,19.815921],[-155.981077,19.815476],[-155.981595,19.815108],[-155.981812,19.815371],[-155.981489,19.815596],[-155.981233,19.815937],[-155.980876,19.81621],[-155.980731,19.816456],[-155.980803,19.816871],[-155.980251,19.818172],[-155.980469,19.818392],[-155.980569,19.818775],[-155.980881,19.819698],[-155.981461,19.820149],[-155.981528,19.819887],[-155.981188,19.819168],[-155.981188,19.818665],[-155.980887,19.817894],[-155.981065,19.81771],[-155.981021,19.817144],[-155.981227,19.817128],[-155.981734,19.816435],[-155.981852,19.816089],[-155.981902,19.815832],[-155.982125,19.815911],[-155.98227,19.815853],[-155.982286,19.815691]]]}},{"type":"Feature","properties":{"k":"rough"},"geometry":{"type":"Polygon","coordinates":[[[-155.976142,19.822775],[-155.975826,19.823296],[-155.975771,19.823608],[-155.975638,19.824035],[-155.97545,19.824347],[-155.97545,19.824618],[-155.975129,19.82491],[-155.975207,19.825628],[-155.975052,19.826159],[-155.975129,19.826393],[-155.975395,19.826643],[-155.975577,19.826648],[-155.975721,19.826497],[-155.975854,19.826429],[-155.975771,19.825945],[-155.975666,19.825758],[-155.975727,19.825487],[-155.97597,19.825368],[-155.976025,19.825066],[-155.976103,19.824972],[-155.976097,19.824587],[-155.97592,19.824363],[-155.976086,19.824155],[-155.976036,19.823994],[-155.975915,19.823874],[-155.975909,19.823645],[-155.976031,19.823275],[-155.976258,19.823015],[-155.976291,19.822807],[-155.976142,19.822775]]]}},{"type":"Feature","properties":{"k":"rough"},"geometry":{"type":"Polygon","coordinates":[[[-155.975218,19.826835],[-155.97576,19.826731],[-155.976053,19.826695],[-155.976219,19.826773],[-155.976529,19.826736],[-155.976822,19.826731],[-155.97701,19.826851],[-155.97732,19.826913],[-155.977425,19.827106],[-155.977425,19.827424],[-155.977171,19.827502],[-155.977077,19.827627],[-155.976916,19.827554],[-155.976789,19.827559],[-155.976651,19.827403],[-155.976501,19.827387],[-155.976446,19.827247],[-155.976258,19.827116],[-155.976053,19.826919],[-155.975882,19.826919],[-155.975771,19.826971],[-155.975627,19.827101],[-155.975422,19.827085],[-155.975256,19.827049],[-155.975218,19.826835]]]}},{"type":"Feature","properties":{"k":"rough"},"geometry":{"type":"Polygon","coordinates":[[[-155.977746,19.826716],[-155.978006,19.826711],[-155.978175,19.826557],[-155.978344,19.82658],[-155.978853,19.826518],[-155.979284,19.826539],[-155.979594,19.826539],[-155.979921,19.826195],[-155.980098,19.826117],[-155.980075,19.825914],[-155.98002,19.825701],[-155.979909,19.825493],[-155.979943,19.825196],[-155.979849,19.824993],[-155.979738,19.824821],[-155.979533,19.824837],[-155.979301,19.824837],[-155.979174,19.824962],[-155.978936,19.825139],[-155.97877,19.825316],[-155.978687,19.825534],[-155.978736,19.825789],[-155.978648,19.826024],[-155.978421,19.826122],[-155.978294,19.826237],[-155.978216,19.826232],[-155.978156,19.826398],[-155.977597,19.826544],[-155.977613,19.826695],[-155.977746,19.826716]]]}},{"type":"Feature","properties":{"k":"path"},"geometry":{"type":"LineString","coordinates":[[-155.985084,19.815441],[-155.985076,19.815351],[-155.985048,19.815261],[-155.985024,19.81522],[-155.984933,19.815108],[-155.984857,19.814984],[-155.984769,19.81492],[-155.984642,19.814812],[-155.984467,19.814699],[-155.984359,19.814673],[-155.984312,19.814699],[-155.98424,19.814771],[-155.98416,19.814827],[-155.983993,19.814819],[-155.983925,19.814808]]}},{"type":"Feature","properties":{"k":"path"},"geometry":{"type":"LineString","coordinates":[[-155.991969,19.817288],[-155.991897,19.817367],[-155.991853,19.817393],[-155.991742,19.8174],[-155.991638,19.817381],[-155.99159,19.817363],[-155.991511,19.81731],[-155.991367,19.817093],[-155.99132,19.817071],[-155.991256,19.817059],[-155.991144,19.817048],[-155.991041,19.817048],[-155.990993,19.817037],[-155.990949,19.817018],[-155.990866,19.816966],[-155.990778,19.816853],[-155.990754,19.816812],[-155.990746,19.816767],[-155.990718,19.81673],[-155.990631,19.816677],[-155.990563,19.816599],[-155.990547,19.81649],[-155.990483,19.8164],[-155.990447,19.816366],[-155.990428,19.816325],[-155.990384,19.816299],[-155.990332,19.816284],[-155.990213,19.816202],[-155.990153,19.816112],[-155.990113,19.816067],[-155.990069,19.815984],[-155.990033,19.815943],[-155.989938,19.815894],[-155.989886,19.815853],[-155.989826,19.815774],[-155.989775,19.815763],[-155.989671,19.815759],[-155.989619,19.815767],[-155.989576,19.81579],[-155.98952,19.815797],[-155.989416,19.815793],[-155.989321,19.815827],[-155.989261,19.815827],[-155.989153,19.81579],[-155.989054,19.815774],[-155.98897,19.815827],[-155.988899,19.815954],[-155.988847,19.816097],[-155.988779,19.816179],[-155.988723,19.81631],[-155.988688,19.81634],[-155.988676,19.816396],[-155.988676,19.816554],[-155.988711,19.8167],[-155.988711,19.816752],[-155.988704,19.81691],[-155.988668,19.817067],[-155.988668,19.817116]]}},{"type":"Feature","properties":{"k":"path"},"geometry":{"type":"LineString","coordinates":[[-155.990905,19.816992],[-155.990858,19.817014],[-155.990834,19.817059],[-155.990842,19.817104],[-155.990897,19.81719],[-155.990885,19.817235],[-155.990838,19.817254],[-155.990786,19.817254],[-155.990701,19.817236]]}},{"type":"Feature","properties":{"k":"path"},"geometry":{"type":"LineString","coordinates":[[-155.991288,19.8167],[-155.991328,19.816745],[-155.991367,19.816775],[-155.991423,19.816857],[-155.991431,19.81691],[-155.991367,19.817093]]}},{"type":"Feature","properties":{"k":"path"},"geometry":{"type":"LineString","coordinates":[[-155.989404,19.819959],[-155.989361,19.819978],[-155.989321,19.819962],[-155.989257,19.819992],[-155.989207,19.82004],[-155.989034,19.82009],[-155.988942,19.820142],[-155.988855,19.820217],[-155.988835,19.820258],[-155.988835,19.820307],[-155.988859,19.820404],[-155.988895,19.820498],[-155.988903,19.820551],[-155.988899,19.820603],[-155.988883,19.820656],[-155.988855,19.820712],[-155.988763,19.820832],[-155.988715,19.820843],[-155.988616,19.820832],[-155.988548,19.820802],[-155.9885,19.820772],[-155.988397,19.820678],[-155.988373,19.820633],[-155.988277,19.820513],[-155.988261,19.820464],[-155.988266,19.820416],[-155.988281,19.820371],[-155.988317,19.820341],[-155.988361,19.820315],[-155.988544,19.82024],[-155.988588,19.820157],[-155.988592,19.820105],[-155.98856,19.819959],[-155.988512,19.819824],[-155.988496,19.81973],[-155.988476,19.819689],[-155.988365,19.819524],[-155.988345,19.819475],[-155.988345,19.819423],[-155.988321,19.819378],[-155.988242,19.819318],[-155.988174,19.819251],[-155.98815,19.819202],[-155.98809,19.819131],[-155.988078,19.819097]]}},{"type":"Feature","properties":{"k":"path"},"geometry":{"type":"LineString","coordinates":[[-155.982703,19.815531],[-155.982572,19.815434],[-155.982512,19.815355],[-155.982496,19.81531],[-155.982472,19.815171],[-155.982476,19.815123],[-155.982492,19.815074],[-155.982508,19.814977],[-155.982512,19.814932],[-155.982504,19.814883],[-155.982468,19.814793],[-155.98242,19.814767],[-155.982372,19.814756],[-155.98232,19.8148],[-155.982265,19.814812],[-155.982177,19.814864],[-155.982082,19.814879],[-155.981783,19.814861],[-155.981636,19.814891],[-155.981496,19.814958],[-155.981393,19.814984],[-155.981349,19.815007],[-155.98125,19.81504],[-155.981142,19.815067],[-155.981031,19.815104],[-155.980939,19.815149],[-155.980732,19.815224],[-155.980597,19.815284],[-155.980553,19.815295]]}},{"type":"Feature","properties":{"k":"path"},"geometry":{"type":"LineString","coordinates":[[-155.979235,19.816344],[-155.979171,19.816385],[-155.979123,19.816464],[-155.978948,19.81664],[-155.978892,19.816719],[-155.978845,19.816812],[-155.978777,19.816883],[-155.978761,19.816936],[-155.978741,19.817033],[-155.978737,19.817131],[-155.978785,19.817273],[-155.978813,19.817314],[-155.978881,19.817378],[-155.978936,19.817456],[-155.97894,19.817501],[-155.978912,19.81755],[-155.978821,19.81761],[-155.978713,19.81764],[-155.978634,19.817644],[-155.978586,19.817659],[-155.978546,19.817689],[-155.978482,19.81776],[-155.978415,19.817884],[-155.978291,19.817996],[-155.978228,19.818086],[-155.978144,19.818168],[-155.978096,19.818254],[-155.977996,19.818371],[-155.977941,19.818449],[-155.977901,19.818535],[-155.977837,19.818614],[-155.977722,19.818708],[-155.977662,19.818726],[-155.977622,19.818726],[-155.977594,19.818767],[-155.977555,19.818801],[-155.977507,19.818906],[-155.977479,19.819063],[-155.977387,19.819247],[-155.977375,19.819299],[-155.977375,19.819498],[-155.977348,19.819539],[-155.977308,19.819569],[-155.977176,19.819637],[-155.977109,19.8197],[-155.977053,19.819712],[-155.976894,19.819719],[-155.97685,19.819745],[-155.976826,19.81979],[-155.97683,19.819839],[-155.976846,19.819884],[-155.976878,19.819925],[-155.976969,19.819985],[-155.977005,19.820019],[-155.977053,19.820045],[-155.977148,19.820079],[-155.977252,19.820097],[-155.977355,19.820135],[-155.977646,19.820157],[-155.977754,19.820191],[-155.977909,19.820206],[-155.978136,19.820258],[-155.978243,19.820255]]}},{"type":"Feature","properties":{"k":"path"},"geometry":{"type":"LineString","coordinates":[[-155.976961,19.822731],[-155.97687,19.822716],[-155.976818,19.822697],[-155.97673,19.822641],[-155.976698,19.822607],[-155.976655,19.822581],[-155.976603,19.822585],[-155.976507,19.822622],[-155.976356,19.822656],[-155.976205,19.822708],[-155.976121,19.822753],[-155.976089,19.822787],[-155.976069,19.822828],[-155.976033,19.82297],[-155.975982,19.823075],[-155.97595,19.823124],[-155.975866,19.823184],[-155.975834,19.82339],[-155.975822,19.823435],[-155.975779,19.823521],[-155.975767,19.823566],[-155.975767,19.823615],[-155.975755,19.823686],[-155.975675,19.823839],[-155.975659,19.823896],[-155.975647,19.824008],[-155.975631,19.824053],[-155.975607,19.824098],[-155.975524,19.82418],[-155.975492,19.824222],[-155.975444,19.824308],[-155.97544,19.824353]]}},{"type":"Feature","properties":{"k":"path"},"geometry":{"type":"LineString","coordinates":[[-155.983893,19.815258],[-155.983917,19.815164],[-155.983925,19.814808],[-155.983937,19.814711],[-155.983937,19.814505],[-155.983946,19.814436],[-155.983933,19.814366],[-155.98385,19.814235],[-155.98381,19.814209],[-155.983595,19.814149],[-155.983388,19.814149],[-155.983352,19.814119],[-155.983316,19.814033],[-155.983316,19.813943],[-155.983348,19.813905],[-155.98344,19.813864],[-155.983495,19.813857],[-155.983543,19.81386],[-155.983591,19.813875],[-155.983635,19.813857],[-155.983659,19.813722],[-155.983678,19.813673],[-155.983706,19.813632],[-155.983806,19.813583],[-155.983854,19.813576],[-155.983957,19.813572],[-155.984125,19.813647],[-155.984264,19.813729],[-155.984359,19.813718],[-155.984531,19.813658],[-155.98459,19.813647],[-155.984893,19.813643],[-155.98514,19.813662],[-155.985291,19.813632],[-155.985379,19.813624]]}}]}