{"type":"FeatureCollection","features":[{"type":"Feature","properties":{"k":"water"},"geometry":{"type":"Polygon","coordinates":[[[-155.84258,19.823516],[-155.842619,19.823468],[-155.842611,19.823409],[-155.842593,19.823354],[-155.84256,19.823306],[-155.842502,19.82328],[-155.842441,19.823268],[-155.84238,19.823285],[-155.842362,19.823328],[-155.842377,19.823385],[-155.842403,19.82344],[-155.842441,19.823485],[-155.842489,19.823528],[-155.842555,19.823538],[-155.84258,19.823516]]]}},{"type":"Feature","properties":{"k":"water"},"geometry":{"type":"Polygon","coordinates":[[[-155.844863,19.819827],[-155.84498,19.819788],[-155.845203,19.819669],[-155.8453,19.819602],[-155.845416,19.819535],[-155.845508,19.819449],[-155.845579,19.819349],[-155.845655,19.819258],[-155.845721,19.819158],[-155.845822,19.818933],[-155.845777,19.818824],[-155.845665,19.818862],[-155.845477,19.819029],[-155.845279,19.819177],[-155.845188,19.819258],[-155.845081,19.819325],[-155.84499,19.819411],[-155.844878,19.819468],[-155.844792,19.81955],[-155.844726,19.819645],[-155.84468,19.819755],[-155.844766,19.819846],[-155.844863,19.819827]]]}},{"type":"Feature","properties":{"k":"water"},"geometry":{"type":"Polygon","coordinates":[[[-155.846285,19.823282],[-155.846282,19.823353],[-155.84623,19.823421],[-155.846118,19.823473],[-155.846001,19.823502],[-155.845879,19.823516],[-155.845757,19.823521],[-155.84563,19.82354],[-155.845245,19.823549],[-155.845113,19.823569],[-155.844991,19.823597],[-155.844879,19.823655],[-155.844762,19.823702],[-155.844681,19.823707],[-155.84464,19.823669],[-155.84464,19.823549],[-155.845062,19.822556],[-155.845148,19.82247],[-155.845266,19.82242],[-155.845387,19.822389],[-155.846133,19.822241],[-155.846133,19.822303],[-155.846087,19.822418],[-155.845797,19.82262],[-155.845704,19.822707],[-155.845697,19.822828],[-155.845747,19.822938],[-155.845839,19.823024],[-155.845955,19.823082],[-155.846067,19.823148],[-155.846189,19.823206],[-155.846285,19.823282]]]}},{"type":"Feature","properties":{"k":"water"},"geometry":{"type":"Polygon","coordinates":[[[-155.847223,19.82169],[-155.847345,19.821652],[-155.847457,19.82159],[-155.847553,19.821513],[-155.847721,19.821327],[-155.847858,19.821112],[-155.848005,19.820916],[-155.848046,19.820797],[-155.848096,19.820692],[-155.848096,19.820568],[-155.848142,19.820458],[-155.848264,19.820233],[-155.848426,19.820061],[-155.848411,19.819947],[-155.84829,19.820003],[-155.848127,19.820143],[-155.848081,19.820257],[-155.847995,19.820362],[-155.847929,19.820467],[-155.847843,19.820563],[-155.847782,19.820668],[-155.847761,19.820787],[-155.847721,19.820902],[-155.84765,19.820993],[-155.847528,19.821213],[-155.847457,19.821313],[-155.847284,19.821475],[-155.847203,19.821566],[-155.847177,19.82168],[-155.847223,19.82169]]]}},{"type":"Feature","properties":{"k":"water"},"geometry":{"type":"Polygon","coordinates":[[[-155.842273,19.823788],[-155.842248,19.823679],[-155.842177,19.823583],[-155.842075,19.823516],[-155.841984,19.823435],[-155.841903,19.823349],[-155.841796,19.823282],[-155.841685,19.823249],[-155.841563,19.82323],[-155.841436,19.823196],[-155.841319,19.823163],[-155.841202,19.823115],[-155.840885,19.822934],[-155.840692,19.822802],[-155.840466,19.822668],[-155.840372,19.82258],[-155.840309,19.822487],[-155.840293,19.822427],[-155.840334,19.82236],[-155.840433,19.822298],[-155.840557,19.82231],[-155.840664,19.822353],[-155.840898,19.822485],[-155.841202,19.822707],[-155.841436,19.822855],[-155.841545,19.8229],[-155.84169,19.822948],[-155.841816,19.822972],[-155.841943,19.823034],[-155.842052,19.823113],[-155.8422,19.823275],[-155.842289,19.823385],[-155.84236,19.823507],[-155.842388,19.823616],[-155.842377,19.823736],[-155.842352,19.823812],[-155.842299,19.823834],[-155.842273,19.823788]]]}},{"type":"Feature","properties":{"k":"water"},"geometry":{"type":"Polygon","coordinates":[[[-155.837883,19.822343],[-155.837945,19.822371],[-155.837959,19.822414],[-155.837908,19.822572],[-155.837845,19.82264],[-155.837761,19.822664],[-155.837671,19.822667],[-155.837596,19.82263],[-155.837449,19.822539],[-155.837363,19.8224],[-155.837248,19.822272],[-155.837201,19.822201],[-155.837025,19.822012],[-155.836982,19.821938],[-155.836957,19.821856],[-155.836946,19.821772],[-155.837047,19.821529],[-155.837115,19.821475],[-155.837194,19.821434],[-155.83728,19.821411],[-155.837373,19.821401],[-155.837452,19.821438],[-155.837517,19.821502],[-155.837538,19.82159],[-155.837592,19.821654],[-155.837664,19.821708],[-155.837741,19.821746],[-155.837813,19.821801],[-155.837874,19.821867],[-155.837911,19.821925],[-155.837976,19.82209],[-155.837998,19.822181],[-155.837991,19.822265],[-155.83797,19.822306],[-155.837912,19.822295],[-155.837754,19.822218],[-155.837682,19.822167],[-155.837694,19.822082],[-155.837682,19.821998],[-155.837617,19.821948],[-155.837563,19.821931],[-155.837507,19.821941],[-155.837451,19.821982],[-155.837407,19.822052],[-155.837399,19.822117],[-155.837415,19.82218],[-155.837441,19.822217],[-155.837482,19.822238],[-155.837538,19.822241],[-155.837588,19.822229],[-155.837634,19.822207],[-155.837883,19.822343]]]}},{"type":"Feature","properties":{"k":"green"},"geometry":{"type":"Polygon","coordinates":[[[-155.847892,19.822902],[-155.84806,19.822774],[-155.848068,19.822692],[-155.848038,19.822655],[-155.847924,19.822626],[-155.847778,19.822689],[-155.847719,19.82278],[-155.847721,19.822848],[-155.847752,19.822906],[-155.847831,19.822924],[-155.847892,19.822902]]]}},{"type":"Feature","properties":{"k":"bunker"},"geometry":{"type":"Polygon","coordinates":[[[-155.847801,19.815402],[-155.84782,19.815396],[-155.847827,19.815381],[-155.847816,19.815357],[-155.847784,19.815364],[-155.847784,19.815396],[-155.847801,19.815402]]]}},{"type":"Feature","properties":{"k":"bunker"},"geometry":{"type":"Polygon","coordinates":[[[-155.848205,19.81639],[-155.84825,19.816388],[-155.848261,19.816365],[-155.848251,19.816317],[-155.848212,19.816303],[-155.848182,19.816308],[-155.848163,19.816335],[-155.848166,19.816373],[-155.848179,19.816387],[-155.848205,19.81639]]]}},{"type":"Feature","properties":{"k":"bunker"},"geometry":{"type":"Polygon","coordinates":[[[-155.842768,19.821191],[-155.842794,19.821191],[-155.842812,19.821177],[-155.842818,19.821157],[-155.842801,19.821132],[-155.842775,19.821135],[-155.842761,19.821144],[-155.842755,19.821162],[-155.842758,19.821182],[-155.842768,19.821191]]]}},{"type":"Feature","properties":{"k":"bunker"},"geometry":{"type":"Polygon","coordinates":[[[-155.844985,19.823977],[-155.845003,19.823968],[-155.845008,19.823953],[-155.844996,19.823935],[-155.844967,19.823948],[-155.844968,19.823964],[-155.844985,19.823977]]]}},{"type":"Feature","properties":{"k":"bunker"},"geometry":{"type":"Polygon","coordinates":[[[-155.843193,19.821645],[-155.843175,19.821637],[-155.843157,19.821595],[-155.843174,19.821569],[-155.843195,19.821557],[-155.843213,19.821558],[-155.843234,19.821584],[-155.843239,19.821616],[-155.843226,19.821639],[-155.843193,19.821645]]]}},{"type":"Feature","properties":{"k":"bunker"},"geometry":{"type":"Polygon","coordinates":[[[-155.839006,19.820986],[-155.839026,19.820964],[-155.83903,19.820944],[-155.839007,19.820915],[-155.83898,19.820917],[-155.838949,19.820943],[-155.838948,19.820966],[-155.838956,19.820984],[-155.838969,19.820991],[-155.838987,19.820993],[-155.839006,19.820986]]]}},{"type":"Feature","properties":{"k":"green"},"geometry":{"type":"Polygon","coordinates":[[[-155.84509,19.823933],[-155.845157,19.82393],[-155.845208,19.823894],[-155.845282,19.823824],[-155.845283,19.823781],[-155.845249,19.823754],[-155.845192,19.823739],[-155.845109,19.823754],[-155.845048,19.823804],[-155.845026,19.823849],[-155.845029,19.823891],[-155.845051,19.82392],[-155.84509,19.823933]]]}},{"type":"Feature","properties":{"k":"green"},"geometry":{"type":"Polygon","coordinates":[[[-155.846392,19.816425],[-155.846491,19.816355],[-155.846535,19.816308],[-155.84654,19.816273],[-155.84653,19.81624],[-155.846489,19.816221],[-155.84641,19.816223],[-155.846362,19.816253],[-155.846316,19.816311],[-155.846294,19.816373],[-155.846302,19.81641],[-155.846318,19.816423],[-155.846366,19.816434],[-155.846392,19.816425]]]}},{"type":"Feature","properties":{"k":"bunker"},"geometry":{"type":"Polygon","coordinates":[[[-155.846284,19.816224],[-155.846264,19.816188],[-155.846263,19.816163],[-155.846276,19.816146],[-155.8463,19.816129],[-155.84633,19.816124],[-155.846372,19.816121],[-155.846385,19.81613],[-155.846395,19.816161],[-155.846387,19.816177],[-155.846299,19.816225],[-155.846284,19.816224]]]}},{"type":"Feature","properties":{"k":"bunker"},"geometry":{"type":"Polygon","coordinates":[[[-155.846488,19.816583],[-155.846515,19.816525],[-155.846559,19.81646],[-155.846556,19.816439],[-155.846537,19.81642],[-155.846519,19.816414],[-155.846452,19.816474],[-155.846427,19.816533],[-155.846428,19.816573],[-155.846453,19.816582],[-155.846488,19.816583]]]}},{"type":"Feature","properties":{"k":"bunker"},"geometry":{"type":"Polygon","coordinates":[[[-155.843347,19.821814],[-155.843293,19.821806],[-155.843273,19.821778],[-155.843265,19.821746],[-155.843268,19.82172],[-155.843284,19.821704],[-155.843303,19.8217],[-155.84334,19.821711],[-155.843377,19.821752],[-155.843384,19.82178],[-155.843372,19.821801],[-155.843347,19.821814]]]}},{"type":"Feature","properties":{"k":"bunker"},"geometry":{"type":"Polygon","coordinates":[[[-155.841919,19.823647],[-155.841879,19.823594],[-155.841875,19.82357],[-155.8419,19.823555],[-155.841914,19.823559],[-155.841959,19.823621],[-155.841961,19.823635],[-155.841954,19.823643],[-155.841919,19.823647]]]}},{"type":"Feature","properties":{"k":"bunker"},"geometry":{"type":"Polygon","coordinates":[[[-155.84575,19.821821],[-155.845767,19.821802],[-155.845825,19.821796],[-155.845844,19.821786],[-155.845852,19.821768],[-155.845837,19.821747],[-155.845798,19.821745],[-155.845752,19.821758],[-155.845705,19.821786],[-155.845701,19.821804],[-155.845708,19.821817],[-155.845721,19.821825],[-155.84575,19.821821]]]}},{"type":"Feature","properties":{"k":"green"},"geometry":{"type":"Polygon","coordinates":[[[-155.84786,19.815606],[-155.847761,19.81557],[-155.847718,19.81554],[-155.84771,19.8155],[-155.847724,19.815451],[-155.847747,19.815424],[-155.847842,19.815417],[-155.847949,19.815443],[-155.84798,19.815482],[-155.847996,19.815524],[-155.847992,19.815562],[-155.847912,19.815606],[-155.84786,19.815606]]]}},{"type":"Feature","properties":{"k":"bunker"},"geometry":{"type":"Polygon","coordinates":[[[-155.844502,19.820522],[-155.844606,19.820457],[-155.844647,19.820453],[-155.844693,19.820426],[-155.844723,19.820396],[-155.844732,19.820367],[-155.844721,19.820343],[-155.844696,19.820343],[-155.844602,19.820389],[-155.844469,19.820474],[-155.84446,19.820499],[-155.844482,19.820524],[-155.844502,19.820522]]]}},{"type":"Feature","properties":{"k":"green"},"geometry":{"type":"Polygon","coordinates":[[[-155.846013,19.822895],[-155.846115,19.822887],[-155.84617,19.822847],[-155.84621,19.822777],[-155.846191,19.82269],[-155.846151,19.822667],[-155.846112,19.822669],[-155.846069,19.822705],[-155.84599,19.822727],[-155.845959,19.822754],[-155.845942,19.822785],[-155.845935,19.822822],[-155.845966,19.822882],[-155.845987,19.822893],[-155.846013,19.822895]]]}},{"type":"Feature","properties":{"k":"bunker"},"geometry":{"type":"Polygon","coordinates":[[[-155.843709,19.822014],[-155.843632,19.822012],[-155.84357,19.821927],[-155.843554,19.821898],[-155.843556,19.821881],[-155.843603,19.821864],[-155.843629,19.821864],[-155.843682,19.82191],[-155.843708,19.821951],[-155.843754,19.821966],[-155.843747,19.821997],[-155.843709,19.822014]]]}},{"type":"Feature","properties":{"k":"bunker"},"geometry":{"type":"Polygon","coordinates":[[[-155.84292,19.821478],[-155.842837,19.821428],[-155.842837,19.821408],[-155.842846,19.821394],[-155.842882,19.821387],[-155.842895,19.821406],[-155.84291,19.821411],[-155.842947,19.821403],[-155.842961,19.821415],[-155.84297,19.821428],[-155.84297,19.821452],[-155.842962,19.821468],[-155.842944,19.821479],[-155.84292,19.821478]]]}},{"type":"Feature","properties":{"k":"bunker"},"geometry":{"type":"Polygon","coordinates":[[[-155.844877,19.822253],[-155.844903,19.82224],[-155.844917,19.822215],[-155.845041,19.822181],[-155.845066,19.822123],[-155.845045,19.822094],[-155.845021,19.822094],[-155.844982,19.822109],[-155.844957,19.822144],[-155.844875,19.822149],[-155.844834,19.822187],[-155.844816,19.822208],[-155.844822,19.822243],[-155.844843,19.82226],[-155.844865,19.822263],[-155.844877,19.822253]]]}},{"type":"Feature","properties":{"k":"bunker"},"geometry":{"type":"Polygon","coordinates":[[[-155.846422,19.819007],[-155.846462,19.818988],[-155.846471,19.818952],[-155.846462,19.818923],[-155.846468,19.818904],[-155.846491,19.818882],[-155.846495,19.81887],[-155.846486,19.818858],[-155.846463,19.818854],[-155.846432,19.818874],[-155.84642,19.818954],[-155.846373,19.818992],[-155.846373,19.819012],[-155.846393,19.819031],[-155.846422,19.819007]]]}},{"type":"Feature","properties":{"k":"bunker"},"geometry":{"type":"Polygon","coordinates":[[[-155.846442,19.818371],[-155.846414,19.81835],[-155.846413,19.818332],[-155.846427,19.818289],[-155.846404,19.81826],[-155.846405,19.818245],[-155.846459,19.818239],[-155.846492,19.818271],[-155.846511,19.818304],[-155.846513,19.818334],[-155.846502,19.818354],[-155.846458,19.818348],[-155.846442,19.818371]]]}},{"type":"Feature","properties":{"k":"bunker"},"geometry":{"type":"Polygon","coordinates":[[[-155.847313,19.820279],[-155.847302,19.820263],[-155.84729,19.820211],[-155.847268,19.820191],[-155.847252,19.820191],[-155.847209,19.820216],[-155.847187,19.820219],[-155.84717,19.820193],[-155.847171,19.820148],[-155.847195,19.820131],[-155.84723,19.820122],[-155.847284,19.820132],[-155.847311,19.820152],[-155.84737,19.820234],[-155.847372,19.820257],[-155.847352,19.820286],[-155.847313,19.820279]]]}},{"type":"Feature","properties":{"k":"bunker"},"geometry":{"type":"Polygon","coordinates":[[[-155.842895,19.819108],[-155.842867,19.819109],[-155.842842,19.819129],[-155.842824,19.819128],[-155.842811,19.819117],[-155.842807,19.819091],[-155.842813,19.819081],[-155.842859,19.819063],[-155.842874,19.819076],[-155.8429,19.819079],[-155.842906,19.819094],[-155.842895,19.819108]]]}},{"type":"Feature","properties":{"k":"bunker"},"geometry":{"type":"Polygon","coordinates":[[[-155.848558,19.81821],[-155.848497,19.81815],[-155.848423,19.818126],[-155.848409,19.81811],[-155.848407,19.818092],[-155.848418,19.818079],[-155.848465,19.818082],[-155.848497,19.818129],[-155.848513,19.818134],[-155.848545,19.818129],[-155.848557,19.818137],[-155.848574,19.818155],[-155.848582,19.81818],[-155.848582,19.818197],[-155.848558,19.81821]]]}},{"type":"Feature","properties":{"k":"bunker"},"geometry":{"type":"Polygon","coordinates":[[[-155.848975,19.818517],[-155.848955,19.818457],[-155.848911,19.818438],[-155.848899,19.818426],[-155.848894,19.818395],[-155.848907,19.818373],[-155.848924,19.818365],[-155.848962,19.818377],[-155.849022,19.818369],[-155.849037,19.81839],[-155.849028,19.818453],[-155.849058,19.81848],[-155.849061,19.818518],[-155.849032,19.818535],[-155.849005,19.818537],[-155.848982,19.818528],[-155.848975,19.818517]]]}},{"type":"Feature","properties":{"k":"bunker"},"geometry":{"type":"Polygon","coordinates":[[[-155.844357,19.817096],[-155.844299,19.817095],[-155.844225,19.817152],[-155.844192,19.817134],[-155.844182,19.817115],[-155.844198,19.817077],[-155.844228,19.817059],[-155.844311,19.817052],[-155.844343,19.817031],[-155.844394,19.81703],[-155.844407,19.817044],[-155.844411,19.81707],[-155.844387,19.817093],[-155.844357,19.817096]]]}},{"type":"Feature","properties":{"k":"bunker"},"geometry":{"type":"Polygon","coordinates":[[[-155.838332,19.821296],[-155.838297,19.821251],[-155.838301,19.821231],[-155.838351,19.821197],[-155.838335,19.821168],[-155.838336,19.821156],[-155.83836,19.821147],[-155.838379,19.82117],[-155.838382,19.821191],[-155.838367,19.821249],[-155.838377,19.82129],[-155.838361,19.821303],[-155.838348,19.821305],[-155.838332,19.821296]]]}},{"type":"Feature","properties":{"k":"bunker"},"geometry":{"type":"Polygon","coordinates":[[[-155.846294,19.823835],[-155.846272,19.823824],[-155.846245,19.823831],[-155.846183,19.823825],[-155.84617,19.823814],[-155.846161,19.823775],[-155.846225,19.823721],[-155.846246,19.823719],[-155.84629,19.82376],[-155.846305,19.82376],[-155.846349,19.823742],[-155.846371,19.823769],[-155.846371,19.823788],[-155.846353,19.823816],[-155.846323,19.823836],[-155.846294,19.823835]]]}},{"type":"Feature","properties":{"k":"bunker"},"geometry":{"type":"Polygon","coordinates":[[[-155.845846,19.823875],[-155.845828,19.823841],[-155.845794,19.823835],[-155.845764,19.823845],[-155.845755,19.823839],[-155.845746,19.823806],[-155.845755,19.823795],[-155.845788,19.823789],[-155.845814,19.823762],[-155.845859,19.82378],[-155.845903,19.823774],[-155.845919,19.823785],[-155.845932,19.823802],[-155.845929,19.823817],[-155.845895,19.823839],[-155.845891,19.823861],[-155.845875,19.823883],[-155.845846,19.823875]]]}},{"type":"Feature","properties":{"k":"bunker"},"geometry":{"type":"Polygon","coordinates":[[[-155.848243,19.81885],[-155.848266,19.818869],[-155.848298,19.818879],[-155.848321,19.818875],[-155.848347,19.818833],[-155.848408,19.818809],[-155.848419,19.818794],[-155.848412,19.818778],[-155.848385,19.818753],[-155.848392,19.81871],[-155.848387,19.818666],[-155.848368,19.818643],[-155.848336,19.818639],[-155.848316,19.818659],[-155.84832,19.818697],[-155.848351,19.818753],[-155.848348,19.818779],[-155.84831,19.818786],[-155.848292,19.818826],[-155.848241,19.818834],[-155.848243,19.81885]]]}},{"type":"Feature","properties":{"k":"bunker"},"geometry":{"type":"Polygon","coordinates":[[[-155.8487,19.819167],[-155.84872,19.819112],[-155.848731,19.818857],[-155.848707,19.818803],[-155.848639,19.818728],[-155.84861,19.818675],[-155.848581,19.818576],[-155.84858,19.818549],[-155.848609,19.818523],[-155.848632,19.81852],[-155.848659,19.81855],[-155.848683,19.818657],[-155.848704,19.818695],[-155.848767,19.818759],[-155.848779,19.818792],[-155.848776,19.818894],[-155.848783,19.818951],[-155.848771,19.819045],[-155.848808,19.819179],[-155.848789,19.819214],[-155.848761,19.819229],[-155.848728,19.819226],[-155.848702,19.819211],[-155.8487,19.819167]]]}},{"type":"Feature","properties":{"k":"bunker"},"geometry":{"type":"Polygon","coordinates":[[[-155.847345,19.8235],[-155.847359,19.823488],[-155.847371,19.823441],[-155.847384,19.823422],[-155.847429,19.823395],[-155.84745,19.823342],[-155.847475,19.823319],[-155.847491,19.823252],[-155.847525,19.823206],[-155.847515,19.823188],[-155.847474,19.823194],[-155.847445,19.823207],[-155.847419,19.823235],[-155.847432,19.823313],[-155.847419,19.823327],[-155.847391,19.82333],[-155.847347,19.823361],[-155.847325,19.823451],[-155.847295,19.823487],[-155.847296,19.823498],[-155.847318,19.82351],[-155.847333,19.82351],[-155.847345,19.8235]]]}},{"type":"Feature","properties":{"k":"bunker"},"geometry":{"type":"Polygon","coordinates":[[[-155.846513,19.822509],[-155.846501,19.822451],[-155.846495,19.822447],[-155.846485,19.822464],[-155.846472,19.822467],[-155.846458,19.822444],[-155.846466,19.822411],[-155.846488,19.822393],[-155.846508,19.822398],[-155.846536,19.822389],[-155.846529,19.822341],[-155.84654,19.822329],[-155.846582,19.822332],[-155.846604,19.822355],[-155.846618,19.822419],[-155.846597,19.822432],[-155.84658,19.822416],[-155.84656,19.822415],[-155.846553,19.822437],[-155.846561,19.822461],[-155.846557,19.8225],[-155.846545,19.82251],[-155.846513,19.822509]]]}},{"type":"Feature","properties":{"k":"bunker"},"geometry":{"type":"Polygon","coordinates":[[[-155.846054,19.823035],[-155.845845,19.822908],[-155.845805,19.822859],[-155.845787,19.822788],[-155.845792,19.822754],[-155.845803,19.822705],[-155.846187,19.822402],[-155.846221,19.822338],[-155.846237,19.822281],[-155.846234,19.822245],[-155.846203,19.822208],[-155.846142,19.822203],[-155.845767,19.822283],[-155.845751,19.822282],[-155.845749,19.822275],[-155.845751,19.822262],[-155.845831,19.822184],[-155.845925,19.822025],[-155.845943,19.821969],[-155.845963,19.821935],[-155.845979,19.821927],[-155.845995,19.821933],[-155.846019,19.822001],[-155.846014,19.822033],[-155.84596,19.822067],[-155.845929,19.8221],[-155.845923,19.822153],[-155.845948,19.822186],[-155.845988,19.822194],[-155.846043,19.822193],[-155.846201,19.822176],[-155.846244,19.82219],[-155.846271,19.822215],[-155.846281,19.82225],[-155.84628,19.822292],[-155.846263,19.822367],[-155.846207,19.822452],[-155.846087,19.822592],[-155.846057,19.822618],[-155.845979,19.822637],[-155.845962,19.822647],[-155.845895,19.82273],[-155.845885,19.822756],[-155.845902,19.822874],[-155.845939,19.822918],[-155.845997,19.822946],[-155.846078,19.822963],[-155.846088,19.822976],[-155.846083,19.823016],[-155.846054,19.823035]]]}},{"type":"Feature","properties":{"k":"bunker"},"geometry":{"type":"Polygon","coordinates":[[[-155.847762,19.815641],[-155.847779,19.815642],[-155.847802,19.815628],[-155.847805,19.815613],[-155.847797,19.8156],[-155.847782,19.815594],[-155.847761,19.815596],[-155.847751,19.81561],[-155.847752,19.815628],[-155.847762,19.815641]]]}},{"type":"Feature","properties":{"k":"bunker"},"geometry":{"type":"Polygon","coordinates":[[[-155.841747,19.82269],[-155.84177,19.822678],[-155.841772,19.822659],[-155.841762,19.822639],[-155.841743,19.822633],[-155.841724,19.822639],[-155.841718,19.822653],[-155.841725,19.822676],[-155.841747,19.82269]]]}},{"type":"Feature","properties":{"k":"water"},"geometry":{"type":"Polygon","coordinates":[[[-155.836358,19.82051],[-155.836332,19.820548],[-155.836322,19.820593],[-155.836351,19.820682],[-155.836332,19.820772],[-155.836287,19.820785],[-155.836182,19.820637],[-155.836175,19.820595],[-155.836184,19.820552],[-155.836203,19.82051],[-155.836213,19.820465],[-155.836239,19.820424],[-155.836277,19.820395],[-155.836325,19.820397],[-155.836346,19.820487],[-155.836358,19.82051]]]}},{"type":"Feature","properties":{"k":"stream"},"geometry":{"type":"LineString","coordinates":[[-155.836332,19.820772],[-155.836375,19.820792],[-155.836449,19.820855],[-155.836592,19.820987],[-155.836656,19.821059],[-155.836794,19.821115],[-155.836804,19.82116],[-155.836804,19.821209],[-155.836837,19.821296],[-155.836873,19.821332],[-155.836961,19.821384],[-155.837035,19.821447],[-155.837083,19.8215]]}}]}