{"type":"FeatureCollection","features":[{"type":"Feature","properties":{"k":"hole","ref":"1","par":4,"hcp":12},"geometry":{"type":"LineString","coordinates":[[-79.420048,35.190122],[-79.418873,35.189009],[-79.418113,35.188052]]}},{"type":"Feature","properties":{"k":"hole","ref":"2","par":4,"hcp":4},"geometry":{"type":"LineString","coordinates":[[-79.416625,35.187536],[-79.414843,35.186954],[-79.414848,35.185639]]}},{"type":"Feature","properties":{"k":"hole","ref":"3","par":3,"hcp":18},"geometry":{"type":"LineString","coordinates":[[-79.414067,35.185959],[-79.414017,35.187419]]}},{"type":"Feature","properties":{"k":"hole","ref":"4","par":5,"hcp":10},"geometry":{"type":"LineString","coordinates":[[-79.413307,35.187016],[-79.413051,35.18514],[-79.415036,35.183512]]}},{"type":"Feature","properties":{"k":"hole","ref":"5","par":4,"hcp":2},"geometry":{"type":"LineString","coordinates":[[-79.4162,35.182974],[-79.418424,35.18314],[-79.419754,35.182791]]}},{"type":"Feature","properties":{"k":"hole","ref":"6","par":3,"hcp":16},"geometry":{"type":"LineString","coordinates":[[-79.419789,35.182372],[-79.420602,35.183544]]}},{"type":"Feature","properties":{"k":"hole","ref":"7","par":4,"hcp":14},"geometry":{"type":"LineString","coordinates":[[-79.419604,35.183813],[-79.416375,35.185497]]}},{"type":"Feature","properties":{"k":"hole","ref":"8","par":4,"hcp":8},"geometry":{"type":"LineString","coordinates":[[-79.416919,35.186031],[-79.418663,35.186386],[-79.420479,35.185512]]}},{"type":"Feature","properties":{"k":"hole","ref":"10","par":4,"hcp":11},"geometry":{"type":"LineString","coordinates":[[-79.424904,35.190975],[-79.425083,35.192586],[-79.424918,35.194088]]}},{"type":"Feature","properties":{"k":"hole","ref":"11","par":3,"hcp":17},"geometry":{"type":"LineString","coordinates":[[-79.424386,35.194454],[-79.424649,35.194797],[-79.425226,35.195579]]}},{"type":"Feature","properties":{"k":"hole","ref":"12","par":4,"hcp":1},"geometry":{"type":"LineString","coordinates":[[-79.426587,35.195268],[-79.426533,35.193363],[-79.426399,35.191894]]}},{"type":"Feature","properties":{"k":"hole","ref":"13","par":4,"hcp":9},"geometry":{"type":"LineString","coordinates":[[-79.427254,35.191424],[-79.428689,35.190098],[-79.42999,35.189238]]}},{"type":"Feature","properties":{"k":"hole","ref":"14","par":4,"hcp":3},"geometry":{"type":"LineString","coordinates":[[-79.428745,35.188974],[-79.428412,35.185795]]}},{"type":"Feature","properties":{"k":"hole","ref":"15","par":5,"hcp":13},"geometry":{"type":"LineString","coordinates":[[-79.428327,35.184411],[-79.426769,35.182547],[-79.425241,35.181065]]}},{"type":"Feature","properties":{"k":"hole","ref":"16","par":4,"hcp":7},"geometry":{"type":"LineString","coordinates":[[-79.42489,35.181138],[-79.423655,35.18238],[-79.422614,35.183343]]}},{"type":"Feature","properties":{"k":"hole","ref":"17"},"geometry":{"type":"LineString","coordinates":[[-79.423115,35.184501],[-79.424209,35.185624]]}},{"type":"Feature","properties":{"k":"stream"},"geometry":{"type":"LineString","coordinates":[[-79.419389,35.18321],[-79.419496,35.183182],[-79.420005,35.182985],[-79.420112,35.182902],[-79.420293,35.182864],[-79.420474,35.182803],[-79.420574,35.182748],[-79.420909,35.182485],[-79.421237,35.182325],[-79.421518,35.182248],[-79.42156,35.182247]]}},{"type":"Feature","properties":{"k":"stream"},"geometry":{"type":"LineString","coordinates":[[-79.41094,35.189374],[-79.41108,35.189363],[-79.411348,35.189292],[-79.411756,35.189149],[-79.411971,35.189122],[-79.412165,35.189116],[-79.412613,35.189072],[-79.412787,35.189072],[-79.412935,35.189116],[-79.413289,35.18927],[-79.413403,35.189292],[-79.413497,35.189292],[-79.413597,35.189276],[-79.413785,35.189221],[-79.413892,35.189199],[-79.414146,35.189172],[-79.414447,35.189199],[-79.414568,35.189194],[-79.414682,35.189172],[-79.414782,35.189117],[-79.414889,35.189012],[-79.41501,35.188853],[-79.415077,35.188683],[-79.41515,35.188562],[-79.415425,35.18832],[-79.415586,35.188199],[-79.416009,35.187965],[-79.416044,35.18786],[-79.416043,35.187766],[-79.415961,35.187721],[-79.415934,35.187628],[-79.41576,35.18738],[-79.415541,35.187134],[-79.415332,35.186792],[-79.415211,35.186561],[-79.415165,35.186441],[-79.415158,35.186391],[-79.415171,35.186281],[-79.415232,35.186199],[-79.415312,35.186116],[-79.415439,35.18605],[-79.416015,35.185787],[-79.416115,35.185704],[-79.416202,35.185583],[-79.41631,35.185375],[-79.416383,35.185182],[-79.416444,35.185078],[-79.416584,35.184902],[-79.416711,35.184798],[-79.416865,35.184732],[-79.41712,35.184655],[-79.417421,35.184545],[-79.417575,35.184441],[-79.417655,35.184342],[-79.417736,35.184221],[-79.41801,35.184018],[-79.418218,35.183886],[-79.418419,35.183787],[-79.418566,35.183737],[-79.418867,35.18355],[-79.419008,35.183424],[-79.419168,35.183314],[-79.419389,35.18321]]}},{"type":"Feature","properties":{"k":"water"},"geometry":{"type":"Polygon","coordinates":[[[-79.424782,35.180674],[-79.42475,35.180839],[-79.424696,35.180943],[-79.424711,35.180971],[-79.424804,35.180999],[-79.424796,35.181325],[-79.424848,35.181344],[-79.42489,35.181348],[-79.424915,35.181337],[-79.424958,35.181258],[-79.425028,35.181259],[-79.425059,35.18128],[-79.425181,35.181427],[-79.425254,35.181489],[-79.425349,35.181539],[-79.42538,35.181588],[-79.42541,35.181667],[-79.42531,35.181699],[-79.425261,35.18176],[-79.425173,35.181754],[-79.425172,35.181735],[-79.425134,35.181726],[-79.425117,35.181762],[-79.425061,35.181775],[-79.425009,35.181772],[-79.424927,35.181754],[-79.424897,35.181787],[-79.424834,35.181774],[-79.424764,35.181754],[-79.424739,35.181696],[-79.424752,35.181649],[-79.42482,35.181524],[-79.424767,35.181512],[-79.424739,35.181485],[-79.424694,35.181476],[-79.424645,35.181488],[-79.424478,35.181665],[-79.424474,35.181696],[-79.42445,35.181752],[-79.424315,35.181815],[-79.424301,35.181843],[-79.424269,35.181863],[-79.424213,35.181875],[-79.424182,35.181861],[-79.424122,35.181855],[-79.424097,35.181898],[-79.424061,35.181924],[-79.424014,35.181936],[-79.423881,35.181915],[-79.423821,35.181945],[-79.423757,35.181952],[-79.423572,35.181927],[-79.42341,35.181934],[-79.423127,35.182063],[-79.423076,35.182115],[-79.423055,35.182173],[-79.423166,35.182364],[-79.423192,35.18248],[-79.423188,35.182579],[-79.423158,35.182681],[-79.422995,35.182941],[-79.422979,35.183031],[-79.423003,35.183107],[-79.42305,35.183174],[-79.42293,35.183372],[-79.422916,35.183409],[-79.422914,35.183448],[-79.422851,35.18348],[-79.42286,35.183418],[-79.422808,35.183398],[-79.422796,35.183344],[-79.422857,35.183218],[-79.422866,35.18314],[-79.422849,35.183093],[-79.422768,35.183022],[-79.422667,35.182991],[-79.422603,35.182909],[-79.422636,35.182437],[-79.422559,35.182419],[-79.421952,35.182386],[-79.421716,35.182341],[-79.42159,35.182335],[-79.42156,35.182247],[-79.421875,35.182138],[-79.42203,35.182051],[-79.422315,35.181969],[-79.422489,35.181857],[-79.42264,35.181724],[-79.422677,35.181473],[-79.422903,35.181355],[-79.423191,35.181235],[-79.42358,35.181268],[-79.423927,35.181216],[-79.424016,35.18115],[-79.42429,35.180718],[-79.424454,35.180625],[-79.424571,35.180653],[-79.424619,35.180648],[-79.424782,35.180674]]]}},{"type":"Feature","properties":{"k":"clubhouse"},"geometry":{"type":"Polygon","coordinates":[[[-79.422869,35.188985],[-79.422744,35.188866],[-79.422625,35.18895],[-79.422593,35.188919],[-79.422392,35.18906],[-79.422431,35.189098],[-79.422298,35.189191],[-79.42242,35.189308],[-79.422545,35.189221],[-79.422551,35.189227],[-79.422761,35.18908],[-79.422749,35.189069],[-79.422869,35.188985]]]}},{"type":"Feature","properties":{"k":"green"},"geometry":{"type":"Polygon","coordinates":[[[-79.418272,35.188145],[-79.418232,35.188171],[-79.418173,35.188174],[-79.418033,35.188128],[-79.417963,35.188122],[-79.417934,35.188097],[-79.417922,35.188067],[-79.41792,35.188031],[-79.417945,35.187983],[-79.417968,35.187957],[-79.418014,35.187934],[-79.418069,35.18793],[-79.418157,35.187943],[-79.418281,35.188001],[-79.418304,35.188031],[-79.418309,35.188057],[-79.418301,35.188113],[-79.418272,35.188145]]]}},{"type":"Feature","properties":{"k":"tee"},"geometry":{"type":"Polygon","coordinates":[[[-79.420074,35.190142],[-79.420055,35.190151],[-79.420022,35.190143],[-79.420002,35.190129],[-79.419993,35.19009],[-79.420005,35.190073],[-79.420023,35.190065],[-79.420068,35.190091],[-79.420085,35.190123],[-79.420074,35.190142]]]}},{"type":"Feature","properties":{"k":"bunker"},"geometry":{"type":"Polygon","coordinates":[[[-79.418329,35.187958],[-79.41832,35.187973],[-79.4183,35.187974],[-79.418252,35.187935],[-79.418139,35.187927],[-79.41811,35.187917],[-79.418101,35.187904],[-79.418109,35.187881],[-79.418132,35.187865],[-79.418109,35.187799],[-79.418132,35.187792],[-79.418152,35.187795],[-79.418171,35.187815],[-79.418184,35.187846],[-79.418203,35.18786],[-79.418248,35.187846],[-79.418266,35.187853],[-79.418294,35.187911],[-79.418326,35.187933],[-79.418329,35.187958]]]}},{"type":"Feature","properties":{"k":"bunker"},"geometry":{"type":"Polygon","coordinates":[[[-79.41833,35.188643],[-79.418283,35.188666],[-79.418236,35.188626],[-79.418217,35.188572],[-79.418245,35.188448],[-79.418222,35.188423],[-79.418192,35.188411],[-79.418165,35.188385],[-79.418114,35.188363],[-79.418106,35.188299],[-79.418084,35.18825],[-79.418154,35.188184],[-79.418192,35.188206],[-79.418192,35.18822],[-79.41822,35.18823],[-79.418252,35.188263],[-79.418298,35.188286],[-79.418301,35.188312],[-79.418318,35.188343],[-79.418351,35.188347],[-79.41838,35.188367],[-79.418371,35.188423],[-79.41839,35.188481],[-79.418371,35.188511],[-79.418342,35.18853],[-79.418345,35.188593],[-79.41833,35.188643]]]}},{"type":"Feature","properties":{"k":"bunker"},"geometry":{"type":"Polygon","coordinates":[[[-79.418633,35.189251],[-79.418611,35.189239],[-79.418606,35.189212],[-79.418592,35.18921],[-79.418565,35.189244],[-79.418541,35.189247],[-79.418519,35.189228],[-79.418511,35.1892],[-79.418469,35.189182],[-79.418467,35.189148],[-79.418494,35.189129],[-79.418492,35.189113],[-79.418472,35.189097],[-79.418479,35.189062],[-79.418516,35.189035],[-79.418517,35.189022],[-79.418493,35.188997],[-79.4185,35.188971],[-79.418556,35.18898],[-79.418569,35.189007],[-79.418581,35.189016],[-79.418619,35.189021],[-79.418634,35.189037],[-79.418631,35.189067],[-79.418619,35.189084],[-79.418555,35.189088],[-79.418545,35.189111],[-79.41858,35.18916],[-79.41864,35.189176],[-79.418649,35.189185],[-79.418666,35.189231],[-79.418662,35.189241],[-79.418633,35.189251]]]}},{"type":"Feature","properties":{"k":"bunker"},"geometry":{"type":"Polygon","coordinates":[[[-79.419328,35.189385],[-79.419236,35.189418],[-79.419195,35.189413],[-79.419159,35.189374],[-79.419131,35.189369],[-79.419117,35.189351],[-79.419124,35.189324],[-79.41914,35.189316],[-79.419166,35.189314],[-79.419202,35.18933],[-79.419233,35.189323],[-79.419243,35.18931],[-79.419238,35.189298],[-79.419222,35.189292],[-79.419175,35.189294],[-79.419151,35.189281],[-79.419151,35.189261],[-79.419166,35.189244],[-79.419143,35.189174],[-79.419157,35.189155],[-79.419188,35.189148],[-79.419215,35.189158],[-79.419234,35.189175],[-79.419277,35.189252],[-79.419328,35.189265],[-79.419361,35.189284],[-79.419368,35.189343],[-79.419328,35.189385]]]}},{"type":"Feature","properties":{"k":"tee"},"geometry":{"type":"Polygon","coordinates":[[[-79.416646,35.187526],[-79.416626,35.187551],[-79.416602,35.18755],[-79.416516,35.187476],[-79.416526,35.187452],[-79.416554,35.187449],[-79.416605,35.187476],[-79.416643,35.187506],[-79.416646,35.187526]]]}},{"type":"Feature","properties":{"k":"fairway"},"geometry":{"type":"Polygon","coordinates":[[[-79.415,35.185665],[-79.415022,35.185702],[-79.415025,35.185736],[-79.414988,35.185767],[-79.414928,35.185802],[-79.4149,35.185885],[-79.414876,35.185901],[-79.414851,35.185909],[-79.414819,35.185908],[-79.414803,35.185901],[-79.414736,35.185831],[-79.414733,35.185789],[-79.414702,35.185873],[-79.414695,35.185931],[-79.414679,35.185967],[-79.414667,35.186042],[-79.414637,35.186092],[-79.414608,35.186187],[-79.414614,35.18624],[-79.414596,35.186318],[-79.414606,35.186597],[-79.414677,35.18668],[-79.414691,35.186786],[-79.414685,35.186919],[-79.414699,35.186969],[-79.414738,35.187007],[-79.41497,35.187107],[-79.41546,35.187275],[-79.415617,35.187311],[-79.415757,35.187332],[-79.415816,35.187336],[-79.415867,35.187323],[-79.415893,35.187287],[-79.41589,35.187259],[-79.415859,35.187234],[-79.415662,35.187175],[-79.415137,35.186995],[-79.415086,35.186951],[-79.415064,35.186888],[-79.415044,35.186734],[-79.414945,35.1866],[-79.414896,35.186563],[-79.414805,35.186395],[-79.414786,35.18632],[-79.414789,35.186228],[-79.414842,35.186011],[-79.414862,35.185961],[-79.415029,35.185833],[-79.415069,35.185781],[-79.415078,35.185723],[-79.415,35.185665]]]}},{"type":"Feature","properties":{"k":"green"},"geometry":{"type":"Polygon","coordinates":[[[-79.414851,35.185909],[-79.4149,35.185885],[-79.414928,35.185802],[-79.414988,35.185767],[-79.415025,35.185736],[-79.415022,35.185702],[-79.415,35.185665],[-79.414944,35.185647],[-79.4149,35.185647],[-79.414873,35.185632],[-79.414824,35.18562],[-79.41478,35.185626],[-79.414761,35.18565],[-79.414763,35.185732],[-79.414733,35.185789],[-79.414736,35.185831],[-79.414803,35.185901],[-79.414819,35.185908],[-79.414851,35.185909]]]}},{"type":"Feature","properties":{"k":"bunker"},"geometry":{"type":"Polygon","coordinates":[[[-79.414574,35.186882],[-79.4146,35.186882],[-79.414631,35.186865],[-79.414627,35.186823],[-79.414574,35.186809],[-79.414564,35.186788],[-79.41457,35.186774],[-79.414616,35.186747],[-79.414613,35.186729],[-79.414602,35.186712],[-79.414558,35.186715],[-79.414509,35.186685],[-79.414472,35.186716],[-79.414476,35.186732],[-79.414502,35.186754],[-79.414505,35.186767],[-79.414485,35.18683],[-79.414498,35.186842],[-79.414543,35.186844],[-79.414574,35.186882]]]}},{"type":"Feature","properties":{"k":"bunker"},"geometry":{"type":"Polygon","coordinates":[[[-79.414547,35.18699],[-79.414574,35.186978],[-79.41459,35.186958],[-79.414586,35.186937],[-79.414544,35.186882],[-79.414506,35.18687],[-79.414477,35.18688],[-79.414464,35.186899],[-79.414462,35.186968],[-79.414469,35.18698],[-79.414498,35.18699],[-79.414547,35.18699]]]}},{"type":"Feature","properties":{"k":"bunker"},"geometry":{"type":"Polygon","coordinates":[[[-79.414826,35.187149],[-79.414889,35.187145],[-79.414907,35.18717],[-79.414881,35.187213],[-79.41485,35.187223],[-79.414831,35.187211],[-79.414769,35.187211],[-79.414748,35.187166],[-79.414704,35.187186],[-79.414672,35.187181],[-79.414654,35.187168],[-79.414641,35.187147],[-79.414669,35.187111],[-79.414742,35.187093],[-79.414769,35.187096],[-79.41479,35.187111],[-79.414809,35.187143],[-79.414826,35.187149]]]}},{"type":"Feature","properties":{"k":"bunker"},"geometry":{"type":"Polygon","coordinates":[[[-79.414541,35.187072],[-79.41458,35.187083],[-79.414595,35.187066],[-79.41458,35.187037],[-79.414536,35.187032],[-79.414505,35.187006],[-79.414481,35.187006],[-79.414467,35.187019],[-79.414453,35.187051],[-79.414396,35.187111],[-79.414394,35.187133],[-79.414408,35.187152],[-79.414431,35.187158],[-79.414482,35.187137],[-79.414483,35.187104],[-79.414496,35.187075],[-79.414513,35.187067],[-79.414541,35.187072]]]}},{"type":"Feature","properties":{"k":"bunker"},"geometry":{"type":"Polygon","coordinates":[[[-79.414077,35.187064],[-79.414049,35.187097],[-79.414066,35.187119],[-79.414082,35.187127],[-79.41414,35.187107],[-79.414171,35.187078],[-79.41416,35.187017],[-79.41414,35.187002],[-79.414146,35.186981],[-79.414185,35.186932],[-79.414183,35.186911],[-79.414166,35.186889],[-79.414134,35.186871],[-79.414109,35.186877],[-79.414075,35.186911],[-79.413977,35.1869],[-79.41394,35.186908],[-79.413922,35.186919],[-79.413917,35.186933],[-79.413943,35.186964],[-79.413943,35.186979],[-79.413878,35.187005],[-79.413868,35.187017],[-79.413877,35.18706],[-79.413909,35.187079],[-79.413951,35.187075],[-79.413961,35.187103],[-79.413989,35.187112],[-79.414003,35.187105],[-79.414025,35.187047],[-79.414017,35.18702],[-79.414026,35.186983],[-79.414046,35.186986],[-79.414062,35.187001],[-79.414051,35.18704],[-79.414077,35.187064]]]}},{"type":"Feature","properties":{"k":"bunker"},"geometry":{"type":"Polygon","coordinates":[[[-79.413781,35.187365],[-79.413801,35.187348],[-79.413808,35.187328],[-79.413801,35.187307],[-79.413752,35.187269],[-79.413786,35.187226],[-79.413794,35.187202],[-79.413789,35.187181],[-79.413766,35.187167],[-79.413737,35.187168],[-79.413714,35.187187],[-79.413709,35.187226],[-79.413661,35.187246],[-79.413657,35.187265],[-79.413663,35.187283],[-79.413693,35.187308],[-79.413697,35.187329],[-79.413761,35.187366],[-79.413781,35.187365]]]}},{"type":"Feature","properties":{"k":"water"},"geometry":{"type":"Polygon","coordinates":[[[-79.416164,35.187573],[-79.416224,35.187544],[-79.416259,35.187432],[-79.416285,35.187397],[-79.416257,35.187286],[-79.416227,35.187222],[-79.416228,35.18719],[-79.416217,35.187168],[-79.416124,35.187151],[-79.415872,35.187065],[-79.415834,35.187027],[-79.415769,35.187016],[-79.415706,35.186977],[-79.415673,35.186947],[-79.415589,35.186823],[-79.415589,35.186746],[-79.41558,35.186708],[-79.415517,35.186588],[-79.41544,35.186479],[-79.415424,35.186414],[-79.41544,35.186346],[-79.415461,35.1863],[-79.415498,35.186267],[-79.415685,35.186206],[-79.415741,35.186174],[-79.415771,35.186138],[-79.415783,35.186099],[-79.415776,35.18597],[-79.415171,35.185842],[-79.415153,35.185859],[-79.415076,35.185884],[-79.414987,35.185932],[-79.414961,35.185979],[-79.414926,35.186082],[-79.414884,35.186107],[-79.414891,35.186157],[-79.414905,35.186185],[-79.414891,35.186227],[-79.414891,35.186265],[-79.414919,35.186317],[-79.414978,35.186405],[-79.415027,35.186449],[-79.41508,35.186531],[-79.415162,35.186624],[-79.415192,35.18668],[-79.415283,35.186773],[-79.415402,35.186937],[-79.415522,35.18701],[-79.415545,35.187054],[-79.415636,35.187096],[-79.415725,35.187119],[-79.415748,35.187142],[-79.415813,35.187178],[-79.415869,35.187195],[-79.415986,35.187264],[-79.415975,35.187348],[-79.415909,35.187378],[-79.415776,35.187365],[-79.415666,35.187367],[-79.415578,35.187355],[-79.415536,35.187395],[-79.415594,35.187485],[-79.41565,35.187523],[-79.415694,35.187531],[-79.415739,35.187521],[-79.415804,35.187521],[-79.415811,35.187538],[-79.415879,35.187586],[-79.415879,35.187493],[-79.415888,35.187466],[-79.415912,35.187458],[-79.415954,35.187512],[-79.415951,35.187538],[-79.415932,35.187556],[-79.416,35.187599],[-79.416059,35.187582],[-79.416164,35.187573]]]}},{"type":"Feature","properties":{"k":"tee"},"geometry":{"type":"Polygon","coordinates":[[[-79.414023,35.186169],[-79.414061,35.186149],[-79.414079,35.186081],[-79.414083,35.185971],[-79.414067,35.185959],[-79.414028,35.185974],[-79.413991,35.186085],[-79.413996,35.18615],[-79.414023,35.186169]]]}},{"type":"Feature","properties":{"k":"green"},"geometry":{"type":"Polygon","coordinates":[[[-79.414053,35.187433],[-79.414087,35.187416],[-79.414117,35.18738],[-79.41412,35.18733],[-79.414055,35.18725],[-79.414015,35.187187],[-79.413974,35.187148],[-79.413896,35.18713],[-79.413833,35.187146],[-79.413823,35.187204],[-79.413826,35.187242],[-79.413848,35.187336],[-79.413984,35.18744],[-79.414007,35.187445],[-79.414053,35.187433]]]}},{"type":"Feature","properties":{"k":"tee"},"geometry":{"type":"Polygon","coordinates":[[[-79.413324,35.187032],[-79.413346,35.187009],[-79.413355,35.186977],[-79.413352,35.186878],[-79.41333,35.186857],[-79.413296,35.186868],[-79.413298,35.186902],[-79.413276,35.18697],[-79.413292,35.187027],[-79.413324,35.187032]]]}},{"type":"Feature","properties":{"k":"bunker"},"geometry":{"type":"Polygon","coordinates":[[[-79.413374,35.185542],[-79.413406,35.185528],[-79.413399,35.185487],[-79.413368,35.18545],[-79.413417,35.185407],[-79.413445,35.185372],[-79.413449,35.185312],[-79.413381,35.185279],[-79.413331,35.185297],[-79.413322,35.185329],[-79.413339,35.185373],[-79.413318,35.185422],[-79.413277,35.185418],[-79.413238,35.185429],[-79.41324,35.185466],[-79.413268,35.185498],[-79.413222,35.185535],[-79.413234,35.185555],[-79.413272,35.185565],[-79.413336,35.185542],[-79.413374,35.185542]]]}},{"type":"Feature","properties":{"k":"bunker"},"geometry":{"type":"Polygon","coordinates":[[[-79.412983,35.184848],[-79.413009,35.184859],[-79.413015,35.184876],[-79.413052,35.184885],[-79.413081,35.184866],[-79.413086,35.184818],[-79.413129,35.184813],[-79.41317,35.184775],[-79.413181,35.184753],[-79.413174,35.184731],[-79.413145,35.184725],[-79.413127,35.184731],[-79.413097,35.184694],[-79.413065,35.184694],[-79.413033,35.184705],[-79.413044,35.184764],[-79.413014,35.184781],[-79.412972,35.184759],[-79.412911,35.184762],[-79.412877,35.184787],[-79.412887,35.184833],[-79.412939,35.184859],[-79.412983,35.184848]]]}},{"type":"Feature","properties":{"k":"bunker"},"geometry":{"type":"Polygon","coordinates":[[[-79.414851,35.183741],[-79.414885,35.183726],[-79.414906,35.183695],[-79.414899,35.183669],[-79.414844,35.183657],[-79.414804,35.183669],[-79.414774,35.183659],[-79.414744,35.183678],[-79.414729,35.183704],[-79.414763,35.183754],[-79.414806,35.183774],[-79.414829,35.18375],[-79.414851,35.183741]]]}},{"type":"Feature","properties":{"k":"bunker"},"geometry":{"type":"Polygon","coordinates":[[[-79.413915,35.183921],[-79.413815,35.183962],[-79.413799,35.183986],[-79.41377,35.18399],[-79.413715,35.183945],[-79.413711,35.183917],[-79.413756,35.183862],[-79.413831,35.183851],[-79.413922,35.183804],[-79.41394,35.183804],[-79.41397,35.183784],[-79.413983,35.183763],[-79.414021,35.183746],[-79.414058,35.183766],[-79.414062,35.183798],[-79.414054,35.183824],[-79.414026,35.18384],[-79.413993,35.183833],[-79.413961,35.183846],[-79.413968,35.183871],[-79.413957,35.183901],[-79.413915,35.183921]]]}},{"type":"Feature","properties":{"k":"green"},"geometry":{"type":"Polygon","coordinates":[[[-79.414959,35.18363],[-79.415047,35.183604],[-79.415069,35.183586],[-79.41507,35.183557],[-79.415061,35.183537],[-79.415,35.183478],[-79.414915,35.183457],[-79.414862,35.183453],[-79.414819,35.183467],[-79.414799,35.18348],[-79.414787,35.183505],[-79.414712,35.183582],[-79.414703,35.183609],[-79.414714,35.183632],[-79.41479,35.183648],[-79.414894,35.183643],[-79.414959,35.18363]]]}},{"type":"Feature","properties":{"k":"wood"},"geometry":{"type":"Polygon","coordinates":[[[-79.419509,35.190062],[-79.41948,35.190007],[-79.419505,35.18997],[-79.419484,35.18988],[-79.419374,35.189836],[-79.41936,35.189773],[-79.419296,35.189729],[-79.419172,35.189666],[-79.419144,35.189698],[-79.419172,35.189761],[-79.419151,35.189848],[-79.419126,35.18986],[-79.419123,35.190048],[-79.419261,35.190155],[-79.419367,35.190172],[-79.419402,35.190195],[-79.419473,35.190172],[-79.419519,35.190108],[-79.419509,35.190062]]]}},{"type":"Feature","properties":{"k":"tee"},"geometry":{"type":"Polygon","coordinates":[[[-79.416352,35.18301],[-79.416321,35.183011],[-79.416257,35.183],[-79.416192,35.182976],[-79.416192,35.182956],[-79.416207,35.182941],[-79.41624,35.182941],[-79.416376,35.182964],[-79.416387,35.182974],[-79.416384,35.182997],[-79.416352,35.18301]]]}},{"type":"Feature","properties":{"k":"bunker"},"geometry":{"type":"Polygon","coordinates":[[[-79.417914,35.182864],[-79.417935,35.182866],[-79.417957,35.182844],[-79.417941,35.182793],[-79.417856,35.182757],[-79.417725,35.182756],[-79.417718,35.182825],[-79.417844,35.182839],[-79.417869,35.182854],[-79.417914,35.182864]]]}},{"type":"Feature","properties":{"k":"bunker"},"geometry":{"type":"Polygon","coordinates":[[[-79.41942,35.182623],[-79.419437,35.182615],[-79.419456,35.182581],[-79.419477,35.182574],[-79.419513,35.182579],[-79.419556,35.182628],[-79.419547,35.182657],[-79.419512,35.182673],[-79.419443,35.182681],[-79.419373,35.182716],[-79.41933,35.182707],[-79.419313,35.18269],[-79.419299,35.182654],[-79.419342,35.182613],[-79.41942,35.182623]]]}},{"type":"Feature","properties":{"k":"green"},"geometry":{"type":"Polygon","coordinates":[[[-79.419555,35.182893],[-79.419595,35.182903],[-79.419645,35.182905],[-79.419686,35.182895],[-79.419728,35.182903],[-79.419767,35.18288],[-79.419775,35.182834],[-79.419763,35.182774],[-79.419638,35.182698],[-79.419578,35.182687],[-79.419509,35.182692],[-79.419452,35.182715],[-79.419406,35.182753],[-79.419389,35.18281],[-79.419398,35.182854],[-79.419422,35.182893],[-79.41945,35.182903],[-79.419555,35.182893]]]}},{"type":"Feature","properties":{"k":"fairway"},"geometry":{"type":"Polygon","coordinates":[[[-79.418447,35.183272],[-79.418511,35.183257],[-79.418568,35.183224],[-79.418736,35.183174],[-79.418778,35.183117],[-79.418768,35.183085],[-79.418701,35.183036],[-79.418642,35.18301],[-79.418528,35.182993],[-79.418457,35.182995],[-79.418383,35.182983],[-79.418328,35.18296],[-79.418232,35.182898],[-79.418115,35.182874],[-79.41802,35.182886],[-79.417964,35.182906],[-79.417892,35.182921],[-79.417793,35.182921],[-79.417609,35.182896],[-79.4175,35.182899],[-79.417422,35.182923],[-79.417387,35.182945],[-79.41737,35.183037],[-79.417385,35.183092],[-79.417481,35.183151],[-79.417539,35.183168],[-79.417607,35.183169],[-79.417715,35.183184],[-79.41786,35.183187],[-79.418029,35.183227],[-79.418354,35.183275],[-79.418407,35.18328],[-79.418447,35.183272]]]}},{"type":"Feature","properties":{"k":"water"},"geometry":{"type":"Polygon","coordinates":[[[-79.420212,35.183141],[-79.420233,35.18314],[-79.420248,35.183208],[-79.420351,35.183296],[-79.420439,35.183292],[-79.420554,35.183243],[-79.420636,35.183182],[-79.420783,35.183151],[-79.420911,35.183061],[-79.420923,35.183014],[-79.420948,35.183008],[-79.420974,35.182979],[-79.42096,35.182953],[-79.421016,35.182895],[-79.421032,35.18285],[-79.421075,35.182783],[-79.421086,35.182741],[-79.42107,35.182703],[-79.420997,35.182619],[-79.420932,35.182581],[-79.420885,35.182529],[-79.420642,35.182361],[-79.420593,35.182311],[-79.420552,35.1823],[-79.420474,35.182325],[-79.420451,35.182353],[-79.420283,35.18237],[-79.420229,35.182369],[-79.42018,35.182359],[-79.420147,35.182336],[-79.420077,35.182229],[-79.420045,35.182223],[-79.42004,35.182281],[-79.419994,35.18231],[-79.419931,35.182312],[-79.419927,35.182328],[-79.419941,35.182381],[-79.419987,35.182381],[-79.419995,35.182412],[-79.420146,35.18246],[-79.420173,35.182515],[-79.420142,35.182574],[-79.420079,35.182626],[-79.420118,35.182684],[-79.420124,35.182776],[-79.420084,35.182826],[-79.420031,35.182829],[-79.419988,35.182845],[-79.419904,35.182897],[-79.419858,35.182889],[-79.419819,35.182901],[-79.419766,35.182951],[-79.419724,35.182955],[-79.419673,35.182938],[-79.419625,35.182965],[-79.419529,35.182938],[-79.419449,35.182959],[-79.419413,35.182946],[-79.4193,35.182964],[-79.419251,35.182961],[-79.419147,35.18293],[-79.419156,35.182969],[-79.419185,35.182991],[-79.419233,35.183012],[-79.419209,35.183028],[-79.419198,35.183077],[-79.419169,35.183068],[-79.419151,35.183047],[-79.41912,35.183033],[-79.419091,35.183036],[-79.419103,35.18306],[-79.419092,35.183103],[-79.419165,35.183265],[-79.419244,35.183305],[-79.419292,35.183311],[-79.419355,35.183341],[-79.419466,35.183381],[-79.419539,35.183382],[-79.419627,35.183372],[-79.419697,35.183324],[-79.419755,35.183224],[-79.419791,35.183194],[-79.419821,35.183186],[-79.419856,35.183194],[-79.419898,35.183188],[-79.419931,35.183167],[-79.419956,35.183166],[-79.419965,35.183158],[-79.420111,35.183194],[-79.420199,35.18317],[-79.420212,35.183141]]]}},{"type":"Feature","properties":{"k":"tee"},"geometry":{"type":"Polygon","coordinates":[[[-79.4198,35.182495],[-79.419845,35.182498],[-79.419888,35.182468],[-79.419879,35.182428],[-79.419841,35.182352],[-79.419802,35.18234],[-79.419774,35.182344],[-79.419737,35.182365],[-79.419729,35.182408],[-79.419764,35.182476],[-79.4198,35.182495]]]}},{"type":"Feature","properties":{"k":"bunker"},"geometry":{"type":"Polygon","coordinates":[[[-79.420727,35.183627],[-79.420763,35.183614],[-79.420762,35.183595],[-79.42073,35.183575],[-79.420737,35.183553],[-79.420763,35.18355],[-79.420797,35.183531],[-79.420802,35.183511],[-79.420786,35.183466],[-79.420846,35.183432],[-79.420844,35.183404],[-79.420821,35.183385],[-79.420788,35.183379],[-79.420759,35.183386],[-79.420742,35.183416],[-79.420713,35.183517],[-79.420633,35.183582],[-79.420616,35.183607],[-79.420632,35.183622],[-79.420684,35.183647],[-79.420727,35.183627]]]}},{"type":"Feature","properties":{"k":"bunker"},"geometry":{"type":"Polygon","coordinates":[[[-79.420388,35.183572],[-79.420414,35.183621],[-79.420432,35.183625],[-79.420472,35.183621],[-79.420489,35.183611],[-79.420499,35.183592],[-79.420487,35.183575],[-79.420421,35.183548],[-79.420373,35.183512],[-79.420343,35.183507],[-79.420305,35.183518],[-79.42029,35.183552],[-79.420303,35.183566],[-79.420338,35.183577],[-79.42037,35.183569],[-79.420388,35.183572]]]}},{"type":"Feature","properties":{"k":"green"},"geometry":{"type":"Polygon","coordinates":[[[-79.420511,35.183567],[-79.420411,35.183522],[-79.420384,35.18349],[-79.420378,35.183425],[-79.420426,35.183351],[-79.420463,35.183324],[-79.420541,35.183286],[-79.420635,35.183275],[-79.420677,35.183295],[-79.420713,35.183327],[-79.420734,35.183385],[-79.420711,35.183441],[-79.42069,35.18347],[-79.420653,35.183554],[-79.420617,35.183571],[-79.420564,35.183583],[-79.420511,35.183567]]]}},{"type":"Feature","properties":{"k":"tee"},"geometry":{"type":"Polygon","coordinates":[[[-79.419584,35.183863],[-79.419426,35.183929],[-79.419394,35.183932],[-79.419371,35.183915],[-79.419363,35.183894],[-79.419373,35.183866],[-79.419466,35.183825],[-79.419571,35.183791],[-79.419605,35.183798],[-79.419623,35.183816],[-79.419625,35.183835],[-79.419606,35.183855],[-79.419584,35.183863]]]}},{"type":"Feature","properties":{"k":"bunker"},"geometry":{"type":"Polygon","coordinates":[[[-79.418106,35.184794],[-79.418066,35.184799],[-79.418049,35.184777],[-79.418057,35.184729],[-79.418085,35.184713],[-79.418118,35.184712],[-79.41814,35.184724],[-79.418115,35.184762],[-79.418106,35.184794]]]}},{"type":"Feature","properties":{"k":"bunker"},"geometry":{"type":"Polygon","coordinates":[[[-79.417981,35.184774],[-79.417943,35.184798],[-79.417926,35.184792],[-79.417918,35.184778],[-79.41793,35.184751],[-79.417911,35.184729],[-79.417921,35.184716],[-79.417977,35.184715],[-79.417998,35.184731],[-79.417998,35.184754],[-79.417981,35.184774]]]}},{"type":"Feature","properties":{"k":"bunker"},"geometry":{"type":"Polygon","coordinates":[[[-79.417837,35.184905],[-79.417832,35.184967],[-79.41781,35.184984],[-79.417778,35.184989],[-79.41776,35.184979],[-79.417744,35.184895],[-79.417756,35.184867],[-79.41777,35.184855],[-79.417817,35.184855],[-79.417843,35.184884],[-79.417837,35.184905]]]}},{"type":"Feature","properties":{"k":"fairway"},"geometry":{"type":"Polygon","coordinates":[[[-79.416681,35.185243],[-79.416755,35.185249],[-79.416798,35.185313],[-79.416789,35.185393],[-79.416775,35.185438],[-79.416745,35.18549],[-79.416698,35.185529],[-79.416624,35.185556],[-79.416568,35.185554],[-79.416471,35.185538],[-79.416602,35.185631],[-79.416661,35.185626],[-79.416755,35.185591],[-79.416824,35.185543],[-79.416864,35.185499],[-79.416892,35.185409],[-79.416946,35.18536],[-79.417088,35.185258],[-79.417292,35.185086],[-79.417651,35.18486],[-79.417736,35.184797],[-79.417916,35.184703],[-79.417962,35.184684],[-79.417998,35.184681],[-79.418035,35.184662],[-79.418049,35.184646],[-79.418136,35.184604],[-79.418234,35.184595],[-79.418271,35.184571],[-79.418369,35.184534],[-79.418402,35.184507],[-79.41842,35.184458],[-79.418408,35.184396],[-79.418336,35.184363],[-79.418177,35.184344],[-79.418115,35.184374],[-79.418018,35.184345],[-79.417934,35.184338],[-79.417863,35.184357],[-79.417618,35.184494],[-79.417441,35.184575],[-79.417248,35.184689],[-79.417085,35.184828],[-79.416937,35.184976],[-79.416835,35.185058],[-79.416818,35.185102],[-79.416723,35.185224],[-79.416681,35.185243]]]}},{"type":"Feature","properties":{"k":"green"},"geometry":{"type":"Polygon","coordinates":[[[-79.416423,35.18553],[-79.416389,35.185524],[-79.416357,35.185498],[-79.416343,35.185462],[-79.416332,35.185393],[-79.416387,35.185337],[-79.41642,35.185311],[-79.416532,35.185265],[-79.416681,35.185243],[-79.416755,35.185249],[-79.416798,35.185313],[-79.416789,35.185393],[-79.416775,35.185438],[-79.416745,35.18549],[-79.416698,35.185529],[-79.416624,35.185556],[-79.416568,35.185554],[-79.416423,35.18553]]]}},{"type":"Feature","properties":{"k":"bunker"},"geometry":{"type":"Polygon","coordinates":[[[-79.416647,35.185207],[-79.416622,35.185203],[-79.416586,35.185221],[-79.416528,35.185223],[-79.416496,35.185239],[-79.416447,35.185244],[-79.416392,35.185264],[-79.416381,35.185255],[-79.416377,35.185237],[-79.41641,35.185192],[-79.416538,35.185123],[-79.416578,35.185131],[-79.41663,35.185101],[-79.416664,35.18511],[-79.416676,35.18514],[-79.416706,35.185124],[-79.416734,35.185122],[-79.416749,35.185145],[-79.41675,35.185163],[-79.416719,35.185201],[-79.416672,35.18521],[-79.416647,35.185207]]]}},{"type":"Feature","properties":{"k":"water"},"geometry":{"type":"Polygon","coordinates":[[[-79.417018,35.184759],[-79.416962,35.184793],[-79.416836,35.184827],[-79.41678,35.184885],[-79.416722,35.184961],[-79.416661,35.185015],[-79.416369,35.18514],[-79.416294,35.185242],[-79.416241,35.185347],[-79.416159,35.1854],[-79.416056,35.185413],[-79.416005,35.185373],[-79.415944,35.185339],[-79.415846,35.185238],[-79.41576,35.185242],[-79.415706,35.185224],[-79.415706,35.185127],[-79.415755,35.185028],[-79.415832,35.184948],[-79.415944,35.184866],[-79.416077,35.184791],[-79.416299,35.184694],[-79.416348,35.18465],[-79.416477,35.184503],[-79.416567,35.184434],[-79.416598,35.184387],[-79.416682,35.184326],[-79.416733,35.184224],[-79.416799,35.18415],[-79.416972,35.184089],[-79.41724,35.184053],[-79.417392,35.184043],[-79.417464,35.18402],[-79.41759,35.184041],[-79.417649,35.184078],[-79.417688,35.184089],[-79.417814,35.184085],[-79.417922,35.184244],[-79.417878,35.184264],[-79.417826,35.18431],[-79.417728,35.184329],[-79.417693,35.184346],[-79.417679,35.184379],[-79.417499,35.184455],[-79.417324,35.184547],[-79.417182,35.184598],[-79.417105,35.184616],[-79.417084,35.184644],[-79.417063,35.184703],[-79.417018,35.184759]]]}},{"type":"Feature","properties":{"k":"tee"},"geometry":{"type":"Polygon","coordinates":[[[-79.417017,35.18607],[-79.416971,35.186073],[-79.416939,35.186065],[-79.416913,35.186042],[-79.41691,35.186028],[-79.416941,35.186],[-79.416976,35.185992],[-79.417012,35.185999],[-79.417034,35.186014],[-79.417043,35.186031],[-79.417036,35.186061],[-79.417017,35.18607]]]}},{"type":"Feature","properties":{"k":"bunker"},"geometry":{"type":"Polygon","coordinates":[[[-79.417751,35.186115],[-79.417734,35.186089],[-79.417695,35.186061],[-79.417656,35.186057],[-79.417619,35.186081],[-79.417584,35.186087],[-79.417531,35.186078],[-79.417509,35.186061],[-79.417503,35.186033],[-79.417546,35.185982],[-79.41762,35.185936],[-79.417652,35.185925],[-79.417683,35.185929],[-79.417737,35.185991],[-79.4178,35.185966],[-79.417828,35.185977],[-79.417863,35.186021],[-79.417895,35.186027],[-79.417922,35.186027],[-79.418041,35.185946],[-79.418071,35.185942],[-79.418115,35.185966],[-79.41812,35.186026],[-79.418105,35.18604],[-79.41806,35.18604],[-79.418046,35.186049],[-79.418038,35.186066],[-79.418046,35.186084],[-79.41808,35.1861],[-79.418127,35.186102],[-79.418159,35.186092],[-79.418148,35.186069],[-79.418186,35.186053],[-79.418226,35.186053],[-79.418256,35.186065],[-79.418313,35.186121],[-79.418356,35.18612],[-79.418439,35.186021],[-79.418486,35.18601],[-79.418572,35.186063],[-79.418557,35.186142],[-79.418532,35.186169],[-79.41848,35.18616],[-79.418427,35.186125],[-79.418375,35.186177],[-79.418339,35.186185],[-79.41826,35.186165],[-79.418229,35.186175],[-79.418191,35.186199],[-79.41816,35.186204],[-79.418114,35.186195],[-79.418064,35.186157],[-79.418024,35.186142],[-79.417938,35.186147],[-79.417918,35.186141],[-79.417891,35.18612],[-79.417822,35.18614],[-79.417785,35.186138],[-79.417751,35.186115]]]}},{"type":"Feature","properties":{"k":"bunker"},"geometry":{"type":"Polygon","coordinates":[[[-79.420152,35.18573],[-79.420119,35.185739],[-79.420091,35.185733],[-79.420066,35.185722],[-79.420058,35.185698],[-79.42008,35.185674],[-79.420096,35.185671],[-79.420112,35.185679],[-79.420175,35.185681],[-79.420183,35.18569],[-79.420186,35.185716],[-79.420174,35.185726],[-79.420152,35.18573]]]}},{"type":"Feature","properties":{"k":"green"},"geometry":{"type":"Polygon","coordinates":[[[-79.420512,35.185567],[-79.420514,35.185603],[-79.4205,35.185627],[-79.420466,35.185654],[-79.420423,35.185668],[-79.420306,35.18566],[-79.420219,35.185667],[-79.420157,35.185653],[-79.420131,35.185633],[-79.420111,35.18555],[-79.420131,35.185508],[-79.42017,35.185465],[-79.42026,35.185434],[-79.420326,35.18543],[-79.420397,35.185444],[-79.420481,35.185495],[-79.420512,35.185567]]]}},{"type":"Feature","properties":{"k":"tee"},"geometry":{"type":"Polygon","coordinates":[[[-79.420872,35.185275],[-79.420861,35.185307],[-79.420831,35.185336],[-79.420794,35.18532],[-79.420771,35.185278],[-79.420772,35.185229],[-79.420788,35.185178],[-79.420816,35.185143],[-79.420854,35.185126],[-79.420887,35.185138],[-79.420898,35.185179],[-79.420872,35.185275]]]}},{"type":"Feature","properties":{"k":"fairway"},"geometry":{"type":"Polygon","coordinates":[[[-79.421537,35.188506],[-79.421417,35.188511],[-79.421272,35.188481],[-79.421216,35.188405],[-79.421167,35.188264],[-79.421152,35.188173],[-79.421102,35.18806],[-79.421019,35.187997],[-79.420924,35.187942],[-79.420846,35.187856],[-79.420628,35.187521],[-79.420458,35.18731],[-79.420369,35.187209],[-79.420246,35.187146],[-79.420224,35.187091],[-79.420196,35.186967],[-79.420221,35.186887],[-79.420283,35.186819],[-79.420326,35.186736],[-79.420381,35.186562],[-79.420468,35.186501],[-79.420554,35.186517],[-79.420619,35.186542],[-79.420615,35.186653],[-79.420579,35.186748],[-79.420594,35.186879],[-79.420702,35.187008],[-79.420751,35.187134],[-79.420751,35.187219],[-79.420803,35.187297],[-79.421022,35.187471],[-79.421096,35.187549],[-79.421666,35.187949],[-79.421675,35.187995],[-79.421638,35.188045],[-79.421586,35.188038],[-79.421512,35.187957],[-79.421432,35.187927],[-79.421333,35.187937],[-79.421309,35.188017],[-79.421512,35.188239],[-79.421629,35.188337],[-79.421629,35.1884],[-79.421611,35.188476],[-79.421537,35.188506]]]}},{"type":"Feature","properties":{"k":"bunker"},"geometry":{"type":"Polygon","coordinates":[[[-79.42034,35.187277],[-79.420371,35.187286],[-79.420392,35.187322],[-79.420353,35.187338],[-79.420341,35.187365],[-79.420295,35.187388],[-79.420235,35.187369],[-79.420233,35.187334],[-79.420271,35.187305],[-79.420266,35.18729],[-79.42023,35.187282],[-79.420206,35.187263],[-79.420216,35.18724],[-79.420273,35.18721],[-79.420302,35.187208],[-79.420327,35.187223],[-79.420321,35.187266],[-79.42034,35.187277]]]}},{"type":"Feature","properties":{"k":"bunker"},"geometry":{"type":"Polygon","coordinates":[[[-79.420145,35.187071],[-79.420094,35.187099],[-79.420046,35.187106],[-79.420022,35.187092],[-79.420014,35.187073],[-79.420038,35.187055],[-79.420044,35.187042],[-79.42003,35.187024],[-79.420042,35.187006],[-79.420039,35.186989],[-79.419993,35.186991],[-79.419962,35.186977],[-79.419951,35.186961],[-79.419964,35.186935],[-79.419981,35.18692],[-79.420057,35.186906],[-79.420104,35.186918],[-79.420146,35.186975],[-79.420133,35.186996],[-79.420132,35.187025],[-79.420169,35.18705],[-79.420145,35.187071]]]}},{"type":"Feature","properties":{"k":"bunker"},"geometry":{"type":"Polygon","coordinates":[[[-79.421749,35.188227],[-79.421763,35.188224],[-79.421787,35.188241],[-79.421797,35.188262],[-79.421785,35.188293],[-79.421766,35.188308],[-79.421729,35.188309],[-79.421672,35.188286],[-79.42164,35.188252],[-79.421594,35.188232],[-79.42158,35.188207],[-79.421612,35.188171],[-79.421642,35.188161],[-79.421685,35.188165],[-79.42173,35.188193],[-79.421733,35.188222],[-79.421749,35.188227]]]}},{"type":"Feature","properties":{"k":"bunker"},"geometry":{"type":"Polygon","coordinates":[[[-79.421451,35.188052],[-79.421448,35.18807],[-79.421494,35.188138],[-79.42152,35.188167],[-79.421546,35.188171],[-79.421566,35.188156],[-79.421573,35.188133],[-79.421597,35.1881],[-79.421592,35.188082],[-79.421567,35.188061],[-79.421528,35.188043],[-79.421492,35.187986],[-79.42145,35.187954],[-79.421406,35.187939],[-79.421379,35.187945],[-79.421345,35.187977],[-79.421343,35.187993],[-79.421358,35.188024],[-79.421385,35.188037],[-79.421426,35.188027],[-79.421443,35.188032],[-79.421451,35.188052]]]}},{"type":"Feature","properties":{"k":"green"},"geometry":{"type":"Polygon","coordinates":[[[-79.422612,35.188444],[-79.422629,35.188428],[-79.422607,35.188391],[-79.422571,35.18836],[-79.422476,35.188371],[-79.422425,35.188358],[-79.422348,35.188353],[-79.422239,35.188362],[-79.422197,35.18838],[-79.422128,35.188455],[-79.422117,35.188524],[-79.422138,35.188569],[-79.422174,35.188599],[-79.422283,35.18863],[-79.422341,35.188633],[-79.422393,35.188619],[-79.422445,35.188561],[-79.42255,35.188488],[-79.42259,35.188471],[-79.422612,35.188444]]]}},{"type":"Feature","properties":{"k":"green"},"geometry":{"type":"Polygon","coordinates":[[[-79.422629,35.188428],[-79.422709,35.18839],[-79.422778,35.188406],[-79.422829,35.188456],[-79.422873,35.188471],[-79.422922,35.188477],[-79.422994,35.18847],[-79.423072,35.188416],[-79.423149,35.188317],[-79.42315,35.188281],[-79.42313,35.188233],[-79.42308,35.188206],[-79.422995,35.188187],[-79.422946,35.188185],[-79.422813,35.1882],[-79.422677,35.188275],[-79.422585,35.188357],[-79.422571,35.18836],[-79.422607,35.188391],[-79.422629,35.188428]]]}},{"type":"Feature","properties":{"k":"bunker"},"geometry":{"type":"Polygon","coordinates":[[[-79.422549,35.188596],[-79.422594,35.188598],[-79.422595,35.188617],[-79.422584,35.188634],[-79.422556,35.188635],[-79.422523,35.188626],[-79.422458,35.18864],[-79.422438,35.188635],[-79.422432,35.188623],[-79.422476,35.188587],[-79.422502,35.188543],[-79.422529,35.188542],[-79.422548,35.188567],[-79.422549,35.188596]]]}},{"type":"Feature","properties":{"k":"bunker"},"geometry":{"type":"Polygon","coordinates":[[[-79.423276,35.188479],[-79.423233,35.188495],[-79.423135,35.188495],[-79.423101,35.188443],[-79.423103,35.188419],[-79.423213,35.188339],[-79.42329,35.188346],[-79.423305,35.188362],[-79.423306,35.188417],[-79.423302,35.18845],[-79.423293,35.188468],[-79.423276,35.188479]]]}},{"type":"Feature","properties":{"k":"tee"},"geometry":{"type":"Polygon","coordinates":[[[-79.424954,35.191143],[-79.42495,35.191165],[-79.42491,35.191178],[-79.424877,35.191159],[-79.424871,35.191],[-79.424887,35.190972],[-79.424916,35.190964],[-79.424937,35.190983],[-79.424947,35.191012],[-79.424954,35.191143]]]}},{"type":"Feature","properties":{"k":"fairway"},"geometry":{"type":"Polygon","coordinates":[[[-79.424971,35.194208],[-79.424831,35.194212],[-79.42479,35.1942],[-79.424748,35.194157],[-79.424722,35.194115],[-79.424695,35.194037],[-79.424688,35.19398],[-79.424694,35.193923],[-79.424738,35.193821],[-79.424813,35.193725],[-79.424904,35.193628],[-79.424936,35.193565],[-79.42492,35.193477],[-79.424869,35.193398],[-79.424842,35.193315],[-79.424872,35.193212],[-79.424936,35.193129],[-79.424969,35.193047],[-79.424923,35.19296],[-79.424893,35.192846],[-79.424885,35.192763],[-79.424931,35.192638],[-79.424934,35.192489],[-79.424896,35.192405],[-79.424885,35.192234],[-79.424901,35.19212],[-79.424899,35.192026],[-79.424909,35.191936],[-79.424985,35.191892],[-79.425078,35.191875],[-79.425167,35.191888],[-79.425213,35.191943],[-79.425196,35.192022],[-79.42518,35.192228],[-79.425183,35.192293],[-79.425229,35.192502],[-79.425213,35.192714],[-79.425245,35.192817],[-79.425256,35.192883],[-79.425229,35.193028],[-79.425213,35.193183],[-79.42515,35.193513],[-79.425125,35.193576],[-79.425083,35.193626],[-79.42496,35.193717],[-79.42495,35.193744],[-79.424962,35.193776],[-79.424964,35.193949],[-79.424911,35.193919],[-79.424858,35.193915],[-79.42481,35.19393],[-79.424766,35.193956],[-79.424738,35.19399],[-79.424729,35.194018],[-79.424741,35.194053],[-79.424794,35.19411],[-79.424942,35.194201],[-79.424971,35.194208]]]}},{"type":"Feature","properties":{"k":"green"},"geometry":{"type":"Polygon","coordinates":[[[-79.425066,35.194164],[-79.425082,35.194135],[-79.425081,35.194086],[-79.425058,35.194057],[-79.424997,35.194021],[-79.424964,35.193949],[-79.424911,35.193919],[-79.424858,35.193915],[-79.42481,35.19393],[-79.424766,35.193956],[-79.424738,35.19399],[-79.424729,35.194018],[-79.424741,35.194053],[-79.424794,35.19411],[-79.424942,35.194201],[-79.424971,35.194208],[-79.425016,35.194204],[-79.425045,35.19419],[-79.425066,35.194164]]]}},{"type":"Feature","properties":{"k":"bunker"},"geometry":{"type":"Polygon","coordinates":[[[-79.425078,35.193968],[-79.425093,35.193911],[-79.42513,35.193874],[-79.425151,35.193813],[-79.425131,35.193771],[-79.425093,35.193749],[-79.425053,35.193739],[-79.42501,35.193744],[-79.424986,35.193778],[-79.424993,35.193831],[-79.424971,35.193914],[-79.424973,35.193942],[-79.425,35.193997],[-79.425013,35.194003],[-79.425067,35.193986],[-79.425078,35.193968]]]}},{"type":"Feature","properties":{"k":"bunker"},"geometry":{"type":"Polygon","coordinates":[[[-79.424773,35.193563],[-79.42479,35.193574],[-79.424831,35.193637],[-79.424866,35.193617],[-79.424882,35.193595],[-79.424871,35.19357],[-79.424876,35.193519],[-79.424855,35.193501],[-79.424816,35.193495],[-79.424801,35.193482],[-79.424794,35.193432],[-79.424778,35.193416],[-79.424747,35.193402],[-79.424731,35.193379],[-79.424737,35.193336],[-79.424729,35.193292],[-79.424744,35.193251],[-79.424744,35.193225],[-79.42475,35.193211],[-79.424773,35.193197],[-79.424801,35.193191],[-79.424873,35.193141],[-79.424899,35.193109],[-79.424907,35.193084],[-79.424877,35.193035],[-79.424886,35.192976],[-79.424861,35.192934],[-79.424831,35.192925],[-79.42476,35.192921],[-79.424698,35.192931],[-79.424651,35.192958],[-79.424664,35.193091],[-79.424624,35.193167],[-79.424642,35.193191],[-79.424594,35.193258],[-79.424601,35.193292],[-79.42465,35.193398],[-79.424619,35.193428],[-79.424612,35.193454],[-79.424641,35.193529],[-79.424654,35.193547],[-79.424693,35.193566],[-79.424758,35.193559],[-79.424773,35.193563]]]}},{"type":"Feature","properties":{"k":"tee"},"geometry":{"type":"Polygon","coordinates":[[[-79.424463,35.194597],[-79.424501,35.194584],[-79.424501,35.194553],[-79.424482,35.194516],[-79.424419,35.194455],[-79.424392,35.194445],[-79.424365,35.19445],[-79.424352,35.194467],[-79.424358,35.194491],[-79.424403,35.194574],[-79.424429,35.194593],[-79.424463,35.194597]]]}},{"type":"Feature","properties":{"k":"bunker"},"geometry":{"type":"Polygon","coordinates":[[[-79.424873,35.195177],[-79.424821,35.195132],[-79.424758,35.195111],[-79.424751,35.195096],[-79.42476,35.195047],[-79.424756,35.194994],[-79.424714,35.194951],[-79.424618,35.194918],[-79.424601,35.194901],[-79.424631,35.194817],[-79.424662,35.194779],[-79.424682,35.19477],[-79.424709,35.194774],[-79.424725,35.194796],[-79.424686,35.194856],[-79.424693,35.19489],[-79.424723,35.194921],[-79.424777,35.194946],[-79.42483,35.194942],[-79.424858,35.194923],[-79.424919,35.194859],[-79.424921,35.194832],[-79.42494,35.194804],[-79.424958,35.194797],[-79.424973,35.194808],[-79.424967,35.19484],[-79.424938,35.194874],[-79.424923,35.194918],[-79.424825,35.19498],[-79.424819,35.194997],[-79.42483,35.195043],[-79.424822,35.195073],[-79.424828,35.195089],[-79.424844,35.195104],[-79.42488,35.19512],[-79.424908,35.195117],[-79.424921,35.195105],[-79.424962,35.195109],[-79.424979,35.19513],[-79.424984,35.195166],[-79.424964,35.195188],[-79.424932,35.195194],[-79.424873,35.195177]]]}},{"type":"Feature","properties":{"k":"bunker"},"geometry":{"type":"Polygon","coordinates":[[[-79.425453,35.195205],[-79.425475,35.195192],[-79.42549,35.19517],[-79.425527,35.195141],[-79.425569,35.195143],[-79.425589,35.19516],[-79.425597,35.195181],[-79.425589,35.19522],[-79.42557,35.195235],[-79.425545,35.195243],[-79.425504,35.195275],[-79.425448,35.195296],[-79.425382,35.19525],[-79.42533,35.195257],[-79.425294,35.195251],[-79.425259,35.195206],[-79.425243,35.195199],[-79.425176,35.195204],[-79.425149,35.195186],[-79.425144,35.195139],[-79.425152,35.195131],[-79.425262,35.195098],[-79.425296,35.195052],[-79.425296,35.195029],[-79.425256,35.194938],[-79.42524,35.194925],[-79.425182,35.194913],[-79.425163,35.194894],[-79.425167,35.194839],[-79.425202,35.194781],[-79.425193,35.194733],[-79.425154,35.194664],[-79.425163,35.194646],[-79.425187,35.19463],[-79.425265,35.194646],[-79.425286,35.194661],[-79.425293,35.194681],[-79.425295,35.194696],[-79.425244,35.19481],[-79.425243,35.194825],[-79.425263,35.194857],[-79.425332,35.194898],[-79.42544,35.194913],[-79.425478,35.194957],[-79.425484,35.194983],[-79.425474,35.195007],[-79.425439,35.195045],[-79.4254,35.195062],[-79.425381,35.195085],[-79.425364,35.195137],[-79.425387,35.195195],[-79.425431,35.195212],[-79.425453,35.195205]]]}},{"type":"Feature","properties":{"k":"bunker"},"geometry":{"type":"Polygon","coordinates":[[[-79.425279,35.195398],[-79.425201,35.195388],[-79.425189,35.195375],[-79.425214,35.195299],[-79.425254,35.195289],[-79.425287,35.195296],[-79.425324,35.195338],[-79.425334,35.195355],[-79.425327,35.195373],[-79.425303,35.195395],[-79.425279,35.195398]]]}},{"type":"Feature","properties":{"k":"bunker"},"geometry":{"type":"Polygon","coordinates":[[[-79.42502,35.195581],[-79.425048,35.195566],[-79.425063,35.195541],[-79.425065,35.195479],[-79.425037,35.195442],[-79.425043,35.195409],[-79.425083,35.195396],[-79.425111,35.195375],[-79.425115,35.195355],[-79.425099,35.195323],[-79.425111,35.195272],[-79.425107,35.195247],[-79.42508,35.195237],[-79.425016,35.195254],[-79.424966,35.195232],[-79.424945,35.195232],[-79.424904,35.195257],[-79.424888,35.195307],[-79.424903,35.195324],[-79.424976,35.195339],[-79.424988,35.195355],[-79.42499,35.195382],[-79.42498,35.195402],[-79.424874,35.19549],[-79.424853,35.195522],[-79.424863,35.195539],[-79.42491,35.195566],[-79.424926,35.195569],[-79.424954,35.19556],[-79.424989,35.195581],[-79.42502,35.195581]]]}},{"type":"Feature","properties":{"k":"bunker"},"geometry":{"type":"Polygon","coordinates":[[[-79.425509,35.195694],[-79.425545,35.195671],[-79.425557,35.195645],[-79.425553,35.195631],[-79.425484,35.195533],[-79.425452,35.195514],[-79.42544,35.195481],[-79.42544,35.195407],[-79.425421,35.19541],[-79.425397,35.195424],[-79.42538,35.195451],[-79.425387,35.195528],[-79.425422,35.195563],[-79.425431,35.195591],[-79.425465,35.195626],[-79.425482,35.195689],[-79.425509,35.195694]]]}},{"type":"Feature","properties":{"k":"bunker"},"geometry":{"type":"Polygon","coordinates":[[[-79.425253,35.195841],[-79.425263,35.195835],[-79.425265,35.195742],[-79.425209,35.195723],[-79.425173,35.195726],[-79.42515,35.195738],[-79.425165,35.195819],[-79.425184,35.195849],[-79.425222,35.195856],[-79.425253,35.195841]]]}},{"type":"Feature","properties":{"k":"green"},"geometry":{"type":"Polygon","coordinates":[[[-79.425398,35.19564],[-79.425354,35.195681],[-79.425263,35.195709],[-79.425145,35.195708],[-79.425092,35.195684],[-79.425091,35.195629],[-79.425108,35.19554],[-79.425092,35.19546],[-79.425103,35.195442],[-79.425122,35.195425],[-79.425189,35.195417],[-79.42525,35.195439],[-79.42539,35.195544],[-79.425407,35.19557],[-79.425413,35.195604],[-79.425398,35.19564]]]}},{"type":"Feature","properties":{"k":"tee"},"geometry":{"type":"Polygon","coordinates":[[[-79.426607,35.195271],[-79.426576,35.195277],[-79.426553,35.19526],[-79.426554,35.195216],[-79.426569,35.195201],[-79.426601,35.1952],[-79.42662,35.195211],[-79.426629,35.195236],[-79.426624,35.195259],[-79.426607,35.195271]]]}},{"type":"Feature","properties":{"k":"bunker"},"geometry":{"type":"Polygon","coordinates":[[[-79.426311,35.194216],[-79.426338,35.194257],[-79.426338,35.194285],[-79.426313,35.194311],[-79.426271,35.194324],[-79.426243,35.194324],[-79.426191,35.194287],[-79.426166,35.194249],[-79.426178,35.194231],[-79.426238,35.194201],[-79.42626,35.194174],[-79.426258,35.194158],[-79.42619,35.194111],[-79.426187,35.194083],[-79.426198,35.19406],[-79.426232,35.194048],[-79.426245,35.194029],[-79.426235,35.194014],[-79.426205,35.194003],[-79.426184,35.193972],[-79.426238,35.193924],[-79.42625,35.193885],[-79.42628,35.19387],[-79.426299,35.193879],[-79.42631,35.193931],[-79.426343,35.19396],[-79.426334,35.193998],[-79.42635,35.194035],[-79.426351,35.194062],[-79.426305,35.194191],[-79.426311,35.194216]]]}},{"type":"Feature","properties":{"k":"green"},"geometry":{"type":"Polygon","coordinates":[[[-79.426523,35.192126],[-79.426443,35.192205],[-79.426405,35.192221],[-79.426356,35.192236],[-79.426318,35.192234],[-79.426293,35.192219],[-79.426275,35.192165],[-79.426279,35.192119],[-79.426231,35.192059],[-79.426226,35.192041],[-79.426232,35.19197],[-79.426279,35.191899],[-79.426315,35.191888],[-79.426368,35.191887],[-79.426417,35.191902],[-79.426489,35.191933],[-79.426574,35.191997],[-79.426555,35.192077],[-79.426523,35.192126]]]}},{"type":"Feature","properties":{"k":"bunker"},"geometry":{"type":"Polygon","coordinates":[[[-79.426428,35.19234],[-79.426421,35.192352],[-79.426398,35.192361],[-79.426374,35.192346],[-79.426365,35.192317],[-79.426344,35.192289],[-79.426354,35.192256],[-79.426394,35.192245],[-79.426434,35.192256],[-79.426425,35.192293],[-79.426433,35.192303],[-79.426428,35.19234]]]}},{"type":"Feature","properties":{"k":"bunker"},"geometry":{"type":"Polygon","coordinates":[[[-79.426603,35.192197],[-79.426617,35.192165],[-79.426668,35.192117],[-79.426655,35.192044],[-79.426639,35.192028],[-79.426609,35.192036],[-79.426583,35.192059],[-79.42657,35.192148],[-79.426529,35.192154],[-79.426498,35.192173],[-79.426496,35.192191],[-79.426528,35.192223],[-79.426533,35.192239],[-79.426491,35.192264],[-79.426486,35.192275],[-79.426487,35.192308],[-79.426504,35.192347],[-79.4265,35.192443],[-79.426538,35.19253],[-79.426523,35.192608],[-79.426566,35.192698],[-79.426572,35.192791],[-79.426588,35.192815],[-79.426601,35.192865],[-79.426667,35.192895],[-79.426697,35.192881],[-79.426699,35.192867],[-79.426677,35.192835],[-79.426669,35.192802],[-79.42667,35.192754],[-79.426624,35.192723],[-79.426643,35.192637],[-79.426588,35.192574],[-79.426585,35.19255],[-79.426594,35.192521],[-79.426586,35.192455],[-79.426603,35.192392],[-79.426582,35.19236],[-79.426567,35.192312],[-79.426603,35.192229],[-79.426603,35.192197]]]}},{"type":"Feature","properties":{"k":"bunker"},"geometry":{"type":"Polygon","coordinates":[[[-79.426737,35.192454],[-79.426775,35.192501],[-79.426778,35.192527],[-79.426756,35.192541],[-79.426708,35.192529],[-79.426693,35.192533],[-79.426672,35.192553],[-79.42667,35.192567],[-79.426675,35.192582],[-79.426715,35.192587],[-79.426749,35.192601],[-79.426752,35.192616],[-79.426738,35.192664],[-79.426744,35.192674],[-79.426773,35.192685],[-79.426807,35.192679],[-79.426832,35.192652],[-79.426829,35.192631],[-79.4268,35.192597],[-79.426798,35.192553],[-79.426831,35.192517],[-79.426912,35.19247],[-79.426948,35.192429],[-79.426962,35.192341],[-79.426943,35.192302],[-79.426832,35.192306],[-79.426807,35.192281],[-79.426796,35.192234],[-79.426784,35.192224],[-79.42676,35.192213],[-79.426713,35.192212],[-79.426647,35.192254],[-79.426637,35.192268],[-79.426633,35.192307],[-79.426698,35.192343],[-79.426724,35.192369],[-79.426722,35.19239],[-79.426679,35.192421],[-79.42667,35.192438],[-79.426672,35.192471],[-79.42669,35.192479],[-79.426717,35.192456],[-79.426737,35.192454]]]}},{"type":"Feature","properties":{"k":"tee"},"geometry":{"type":"Polygon","coordinates":[[[-79.427295,35.191432],[-79.427263,35.191435],[-79.427251,35.191428],[-79.427243,35.191417],[-79.427246,35.191397],[-79.42729,35.191363],[-79.42733,35.191361],[-79.427343,35.19137],[-79.427343,35.191391],[-79.427295,35.191432]]]}},{"type":"Feature","properties":{"k":"green"},"geometry":{"type":"Polygon","coordinates":[[[-79.429922,35.189383],[-79.429798,35.189403],[-79.429721,35.189444],[-79.429678,35.189449],[-79.429623,35.189423],[-79.429605,35.189398],[-79.429584,35.189333],[-79.42959,35.189303],[-79.429623,35.189275],[-79.429754,35.189201],[-79.429803,35.189191],[-79.429943,35.189202],[-79.429995,35.189222],[-79.430015,35.189248],[-79.430019,35.189278],[-79.430008,35.189323],[-79.429981,35.189353],[-79.429922,35.189383]]]}},{"type":"Feature","properties":{"k":"bunker"},"geometry":{"type":"Polygon","coordinates":[[[-79.430105,35.189168],[-79.430061,35.189179],[-79.430053,35.189192],[-79.430032,35.189202],[-79.429954,35.189171],[-79.429939,35.189129],[-79.429952,35.189117],[-79.43002,35.189103],[-79.430062,35.189087],[-79.430145,35.189093],[-79.430178,35.189124],[-79.430178,35.18914],[-79.430153,35.189161],[-79.430105,35.189168]]]}},{"type":"Feature","properties":{"k":"tee"},"geometry":{"type":"Polygon","coordinates":[[[-79.428788,35.188985],[-79.428777,35.189005],[-79.428754,35.189011],[-79.428727,35.189001],[-79.428709,35.188982],[-79.428688,35.188793],[-79.428693,35.18877],[-79.428715,35.188754],[-79.428758,35.188772],[-79.428768,35.1888],[-79.428788,35.188985]]]}},{"type":"Feature","properties":{"k":"bunker"},"geometry":{"type":"Polygon","coordinates":[[[-79.428782,35.189261],[-79.428767,35.189271],[-79.428693,35.189279],[-79.428673,35.189264],[-79.428673,35.189177],[-79.428656,35.189154],[-79.428627,35.189146],[-79.428541,35.189161],[-79.428522,35.189192],[-79.428499,35.189195],[-79.428478,35.189188],[-79.428461,35.189179],[-79.428447,35.189146],[-79.428492,35.189086],[-79.428492,35.189055],[-79.428435,35.189041],[-79.428366,35.189049],[-79.428346,35.189046],[-79.428337,35.189036],[-79.428344,35.189015],[-79.428388,35.188994],[-79.428437,35.18899],[-79.428487,35.189005],[-79.42852,35.189007],[-79.428555,35.188989],[-79.428559,35.188974],[-79.428552,35.188945],[-79.428522,35.188922],[-79.428486,35.188921],[-79.428389,35.188942],[-79.428334,35.188932],[-79.428315,35.188904],[-79.428314,35.188884],[-79.428322,35.188867],[-79.42836,35.188832],[-79.428383,35.188824],[-79.428422,35.18882],[-79.428442,35.188827],[-79.42848,35.188827],[-79.428496,35.18882],[-79.428501,35.188808],[-79.428492,35.188779],[-79.428392,35.188749],[-79.428364,35.18873],[-79.428363,35.188719],[-79.428376,35.188702],[-79.428403,35.188698],[-79.428465,35.188716],[-79.428493,35.1887],[-79.428489,35.188669],[-79.42846,35.188653],[-79.428368,35.188634],[-79.428281,35.188677],[-79.428266,35.188669],[-79.428262,35.188657],[-79.428261,35.188624],[-79.428276,35.188607],[-79.42833,35.188585],[-79.428365,35.188592],[-79.428428,35.188629],[-79.42846,35.18863],[-79.42847,35.188617],[-79.428472,35.188589],[-79.428427,35.18853],[-79.428429,35.188503],[-79.428472,35.188449],[-79.428478,35.188415],[-79.428461,35.18839],[-79.428434,35.18838],[-79.428399,35.188378],[-79.428361,35.188385],[-79.428313,35.18848],[-79.428292,35.188491],[-79.42827,35.188486],[-79.428237,35.188444],[-79.428233,35.188392],[-79.428246,35.188326],[-79.428214,35.188209],[-79.428254,35.188203],[-79.428402,35.188296],[-79.428439,35.18831],[-79.428481,35.188308],[-79.428494,35.188286],[-79.428476,35.188247],[-79.428443,35.188218],[-79.428439,35.188135],[-79.428421,35.188109],[-79.428372,35.18809],[-79.428291,35.188089],[-79.428277,35.188073],[-79.428273,35.188047],[-79.428303,35.188009],[-79.428306,35.187985],[-79.428301,35.187963],[-79.428282,35.187945],[-79.428233,35.187936],[-79.428229,35.187916],[-79.428261,35.187876],[-79.428258,35.187853],[-79.428243,35.187845],[-79.428222,35.187797],[-79.428201,35.187723],[-79.428178,35.187694],[-79.428163,35.187542],[-79.428181,35.187467],[-79.42822,35.187464],[-79.428247,35.187499],[-79.428254,35.187565],[-79.42824,35.187594],[-79.428287,35.187681],[-79.428271,35.187701],[-79.428284,35.18772],[-79.428326,35.187736],[-79.42834,35.187771],[-79.428348,35.187824],[-79.428397,35.18784],[-79.428422,35.187859],[-79.428416,35.187883],[-79.428381,35.187934],[-79.428386,35.187959],[-79.428406,35.187973],[-79.428462,35.187964],[-79.428494,35.187969],[-79.428523,35.187988],[-79.428544,35.187988],[-79.428599,35.187964],[-79.428602,35.187925],[-79.428562,35.187886],[-79.428569,35.187847],[-79.428599,35.187846],[-79.428645,35.187824],[-79.428673,35.187752],[-79.428689,35.18774],[-79.42873,35.187744],[-79.428747,35.187759],[-79.42878,35.187817],[-79.428773,35.187849],[-79.428726,35.18788],[-79.428709,35.187884],[-79.428702,35.187919],[-79.428706,35.187939],[-79.42872,35.187951],[-79.428795,35.187956],[-79.428812,35.187972],[-79.428805,35.187996],[-79.428773,35.18803],[-79.428753,35.188039],[-79.428665,35.188059],[-79.428583,35.188062],[-79.428555,35.188082],[-79.428548,35.188111],[-79.428572,35.188153],[-79.428627,35.188175],[-79.428634,35.188214],[-79.428619,35.188258],[-79.428629,35.188284],[-79.428658,35.188319],[-79.428686,35.18833],[-79.428693,35.188341],[-79.428666,35.188401],[-79.428677,35.188421],[-79.428737,35.188451],[-79.428741,35.188477],[-79.428674,35.188542],[-79.428685,35.188564],[-79.428716,35.188588],[-79.428742,35.188679],[-79.428702,35.188703],[-79.428654,35.188709],[-79.428633,35.188719],[-79.4286,35.188752],[-79.428598,35.188778],[-79.428622,35.188849],[-79.428615,35.188867],[-79.428594,35.188881],[-79.42859,35.188897],[-79.428602,35.188917],[-79.428651,35.188948],[-79.428659,35.188963],[-79.428639,35.189006],[-79.428637,35.189032],[-79.428659,35.189054],[-79.42872,35.189056],[-79.428764,35.189066],[-79.428774,35.189089],[-79.428773,35.18911],[-79.42872,35.189153],[-79.428731,35.189197],[-79.428789,35.189233],[-79.428782,35.189261]]]}},{"type":"Feature","properties":{"k":"fairway"},"geometry":{"type":"Polygon","coordinates":[[[-79.428707,35.187634],[-79.428658,35.187741],[-79.428601,35.187794],[-79.428532,35.187823],[-79.428485,35.187823],[-79.428438,35.187802],[-79.428342,35.187676],[-79.428326,35.18763],[-79.428314,35.187401],[-79.428324,35.187241],[-79.428387,35.187107],[-79.428443,35.187048],[-79.428522,35.186999],[-79.428571,35.187002],[-79.428641,35.187035],[-79.4287,35.187081],[-79.428728,35.18722],[-79.428744,35.187403],[-79.428732,35.187582],[-79.428707,35.187634]]]}},{"type":"Feature","properties":{"k":"bunker"},"geometry":{"type":"Polygon","coordinates":[[[-79.42843,35.186931],[-79.428409,35.186928],[-79.428391,35.186939],[-79.428386,35.186955],[-79.428401,35.187013],[-79.428393,35.187038],[-79.428375,35.187055],[-79.428315,35.187054],[-79.428275,35.187071],[-79.428255,35.187068],[-79.428251,35.187039],[-79.42826,35.187027],[-79.42828,35.187012],[-79.428344,35.187003],[-79.428339,35.18696],[-79.428318,35.186948],[-79.428294,35.186954],[-79.428248,35.187002],[-79.428224,35.187014],[-79.428198,35.187014],[-79.428185,35.187002],[-79.428182,35.186976],[-79.428217,35.186939],[-79.42819,35.186886],[-79.428196,35.18687],[-79.428245,35.186848],[-79.428224,35.186794],[-79.428242,35.186769],[-79.428262,35.186768],[-79.428275,35.186779],[-79.428298,35.186816],[-79.428308,35.186815],[-79.42833,35.186777],[-79.428347,35.186766],[-79.428365,35.186766],[-79.428428,35.186801],[-79.428443,35.186802],[-79.428456,35.186794],[-79.428468,35.186773],[-79.428438,35.186722],[-79.428443,35.186693],[-79.428417,35.186635],[-79.428356,35.186637],[-79.428344,35.186635],[-79.428337,35.186625],[-79.428367,35.186576],[-79.428351,35.186535],[-79.428368,35.186523],[-79.428385,35.186522],[-79.428445,35.186543],[-79.428465,35.186543],[-79.428476,35.18653],[-79.428468,35.186514],[-79.428411,35.186492],[-79.428401,35.186478],[-79.428403,35.186466],[-79.428422,35.186454],[-79.428456,35.186444],[-79.428448,35.186399],[-79.428464,35.186383],[-79.428448,35.186338],[-79.428493,35.186319],[-79.428518,35.186292],[-79.428544,35.186278],[-79.428576,35.186269],[-79.428598,35.186271],[-79.428612,35.186287],[-79.428617,35.18635],[-79.42864,35.186385],[-79.428622,35.186445],[-79.428632,35.186465],[-79.428622,35.186479],[-79.428586,35.186483],[-79.42856,35.186494],[-79.428552,35.186512],[-79.428562,35.186527],[-79.428561,35.186576],[-79.428534,35.186622],[-79.428545,35.186636],[-79.428562,35.186642],[-79.428584,35.186637],[-79.428618,35.186644],[-79.428619,35.186661],[-79.428612,35.186685],[-79.428551,35.186712],[-79.428545,35.186727],[-79.428552,35.186754],[-79.428573,35.18678],[-79.428568,35.186796],[-79.428541,35.186819],[-79.428552,35.186847],[-79.428548,35.186865],[-79.428497,35.186868],[-79.428476,35.186881],[-79.428471,35.186889],[-79.428484,35.186916],[-79.428475,35.18694],[-79.428455,35.186942],[-79.42843,35.186931]]]}},{"type":"Feature","properties":{"k":"fairway"},"geometry":{"type":"Polygon","coordinates":[[[-79.428647,35.185916],[-79.428693,35.18601],[-79.428692,35.186069],[-79.428637,35.186152],[-79.428577,35.186201],[-79.428441,35.186282],[-79.428404,35.186323],[-79.428405,35.18641],[-79.428397,35.186441],[-79.428342,35.186531],[-79.428312,35.186622],[-79.428325,35.186643],[-79.428377,35.18667],[-79.428397,35.186697],[-79.428394,35.18672],[-79.428362,35.186742],[-79.428315,35.186745],[-79.428276,35.186735],[-79.428219,35.186694],[-79.428208,35.186672],[-79.428208,35.186637],[-79.428214,35.186606],[-79.428264,35.186536],[-79.428294,35.186477],[-79.428334,35.18636],[-79.428337,35.186319],[-79.428319,35.186289],[-79.428291,35.186269],[-79.428244,35.186216],[-79.428212,35.186145],[-79.42822,35.186102],[-79.428211,35.186018],[-79.428217,35.185901],[-79.428231,35.185853],[-79.428253,35.185826],[-79.428315,35.185782],[-79.42832,35.185917],[-79.428298,35.185995],[-79.428295,35.186068],[-79.428327,35.186101],[-79.42837,35.186123],[-79.428429,35.186119],[-79.428498,35.186047],[-79.428629,35.185992],[-79.428648,35.185947],[-79.428647,35.185916]]]}},{"type":"Feature","properties":{"k":"green"},"geometry":{"type":"Polygon","coordinates":[[[-79.428567,35.18602],[-79.428498,35.186047],[-79.428429,35.186119],[-79.42837,35.186123],[-79.428327,35.186101],[-79.428295,35.186068],[-79.428298,35.185995],[-79.42832,35.185917],[-79.428315,35.185782],[-79.428329,35.185761],[-79.428361,35.185747],[-79.428417,35.185741],[-79.428499,35.18578],[-79.428624,35.185871],[-79.428647,35.185916],[-79.428641,35.185971],[-79.428629,35.185992],[-79.428567,35.18602]]]}},{"type":"Feature","properties":{"k":"tee"},"geometry":{"type":"Polygon","coordinates":[[[-79.428333,35.18442],[-79.428316,35.18442],[-79.428282,35.184403],[-79.428267,35.184351],[-79.428293,35.184343],[-79.42833,35.184355],[-79.428347,35.184393],[-79.428344,35.184413],[-79.428333,35.18442]]]}},{"type":"Feature","properties":{"k":"bunker"},"geometry":{"type":"Polygon","coordinates":[[[-79.42603,35.181755],[-79.42599,35.181766],[-79.425952,35.181792],[-79.425921,35.18179],[-79.425894,35.181779],[-79.425879,35.181735],[-79.425885,35.18169],[-79.425875,35.181668],[-79.425859,35.181656],[-79.425823,35.181645],[-79.425799,35.181624],[-79.425788,35.18157],[-79.425741,35.181563],[-79.425727,35.18155],[-79.42573,35.181514],[-79.425777,35.181468],[-79.425816,35.181476],[-79.425847,35.1815],[-79.425866,35.181566],[-79.425912,35.181594],[-79.425964,35.181603],[-79.425986,35.181626],[-79.426005,35.181664],[-79.426032,35.181667],[-79.426066,35.181688],[-79.42607,35.181709],[-79.426056,35.181748],[-79.42603,35.181755]]]}},{"type":"Feature","properties":{"k":"bunker"},"geometry":{"type":"Polygon","coordinates":[[[-79.426102,35.181067],[-79.426109,35.181103],[-79.426088,35.181123],[-79.426035,35.181121],[-79.426014,35.181109],[-79.425987,35.181057],[-79.425936,35.181061],[-79.425911,35.181057],[-79.425887,35.181036],[-79.425893,35.180965],[-79.425905,35.180954],[-79.425958,35.180946],[-79.426022,35.180951],[-79.426076,35.180963],[-79.426105,35.180982],[-79.426123,35.181038],[-79.426102,35.181067]]]}},{"type":"Feature","properties":{"k":"bunker"},"geometry":{"type":"Polygon","coordinates":[[[-79.425643,35.181177],[-79.425644,35.18121],[-79.42563,35.18124],[-79.425602,35.181264],[-79.425523,35.181271],[-79.425495,35.181263],[-79.425471,35.181239],[-79.425454,35.181176],[-79.425476,35.181097],[-79.425561,35.181079],[-79.425608,35.181091],[-79.425634,35.181117],[-79.425646,35.181157],[-79.425643,35.181177]]]}},{"type":"Feature","properties":{"k":"green"},"geometry":{"type":"Polygon","coordinates":[[[-79.425448,35.181234],[-79.425472,35.181338],[-79.42545,35.181355],[-79.425413,35.181362],[-79.425295,35.181322],[-79.42522,35.181247],[-79.425156,35.181169],[-79.42515,35.181107],[-79.42516,35.181085],[-79.42518,35.181064],[-79.425273,35.181023],[-79.425365,35.181012],[-79.425399,35.181019],[-79.425425,35.181037],[-79.425464,35.181107],[-79.425441,35.181169],[-79.425448,35.181234]]]}},{"type":"Feature","properties":{"k":"tee"},"geometry":{"type":"Polygon","coordinates":[[[-79.424909,35.18119],[-79.424875,35.181244],[-79.424854,35.181259],[-79.424835,35.181254],[-79.424828,35.181232],[-79.424836,35.181174],[-79.424846,35.181147],[-79.424866,35.181129],[-79.424907,35.181146],[-79.424909,35.18119]]]}},{"type":"Feature","properties":{"k":"fairway"},"geometry":{"type":"Polygon","coordinates":[[[-79.423926,35.18225],[-79.423724,35.182416],[-79.423625,35.182448],[-79.423598,35.182476],[-79.423587,35.18251],[-79.423558,35.182557],[-79.423496,35.182628],[-79.423441,35.182723],[-79.423387,35.18291],[-79.423351,35.182959],[-79.423311,35.18299],[-79.423273,35.182995],[-79.42324,35.182983],[-79.423202,35.18294],[-79.4232,35.182916],[-79.423214,35.182888],[-79.423292,35.182798],[-79.423291,35.182571],[-79.423255,35.182359],[-79.423169,35.182191],[-79.423166,35.182137],[-79.42319,35.182106],[-79.423285,35.182058],[-79.423386,35.182033],[-79.423535,35.182031],[-79.42374,35.182043],[-79.424145,35.181976],[-79.424173,35.181993],[-79.424184,35.182017],[-79.424175,35.182043],[-79.424053,35.182106],[-79.424032,35.182141],[-79.423979,35.182203],[-79.423926,35.18225]]]}},{"type":"Feature","properties":{"k":"green"},"geometry":{"type":"Polygon","coordinates":[[[-79.422777,35.183377],[-79.422746,35.183397],[-79.422704,35.183401],[-79.42266,35.183395],[-79.422603,35.183352],[-79.422565,35.183283],[-79.42256,35.183211],[-79.422579,35.183089],[-79.422593,35.183028],[-79.422609,35.183016],[-79.422737,35.183022],[-79.422795,35.183056],[-79.42284,35.183098],[-79.422856,35.183136],[-79.422854,35.183186],[-79.422777,35.183377]]]}},{"type":"Feature","properties":{"k":"bunker"},"geometry":{"type":"Polygon","coordinates":[[[-79.422513,35.183159],[-79.42247,35.183194],[-79.422463,35.183228],[-79.422448,35.183243],[-79.422396,35.183263],[-79.422396,35.183216],[-79.422413,35.183195],[-79.422419,35.183138],[-79.422435,35.183118],[-79.422454,35.183058],[-79.422464,35.183045],[-79.4225,35.183033],[-79.422525,35.183034],[-79.422539,35.183042],[-79.422552,35.183055],[-79.422556,35.183072],[-79.422552,35.183104],[-79.422519,35.183136],[-79.422513,35.183159]]]}},{"type":"Feature","properties":{"k":"bunker"},"geometry":{"type":"Polygon","coordinates":[[[-79.422541,35.183324],[-79.422566,35.183353],[-79.422569,35.183368],[-79.422559,35.183387],[-79.422535,35.183396],[-79.422518,35.183393],[-79.42249,35.183374],[-79.422488,35.183351],[-79.422502,35.183336],[-79.422497,35.183324],[-79.422462,35.183301],[-79.422463,35.183278],[-79.422499,35.183257],[-79.422535,35.183265],[-79.422542,35.183279],[-79.422541,35.183324]]]}},{"type":"Feature","properties":{"k":"tee"},"geometry":{"type":"Polygon","coordinates":[[[-79.423209,35.184534],[-79.423247,35.184563],[-79.42326,35.184592],[-79.423246,35.184621],[-79.423215,35.184632],[-79.423187,35.184623],[-79.423093,35.184531],[-79.423075,35.184503],[-79.423082,35.184479],[-79.42311,35.184469],[-79.423131,35.184473],[-79.423209,35.184534]]]}},{"type":"Feature","properties":{"k":"green"},"geometry":{"type":"Polygon","coordinates":[[[-79.424277,35.185479],[-79.424284,35.185567],[-79.424269,35.185612],[-79.424208,35.18564],[-79.424116,35.185638],[-79.424096,35.185624],[-79.424061,35.185566],[-79.424056,35.185439],[-79.424063,35.18541],[-79.424104,35.185358],[-79.424165,35.18534],[-79.424231,35.185363],[-79.424252,35.185388],[-79.42427,35.185429],[-79.424277,35.185479]]]}},{"type":"Feature","properties":{"k":"bunker"},"geometry":{"type":"Polygon","coordinates":[[[-79.424037,35.185309],[-79.424041,35.185329],[-79.424071,35.185359],[-79.42406,35.185384],[-79.424043,35.185395],[-79.42403,35.185395],[-79.423995,35.185372],[-79.423958,35.185375],[-79.423948,35.185369],[-79.423943,35.185355],[-79.423957,35.185333],[-79.423958,35.1853],[-79.42398,35.185272],[-79.424007,35.185265],[-79.424032,35.185275],[-79.424041,35.185291],[-79.424037,35.185309]]]}},{"type":"Feature","properties":{"k":"bunker"},"geometry":{"type":"Polygon","coordinates":[[[-79.424397,35.18577],[-79.424381,35.185778],[-79.424334,35.185781],[-79.424281,35.185831],[-79.42426,35.185826],[-79.424246,35.185812],[-79.424258,35.185742],[-79.424235,35.185707],[-79.424233,35.185687],[-79.424252,35.185674],[-79.424277,35.185673],[-79.424319,35.185706],[-79.424341,35.18571],[-79.424352,35.185702],[-79.424351,35.185681],[-79.424305,35.185642],[-79.424322,35.185607],[-79.42434,35.185596],[-79.424367,35.185595],[-79.424418,35.185611],[-79.424452,35.185638],[-79.42446,35.185659],[-79.424464,35.18568],[-79.424457,35.185715],[-79.424434,35.185749],[-79.424397,35.18577]]]}},{"type":"Feature","properties":{"k":"tee"},"geometry":{"type":"Polygon","coordinates":[[[-79.424809,35.185955],[-79.424767,35.186062],[-79.424746,35.186097],[-79.424724,35.18611],[-79.424687,35.186103],[-79.424666,35.186082],[-79.424669,35.186051],[-79.424698,35.185969],[-79.424738,35.185907],[-79.424797,35.185912],[-79.424809,35.185955]]]}},{"type":"Feature","properties":{"k":"fairway"},"geometry":{"type":"Polygon","coordinates":[[[-79.423114,35.188362],[-79.423149,35.188317],[-79.42315,35.188281],[-79.42313,35.188233],[-79.423171,35.188261],[-79.423533,35.188316],[-79.423611,35.188316],[-79.423701,35.188293],[-79.423774,35.188254],[-79.42385,35.188203],[-79.423931,35.188125],[-79.423985,35.188012],[-79.423985,35.187968],[-79.424,35.187904],[-79.423992,35.187761],[-79.424005,35.187733],[-79.424071,35.187694],[-79.424091,35.187656],[-79.424086,35.187629],[-79.424039,35.187556],[-79.424044,35.187485],[-79.424061,35.187442],[-79.424175,35.187309],[-79.42419,35.187173],[-79.424221,35.18711],[-79.424322,35.187063],[-79.424338,35.187027],[-79.424332,35.186931],[-79.424313,35.186874],[-79.424342,35.18662],[-79.424367,35.186509],[-79.424403,35.186426],[-79.424425,35.186397],[-79.424494,35.186378],[-79.424553,35.186385],[-79.42469,35.186424],[-79.424719,35.186445],[-79.424741,35.186502],[-79.424734,35.186534],[-79.424686,35.186613],[-79.424618,35.186753],[-79.424579,35.186886],[-79.424564,35.186996],[-79.424565,35.187061],[-79.424549,35.187119],[-79.424522,35.187168],[-79.424516,35.187234],[-79.424533,35.187394],[-79.424521,35.187474],[-79.42446,35.187608],[-79.424419,35.187678],[-79.424373,35.187736],[-79.424147,35.18786],[-79.424114,35.187892],[-79.4241,35.187947],[-79.424099,35.188011],[-79.424057,35.188147],[-79.423974,35.188262],[-79.423938,35.188328],[-79.423901,35.188369],[-79.423825,35.188425],[-79.423769,35.188452],[-79.423698,35.188474],[-79.423576,35.188487],[-79.423529,35.188515],[-79.423461,35.188532],[-79.423371,35.188519],[-79.423356,35.188498],[-79.423357,35.188407],[-79.423344,35.188362],[-79.42332,35.188339],[-79.42328,35.188326],[-79.42319,35.188327],[-79.423156,35.188336],[-79.423114,35.188362]]]}},{"type":"Feature","properties":{"k":"bunker"},"geometry":{"type":"Polygon","coordinates":[[[-79.424131,35.187246],[-79.424127,35.187262],[-79.424093,35.187285],[-79.424075,35.187342],[-79.424025,35.187381],[-79.424001,35.187421],[-79.423979,35.187429],[-79.423946,35.187423],[-79.423933,35.1874],[-79.423939,35.187375],[-79.423955,35.187358],[-79.42399,35.187348],[-79.424021,35.18733],[-79.424037,35.187313],[-79.42406,35.187222],[-79.424096,35.18721],[-79.424117,35.187211],[-79.424132,35.187227],[-79.424131,35.187246]]]}}]}