{"type":"FeatureCollection","features":[{"type":"Feature","properties":{"k":"path"},"geometry":{"type":"LineString","coordinates":[[-118.132979,34.027792],[-118.133217,34.027714],[-118.13343,34.027656],[-118.133637,34.027573],[-118.134048,34.027434],[-118.134342,34.027361],[-118.134557,34.027338],[-118.134667,34.027306],[-118.134971,34.027183],[-118.135308,34.027125],[-118.135556,34.027052],[-118.135706,34.02702],[-118.135994,34.027005],[-118.136225,34.026962],[-118.136484,34.026928],[-118.136576,34.026926],[-118.13682,34.026959],[-118.13714,34.026953],[-118.137181,34.026969],[-118.13727,34.027046],[-118.137307,34.027063],[-118.137444,34.027066],[-118.137491,34.027079],[-118.137529,34.027113],[-118.137546,34.027164],[-118.137553,34.027241],[-118.137535,34.027272],[-118.137444,34.027295],[-118.13742,34.027312],[-118.13745,34.0285],[-118.137431,34.028594],[-118.13738,34.028681],[-118.137303,34.02875],[-118.137272,34.028801],[-118.137173,34.029145],[-118.137158,34.029229],[-118.137177,34.029297],[-118.137256,34.029425],[-118.137278,34.029503],[-118.137282,34.029622],[-118.137251,34.029801],[-118.137298,34.03004],[-118.137301,34.030157],[-118.137352,34.030289],[-118.137329,34.030527],[-118.137381,34.030675],[-118.13737,34.030887],[-118.1374,34.031157],[-118.13738,34.031347],[-118.137369,34.0316],[-118.137301,34.031786],[-118.137303,34.031852],[-118.13736,34.031965],[-118.13736,34.032112],[-118.137339,34.032204],[-118.137294,34.032301],[-118.137303,34.03236],[-118.137339,34.032423],[-118.137357,34.032484],[-118.137344,34.032531],[-118.137298,34.03256],[-118.13723,34.032573],[-118.136931,34.032564],[-118.136844,34.032534],[-118.136808,34.032497],[-118.136765,34.032404],[-118.136732,34.032385],[-118.136604,34.032377],[-118.136541,34.032326],[-118.136406,34.032167]]}},{"type":"Feature","properties":{"k":"path"},"geometry":{"type":"LineString","coordinates":[[-118.132871,34.029495],[-118.132871,34.029459],[-118.132984,34.029393],[-118.133221,34.029228],[-118.133327,34.029168],[-118.133366,34.029127],[-118.133385,34.029082],[-118.133395,34.029006],[-118.133433,34.028912],[-118.133525,34.028714],[-118.133571,34.02867],[-118.133658,34.028621],[-118.133818,34.028483],[-118.133878,34.028448],[-118.134086,34.028357],[-118.134246,34.028234],[-118.13436,34.028178],[-118.134531,34.028121],[-118.134724,34.027989],[-118.134893,34.027907],[-118.134964,34.027898],[-118.135057,34.027902],[-118.13514,34.027876],[-118.135215,34.027819],[-118.135296,34.027772],[-118.135373,34.027751],[-118.135451,34.027703],[-118.135498,34.027686],[-118.135572,34.0277],[-118.135617,34.027698],[-118.135726,34.027645],[-118.135854,34.02762],[-118.136028,34.027562],[-118.136244,34.027523],[-118.136363,34.027517],[-118.136453,34.027501],[-118.136566,34.027502],[-118.136668,34.027526],[-118.136775,34.027537],[-118.136839,34.027523],[-118.136917,34.02749],[-118.137047,34.02746],[-118.137157,34.027425],[-118.137213,34.027378],[-118.137209,34.027337],[-118.137169,34.027319],[-118.136977,34.027347],[-118.136918,34.027346],[-118.136876,34.027333],[-118.136842,34.027294],[-118.136807,34.027268],[-118.136763,34.027262],[-118.136719,34.027278],[-118.13668,34.027316],[-118.136631,34.027392],[-118.136591,34.027411],[-118.136414,34.027406],[-118.136346,34.027424],[-118.136182,34.027432],[-118.136035,34.027497],[-118.135894,34.027525],[-118.135677,34.027592],[-118.135568,34.027601],[-118.135445,34.027635],[-118.135257,34.027695],[-118.135166,34.027736],[-118.135091,34.02779],[-118.135034,34.027807],[-118.134896,34.027804],[-118.134844,34.027812],[-118.134791,34.027852],[-118.134712,34.027885],[-118.134608,34.027918],[-118.134366,34.027963],[-118.134137,34.028072],[-118.134034,34.028107],[-118.133816,34.02816],[-118.133564,34.028294],[-118.133263,34.028392],[-118.133166,34.028415],[-118.133103,34.028419],[-118.133014,34.028385],[-118.132977,34.028355],[-118.132954,34.028311],[-118.132955,34.028252],[-118.133005,34.02816],[-118.133133,34.027979],[-118.133241,34.027767],[-118.133217,34.027714],[-118.133231,34.027557],[-118.133195,34.027494]]}},{"type":"Feature","properties":{"k":"path"},"geometry":{"type":"LineString","coordinates":[[-118.135068,34.029528],[-118.135361,34.029839],[-118.135434,34.029944],[-118.135486,34.03003],[-118.135545,34.030214],[-118.135595,34.030294],[-118.13563,34.030374],[-118.135682,34.030462],[-118.135745,34.030605],[-118.135836,34.030768],[-118.135892,34.030814],[-118.135954,34.030878],[-118.136004,34.031003],[-118.1362,34.031217],[-118.136291,34.031402],[-118.136381,34.031527],[-118.136509,34.031654],[-118.136513,34.031693],[-118.136453,34.031796],[-118.136433,34.031863],[-118.136446,34.031915],[-118.136403,34.032082],[-118.136409,34.03224],[-118.136382,34.032272],[-118.136336,34.032283],[-118.136167,34.032253],[-118.136005,34.032266],[-118.135938,34.032258],[-118.135879,34.032231],[-118.135769,34.032103],[-118.135639,34.031895],[-118.13563,34.031838],[-118.135634,34.031739],[-118.135617,34.031696],[-118.135498,34.031599],[-118.135339,34.031419],[-118.135285,34.03134],[-118.135229,34.031221],[-118.135202,34.031122],[-118.135112,34.031012],[-118.13504,34.030877],[-118.135006,34.030804],[-118.134979,34.030699],[-118.134975,34.030618],[-118.13495,34.030541],[-118.134904,34.030462],[-118.134885,34.030396],[-118.134943,34.030225],[-118.134947,34.030138],[-118.134959,34.030078],[-118.135054,34.029919],[-118.13505,34.029871],[-118.135013,34.029806],[-118.134934,34.02973],[-118.134883,34.029648],[-118.134824,34.029572],[-118.134845,34.029538],[-118.134947,34.029525],[-118.135068,34.029528]]}},{"type":"Feature","properties":{"k":"range"},"geometry":{"type":"Polygon","coordinates":[[[-118.130691,34.026808],[-118.129574,34.028349],[-118.130203,34.028629],[-118.131129,34.027075],[-118.131112,34.027066],[-118.131108,34.027071],[-118.131051,34.027032],[-118.130907,34.026963],[-118.130681,34.026879],[-118.130687,34.026867],[-118.130668,34.026861],[-118.130691,34.026808]]]}},{"type":"Feature","properties":{"k":"path"},"geometry":{"type":"LineString","coordinates":[[-118.135639,34.031895],[-118.135615,34.031938],[-118.135571,34.031961],[-118.135512,34.031963],[-118.135459,34.031948],[-118.135425,34.03191],[-118.135377,34.031807],[-118.135345,34.031767],[-118.135298,34.031748],[-118.135154,34.03178],[-118.135113,34.031779],[-118.134911,34.031728],[-118.134843,34.03172],[-118.134792,34.031702],[-118.134706,34.03162],[-118.134598,34.031575],[-118.134541,34.031538],[-118.134413,34.031371],[-118.134372,34.031297],[-118.134304,34.031216],[-118.134109,34.03104],[-118.133998,34.030895],[-118.133973,34.030803],[-118.13399,34.030694],[-118.13408,34.030508],[-118.134127,34.030338],[-118.134229,34.030236],[-118.134266,34.030143],[-118.134249,34.030038],[-118.134204,34.029979],[-118.134133,34.029945]]}},{"type":"Feature","properties":{"k":"path"},"geometry":{"type":"LineString","coordinates":[[-118.134422,34.029479],[-118.134433,34.029592],[-118.134391,34.029679],[-118.134354,34.029723],[-118.134267,34.029776],[-118.134199,34.029847],[-118.134133,34.029945],[-118.134046,34.029924],[-118.133949,34.029952],[-118.13384,34.030075],[-118.133729,34.030096],[-118.1335,34.030107],[-118.132823,34.030107],[-118.132682,34.030063],[-118.132636,34.030004],[-118.132627,34.029944],[-118.132661,34.029861],[-118.132627,34.029817],[-118.132587,34.029739],[-118.132612,34.029685],[-118.132871,34.029495]]}},{"type":"Feature","properties":{"k":"path"},"geometry":{"type":"LineString","coordinates":[[-118.134975,34.029429],[-118.134919,34.029454],[-118.13485,34.029445],[-118.134796,34.029417],[-118.134724,34.029408],[-118.134422,34.029479],[-118.134311,34.029458],[-118.134287,34.02938],[-118.134294,34.029322],[-118.134323,34.029273],[-118.134362,34.029233],[-118.134433,34.029204],[-118.13464,34.02915],[-118.134794,34.029163],[-118.134832,34.029142],[-118.134875,34.0291],[-118.135001,34.02903],[-118.135233,34.028956],[-118.135317,34.028901],[-118.135496,34.028834],[-118.135617,34.028768],[-118.135718,34.028733],[-118.135858,34.028703],[-118.135921,34.028674],[-118.135962,34.028622],[-118.136,34.028592],[-118.136063,34.028594],[-118.136175,34.028625],[-118.136217,34.028618],[-118.13641,34.028493],[-118.136544,34.02839],[-118.136591,34.028373],[-118.136682,34.028361],[-118.136849,34.028352],[-118.137216,34.028288],[-118.137272,34.0283],[-118.137301,34.028326],[-118.137293,34.028373],[-118.137258,34.028422],[-118.137193,34.028474],[-118.137015,34.028589],[-118.136925,34.028619],[-118.136851,34.028622],[-118.13666,34.028603],[-118.136564,34.028619],[-118.136476,34.028657],[-118.136353,34.028759],[-118.136283,34.028805],[-118.136122,34.028873],[-118.135959,34.028875],[-118.135879,34.028887],[-118.13578,34.028951],[-118.135674,34.029078],[-118.135584,34.029156],[-118.135474,34.029229],[-118.13541,34.029259],[-118.135302,34.029291],[-118.135093,34.029322],[-118.135042,34.029342],[-118.135003,34.029379],[-118.134975,34.029429]]}},{"type":"Feature","properties":{"k":"path"},"geometry":{"type":"LineString","coordinates":[[-118.129804,34.031254],[-118.129687,34.031191],[-118.129652,34.031068],[-118.129612,34.030982],[-118.129557,34.030897],[-118.129479,34.030824],[-118.129242,34.03067],[-118.129171,34.030606],[-118.128911,34.030277],[-118.128892,34.030225],[-118.128883,34.030169],[-118.128896,34.030033],[-118.12894,34.029918],[-118.12894,34.0295],[-118.128931,34.029332],[-118.12895,34.029148],[-118.128934,34.029051],[-118.128794,34.02874],[-118.128787,34.028684],[-118.128799,34.028617],[-118.128845,34.028474],[-118.128849,34.028418],[-118.128813,34.028235],[-118.128809,34.028017],[-118.128795,34.027843],[-118.128807,34.027776],[-118.128907,34.027592],[-118.129046,34.027363],[-118.129104,34.027335],[-118.129369,34.027292],[-118.129451,34.027268],[-118.129522,34.027213],[-118.12973,34.026924],[-118.129801,34.026862],[-118.130051,34.026709],[-118.130138,34.026684],[-118.130216,34.026682],[-118.130304,34.026704],[-118.130443,34.026757],[-118.13065,34.026731],[-118.130723,34.026729],[-118.130815,34.026748],[-118.130942,34.02679],[-118.13102,34.026807],[-118.131227,34.026811],[-118.131291,34.0268],[-118.131362,34.026765],[-118.131449,34.026702],[-118.131526,34.026673],[-118.131865,34.026594],[-118.131974,34.026557],[-118.132088,34.026504],[-118.132756,34.026105],[-118.132843,34.026056],[-118.132942,34.026017],[-118.133422,34.025922],[-118.133733,34.025791],[-118.133842,34.025731],[-118.133913,34.025721],[-118.134055,34.025737],[-118.134203,34.025711],[-118.134321,34.025699],[-118.134443,34.02571],[-118.134524,34.025743],[-118.134622,34.025812],[-118.134677,34.025865],[-118.134699,34.025927],[-118.134704,34.025991],[-118.134698,34.026079],[-118.134612,34.026179],[-118.134412,34.02632],[-118.134299,34.02637],[-118.134156,34.026431],[-118.134049,34.026457],[-118.133838,34.026465],[-118.133782,34.026476],[-118.133755,34.026491],[-118.133709,34.026542],[-118.133618,34.026688],[-118.133602,34.026725],[-118.133582,34.026889],[-118.133554,34.026919]]}}]}