{"type":"FeatureCollection","features":[{"type":"Feature","properties":{"k":"water"},"geometry":{"type":"Polygon","coordinates":[[[-111.766846,34.782519],[-111.766766,34.782453],[-111.766759,34.782387],[-111.766846,34.782304],[-111.767053,34.782227],[-111.767292,34.782211],[-111.767619,34.7822],[-111.768265,34.782212],[-111.768338,34.78225],[-111.768385,34.782327],[-111.768312,34.782448],[-111.768125,34.78253],[-111.768045,34.782519],[-111.767959,34.782497],[-111.767852,34.782415],[-111.767732,34.782349],[-111.767499,34.782371],[-111.767272,34.782415],[-111.766846,34.782519]]]}},{"type":"Feature","properties":{"k":"water"},"geometry":{"type":"Polygon","coordinates":[[[-111.7755,34.781318],[-111.775372,34.78114],[-111.775385,34.78103],[-111.775471,34.781002],[-111.775711,34.780991],[-111.776278,34.781091],[-111.776684,34.781129],[-111.776784,34.781195],[-111.776824,34.781267],[-111.776884,34.781322],[-111.776957,34.781316],[-111.777124,34.781338],[-111.777257,34.781382],[-111.777323,34.781454],[-111.77731,34.781514],[-111.777224,34.781553],[-111.77709,34.781558],[-111.776777,34.781481],[-111.776644,34.781503],[-111.776537,34.781558],[-111.776357,34.781618],[-111.776231,34.781602],[-111.775898,34.78147],[-111.775658,34.781409],[-111.7755,34.781318]]]}},{"type":"Feature","properties":{"k":"water"},"geometry":{"type":"Polygon","coordinates":[[[-111.767562,34.78355],[-111.767502,34.783517],[-111.767496,34.783418],[-111.767469,34.783347],[-111.767396,34.783281],[-111.767416,34.78322],[-111.767589,34.7831],[-111.767709,34.783089],[-111.767896,34.783133],[-111.767991,34.783142],[-111.768074,34.783209],[-111.768082,34.783276],[-111.768049,34.783331],[-111.767942,34.783375],[-111.767822,34.783408],[-111.767635,34.783523],[-111.767562,34.78355]]]}},{"type":"Feature","properties":{"k":"path"},"geometry":{"type":"LineString","coordinates":[[-111.78146,34.787081],[-111.781189,34.787059],[-111.780766,34.787068],[-111.780645,34.787051],[-111.780492,34.787011],[-111.780342,34.786934],[-111.780259,34.786877],[-111.780162,34.786837],[-111.780052,34.786822],[-111.779827,34.786839],[-111.779744,34.786866],[-111.779639,34.786993],[-111.779591,34.787037],[-111.779497,34.787068],[-111.779409,34.787077],[-111.779282,34.787057],[-111.779194,34.787059],[-111.779028,34.787104],[-111.779009,34.787132],[-111.779081,34.7872],[-111.779298,34.78728],[-111.779478,34.787306],[-111.779652,34.787297],[-111.779945,34.787198],[-111.780106,34.787176],[-111.780291,34.787163],[-111.780481,34.787172],[-111.780693,34.787203],[-111.781501,34.787348],[-111.781806,34.78739],[-111.782026,34.787383],[-111.782163,34.787427]]}},{"type":"Feature","properties":{"k":"stream"},"geometry":{"type":"LineString","coordinates":[[-111.788084,34.789292],[-111.787924,34.789105],[-111.787751,34.788978],[-111.787278,34.78872],[-111.787231,34.788593],[-111.787125,34.7885],[-111.787011,34.788439],[-111.786971,34.78839],[-111.786898,34.788214],[-111.786778,34.788082],[-111.786638,34.787983],[-111.786485,34.787939],[-111.786232,34.787813],[-111.785612,34.787411],[-111.78554,34.787268],[-111.785517,34.787006],[-111.785586,34.786422],[-111.785473,34.786141],[-111.785346,34.785955]]}},{"type":"Feature","properties":{"k":"bunker"},"geometry":{"type":"Polygon","coordinates":[[[-111.786794,34.787522],[-111.786822,34.787483],[-111.78682,34.787465],[-111.786771,34.787446],[-111.786769,34.787415],[-111.786757,34.787399],[-111.786708,34.78739],[-111.786692,34.787409],[-111.786693,34.787428],[-111.786711,34.787448],[-111.78675,34.787462],[-111.78675,34.787479],[-111.786725,34.787503],[-111.786721,34.787519],[-111.786745,34.787546],[-111.786782,34.787541],[-111.786794,34.787522]]]}},{"type":"Feature","properties":{"k":"bunker"},"geometry":{"type":"Polygon","coordinates":[[[-111.786346,34.787417],[-111.786368,34.787399],[-111.78637,34.787389],[-111.786343,34.78737],[-111.786321,34.787372],[-111.786304,34.787395],[-111.786285,34.787402],[-111.786265,34.787399],[-111.786239,34.787369],[-111.786242,34.787322],[-111.786257,34.787304],[-111.786301,34.787285],[-111.786344,34.78729],[-111.786361,34.787303],[-111.786384,34.787346],[-111.786412,34.787338],[-111.786428,34.787346],[-111.786431,34.787371],[-111.78647,34.787387],[-111.786473,34.787402],[-111.786463,34.787416],[-111.786426,34.787437],[-111.78642,34.787466],[-111.786389,34.787484],[-111.786368,34.787483],[-111.786349,34.787466],[-111.786332,34.787438],[-111.786346,34.787417]]]}},{"type":"Feature","properties":{"k":"bunker"},"geometry":{"type":"Polygon","coordinates":[[[-111.786441,34.786947],[-111.786475,34.786939],[-111.786512,34.786958],[-111.786504,34.786989],[-111.786466,34.787007],[-111.786451,34.787003],[-111.786435,34.786986],[-111.786402,34.786997],[-111.786378,34.786985],[-111.786377,34.786952],[-111.786373,34.786941],[-111.78636,34.786936],[-111.786322,34.786965],[-111.786304,34.786961],[-111.786272,34.786937],[-111.786275,34.786902],[-111.786292,34.786886],[-111.786339,34.786871],[-111.786397,34.786891],[-111.786418,34.78691],[-111.786414,34.78694],[-111.786441,34.786947]]]}},{"type":"Feature","properties":{"k":"bunker"},"geometry":{"type":"Polygon","coordinates":[[[-111.787492,34.787595],[-111.787475,34.787642],[-111.787473,34.787678],[-111.787491,34.787755],[-111.787482,34.787769],[-111.787435,34.787782],[-111.787416,34.787774],[-111.787402,34.787739],[-111.787415,34.787669],[-111.78741,34.787657],[-111.787492,34.787595]]]}},{"type":"Feature","properties":{"k":"bunker"},"geometry":{"type":"Polygon","coordinates":[[[-111.786523,34.788155],[-111.786568,34.788164],[-111.786597,34.788145],[-111.786601,34.788125],[-111.786581,34.788084],[-111.786553,34.788074],[-111.786525,34.788083],[-111.786499,34.788104],[-111.786479,34.788137],[-111.786423,34.78813],[-111.786401,34.788152],[-111.786431,34.788183],[-111.786428,34.788203],[-111.786435,34.788215],[-111.786446,34.788217],[-111.786465,34.78821],[-111.786496,34.788159],[-111.786523,34.788155]]]}},{"type":"Feature","properties":{"k":"green"},"geometry":{"type":"Polygon","coordinates":[[[-111.787017,34.787558],[-111.787044,34.787545],[-111.787059,34.787521],[-111.787055,34.7875],[-111.786984,34.78742],[-111.78695,34.787362],[-111.786919,34.787346],[-111.786852,34.787352],[-111.786833,34.78737],[-111.786829,34.787413],[-111.786856,34.787547],[-111.786872,34.787565],[-111.786911,34.78758],[-111.787017,34.787558]]]}},{"type":"Feature","properties":{"k":"green"},"geometry":{"type":"Polygon","coordinates":[[[-111.7867,34.788236],[-111.786664,34.788208],[-111.786608,34.78819],[-111.786553,34.788205],[-111.78649,34.788236],[-111.786475,34.788271],[-111.786494,34.788323],[-111.786525,34.788355],[-111.786581,34.788364],[-111.786621,34.788364],[-111.78665,34.788355],[-111.786692,34.788323],[-111.786716,34.788284],[-111.7867,34.788236]]]}},{"type":"Feature","properties":{"k":"fairway"},"geometry":{"type":"Polygon","coordinates":[[[-111.786859,34.787272],[-111.786632,34.787365],[-111.78653,34.787362],[-111.786477,34.787324],[-111.78642,34.787263],[-111.786229,34.787216],[-111.786119,34.787144],[-111.78591,34.787039],[-111.785755,34.786932],[-111.785355,34.78674],[-111.784502,34.786426],[-111.784335,34.786336],[-111.784205,34.786353],[-111.784088,34.786403],[-111.7839,34.786414],[-111.783642,34.786414],[-111.783578,34.786365],[-111.783575,34.786304],[-111.783638,34.786228],[-111.783734,34.786187],[-111.784148,34.786097],[-111.78441,34.786068],[-111.784594,34.786068],[-111.784799,34.786121],[-111.785121,34.786301],[-111.785921,34.78678],[-111.786859,34.787272]]]}},{"type":"Feature","properties":{"k":"bunker"},"geometry":{"type":"Polygon","coordinates":[[[-111.784787,34.785982],[-111.784744,34.786003],[-111.784727,34.785997],[-111.78473,34.785984],[-111.784783,34.78596],[-111.784774,34.785941],[-111.784724,34.785927],[-111.784698,34.785938],[-111.784677,34.785959],[-111.784668,34.785959],[-111.784649,34.785936],[-111.784617,34.785938],[-111.784582,34.785967],[-111.784577,34.785991],[-111.784599,34.786017],[-111.784689,34.786046],[-111.784744,34.786084],[-111.784762,34.786087],[-111.784793,34.786081],[-111.784824,34.786007],[-111.784821,34.785988],[-111.784811,34.78598],[-111.784787,34.785982]]]}},{"type":"Feature","properties":{"k":"bunker"},"geometry":{"type":"Polygon","coordinates":[[[-111.784405,34.786438],[-111.784383,34.786458],[-111.784396,34.786478],[-111.784411,34.786489],[-111.784439,34.786479],[-111.784462,34.786484],[-111.784481,34.786504],[-111.784483,34.786527],[-111.784475,34.786547],[-111.784451,34.786562],[-111.784391,34.786561],[-111.784338,34.786544],[-111.784279,34.786484],[-111.784255,34.786484],[-111.784232,34.786494],[-111.784232,34.786515],[-111.784253,34.786532],[-111.784247,34.786547],[-111.784206,34.78656],[-111.784169,34.786541],[-111.784145,34.786462],[-111.784206,34.786365],[-111.784237,34.786356],[-111.784265,34.786361],[-111.784276,34.786385],[-111.784256,34.78642],[-111.784268,34.786438],[-111.784285,34.786431],[-111.78431,34.786377],[-111.784327,34.786367],[-111.78435,34.786365],[-111.784381,34.786375],[-111.784414,34.786405],[-111.784418,34.786421],[-111.784405,34.786438]]]}},{"type":"Feature","properties":{"k":"bunker"},"geometry":{"type":"Polygon","coordinates":[[[-111.783984,34.787007],[-111.783957,34.787],[-111.78395,34.786982],[-111.783976,34.786926],[-111.783973,34.786909],[-111.783957,34.786895],[-111.783932,34.786894],[-111.7839,34.786908],[-111.7839,34.78697],[-111.783888,34.786982],[-111.783873,34.786985],[-111.783842,34.786972],[-111.783814,34.78697],[-111.783798,34.78698],[-111.783795,34.786994],[-111.783823,34.787024],[-111.783813,34.78704],[-111.783821,34.787061],[-111.783861,34.787074],[-111.783891,34.787071],[-111.783909,34.78703],[-111.783939,34.787045],[-111.783949,34.787077],[-111.783969,34.78708],[-111.784001,34.78707],[-111.78402,34.787045],[-111.784019,34.787028],[-111.784008,34.78701],[-111.783984,34.787007]]]}},{"type":"Feature","properties":{"k":"bunker"},"geometry":{"type":"Polygon","coordinates":[[[-111.783041,34.786878],[-111.783066,34.786844],[-111.783053,34.786816],[-111.783026,34.786797],[-111.782986,34.786794],[-111.782958,34.786814],[-111.782944,34.786834],[-111.782958,34.786866],[-111.783002,34.786887],[-111.783041,34.786878]]]}},{"type":"Feature","properties":{"k":"bunker"},"geometry":{"type":"Polygon","coordinates":[[[-111.783244,34.787028],[-111.783286,34.787049],[-111.783303,34.787082],[-111.783297,34.787103],[-111.783283,34.787113],[-111.783266,34.787117],[-111.783221,34.787074],[-111.783202,34.78707],[-111.783144,34.787104],[-111.783125,34.787101],[-111.783105,34.787074],[-111.783108,34.787058],[-111.783135,34.787036],[-111.783136,34.787011],[-111.783153,34.786999],[-111.783176,34.786992],[-111.783219,34.787002],[-111.783244,34.787028]]]}},{"type":"Feature","properties":{"k":"bunker"},"geometry":{"type":"Polygon","coordinates":[[[-111.782948,34.787082],[-111.782988,34.787075],[-111.782996,34.787107],[-111.782951,34.787146],[-111.782966,34.787196],[-111.782958,34.787208],[-111.78294,34.787211],[-111.782912,34.787197],[-111.782899,34.787181],[-111.782902,34.787138],[-111.782872,34.787129],[-111.782851,34.787106],[-111.782867,34.78708],[-111.782924,34.787104],[-111.782948,34.787082]]]}},{"type":"Feature","properties":{"k":"bunker"},"geometry":{"type":"Polygon","coordinates":[[[-111.78278,34.786987],[-111.78278,34.786973],[-111.782761,34.786956],[-111.782742,34.786956],[-111.782725,34.78697],[-111.78272,34.786985],[-111.78274,34.787011],[-111.782753,34.787014],[-111.782767,34.787011],[-111.78278,34.786987]]]}},{"type":"Feature","properties":{"k":"green"},"geometry":{"type":"Polygon","coordinates":[[[-111.783052,34.787037],[-111.783067,34.787002],[-111.783015,34.786932],[-111.782977,34.78691],[-111.782869,34.786878],[-111.782844,34.786891],[-111.78281,34.786963],[-111.782841,34.787031],[-111.782864,34.78705],[-111.782953,34.787068],[-111.783013,34.787056],[-111.783052,34.787037]]]}}]}