{"type":"FeatureCollection","features":[{"type":"Feature","properties":{"k":"hole","ref":"1"},"geometry":{"type":"LineString","coordinates":[[-117.84517,33.589896],[-117.847929,33.590872],[-117.849482,33.592315]]}},{"type":"Feature","properties":{"k":"hole","ref":"2"},"geometry":{"type":"LineString","coordinates":[[-117.848572,33.592521],[-117.850092,33.593486]]}},{"type":"Feature","properties":{"k":"hole","ref":"3"},"geometry":{"type":"LineString","coordinates":[[-117.849564,33.594628],[-117.85134,33.593128],[-117.852154,33.592104]]}},{"type":"Feature","properties":{"k":"hole","ref":"4"},"geometry":{"type":"LineString","coordinates":[[-117.854423,33.592195],[-117.852642,33.593704],[-117.851928,33.594995]]}},{"type":"Feature","properties":{"k":"hole","ref":"5"},"geometry":{"type":"LineString","coordinates":[[-117.852276,33.595399],[-117.855026,33.595036],[-117.856424,33.594561]]}},{"type":"Feature","properties":{"k":"hole","ref":"6"},"geometry":{"type":"LineString","coordinates":[[-117.856625,33.59416],[-117.858069,33.594742]]}},{"type":"Feature","properties":{"k":"hole","ref":"7"},"geometry":{"type":"LineString","coordinates":[[-117.858247,33.595312],[-117.855946,33.59655],[-117.854771,33.597561]]}},{"type":"Feature","properties":{"k":"hole","ref":"8"},"geometry":{"type":"LineString","coordinates":[[-117.855666,33.598488],[-117.857819,33.596828],[-117.859801,33.596189]]}},{"type":"Feature","properties":{"k":"hole","ref":"9"},"geometry":{"type":"LineString","coordinates":[[-117.860192,33.59595],[-117.859027,33.594336],[-117.857675,33.593187]]}},{"type":"Feature","properties":{"k":"hole","ref":"10"},"geometry":{"type":"LineString","coordinates":[[-117.857537,33.593765],[-117.855017,33.593908],[-117.853451,33.594288]]}},{"type":"Feature","properties":{"k":"hole","ref":"11"},"geometry":{"type":"LineString","coordinates":[[-117.853211,33.593913],[-117.8553,33.593051],[-117.856514,33.593031]]}},{"type":"Feature","properties":{"k":"hole","ref":"12"},"geometry":{"type":"LineString","coordinates":[[-117.856847,33.592548],[-117.854998,33.592143]]}},{"type":"Feature","properties":{"k":"hole","ref":"13"},"geometry":{"type":"LineString","coordinates":[[-117.85461,33.591891],[-117.852399,33.591455],[-117.851468,33.590947]]}},{"type":"Feature","properties":{"k":"hole","ref":"14"},"geometry":{"type":"LineString","coordinates":[[-117.850976,33.591949],[-117.850654,33.589861],[-117.851079,33.588609]]}},{"type":"Feature","properties":{"k":"hole","ref":"15"},"geometry":{"type":"LineString","coordinates":[[-117.850134,33.588306],[-117.84978,33.590753],[-117.850283,33.591849]]}},{"type":"Feature","properties":{"k":"hole","ref":"16"},"geometry":{"type":"LineString","coordinates":[[-117.851549,33.591814],[-117.850377,33.592619]]}},{"type":"Feature","properties":{"k":"hole","ref":"17"},"geometry":{"type":"LineString","coordinates":[[-117.849695,33.592044],[-117.848495,33.589695],[-117.849191,33.587826]]}},{"type":"Feature","properties":{"k":"hole","ref":"18"},"geometry":{"type":"LineString","coordinates":[[-117.848275,33.587083],[-117.847584,33.589017],[-117.846113,33.589702]]}},{"type":"Feature","properties":{"k":"bunker"},"geometry":{"type":"Polygon","coordinates":[[[-117.857897,33.588343],[-117.857877,33.588383],[-117.857854,33.588384],[-117.857848,33.588361],[-117.857859,33.588341],[-117.857836,33.588342],[-117.857824,33.588364],[-117.857838,33.58838],[-117.857834,33.588417],[-117.857851,33.588439],[-117.857819,33.588457],[-117.857789,33.588451],[-117.857793,33.588436],[-117.85778,33.588436],[-117.857766,33.588458],[-117.857763,33.588484],[-117.857735,33.588493],[-117.857685,33.588484],[-117.857663,33.588469],[-117.857667,33.588457],[-117.85777,33.588418],[-117.85778,33.588393],[-117.857771,33.588347],[-117.857758,33.588338],[-117.857754,33.588321],[-117.857773,33.588308],[-117.857806,33.588319],[-117.857868,33.588313],[-117.857897,33.588343]]]}},{"type":"Feature","properties":{"k":"bunker"},"geometry":{"type":"Polygon","coordinates":[[[-117.86064,33.585655],[-117.860628,33.585705],[-117.86059,33.585705],[-117.860585,33.585687],[-117.860565,33.585688],[-117.860563,33.585713],[-117.860533,33.585689],[-117.860538,33.585668],[-117.860569,33.58566],[-117.860581,33.585594],[-117.860617,33.585572],[-117.860598,33.585534],[-117.860629,33.585498],[-117.860617,33.58546],[-117.8607,33.585423],[-117.860691,33.585339],[-117.86072,33.585321],[-117.860786,33.585337],[-117.860916,33.585229],[-117.860979,33.585197],[-117.860999,33.585134],[-117.860985,33.585069],[-117.861073,33.585069],[-117.861073,33.585135],[-117.861141,33.585146],[-117.861133,33.585166],[-117.861054,33.585203],[-117.861022,33.585253],[-117.860904,33.585318],[-117.860837,33.585389],[-117.860808,33.585458],[-117.860675,33.585523],[-117.86064,33.585579],[-117.86064,33.585655]]]}},{"type":"Feature","properties":{"k":"bunker"},"geometry":{"type":"Polygon","coordinates":[[[-117.858346,33.587456],[-117.858358,33.587471],[-117.858352,33.587504],[-117.858333,33.587527],[-117.858326,33.587564],[-117.858277,33.587589],[-117.858249,33.587565],[-117.858228,33.587572],[-117.858227,33.587586],[-117.858246,33.58761],[-117.858227,33.587626],[-117.858198,33.587616],[-117.858176,33.587661],[-117.858155,33.587674],[-117.858135,33.587661],[-117.858153,33.587634],[-117.858149,33.587606],[-117.858136,33.587598],[-117.858115,33.587605],[-117.85809,33.587584],[-117.858103,33.587567],[-117.858163,33.587563],[-117.858175,33.587538],[-117.858213,33.587542],[-117.858231,33.587534],[-117.858212,33.587511],[-117.85819,33.587507],[-117.858188,33.587476],[-117.858207,33.587458],[-117.858211,33.58744],[-117.858245,33.587438],[-117.858278,33.587466],[-117.858261,33.587493],[-117.858263,33.587519],[-117.858285,33.587533],[-117.858309,33.587516],[-117.85831,33.587498],[-117.858295,33.587502],[-117.858293,33.587483],[-117.858308,33.587461],[-117.8583,33.587444],[-117.858287,33.587447],[-117.858277,33.587426],[-117.858305,33.587404],[-117.858336,33.587413],[-117.858346,33.587456]]]}},{"type":"Feature","properties":{"k":"bunker"},"geometry":{"type":"Polygon","coordinates":[[[-117.857632,33.588175],[-117.857651,33.588162],[-117.857668,33.58816],[-117.857671,33.588137],[-117.857648,33.58812],[-117.857608,33.588136],[-117.857572,33.58813],[-117.857551,33.58814],[-117.85754,33.588164],[-117.857566,33.588179],[-117.857586,33.588173],[-117.857595,33.588159],[-117.857615,33.588161],[-117.857619,33.588172],[-117.857632,33.588175]]]}},{"type":"Feature","properties":{"k":"bunker"},"geometry":{"type":"Polygon","coordinates":[[[-117.857715,33.588277],[-117.857733,33.588277],[-117.857744,33.588256],[-117.85773,33.588242],[-117.857711,33.588241],[-117.857703,33.588248],[-117.857711,33.58826],[-117.857702,33.58827],[-117.857715,33.588277]]]}},{"type":"Feature","properties":{"k":"green"},"geometry":{"type":"Polygon","coordinates":[[[-117.857724,33.588305],[-117.857743,33.588374],[-117.857677,33.588435],[-117.857573,33.588444],[-117.857488,33.588377],[-117.857452,33.588301],[-117.857473,33.588221],[-117.857538,33.588197],[-117.857647,33.58819],[-117.857675,33.588256],[-117.857724,33.588305]]]}},{"type":"Feature","properties":{"k":"green"},"geometry":{"type":"Polygon","coordinates":[[[-117.861752,33.584511],[-117.861684,33.584525],[-117.861569,33.584498],[-117.861518,33.584463],[-117.861505,33.584421],[-117.861536,33.584378],[-117.861614,33.584364],[-117.861683,33.584382],[-117.861765,33.584429],[-117.861775,33.584463],[-117.861752,33.584511]]]}},{"type":"Feature","properties":{"k":"green"},"geometry":{"type":"Polygon","coordinates":[[[-117.861227,33.584752],[-117.861155,33.584705],[-117.861144,33.584623],[-117.861281,33.584583],[-117.861428,33.584585],[-117.861477,33.584649],[-117.861423,33.584708],[-117.861227,33.584752]]]}},{"type":"Feature","properties":{"k":"bunker"},"geometry":{"type":"Polygon","coordinates":[[[-117.860282,33.584122],[-117.860232,33.584128],[-117.860217,33.584167],[-117.860272,33.584227],[-117.860203,33.584277],[-117.860137,33.584257],[-117.860144,33.584305],[-117.860177,33.584322],[-117.860166,33.584387],[-117.860128,33.584392],[-117.860119,33.584323],[-117.860068,33.584293],[-117.860019,33.584303],[-117.859984,33.584283],[-117.86001,33.58426],[-117.859972,33.584253],[-117.859956,33.584237],[-117.859957,33.584208],[-117.859972,33.584181],[-117.860005,33.58415],[-117.860058,33.584167],[-117.860063,33.58419],[-117.86017,33.584162],[-117.860163,33.584143],[-117.860237,33.584093],[-117.860223,33.584031],[-117.860263,33.584017],[-117.860288,33.584058],[-117.860282,33.584122]]]}},{"type":"Feature","properties":{"k":"bunker"},"geometry":{"type":"Polygon","coordinates":[[[-117.859637,33.584207],[-117.859666,33.584206],[-117.859677,33.584231],[-117.859654,33.584257],[-117.85965,33.584274],[-117.859622,33.584279],[-117.859611,33.584266],[-117.859561,33.584286],[-117.859504,33.58426],[-117.859543,33.58423],[-117.859541,33.584216],[-117.859487,33.584226],[-117.85943,33.584205],[-117.859382,33.584229],[-117.859334,33.584202],[-117.859226,33.58419],[-117.859201,33.584227],[-117.859108,33.584255],[-117.859076,33.584248],[-117.859102,33.584204],[-117.859147,33.584179],[-117.859157,33.584159],[-117.859188,33.584149],[-117.859236,33.584154],[-117.859319,33.584139],[-117.859361,33.584147],[-117.859373,33.584176],[-117.859466,33.584151],[-117.859515,33.584155],[-117.859546,33.584182],[-117.859603,33.584166],[-117.859638,33.584173],[-117.859653,33.584192],[-117.859631,33.584202],[-117.859637,33.584207]]]}},{"type":"Feature","properties":{"k":"bunker"},"geometry":{"type":"Polygon","coordinates":[[[-117.859588,33.583983],[-117.85957,33.584003],[-117.859575,33.584029],[-117.859632,33.58404],[-117.859635,33.584057],[-117.859621,33.584058],[-117.859639,33.584081],[-117.859693,33.58408],[-117.859714,33.584071],[-117.859699,33.584047],[-117.859664,33.58403],[-117.85966,33.584004],[-117.859622,33.583998],[-117.859588,33.583983]]]}},{"type":"Feature","properties":{"k":"green"},"geometry":{"type":"Polygon","coordinates":[[[-117.860217,33.584061],[-117.860148,33.584135],[-117.859956,33.584147],[-117.859858,33.584168],[-117.85983,33.584186],[-117.859739,33.584119],[-117.859759,33.584026],[-117.859874,33.583971],[-117.860007,33.583976],[-117.860185,33.584018],[-117.860217,33.584061]]]}},{"type":"Feature","properties":{"k":"water"},"geometry":{"type":"Polygon","coordinates":[[[-117.843753,33.580131],[-117.843803,33.580198],[-117.843941,33.580281],[-117.843956,33.580334],[-117.84392,33.580384],[-117.843883,33.580415],[-117.843835,33.580425],[-117.8438,33.580419],[-117.843675,33.580346],[-117.843564,33.580302],[-117.843339,33.580241],[-117.843047,33.580093],[-117.843003,33.580082],[-117.842913,33.580087],[-117.842798,33.58011],[-117.842717,33.580159],[-117.842648,33.580184],[-117.842551,33.580196],[-117.842475,33.580196],[-117.842039,33.580165],[-117.841976,33.580141],[-117.841955,33.580108],[-117.841951,33.580077],[-117.841966,33.580053],[-117.842003,33.580018],[-117.842118,33.579986],[-117.842245,33.579935],[-117.842291,33.579858],[-117.842365,33.579785],[-117.842425,33.579741],[-117.842555,33.579696],[-117.842988,33.579653],[-117.843086,33.579608],[-117.843172,33.57959],[-117.843211,33.579596],[-117.843257,33.579622],[-117.843302,33.579667],[-117.843311,33.579706],[-117.843285,33.579805],[-117.843289,33.579864],[-117.843304,33.579923],[-117.843339,33.579969],[-117.843396,33.580005],[-117.843441,33.580022],[-117.84351,33.580029],[-117.843549,33.580029],[-117.84364,33.579981],[-117.84371,33.579989],[-117.843757,33.580017],[-117.843753,33.580071],[-117.843736,33.580104],[-117.843753,33.580131]]]}},{"type":"Feature","properties":{"k":"green"},"geometry":{"type":"Polygon","coordinates":[[[-117.858129,33.583897],[-117.858044,33.583893],[-117.857987,33.583908],[-117.857939,33.583931],[-117.857878,33.583935],[-117.857818,33.583911],[-117.857806,33.583896],[-117.857804,33.583873],[-117.857822,33.583833],[-117.857891,33.583766],[-117.857921,33.58375],[-117.857964,33.583741],[-117.858122,33.583775],[-117.858166,33.583792],[-117.858188,33.58384],[-117.858184,33.583861],[-117.858154,33.583888],[-117.858129,33.583897]]]}},{"type":"Feature","properties":{"k":"bunker"},"geometry":{"type":"Polygon","coordinates":[[[-117.858088,33.583955],[-117.858051,33.583982],[-117.858034,33.583982],[-117.858012,33.58397],[-117.85802,33.583964],[-117.858015,33.583934],[-117.858036,33.583925],[-117.85804,33.583934],[-117.858054,33.583934],[-117.858063,33.583915],[-117.858092,33.58393],[-117.858085,33.583937],[-117.858097,33.58395],[-117.858088,33.583955]]]}},{"type":"Feature","properties":{"k":"bunker"},"geometry":{"type":"Polygon","coordinates":[[[-117.857524,33.584693],[-117.857489,33.58471],[-117.857483,33.584731],[-117.857489,33.584741],[-117.857502,33.584739],[-117.857508,33.584753],[-117.857514,33.584774],[-117.857505,33.584792],[-117.857484,33.584801],[-117.857463,33.5848],[-117.857443,33.58479],[-117.857426,33.584763],[-117.857447,33.584733],[-117.857439,33.584708],[-117.857475,33.584624],[-117.857477,33.584593],[-117.85751,33.584568],[-117.857565,33.584561],[-117.857581,33.58457],[-117.857579,33.584585],[-117.857566,33.584595],[-117.857555,33.584589],[-117.857543,33.584596],[-117.857528,33.584616],[-117.857539,33.584622],[-117.857573,33.584613],[-117.857596,33.584639],[-117.857569,33.584672],[-117.857524,33.584693]]]}},{"type":"Feature","properties":{"k":"tee"},"geometry":{"type":"Polygon","coordinates":[[[-117.845448,33.590083],[-117.845478,33.590052],[-117.845469,33.590011],[-117.845457,33.589991],[-117.845428,33.589978],[-117.845397,33.589977],[-117.845364,33.589993],[-117.845346,33.590015],[-117.845347,33.590035],[-117.84538,33.590076],[-117.845434,33.590089],[-117.845448,33.590083]]]}},{"type":"Feature","properties":{"k":"bunker"},"geometry":{"type":"Polygon","coordinates":[[[-117.847664,33.590955],[-117.847644,33.590933],[-117.847598,33.590912],[-117.847565,33.59087],[-117.847513,33.590846],[-117.847489,33.590863],[-117.847465,33.590843],[-117.847384,33.590834],[-117.847306,33.590861],[-117.847219,33.590843],[-117.847139,33.590857],[-117.847142,33.590897],[-117.847265,33.590974],[-117.847303,33.590974],[-117.847325,33.590962],[-117.847391,33.590969],[-117.847406,33.590942],[-117.84745,33.590933],[-117.847502,33.590952],[-117.847541,33.591001],[-117.847599,33.591049],[-117.84771,33.591091],[-117.847787,33.591089],[-117.847809,33.59107],[-117.847835,33.591077],[-117.847863,33.591098],[-117.847889,33.591097],[-117.847893,33.591072],[-117.847877,33.591045],[-117.84784,33.591037],[-117.847817,33.591016],[-117.84772,33.590992],[-117.847703,33.590971],[-117.847664,33.590955]]]}},{"type":"Feature","properties":{"k":"bunker"},"geometry":{"type":"Polygon","coordinates":[[[-117.848508,33.591863],[-117.848513,33.591849],[-117.848499,33.59183],[-117.84846,33.591811],[-117.848427,33.591808],[-117.848428,33.591778],[-117.848417,33.591763],[-117.848389,33.591763],[-117.848376,33.591773],[-117.84836,33.591773],[-117.848351,33.591787],[-117.848358,33.591817],[-117.848383,33.591842],[-117.848469,33.591869],[-117.84848,33.591869],[-117.84849,33.591859],[-117.848508,33.591863]]]}},{"type":"Feature","properties":{"k":"bunker"},"geometry":{"type":"Polygon","coordinates":[[[-117.849553,33.592221],[-117.849547,33.592235],[-117.849513,33.592245],[-117.849457,33.592236],[-117.849373,33.592186],[-117.849377,33.592152],[-117.849472,33.592142],[-117.849491,33.592158],[-117.849495,33.592198],[-117.849533,33.592191],[-117.849553,33.592195],[-117.849562,33.592209],[-117.849553,33.592221]]]}},{"type":"Feature","properties":{"k":"tee"},"geometry":{"type":"Polygon","coordinates":[[[-117.845606,33.590154],[-117.845642,33.590133],[-117.845651,33.590099],[-117.845645,33.590074],[-117.845606,33.590044],[-117.84555,33.590047],[-117.845524,33.590072],[-117.845519,33.590092],[-117.845526,33.590124],[-117.84556,33.590152],[-117.845606,33.590154]]]}},{"type":"Feature","properties":{"k":"tee"},"geometry":{"type":"Polygon","coordinates":[[[-117.845701,33.590196],[-117.845747,33.590193],[-117.845769,33.590178],[-117.845791,33.590147],[-117.845792,33.590127],[-117.84578,33.590105],[-117.845737,33.590097],[-117.845695,33.590121],[-117.845679,33.59017],[-117.845684,33.590184],[-117.845701,33.590196]]]}},{"type":"Feature","properties":{"k":"tee"},"geometry":{"type":"Polygon","coordinates":[[[-117.846124,33.59032],[-117.846153,33.590328],[-117.846183,33.590326],[-117.846223,33.590296],[-117.846233,33.590255],[-117.846217,33.590228],[-117.846171,33.590222],[-117.846129,33.590237],[-117.846102,33.590286],[-117.846103,33.590302],[-117.846124,33.59032]]]}},{"type":"Feature","properties":{"k":"green"},"geometry":{"type":"Polygon","coordinates":[[[-117.849479,33.592258],[-117.849532,33.592257],[-117.849614,33.592236],[-117.849677,33.592246],[-117.84971,33.592281],[-117.849719,33.592303],[-117.84972,33.592325],[-117.849699,33.592373],[-117.849667,33.592403],[-117.849639,33.592416],[-117.849587,33.592425],[-117.849558,33.592423],[-117.849439,33.592387],[-117.849295,33.592364],[-117.84924,33.592332],[-117.849231,33.592305],[-117.84925,33.592249],[-117.849267,33.592227],[-117.849296,33.592206],[-117.849344,33.592197],[-117.84943,33.592242],[-117.849479,33.592258]]]}},{"type":"Feature","properties":{"k":"range"},"geometry":{"type":"Polygon","coordinates":[[[-117.841327,33.585261],[-117.841033,33.585247],[-117.840748,33.585289],[-117.840532,33.585379],[-117.840321,33.585555],[-117.840099,33.585624],[-117.839779,33.585613],[-117.839414,33.585538],[-117.838961,33.585425],[-117.838765,33.585276],[-117.838611,33.585278],[-117.838496,33.585248],[-117.838454,33.585174],[-117.838463,33.585088],[-117.838399,33.584957],[-117.838352,33.584899],[-117.838217,33.584834],[-117.838257,33.584545],[-117.838299,33.584548],[-117.838379,33.584428],[-117.83865,33.58451],[-117.83896,33.584525],[-117.839224,33.584435],[-117.839448,33.58453],[-117.839722,33.584427],[-117.839976,33.584523],[-117.840321,33.584596],[-117.840699,33.58463],[-117.840907,33.584592],[-117.841283,33.584462],[-117.84133,33.584592],[-117.841363,33.584767],[-117.84137,33.584944],[-117.841358,33.585117],[-117.841327,33.585261]]]}},{"type":"Feature","properties":{"k":"bunker"},"geometry":{"type":"Polygon","coordinates":[[[-117.838155,33.584642],[-117.838135,33.584627],[-117.838104,33.584621],[-117.838092,33.584607],[-117.838073,33.584601],[-117.838049,33.584603],[-117.83804,33.584619],[-117.838044,33.584633],[-117.83808,33.584649],[-117.838109,33.584683],[-117.838129,33.584688],[-117.838148,33.584685],[-117.838155,33.584675],[-117.838155,33.584642]]]}},{"type":"Feature","properties":{"k":"green"},"geometry":{"type":"Polygon","coordinates":[[[-117.838112,33.584741],[-117.838091,33.584755],[-117.838052,33.584757],[-117.837956,33.584719],[-117.837937,33.584695],[-117.837932,33.584667],[-117.837945,33.584642],[-117.837982,33.584635],[-117.838095,33.584709],[-117.838112,33.584724],[-117.838112,33.584741]]]}},{"type":"Feature","properties":{"k":"green"},"geometry":{"type":"Polygon","coordinates":[[[-117.838207,33.584486],[-117.838193,33.584522],[-117.838151,33.584548],[-117.838091,33.584555],[-117.838031,33.584547],[-117.838001,33.584534],[-117.837994,33.584513],[-117.838005,33.584497],[-117.838031,33.584486],[-117.838141,33.584454],[-117.83818,33.584451],[-117.838201,33.584462],[-117.838207,33.584486]]]}},{"type":"Feature","properties":{"k":"green"},"geometry":{"type":"Polygon","coordinates":[[[-117.841578,33.584516],[-117.841504,33.584575],[-117.841441,33.584638],[-117.841409,33.584641],[-117.841382,33.584627],[-117.841361,33.584574],[-117.841349,33.584502],[-117.841364,33.584475],[-117.84142,33.584445],[-117.841477,33.584436],[-117.841549,33.584439],[-117.841587,33.584454],[-117.841597,33.584471],[-117.841597,33.584489],[-117.841578,33.584516]]]}},{"type":"Feature","properties":{"k":"stream"},"geometry":{"type":"LineString","coordinates":[[-117.854286,33.597758],[-117.854206,33.59764],[-117.854188,33.597508],[-117.854273,33.59736],[-117.854468,33.59719],[-117.854905,33.596679],[-117.85511,33.596545],[-117.855256,33.596366],[-117.855343,33.596172],[-117.855391,33.595969],[-117.85553,33.595769],[-117.856124,33.595296],[-117.856805,33.594977],[-117.857135,33.59485],[-117.857415,33.594642],[-117.857716,33.594325],[-117.857836,33.594158],[-117.858148,33.593945]]}},{"type":"Feature","properties":{"k":"stream"},"geometry":{"type":"LineString","coordinates":[[-117.858148,33.593945],[-117.858502,33.59375]]}}]}