{"type":"FeatureCollection","features":[{"type":"Feature","properties":{"k":"hole","ref":"1","par":4,"hcp":6},"geometry":{"type":"LineString","coordinates":[[-118.459781,34.006331],[-118.462141,34.005192]]}},{"type":"Feature","properties":{"k":"hole","ref":"2","par":4,"hcp":3},"geometry":{"type":"LineString","coordinates":[[-118.462099,34.004717],[-118.463897,34.004031],[-118.464994,34.003384]]}},{"type":"Feature","properties":{"k":"hole","ref":"3","par":3,"hcp":8},"geometry":{"type":"LineString","coordinates":[[-118.465568,34.003402],[-118.465912,34.004434]]}},{"type":"Feature","properties":{"k":"hole","ref":"4","par":4,"hcp":9},"geometry":{"type":"LineString","coordinates":[[-118.465295,34.004125],[-118.463628,34.004633],[-118.462705,34.00509]]}},{"type":"Feature","properties":{"k":"hole","ref":"5","par":3,"hcp":2},"geometry":{"type":"LineString","coordinates":[[-118.462958,34.00537],[-118.464951,34.004798]]}},{"type":"Feature","properties":{"k":"hole","ref":"6","par":4,"hcp":1},"geometry":{"type":"LineString","coordinates":[[-118.46433,34.005355],[-118.460418,34.006779]]}},{"type":"Feature","properties":{"k":"hole","ref":"7","par":4,"hcp":5},"geometry":{"type":"LineString","coordinates":[[-118.461491,34.006891],[-118.458235,34.008178]]}},{"type":"Feature","properties":{"k":"hole","ref":"8","par":3,"hcp":7},"geometry":{"type":"LineString","coordinates":[[-118.458311,34.008578],[-118.456728,34.008171]]}},{"type":"Feature","properties":{"k":"hole","ref":"9","par":4,"hcp":4},"geometry":{"type":"LineString","coordinates":[[-118.456297,34.007812],[-118.458254,34.007399],[-118.459663,34.006849]]}},{"type":"Feature","properties":{"k":"path"},"geometry":{"type":"LineString","coordinates":[[-118.460041,34.006074],[-118.45994,34.006138],[-118.459879,34.006152],[-118.459795,34.006157],[-118.459714,34.006181],[-118.459638,34.006238],[-118.459512,34.006363],[-118.459331,34.006454],[-118.459226,34.006586]]}},{"type":"Feature","properties":{"k":"path"},"geometry":{"type":"LineString","coordinates":[[-118.460025,34.007019],[-118.460218,34.007002],[-118.46079,34.006913],[-118.461103,34.006856],[-118.461304,34.006791],[-118.461829,34.00659],[-118.461946,34.006563],[-118.462149,34.006547],[-118.462298,34.006522],[-118.462443,34.006481],[-118.462701,34.006381],[-118.464498,34.005422],[-118.464671,34.005281],[-118.465061,34.005094],[-118.465343,34.004927],[-118.465411,34.004826],[-118.465433,34.004714],[-118.465394,34.004553],[-118.465541,34.004159],[-118.465516,34.004041],[-118.465454,34.003947],[-118.465395,34.0039]]}},{"type":"Feature","properties":{"k":"path"},"geometry":{"type":"LineString","coordinates":[[-118.459726,34.006611],[-118.459868,34.006539],[-118.4605,34.006298],[-118.461999,34.005806],[-118.462227,34.005743],[-118.462357,34.005682],[-118.462498,34.005578],[-118.462586,34.005473],[-118.46267,34.005333],[-118.462803,34.005258],[-118.463197,34.005127],[-118.463636,34.004957],[-118.464006,34.004805],[-118.464484,34.004589],[-118.464711,34.004512],[-118.464861,34.004486],[-118.465021,34.004491],[-118.465131,34.004527],[-118.465233,34.004547],[-118.465394,34.004553]]}},{"type":"Feature","properties":{"k":"path"},"geometry":{"type":"LineString","coordinates":[[-118.458447,34.006844],[-118.458534,34.006819],[-118.459088,34.006734],[-118.459726,34.006611],[-118.459819,34.006638],[-118.459917,34.006698],[-118.459993,34.006808],[-118.46003,34.00692],[-118.460025,34.007019],[-118.459978,34.007088],[-118.459897,34.007155],[-118.45977,34.007209],[-118.45878,34.007594],[-118.45858,34.007656],[-118.458348,34.007718],[-118.458029,34.007792],[-118.457421,34.008012],[-118.457304,34.008045],[-118.457243,34.008052],[-118.457196,34.008046]]}},{"type":"Feature","properties":{"k":"path"},"geometry":{"type":"LineString","coordinates":[[-118.457196,34.008046],[-118.457126,34.008034],[-118.457064,34.008004],[-118.457028,34.007968],[-118.457013,34.007937],[-118.457004,34.007878],[-118.45702,34.007824],[-118.457045,34.007807],[-118.457083,34.007802],[-118.457131,34.007812],[-118.457169,34.007861],[-118.457191,34.007932],[-118.457196,34.008046]]}},{"type":"Feature","properties":{"k":"fairway"},"geometry":{"type":"Polygon","coordinates":[[[-118.460305,34.006117],[-118.460357,34.006146],[-118.460432,34.006154],[-118.460968,34.005932],[-118.461209,34.005811],[-118.4619,34.005437],[-118.462015,34.005364],[-118.462096,34.005327],[-118.462157,34.00532],[-118.462089,34.005271],[-118.462048,34.005198],[-118.462032,34.005126],[-118.462046,34.005083],[-118.461756,34.005287],[-118.461597,34.005367],[-118.461303,34.005529],[-118.461175,34.005574],[-118.46096,34.005623],[-118.46073,34.005754],[-118.460369,34.005871],[-118.460292,34.00591],[-118.460252,34.005966],[-118.460246,34.006033],[-118.460272,34.006083],[-118.460305,34.006117]]]}},{"type":"Feature","properties":{"k":"tee"},"geometry":{"type":"Polygon","coordinates":[[[-118.459873,34.006364],[-118.45975,34.006414],[-118.45967,34.0063],[-118.459801,34.006236],[-118.459873,34.006364]]]}},{"type":"Feature","properties":{"k":"tee"},"geometry":{"type":"Polygon","coordinates":[[[-118.459936,34.006336],[-118.459851,34.006201],[-118.459944,34.006169],[-118.460021,34.006304],[-118.459936,34.006336]]]}},{"type":"Feature","properties":{"k":"tee"},"geometry":{"type":"Polygon","coordinates":[[[-118.460181,34.006244],[-118.460112,34.006124],[-118.459996,34.006166],[-118.46006,34.006286],[-118.460181,34.006244]]]}},{"type":"Feature","properties":{"k":"bunker"},"geometry":{"type":"Polygon","coordinates":[[[-118.46145,34.005761],[-118.461413,34.005772],[-118.461398,34.00579],[-118.461389,34.005831],[-118.461395,34.005861],[-118.461414,34.005882],[-118.461445,34.005888],[-118.461477,34.005869],[-118.46148,34.005832],[-118.461475,34.005777],[-118.46145,34.005761]]]}},{"type":"Feature","properties":{"k":"bunker"},"geometry":{"type":"Polygon","coordinates":[[[-118.461197,34.005499],[-118.461223,34.005491],[-118.461266,34.005443],[-118.461275,34.005395],[-118.46126,34.005362],[-118.461218,34.005355],[-118.461199,34.005363],[-118.461184,34.005429],[-118.46116,34.005464],[-118.461158,34.005484],[-118.461169,34.005499],[-118.461197,34.005499]]]}},{"type":"Feature","properties":{"k":"green"},"geometry":{"type":"Polygon","coordinates":[[[-118.462191,34.005318],[-118.462152,34.005313],[-118.462089,34.005271],[-118.462048,34.005198],[-118.462032,34.005126],[-118.462046,34.005083],[-118.462088,34.005064],[-118.462123,34.00506],[-118.462152,34.005082],[-118.462197,34.005174],[-118.462244,34.005229],[-118.462254,34.005262],[-118.462247,34.005282],[-118.462223,34.005304],[-118.462191,34.005318]]]}},{"type":"Feature","properties":{"k":"bunker"},"geometry":{"type":"Polygon","coordinates":[[[-118.462275,34.005151],[-118.462308,34.005137],[-118.462282,34.005034],[-118.462248,34.005039],[-118.462215,34.00507],[-118.462217,34.005095],[-118.462238,34.00514],[-118.462275,34.005151]]]}},{"type":"Feature","properties":{"k":"tee"},"geometry":{"type":"Polygon","coordinates":[[[-118.462418,34.00469],[-118.462354,34.00454],[-118.462219,34.004594],[-118.462284,34.004727],[-118.462418,34.00469]]]}},{"type":"Feature","properties":{"k":"tee"},"geometry":{"type":"Polygon","coordinates":[[[-118.462208,34.004759],[-118.462157,34.004608],[-118.461981,34.004681],[-118.462045,34.004809],[-118.462208,34.004759]]]}},{"type":"Feature","properties":{"k":"green"},"geometry":{"type":"Polygon","coordinates":[[[-118.464898,34.003473],[-118.464992,34.003473],[-118.465053,34.003436],[-118.4651,34.003383],[-118.465121,34.003331],[-118.465126,34.003288],[-118.46511,34.003248],[-118.465089,34.00323],[-118.465034,34.003238],[-118.46495,34.003323],[-118.464881,34.003345],[-118.464843,34.003384],[-118.464835,34.003429],[-118.464852,34.003468],[-118.464898,34.003473]]]}},{"type":"Feature","properties":{"k":"tee"},"geometry":{"type":"Polygon","coordinates":[[[-118.465558,34.003526],[-118.465458,34.00332],[-118.465591,34.003277],[-118.465693,34.003492],[-118.465558,34.003526]]]}},{"type":"Feature","properties":{"k":"tee"},"geometry":{"type":"Polygon","coordinates":[[[-118.465306,34.003502],[-118.465467,34.003457],[-118.465508,34.003554],[-118.465346,34.003598],[-118.465306,34.003502]]]}},{"type":"Feature","properties":{"k":"green"},"geometry":{"type":"Polygon","coordinates":[[[-118.465986,34.004551],[-118.46594,34.004535],[-118.465911,34.00449],[-118.465871,34.004456],[-118.465791,34.004424],[-118.465771,34.004399],[-118.465772,34.004379],[-118.465799,34.004348],[-118.465842,34.004335],[-118.465889,34.004341],[-118.465968,34.004403],[-118.466048,34.004451],[-118.466058,34.004505],[-118.466029,34.004543],[-118.466013,34.004551],[-118.465986,34.004551]]]}},{"type":"Feature","properties":{"k":"bunker"},"geometry":{"type":"Polygon","coordinates":[[[-118.465758,34.004551],[-118.465788,34.004551],[-118.465801,34.004543],[-118.465809,34.004524],[-118.465798,34.004489],[-118.465786,34.004472],[-118.465725,34.004441],[-118.465684,34.004443],[-118.46567,34.004453],[-118.465668,34.004479],[-118.465737,34.004544],[-118.465758,34.004551]]]}},{"type":"Feature","properties":{"k":"tee"},"geometry":{"type":"Polygon","coordinates":[[[-118.465268,34.004217],[-118.465199,34.004069],[-118.46533,34.004028],[-118.465396,34.004181],[-118.465268,34.004217]]]}},{"type":"Feature","properties":{"k":"tee"},"geometry":{"type":"Polygon","coordinates":[[[-118.465215,34.004202],[-118.465165,34.004078],[-118.465016,34.004114],[-118.465065,34.004237],[-118.465215,34.004202]]]}},{"type":"Feature","properties":{"k":"tee"},"geometry":{"type":"Polygon","coordinates":[[[-118.462894,34.005449],[-118.463076,34.00541],[-118.463033,34.005286],[-118.462855,34.00533],[-118.462894,34.005449]]]}},{"type":"Feature","properties":{"k":"tee"},"geometry":{"type":"Polygon","coordinates":[[[-118.463401,34.005324],[-118.463362,34.005194],[-118.463079,34.00527],[-118.46312,34.005392],[-118.463401,34.005324]]]}},{"type":"Feature","properties":{"k":"tee"},"geometry":{"type":"Polygon","coordinates":[[[-118.463663,34.005276],[-118.463645,34.005184],[-118.46346,34.005212],[-118.463488,34.00531],[-118.463663,34.005276]]]}},{"type":"Feature","properties":{"k":"green"},"geometry":{"type":"Polygon","coordinates":[[[-118.464894,34.004885],[-118.464934,34.004904],[-118.464986,34.004902],[-118.465026,34.004881],[-118.465077,34.004838],[-118.465075,34.004802],[-118.465052,34.004751],[-118.465026,34.004727],[-118.464911,34.004702],[-118.46487,34.004704],[-118.464837,34.004726],[-118.464811,34.004767],[-118.464832,34.004815],[-118.464894,34.004885]]]}},{"type":"Feature","properties":{"k":"bunker"},"geometry":{"type":"Polygon","coordinates":[[[-118.464779,34.004976],[-118.464819,34.004975],[-118.46484,34.004941],[-118.464844,34.004906],[-118.464835,34.004882],[-118.464805,34.00487],[-118.464753,34.004874],[-118.464731,34.004896],[-118.464734,34.004955],[-118.464779,34.004976]]]}},{"type":"Feature","properties":{"k":"tee"},"geometry":{"type":"Polygon","coordinates":[[[-118.464479,34.00535],[-118.464424,34.00526],[-118.464159,34.005364],[-118.464217,34.005459],[-118.464479,34.00535]]]}},{"type":"Feature","properties":{"k":"tee"},"geometry":{"type":"Polygon","coordinates":[[[-118.464161,34.005476],[-118.464126,34.005378],[-118.463933,34.005446],[-118.463978,34.00555],[-118.464161,34.005476]]]}},{"type":"Feature","properties":{"k":"tee"},"geometry":{"type":"Polygon","coordinates":[[[-118.46392,34.005579],[-118.463875,34.005462],[-118.463712,34.005509],[-118.463764,34.005636],[-118.46392,34.005579]]]}},{"type":"Feature","properties":{"k":"green"},"geometry":{"type":"Polygon","coordinates":[[[-118.46032,34.00686],[-118.460382,34.006847],[-118.460566,34.006763],[-118.460582,34.00674],[-118.460573,34.006697],[-118.46052,34.006674],[-118.46048,34.006681],[-118.4604,34.006733],[-118.460308,34.006771],[-118.460276,34.006796],[-118.460275,34.006831],[-118.46029,34.006854],[-118.46032,34.00686]]]}},{"type":"Feature","properties":{"k":"tee"},"geometry":{"type":"Polygon","coordinates":[[[-118.461393,34.007002],[-118.461623,34.0069],[-118.461576,34.006799],[-118.461332,34.006895],[-118.461393,34.007002]]]}},{"type":"Feature","properties":{"k":"tee"},"geometry":{"type":"Polygon","coordinates":[[[-118.461348,34.007021],[-118.461281,34.006921],[-118.461136,34.006979],[-118.46121,34.007081],[-118.461348,34.007021]]]}},{"type":"Feature","properties":{"k":"green"},"geometry":{"type":"Polygon","coordinates":[[[-118.458221,34.00827],[-118.458294,34.008274],[-118.45834,34.00825],[-118.458361,34.00822],[-118.458361,34.008189],[-118.458318,34.00813],[-118.45828,34.008109],[-118.458249,34.008066],[-118.458215,34.008037],[-118.458145,34.008044],[-118.45812,34.008105],[-118.45812,34.008143],[-118.458135,34.0082],[-118.45817,34.008243],[-118.458221,34.00827]]]}},{"type":"Feature","properties":{"k":"tee"},"geometry":{"type":"Polygon","coordinates":[[[-118.458201,34.008602],[-118.458343,34.008676],[-118.458393,34.008527],[-118.458254,34.00849],[-118.458201,34.008602]]]}},{"type":"Feature","properties":{"k":"tee"},"geometry":{"type":"Polygon","coordinates":[[[-118.458136,34.008595],[-118.457832,34.008481],[-118.457917,34.008338],[-118.45823,34.008459],[-118.458136,34.008595]]]}},{"type":"Feature","properties":{"k":"green"},"geometry":{"type":"Polygon","coordinates":[[[-118.456821,34.008287],[-118.456872,34.008269],[-118.456913,34.008225],[-118.456928,34.008165],[-118.45689,34.008143],[-118.45683,34.008136],[-118.456742,34.008094],[-118.456666,34.008074],[-118.456608,34.008073],[-118.456583,34.008092],[-118.456561,34.008141],[-118.456579,34.008179],[-118.456615,34.008203],[-118.456718,34.008236],[-118.456821,34.008287]]]}},{"type":"Feature","properties":{"k":"bunker"},"geometry":{"type":"Polygon","coordinates":[[[-118.456639,34.008367],[-118.45667,34.008375],[-118.456695,34.008368],[-118.456705,34.008335],[-118.456696,34.008312],[-118.456672,34.008295],[-118.456643,34.008283],[-118.456614,34.008284],[-118.456594,34.008333],[-118.456639,34.008367]]]}},{"type":"Feature","properties":{"k":"tee"},"geometry":{"type":"Polygon","coordinates":[[[-118.456438,34.007825],[-118.456568,34.007796],[-118.456527,34.007682],[-118.456383,34.007725],[-118.456438,34.007825]]]}},{"type":"Feature","properties":{"k":"tee"},"geometry":{"type":"Polygon","coordinates":[[[-118.456412,34.007846],[-118.456366,34.00773],[-118.456212,34.007775],[-118.456262,34.007883],[-118.456412,34.007846]]]}},{"type":"Feature","properties":{"k":"bunker"},"geometry":{"type":"Polygon","coordinates":[[[-118.458216,34.007667],[-118.45824,34.007665],[-118.458254,34.007647],[-118.458254,34.007587],[-118.458246,34.007573],[-118.458199,34.007572],[-118.458174,34.0076],[-118.458178,34.00764],[-118.458195,34.00766],[-118.458216,34.007667]]]}},{"type":"Feature","properties":{"k":"bunker"},"geometry":{"type":"Polygon","coordinates":[[[-118.458414,34.007116],[-118.458458,34.007107],[-118.458468,34.007092],[-118.458499,34.007083],[-118.458548,34.007083],[-118.458583,34.007069],[-118.458595,34.007057],[-118.458592,34.007035],[-118.458566,34.006994],[-118.458495,34.006996],[-118.458454,34.007009],[-118.458397,34.007042],[-118.458382,34.007066],[-118.458383,34.00709],[-118.458392,34.007112],[-118.458414,34.007116]]]}},{"type":"Feature","properties":{"k":"bunker"},"geometry":{"type":"Polygon","coordinates":[[[-118.459689,34.007077],[-118.459734,34.00707],[-118.459764,34.007057],[-118.459766,34.007035],[-118.459752,34.007005],[-118.459706,34.006984],[-118.459675,34.006984],[-118.459642,34.006995],[-118.459626,34.007036],[-118.459658,34.007074],[-118.459689,34.007077]]]}},{"type":"Feature","properties":{"k":"green"},"geometry":{"type":"Polygon","coordinates":[[[-118.459463,34.00691],[-118.459558,34.006912],[-118.459657,34.006903],[-118.459697,34.006908],[-118.459732,34.006924],[-118.459784,34.006929],[-118.459829,34.006915],[-118.459829,34.006885],[-118.459823,34.006855],[-118.459764,34.006813],[-118.459731,34.0068],[-118.459626,34.006782],[-118.459575,34.006792],[-118.459468,34.006839],[-118.459448,34.006893],[-118.459463,34.00691]]]}},{"type":"Feature","properties":{"k":"green"},"geometry":{"type":"Polygon","coordinates":[[[-118.459473,34.006568],[-118.459517,34.006542],[-118.459634,34.006522],[-118.459649,34.00651],[-118.459651,34.006447],[-118.459598,34.006402],[-118.459583,34.006396],[-118.45954,34.006397],[-118.459473,34.006442],[-118.459408,34.006462],[-118.459371,34.006486],[-118.45936,34.006507],[-118.459373,34.006557],[-118.459412,34.006571],[-118.459473,34.006568]]]}},{"type":"Feature","properties":{"k":"green"},"geometry":{"type":"Polygon","coordinates":[[[-118.459037,34.006696],[-118.459067,34.006676],[-118.459066,34.006645],[-118.458994,34.006554],[-118.458936,34.006547],[-118.458908,34.006554],[-118.458721,34.006642],[-118.45866,34.006676],[-118.458651,34.006695],[-118.458659,34.00673],[-118.458672,34.006741],[-118.458727,34.006747],[-118.459037,34.006696]]]}},{"type":"Feature","properties":{"k":"green"},"geometry":{"type":"Polygon","coordinates":[[[-118.462792,34.005169],[-118.462822,34.005168],[-118.462841,34.005159],[-118.462856,34.005128],[-118.462853,34.005113],[-118.462843,34.005083],[-118.462744,34.005019],[-118.462721,34.005013],[-118.462648,34.005018],[-118.462592,34.005044],[-118.462573,34.005061],[-118.462561,34.005111],[-118.462571,34.005128],[-118.462595,34.00514],[-118.462647,34.005153],[-118.462735,34.005149],[-118.462792,34.005169]]]}}]}