{"type":"FeatureCollection","features":[{"type":"Feature","properties":{"k":"wood"},"geometry":{"type":"Polygon","coordinates":[[[-74.930877,39.92338],[-74.930904,39.923308],[-74.931341,39.923369],[-74.931334,39.923038],[-74.931525,39.922943],[-74.932051,39.922917],[-74.932127,39.922785],[-74.933021,39.922788],[-74.933765,39.923152],[-74.93452,39.923247],[-74.934669,39.923408],[-74.934555,39.923682],[-74.933593,39.924492],[-74.933305,39.924503],[-74.931561,39.923824],[-74.930909,39.923707],[-74.930741,39.923601],[-74.930877,39.92338]]]}},{"type":"Feature","properties":{"k":"water"},"geometry":{"type":"Polygon","coordinates":[[[-74.939304,39.929927],[-74.939325,39.92994],[-74.939396,39.929945],[-74.939435,39.929955],[-74.939566,39.930006],[-74.939607,39.930042],[-74.939631,39.930083],[-74.939632,39.930215],[-74.939604,39.930567],[-74.939585,39.930757],[-74.93957,39.930834],[-74.939543,39.930879],[-74.939504,39.930911],[-74.939373,39.930985],[-74.939264,39.931036],[-74.939195,39.931043],[-74.939154,39.931037],[-74.938877,39.930959],[-74.938743,39.930858],[-74.938727,39.930838],[-74.938715,39.930773],[-74.938778,39.930649],[-74.938795,39.930533],[-74.938784,39.930454],[-74.938733,39.93026],[-74.938731,39.930192],[-74.938739,39.930173],[-74.938775,39.930135],[-74.938907,39.930039],[-74.938946,39.929997],[-74.938992,39.929914],[-74.939019,39.929889],[-74.939042,39.929878],[-74.939097,39.929871],[-74.939304,39.929927]]]}},{"type":"Feature","properties":{"k":"water"},"geometry":{"type":"Polygon","coordinates":[[[-74.940477,39.924545],[-74.940465,39.924759],[-74.940429,39.924813],[-74.940407,39.924825],[-74.940368,39.924831],[-74.940322,39.924827],[-74.94025,39.924806],[-74.940142,39.924755],[-74.940078,39.92474],[-74.94,39.924706],[-74.939923,39.924666],[-74.939848,39.924614],[-74.939819,39.924581],[-74.939804,39.924545],[-74.939802,39.92451],[-74.939836,39.924442],[-74.939939,39.924297],[-74.940028,39.924207],[-74.940069,39.924206],[-74.940178,39.924251],[-74.940211,39.924321],[-74.940404,39.924456],[-74.940471,39.924488],[-74.940483,39.924508],[-74.940477,39.924545]]]}},{"type":"Feature","properties":{"k":"water"},"geometry":{"type":"Polygon","coordinates":[[[-74.921754,39.926718],[-74.921754,39.926759],[-74.921638,39.926968],[-74.921636,39.927104],[-74.921601,39.92715],[-74.921542,39.927191],[-74.921498,39.927205],[-74.921398,39.9272],[-74.921353,39.927178],[-74.921321,39.927121],[-74.921346,39.927028],[-74.921434,39.926826],[-74.921462,39.926651],[-74.921461,39.926574],[-74.921491,39.926556],[-74.921541,39.926551],[-74.921621,39.926585],[-74.921736,39.926675],[-74.921754,39.926718]]]}},{"type":"Feature","properties":{"k":"water"},"geometry":{"type":"Polygon","coordinates":[[[-74.945552,39.92472],[-74.945455,39.924943],[-74.945361,39.925081],[-74.945274,39.925177],[-74.945222,39.92521],[-74.945148,39.925228],[-74.945115,39.925228],[-74.945071,39.925216],[-74.945018,39.925191],[-74.944912,39.925118],[-74.944897,39.925097],[-74.944888,39.925033],[-74.944914,39.924948],[-74.944927,39.924855],[-74.944916,39.924532],[-74.944942,39.92447],[-74.945,39.924385],[-74.94503,39.924362],[-74.945094,39.924334],[-74.945296,39.924306],[-74.945353,39.924307],[-74.945449,39.924337],[-74.945552,39.924438],[-74.945597,39.924537],[-74.945589,39.924621],[-74.945562,39.924679],[-74.945552,39.92472]]]}},{"type":"Feature","properties":{"k":"stream"},"geometry":{"type":"LineString","coordinates":[[-74.938692,39.932269],[-74.938852,39.932195],[-74.939035,39.932135],[-74.93934,39.932099],[-74.939427,39.93208],[-74.939504,39.932052],[-74.939801,39.932],[-74.939892,39.931989],[-74.939994,39.931992],[-74.940035,39.932005],[-74.940076,39.932057],[-74.940101,39.93223],[-74.940119,39.932274],[-74.940228,39.93238],[-74.94025,39.932424],[-74.940284,39.932543],[-74.940383,39.932613],[-74.940554,39.932694],[-74.940702,39.932746],[-74.94087,39.932779],[-74.940974,39.93281],[-74.941075,39.932845],[-74.94117,39.932893],[-74.941243,39.932968],[-74.941323,39.933078],[-74.941398,39.933141],[-74.941473,39.933194],[-74.941574,39.933251],[-74.941705,39.933312],[-74.941748,39.933351],[-74.941829,39.933449],[-74.941935,39.933549],[-74.942047,39.933671],[-74.942135,39.933874],[-74.942157,39.933892],[-74.942203,39.93391],[-74.942468,39.933958],[-74.942741,39.934053],[-74.942792,39.934083],[-74.942848,39.934129],[-74.943037,39.934321],[-74.943368,39.934601],[-74.943509,39.934649],[-74.944002,39.934736]]}},{"type":"Feature","properties":{"k":"stream"},"geometry":{"type":"LineString","coordinates":[[-74.938772,39.925276],[-74.938758,39.925345],[-74.938758,39.925403],[-74.938729,39.925521]]}},{"type":"Feature","properties":{"k":"stream"},"geometry":{"type":"LineString","coordinates":[[-74.921271,39.924813],[-74.921399,39.924811],[-74.921472,39.924825],[-74.921557,39.924853],[-74.921609,39.924879],[-74.921654,39.924912],[-74.921696,39.92498],[-74.921733,39.925006],[-74.921857,39.925045],[-74.921937,39.92506],[-74.922012,39.925065],[-74.922171,39.925107]]}},{"type":"Feature","properties":{"k":"stream"},"geometry":{"type":"LineString","coordinates":[[-74.937186,39.924709],[-74.937483,39.925206],[-74.93752,39.925239],[-74.937604,39.925255],[-74.938384,39.925244],[-74.938772,39.925276]]}},{"type":"Feature","properties":{"k":"stream"},"geometry":{"type":"LineString","coordinates":[[-74.938939,39.930005],[-74.938991,39.930091],[-74.939072,39.930304],[-74.939106,39.930457],[-74.939105,39.930569],[-74.939093,39.930629],[-74.938983,39.930839],[-74.938868,39.930951]]}},{"type":"Feature","properties":{"k":"stream"},"geometry":{"type":"LineString","coordinates":[[-74.938868,39.930951],[-74.938812,39.930999]]}},{"type":"Feature","properties":{"k":"stream"},"geometry":{"type":"LineString","coordinates":[[-74.938736,39.929685],[-74.938774,39.929763]]}},{"type":"Feature","properties":{"k":"stream"},"geometry":{"type":"LineString","coordinates":[[-74.922171,39.925107],[-74.922369,39.925172]]}},{"type":"Feature","properties":{"k":"stream"},"geometry":{"type":"LineString","coordinates":[[-74.922369,39.925172],[-74.92276,39.925265],[-74.922888,39.925311],[-74.923226,39.925399],[-74.923322,39.925412],[-74.923553,39.925462],[-74.923726,39.925484],[-74.923864,39.925481],[-74.923969,39.925494],[-74.924198,39.925546]]}},{"type":"Feature","properties":{"k":"stream"},"geometry":{"type":"LineString","coordinates":[[-74.932184,39.92375],[-74.932389,39.92382],[-74.932662,39.923945],[-74.932773,39.923982],[-74.932889,39.924038],[-74.933103,39.924117],[-74.93329,39.924162],[-74.93334,39.924213],[-74.933364,39.924219],[-74.933505,39.924209],[-74.933564,39.924258],[-74.93361,39.924283],[-74.933662,39.924293],[-74.933717,39.924285]]}},{"type":"Feature","properties":{"k":"stream"},"geometry":{"type":"LineString","coordinates":[[-74.944406,39.924569],[-74.94424,39.924848],[-74.943933,39.92521],[-74.943934,39.925242],[-74.94396,39.925274],[-74.944007,39.925294],[-74.944227,39.925312],[-74.944471,39.925366],[-74.944532,39.925405],[-74.944549,39.925431]]}},{"type":"Feature","properties":{"k":"stream"},"geometry":{"type":"LineString","coordinates":[[-74.938729,39.925521],[-74.93873,39.925583]]}},{"type":"Feature","properties":{"k":"stream"},"geometry":{"type":"LineString","coordinates":[[-74.93769,39.923419],[-74.937772,39.923425],[-74.937834,39.923419],[-74.937951,39.92339],[-74.937998,39.923396],[-74.938076,39.923445],[-74.938223,39.923557],[-74.938392,39.923725],[-74.938436,39.923782],[-74.938469,39.92386],[-74.938494,39.923957],[-74.938544,39.924321],[-74.938612,39.924622],[-74.938647,39.92487],[-74.938717,39.925055],[-74.938725,39.925128],[-74.938775,39.925229],[-74.938772,39.925276]]}},{"type":"Feature","properties":{"k":"stream"},"geometry":{"type":"LineString","coordinates":[[-74.934536,39.924136],[-74.934621,39.924121],[-74.934662,39.924121],[-74.934699,39.924131],[-74.934794,39.924183],[-74.934927,39.924193],[-74.934979,39.924209],[-74.935083,39.924278],[-74.935129,39.924293],[-74.935199,39.924293],[-74.935256,39.924289],[-74.935851,39.924185],[-74.936125,39.924172],[-74.936369,39.924182],[-74.93642,39.924177],[-74.936513,39.924152],[-74.936709,39.924132],[-74.936773,39.924132],[-74.936815,39.92414],[-74.936855,39.924179],[-74.936993,39.924355],[-74.937035,39.924433]]}},{"type":"Feature","properties":{"k":"stream"},"geometry":{"type":"LineString","coordinates":[[-74.944549,39.925431],[-74.944529,39.925473],[-74.944489,39.925719],[-74.944487,39.925816],[-74.944497,39.925865],[-74.944526,39.925927],[-74.944656,39.926075],[-74.944764,39.926243],[-74.944919,39.926338],[-74.944951,39.926387],[-74.944987,39.926507],[-74.944991,39.926562],[-74.944981,39.926619],[-74.944946,39.926669],[-74.944638,39.926989],[-74.944253,39.927441],[-74.944192,39.927494],[-74.944176,39.927513],[-74.944175,39.92753],[-74.944156,39.927546],[-74.944153,39.927578],[-74.944138,39.927602],[-74.944071,39.927677],[-74.943875,39.927862],[-74.943746,39.92792],[-74.943689,39.927956],[-74.943447,39.928139]]}},{"type":"Feature","properties":{"k":"stream"},"geometry":{"type":"LineString","coordinates":[[-74.938774,39.929763],[-74.938939,39.930005]]}},{"type":"Feature","properties":{"k":"stream"},"geometry":{"type":"LineString","coordinates":[[-74.945522,39.924408],[-74.945185,39.924861],[-74.944912,39.925118]]}},{"type":"Feature","properties":{"k":"stream"},"geometry":{"type":"LineString","coordinates":[[-74.938812,39.930999],[-74.938712,39.931101],[-74.938562,39.931294],[-74.938383,39.931452],[-74.938247,39.931541]]}},{"type":"Feature","properties":{"k":"stream"},"geometry":{"type":"LineString","coordinates":[[-74.93873,39.925583],[-74.938706,39.92594],[-74.938689,39.926046],[-74.93866,39.926145],[-74.938617,39.926232],[-74.938607,39.926456],[-74.938587,39.926555],[-74.938586,39.926636],[-74.938567,39.926673],[-74.938578,39.926733],[-74.938557,39.926787],[-74.938559,39.926824],[-74.938519,39.92694],[-74.938527,39.927002],[-74.93855,39.927014],[-74.938559,39.92703],[-74.938559,39.927039],[-74.938519,39.927081],[-74.938512,39.9272],[-74.93852,39.927351],[-74.938565,39.927556],[-74.938544,39.927731],[-74.938533,39.928167],[-74.93851,39.928402],[-74.93851,39.928479],[-74.938527,39.928593],[-74.938497,39.928702],[-74.938485,39.928836],[-74.938495,39.928995],[-74.93852,39.929081],[-74.938526,39.929193],[-74.938542,39.92926],[-74.938736,39.929685]]}},{"type":"Feature","properties":{"k":"stream"},"geometry":{"type":"LineString","coordinates":[[-74.944912,39.925118],[-74.944645,39.925358],[-74.94458,39.925388],[-74.944549,39.925431]]}},{"type":"Feature","properties":{"k":"stream"},"geometry":{"type":"LineString","coordinates":[[-74.920991,39.924706],[-74.921271,39.924813]]}},{"type":"Feature","properties":{"k":"stream"},"geometry":{"type":"LineString","coordinates":[[-74.933717,39.924285],[-74.934536,39.924136]]}},{"type":"Feature","properties":{"k":"stream"},"geometry":{"type":"LineString","coordinates":[[-74.937035,39.924433],[-74.937186,39.924709]]}}]}