{"type":"FeatureCollection","features":[{"type":"Feature","properties":{"k":"hole","ref":"1","par":4,"hcp":7},"geometry":{"type":"LineString","coordinates":[[-118.417622,34.045372],[-118.415219,34.046588],[-118.414247,34.04684]]}},{"type":"Feature","properties":{"k":"hole","ref":"2","par":4,"hcp":1},"geometry":{"type":"LineString","coordinates":[[-118.414349,34.046382],[-118.411564,34.048053],[-118.410381,34.048535]]}},{"type":"Feature","properties":{"k":"hole","ref":"3","par":3,"hcp":15},"geometry":{"type":"LineString","coordinates":[[-118.409869,34.048437],[-118.411121,34.047231]]}},{"type":"Feature","properties":{"k":"hole","ref":"4","par":5,"hcp":17},"geometry":{"type":"LineString","coordinates":[[-118.411019,34.047854],[-118.413447,34.046156],[-118.415394,34.04585]]}},{"type":"Feature","properties":{"k":"hole","ref":"5","par":4,"hcp":5},"geometry":{"type":"LineString","coordinates":[[-118.415987,34.045661],[-118.414182,34.044657],[-118.413849,34.043179]]}},{"type":"Feature","properties":{"k":"hole","ref":"6","par":4,"hcp":9},"geometry":{"type":"LineString","coordinates":[[-118.413394,34.043984],[-118.410995,34.044779],[-118.409755,34.04494]]}},{"type":"Feature","properties":{"k":"hole","ref":"7","par":4,"hcp":9},"geometry":{"type":"LineString","coordinates":[[-118.409305,34.044583],[-118.41144,34.043963],[-118.412851,34.043626]]}},{"type":"Feature","properties":{"k":"hole","ref":"8","par":3,"hcp":11},"geometry":{"type":"LineString","coordinates":[[-118.411859,34.043427],[-118.413954,34.042549]]}},{"type":"Feature","properties":{"k":"hole","ref":"9","par":4,"hcp":3},"geometry":{"type":"LineString","coordinates":[[-118.414433,34.042319],[-118.415946,34.044238],[-118.416686,34.044781]]}},{"type":"Feature","properties":{"k":"hole","ref":"10","par":4,"hcp":6},"geometry":{"type":"LineString","coordinates":[[-118.416337,34.045492],[-118.414556,34.044021],[-118.414267,34.0429]]}},{"type":"Feature","properties":{"k":"hole","ref":"11","par":4,"hcp":4},"geometry":{"type":"LineString","coordinates":[[-118.414487,34.041905],[-118.411402,34.043123],[-118.410426,34.043616]]}},{"type":"Feature","properties":{"k":"hole","ref":"12","par":3,"hcp":10},"geometry":{"type":"LineString","coordinates":[[-118.409817,34.044014],[-118.407783,34.043567]]}},{"type":"Feature","properties":{"k":"hole","ref":"13","par":4,"hcp":12},"geometry":{"type":"LineString","coordinates":[[-118.40723,34.043301],[-118.409072,34.042344],[-118.410482,34.041691]]}},{"type":"Feature","properties":{"k":"hole","ref":"14","par":4,"hcp":8},"geometry":{"type":"LineString","coordinates":[[-118.41034,34.041411],[-118.41284,34.040269],[-118.414088,34.039753]]}},{"type":"Feature","properties":{"k":"hole","ref":"15","par":4,"hcp":3},"geometry":{"type":"LineString","coordinates":[[-118.414576,34.040175],[-118.4123,34.041418],[-118.410795,34.042017]]}},{"type":"Feature","properties":{"k":"hole","ref":"16","par":3,"hcp":18},"geometry":{"type":"LineString","coordinates":[[-118.410616,34.042354],[-118.409267,34.04327]]}},{"type":"Feature","properties":{"k":"hole","ref":"17","par":5,"hcp":16},"geometry":{"type":"LineString","coordinates":[[-118.409812,34.043399],[-118.412255,34.042061],[-118.41434,34.04162]]}},{"type":"Feature","properties":{"k":"hole","ref":"18","par":5,"hcp":14},"geometry":{"type":"LineString","coordinates":[[-118.414487,34.040585],[-118.415609,34.042381],[-118.41743,34.043668]]}},{"type":"Feature","properties":{"k":"clubhouse"},"geometry":{"type":"Polygon","coordinates":[[[-118.417692,34.045263],[-118.417737,34.045047],[-118.417746,34.045048],[-118.41782,34.044696],[-118.41783,34.044697],[-118.41785,34.044602],[-118.418047,34.044631],[-118.417959,34.04508],[-118.417984,34.045085],[-118.417933,34.045298],[-118.417692,34.045263]]]}},{"type":"Feature","properties":{"k":"path"},"geometry":{"type":"LineString","coordinates":[[-118.414182,34.045027],[-118.414336,34.045211],[-118.414504,34.045329],[-118.414756,34.045482],[-118.414903,34.045522],[-118.415265,34.045537],[-118.415384,34.045558],[-118.415493,34.0456],[-118.415958,34.045846]]}},{"type":"Feature","properties":{"k":"path"},"geometry":{"type":"LineString","coordinates":[[-118.417354,34.045157],[-118.417362,34.045257],[-118.417346,34.04531],[-118.417252,34.045488],[-118.417185,34.045533],[-118.416985,34.045628],[-118.416726,34.045738]]}},{"type":"Feature","properties":{"k":"path"},"geometry":{"type":"LineString","coordinates":[[-118.416588,34.04525],[-118.417018,34.045221],[-118.417201,34.045199],[-118.417354,34.045157],[-118.417433,34.045111],[-118.417508,34.045045],[-118.417545,34.044934],[-118.41768,34.044749],[-118.4177,34.044681],[-118.417802,34.044578],[-118.417846,34.044463],[-118.417916,34.04432],[-118.417905,34.044284],[-118.416837,34.043444]]}},{"type":"Feature","properties":{"k":"path"},"geometry":{"type":"LineString","coordinates":[[-118.415734,34.046557],[-118.4153,34.046765],[-118.415022,34.046958],[-118.414884,34.046999],[-118.414723,34.047004],[-118.414687,34.047013],[-118.414569,34.047072],[-118.414427,34.047101],[-118.414308,34.047099],[-118.413917,34.046986],[-118.413768,34.046962]]}},{"type":"Feature","properties":{"k":"path"},"geometry":{"type":"LineString","coordinates":[[-118.414182,34.045027],[-118.414373,34.045091],[-118.414518,34.045172],[-118.414652,34.045267],[-118.414963,34.045384],[-118.415077,34.04542],[-118.41532,34.045433],[-118.415409,34.045497],[-118.415493,34.0456],[-118.415463,34.045648],[-118.415396,34.045667],[-118.4153,34.045666],[-118.415235,34.045652],[-118.41512,34.045678],[-118.415047,34.045686],[-118.414976,34.045661],[-118.414878,34.045646],[-118.414742,34.045645],[-118.414625,34.045667]]}},{"type":"Feature","properties":{"k":"path"},"geometry":{"type":"LineString","coordinates":[[-118.410064,34.048457],[-118.410089,34.048526],[-118.410087,34.048572],[-118.410041,34.048617],[-118.409959,34.048657],[-118.409881,34.04866],[-118.409853,34.048637],[-118.409873,34.048603],[-118.410064,34.048457]]}},{"type":"Feature","properties":{"k":"path"},"geometry":{"type":"LineString","coordinates":[[-118.410064,34.048457],[-118.410123,34.048365],[-118.410429,34.048031],[-118.410551,34.047985],[-118.410686,34.04792],[-118.410784,34.04784],[-118.410859,34.047737],[-118.410978,34.047606],[-118.411063,34.047528],[-118.411232,34.04744]]}},{"type":"Feature","properties":{"k":"path"},"geometry":{"type":"LineString","coordinates":[[-118.410123,34.048365],[-118.410269,34.048338],[-118.41045,34.048324],[-118.410611,34.048206],[-118.410917,34.04805]]}},{"type":"Feature","properties":{"k":"path"},"geometry":{"type":"LineString","coordinates":[[-118.413223,34.047216],[-118.413283,34.047242],[-118.41333,34.047238],[-118.413743,34.047001],[-118.413761,34.046984],[-118.413771,34.046916],[-118.41379,34.046864],[-118.413846,34.046796],[-118.41392,34.046749],[-118.413976,34.046688],[-118.41405,34.046666],[-118.414143,34.046656],[-118.414291,34.046616],[-118.414388,34.046546],[-118.414547,34.046491],[-118.414807,34.046375],[-118.414925,34.046301],[-118.414999,34.046237],[-118.415101,34.04617]]}},{"type":"Feature","properties":{"k":"path"},"geometry":{"type":"LineString","coordinates":[[-118.414666,34.042211],[-118.414742,34.042377],[-118.414741,34.042418],[-118.414703,34.042495],[-118.414614,34.042604],[-118.414593,34.042663],[-118.414583,34.042744]]}},{"type":"Feature","properties":{"k":"path"},"geometry":{"type":"LineString","coordinates":[[-118.413446,34.042283],[-118.413545,34.042279],[-118.413751,34.042236],[-118.413956,34.042163],[-118.414039,34.042158],[-118.414142,34.042194],[-118.414221,34.042257]]}},{"type":"Feature","properties":{"k":"path"},"geometry":{"type":"LineString","coordinates":[[-118.412215,34.043642],[-118.412324,34.04354],[-118.412473,34.043424]]}},{"type":"Feature","properties":{"k":"path"},"geometry":{"type":"LineString","coordinates":[[-118.41278,34.04342],[-118.412473,34.043424],[-118.412388,34.043411],[-118.41237,34.043391],[-118.412375,34.043365],[-118.41243,34.043343],[-118.412679,34.043278],[-118.412749,34.043249],[-118.412813,34.043202],[-118.412922,34.043118],[-118.413018,34.04302],[-118.413149,34.042821],[-118.413181,34.042784],[-118.413651,34.042523],[-118.413863,34.042372],[-118.413944,34.042335],[-118.414012,34.042323],[-118.414075,34.042334],[-118.414243,34.042433],[-118.414323,34.042516],[-118.414421,34.042681],[-118.414464,34.042775],[-118.414483,34.042849],[-118.414473,34.043017],[-118.414486,34.04309],[-118.414515,34.043173],[-118.414676,34.043428],[-118.415071,34.043889],[-118.415266,34.044134],[-118.415317,34.044229],[-118.415554,34.044512],[-118.415578,34.044617],[-118.41557,34.04467],[-118.415574,34.044712],[-118.415613,34.044754],[-118.415745,34.044857],[-118.416006,34.045081],[-118.416484,34.045507]]}},{"type":"Feature","properties":{"k":"path"},"geometry":{"type":"LineString","coordinates":[[-118.413506,34.043505],[-118.413478,34.043536],[-118.413428,34.043623],[-118.413385,34.043835]]}},{"type":"Feature","properties":{"k":"path"},"geometry":{"type":"LineString","coordinates":[[-118.413567,34.043397],[-118.413506,34.043505]]}},{"type":"Feature","properties":{"k":"path"},"geometry":{"type":"LineString","coordinates":[[-118.413429,34.04387],[-118.413445,34.043848],[-118.413506,34.043505]]}},{"type":"Feature","properties":{"k":"path"},"geometry":{"type":"LineString","coordinates":[[-118.413385,34.043835],[-118.413429,34.04387],[-118.413483,34.043968],[-118.413511,34.044074]]}},{"type":"Feature","properties":{"k":"path"},"geometry":{"type":"LineString","coordinates":[[-118.413511,34.044074],[-118.413393,34.0441],[-118.413124,34.044212],[-118.412983,34.044247],[-118.412727,34.0443],[-118.412434,34.044337],[-118.412212,34.044351],[-118.4119,34.044238],[-118.41179,34.044205],[-118.41256,34.044004],[-118.412969,34.043874],[-118.413218,34.043808],[-118.413315,34.043811],[-118.413385,34.043835]]}},{"type":"Feature","properties":{"k":"path"},"geometry":{"type":"LineString","coordinates":[[-118.40938,34.044745],[-118.409953,34.044641],[-118.41179,34.044205]]}},{"type":"Feature","properties":{"k":"path"},"geometry":{"type":"LineString","coordinates":[[-118.409953,34.044641],[-118.409809,34.044505],[-118.409755,34.044424],[-118.409723,34.044348],[-118.409727,34.044255],[-118.409751,34.044182],[-118.409869,34.044109],[-118.409903,34.043919]]}},{"type":"Feature","properties":{"k":"path"},"geometry":{"type":"LineString","coordinates":[[-118.410106,34.043837],[-118.409879,34.043929],[-118.409615,34.043855],[-118.409562,34.04383],[-118.409529,34.043783],[-118.409464,34.043741],[-118.409384,34.043726],[-118.409279,34.043732],[-118.40909,34.043785],[-118.409002,34.04379],[-118.408953,34.043768],[-118.408794,34.043609],[-118.408633,34.043551],[-118.408586,34.043546],[-118.408405,34.043623],[-118.40778,34.0438],[-118.407708,34.043809],[-118.407634,34.043784],[-118.407576,34.043715],[-118.407524,34.043616],[-118.407493,34.043591],[-118.407364,34.043551],[-118.407316,34.043512],[-118.407284,34.043471],[-118.407282,34.043439],[-118.40731,34.043413],[-118.407551,34.043285],[-118.407765,34.04312],[-118.407821,34.04306],[-118.407804,34.043009]]}},{"type":"Feature","properties":{"k":"path"},"geometry":{"type":"LineString","coordinates":[[-118.410835,34.043132],[-118.410665,34.04321],[-118.410404,34.043306],[-118.410286,34.043361],[-118.410198,34.043422],[-118.410127,34.043505],[-118.410054,34.043563],[-118.409963,34.043619]]}},{"type":"Feature","properties":{"k":"path"},"geometry":{"type":"LineString","coordinates":[[-118.410887,34.042808],[-118.41059,34.0429],[-118.410323,34.042995],[-118.409942,34.043164],[-118.40986,34.043216],[-118.409706,34.043337],[-118.409515,34.043415],[-118.409226,34.043453],[-118.409148,34.043423],[-118.409073,34.043371],[-118.409045,34.043302],[-118.409065,34.043231],[-118.409116,34.043146],[-118.409167,34.043081],[-118.409285,34.043013],[-118.40943,34.042955],[-118.409475,34.04292],[-118.409561,34.04282],[-118.409981,34.042643],[-118.410573,34.042236],[-118.410611,34.04219],[-118.410587,34.042105],[-118.410596,34.042053],[-118.410633,34.041998],[-118.410689,34.041862]]}},{"type":"Feature","properties":{"k":"path"},"geometry":{"type":"LineString","coordinates":[[-118.410932,34.043641],[-118.410493,34.043847],[-118.410186,34.043932],[-118.410152,34.043918],[-118.409963,34.043619],[-118.409881,34.043575],[-118.409774,34.043563],[-118.409476,34.043568],[-118.409194,34.043518],[-118.409006,34.043432],[-118.408788,34.043209],[-118.408724,34.043111],[-118.4087,34.042975],[-118.408888,34.042839],[-118.409244,34.042645],[-118.410018,34.042204],[-118.410197,34.042121],[-118.410512,34.041998],[-118.410868,34.041711],[-118.411162,34.041525],[-118.412083,34.041055],[-118.412441,34.040932],[-118.413079,34.040678],[-118.413497,34.040481]]}},{"type":"Feature","properties":{"k":"path"},"geometry":{"type":"LineString","coordinates":[[-118.412997,34.040459],[-118.413076,34.040505],[-118.413115,34.040593],[-118.413079,34.040678],[-118.413098,34.040803]]}},{"type":"Feature","properties":{"k":"path"},"geometry":{"type":"LineString","coordinates":[[-118.410072,34.0417],[-118.410233,34.041598],[-118.41032,34.041519],[-118.410461,34.041445],[-118.410514,34.041429],[-118.410576,34.041472],[-118.410623,34.041482],[-118.410674,34.04146],[-118.410787,34.041376],[-118.410898,34.041312],[-118.410962,34.041254],[-118.410993,34.041179],[-118.411055,34.041138],[-118.411509,34.040921],[-118.411546,34.040921],[-118.411583,34.040941],[-118.411645,34.040956],[-118.411915,34.041008],[-118.412083,34.041055]]}},{"type":"Feature","properties":{"k":"path"},"geometry":{"type":"LineString","coordinates":[[-118.413726,34.04036],[-118.413599,34.040355],[-118.413269,34.040391],[-118.413106,34.040425],[-118.412997,34.040459],[-118.412898,34.040505],[-118.412753,34.040597],[-118.412641,34.040643],[-118.411905,34.040835],[-118.411735,34.0409],[-118.411645,34.040956]]}},{"type":"Feature","properties":{"k":"path"},"geometry":{"type":"LineString","coordinates":[[-118.413497,34.040481],[-118.413348,34.040688],[-118.413273,34.040745],[-118.412903,34.040869],[-118.412664,34.040992],[-118.412244,34.041127],[-118.411894,34.041283],[-118.411315,34.041505],[-118.411162,34.041525]]}},{"type":"Feature","properties":{"k":"path"},"geometry":{"type":"LineString","coordinates":[[-118.414307,34.040014],[-118.413991,34.040207],[-118.413556,34.040458],[-118.413497,34.040481]]}},{"type":"Feature","properties":{"k":"path"},"geometry":{"type":"LineString","coordinates":[[-118.414254,34.040559],[-118.413991,34.040207]]}},{"type":"Feature","properties":{"k":"path"},"geometry":{"type":"LineString","coordinates":[[-118.413971,34.041546],[-118.414154,34.041496],[-118.414476,34.041309],[-118.414547,34.041214]]}},{"type":"Feature","properties":{"k":"bunker"},"geometry":{"type":"Polygon","coordinates":[[[-118.415967,34.042786],[-118.415925,34.042784],[-118.415866,34.042765],[-118.415831,34.042729],[-118.415809,34.042672],[-118.415785,34.042664],[-118.415763,34.042644],[-118.415766,34.042621],[-118.415798,34.042612],[-118.415836,34.042621],[-118.415875,34.042595],[-118.415892,34.042596],[-118.41591,34.042608],[-118.415924,34.042635],[-118.415986,34.042685],[-118.416011,34.042736],[-118.415997,34.042768],[-118.415967,34.042786]]]}},{"type":"Feature","properties":{"k":"bunker"},"geometry":{"type":"Polygon","coordinates":[[[-118.417335,34.043754],[-118.417301,34.043758],[-118.417214,34.043691],[-118.417185,34.043654],[-118.417146,34.043634],[-118.417117,34.043607],[-118.417111,34.04357],[-118.417126,34.043494],[-118.417141,34.043481],[-118.417161,34.043477],[-118.41718,34.043484],[-118.41721,34.043509],[-118.417214,34.043523],[-118.417185,34.043571],[-118.417191,34.043579],[-118.417199,34.04358],[-118.417238,34.043557],[-118.417269,34.043566],[-118.417277,34.043579],[-118.417277,34.043647],[-118.417286,34.043665],[-118.417296,34.043682],[-118.417344,34.043722],[-118.417344,34.043745],[-118.417335,34.043754]]]}},{"type":"Feature","properties":{"k":"green"},"geometry":{"type":"Polygon","coordinates":[[[-118.417451,34.043736],[-118.417395,34.043722],[-118.417358,34.043689],[-118.417319,34.043621],[-118.417325,34.043576],[-118.417341,34.043549],[-118.417364,34.043528],[-118.417391,34.04352],[-118.417422,34.043523],[-118.417447,34.043535],[-118.417507,34.043626],[-118.41753,34.043682],[-118.417511,34.043722],[-118.417482,34.043735],[-118.417451,34.043736]]]}},{"type":"Feature","properties":{"k":"bunker"},"geometry":{"type":"Polygon","coordinates":[[[-118.417615,34.043893],[-118.417587,34.043885],[-118.417549,34.043858],[-118.417497,34.043851],[-118.417482,34.043832],[-118.417502,34.043811],[-118.41756,34.043821],[-118.417573,34.043813],[-118.417595,34.043714],[-118.417613,34.043694],[-118.417629,34.043692],[-118.417643,34.043696],[-118.417648,34.043706],[-118.417642,34.043739],[-118.417651,34.043764],[-118.417703,34.043782],[-118.417716,34.043802],[-118.417715,34.043813],[-118.417693,34.043825],[-118.417679,34.043823],[-118.417646,34.043801],[-118.41763,34.043803],[-118.417623,34.043825],[-118.417651,34.043852],[-118.417656,34.04387],[-118.417646,34.043885],[-118.417615,34.043893]]]}},{"type":"Feature","properties":{"k":"tee"},"geometry":{"type":"Polygon","coordinates":[[[-118.414713,34.040951],[-118.414693,34.040904],[-118.414558,34.04094],[-118.414576,34.040985],[-118.414713,34.040951]]]}},{"type":"Feature","properties":{"k":"tee"},"geometry":{"type":"Polygon","coordinates":[[[-118.41468,34.040845],[-118.414657,34.040791],[-118.414508,34.040833],[-118.414535,34.040888],[-118.41468,34.040845]]]}},{"type":"Feature","properties":{"k":"tee"},"geometry":{"type":"Polygon","coordinates":[[[-118.414631,34.040714],[-118.414598,34.040651],[-118.414434,34.040713],[-118.414467,34.040774],[-118.414631,34.040714]]]}},{"type":"Feature","properties":{"k":"tee"},"geometry":{"type":"Polygon","coordinates":[[[-118.414573,34.040597],[-118.414538,34.040532],[-118.414375,34.040595],[-118.41441,34.040659],[-118.414573,34.040597]]]}},{"type":"Feature","properties":{"k":"tee"},"geometry":{"type":"Polygon","coordinates":[[[-118.417688,34.045404],[-118.417479,34.045513],[-118.417456,34.045511],[-118.417444,34.045502],[-118.417411,34.045443],[-118.417399,34.045402],[-118.417418,34.045383],[-118.417575,34.045305],[-118.417599,34.045295],[-118.417624,34.045295],[-118.417685,34.04538],[-118.417693,34.045396],[-118.417688,34.045404]]]}},{"type":"Feature","properties":{"k":"tee"},"geometry":{"type":"Polygon","coordinates":[[[-118.417267,34.045625],[-118.417282,34.045639],[-118.417308,34.045635],[-118.417319,34.045624],[-118.417319,34.04561],[-118.41726,34.045542],[-118.417235,34.045545],[-118.417216,34.045569],[-118.417267,34.045625]]]}},{"type":"Feature","properties":{"k":"tee"},"geometry":{"type":"Polygon","coordinates":[[[-118.417183,34.045488],[-118.417169,34.04549],[-118.417148,34.04547],[-118.417134,34.045426],[-118.417211,34.045385],[-118.41723,34.045389],[-118.417244,34.0454],[-118.417263,34.045439],[-118.417249,34.045459],[-118.417183,34.045488]]]}},{"type":"Feature","properties":{"k":"bunker"},"geometry":{"type":"Polygon","coordinates":[[[-118.41559,34.046244],[-118.415576,34.046209],[-118.4156,34.04617],[-118.415595,34.046147],[-118.415576,34.046131],[-118.415554,34.046128],[-118.415531,34.046135],[-118.415501,34.046162],[-118.415482,34.046229],[-118.415492,34.046264],[-118.415511,34.046276],[-118.415543,34.046279],[-118.415582,34.046263],[-118.41559,34.046244]]]}},{"type":"Feature","properties":{"k":"bunker"},"geometry":{"type":"Polygon","coordinates":[[[-118.414505,34.046981],[-118.414468,34.046979],[-118.414444,34.04696],[-118.414447,34.04691],[-118.414482,34.046872],[-118.414505,34.046878],[-118.414565,34.046949],[-118.414549,34.046968],[-118.414505,34.046981]]]}},{"type":"Feature","properties":{"k":"bunker"},"geometry":{"type":"Polygon","coordinates":[[[-118.414555,34.046623],[-118.414477,34.04669],[-118.41442,34.046682],[-118.414408,34.04666],[-118.41442,34.046584],[-118.414452,34.046558],[-118.41457,34.046515],[-118.414604,34.046514],[-118.41464,34.046531],[-118.414664,34.046584],[-118.414655,34.046609],[-118.414632,34.04662],[-118.414555,34.046623]]]}},{"type":"Feature","properties":{"k":"green"},"geometry":{"type":"Polygon","coordinates":[[[-118.414405,34.046829],[-118.414388,34.046857],[-118.414335,34.0469],[-118.414298,34.046922],[-118.414251,34.046938],[-118.414204,34.046923],[-118.414176,34.046903],[-118.414157,34.046861],[-118.414115,34.046807],[-118.41411,34.046783],[-118.414124,34.04676],[-118.414148,34.046748],[-118.41418,34.046748],[-118.414232,34.046768],[-118.41426,34.046771],[-118.414363,34.04676],[-118.414386,34.046768],[-118.414405,34.046787],[-118.414405,34.046829]]]}},{"type":"Feature","properties":{"k":"tee"},"geometry":{"type":"Polygon","coordinates":[[[-118.414375,34.046411],[-118.4144,34.046389],[-118.414389,34.046362],[-118.41437,34.046354],[-118.414307,34.046368],[-118.414281,34.046379],[-118.414274,34.046397],[-118.414278,34.046414],[-118.414294,34.04643],[-118.414318,34.046432],[-118.414375,34.046411]]]}},{"type":"Feature","properties":{"k":"tee"},"geometry":{"type":"Polygon","coordinates":[[[-118.414006,34.046609],[-118.414053,34.046582],[-118.414062,34.046566],[-118.414027,34.046504],[-118.414006,34.046492],[-118.413888,34.046551],[-118.413884,34.04657],[-118.413898,34.046605],[-118.413924,34.046634],[-118.41394,34.046636],[-118.414006,34.046609]]]}},{"type":"Feature","properties":{"k":"tee"},"geometry":{"type":"Polygon","coordinates":[[[-118.41368,34.046783],[-118.413699,34.046783],[-118.413758,34.046756],[-118.413812,34.046723],[-118.413821,34.046698],[-118.4138,34.046665],[-118.413781,34.046655],[-118.413692,34.046694],[-118.413652,34.046723],[-118.413649,34.04674],[-118.41368,34.046783]]]}},{"type":"Feature","properties":{"k":"tee"},"geometry":{"type":"Polygon","coordinates":[[[-118.414161,34.046486],[-118.414171,34.046488],[-118.414258,34.046447],[-118.414262,34.046436],[-118.414251,34.046414],[-118.414239,34.046406],[-118.414213,34.046406],[-118.41414,34.046439],[-118.414136,34.046454],[-118.414161,34.046486]]]}},{"type":"Feature","properties":{"k":"green"},"geometry":{"type":"Polygon","coordinates":[[[-118.410518,34.048514],[-118.4105,34.048556],[-118.410472,34.048576],[-118.410382,34.048607],[-118.410331,34.048611],[-118.410298,34.048604],[-118.410266,34.048581],[-118.410242,34.048545],[-118.41026,34.048506],[-118.410302,34.048475],[-118.410336,34.048464],[-118.410401,34.048467],[-118.410476,34.048483],[-118.410505,34.048495],[-118.410518,34.048514]]]}},{"type":"Feature","properties":{"k":"bunker"},"geometry":{"type":"Polygon","coordinates":[[[-118.410506,34.048686],[-118.41052,34.048673],[-118.410522,34.048649],[-118.410508,34.048632],[-118.410477,34.048624],[-118.410423,34.04863],[-118.410376,34.048645],[-118.410329,34.048667],[-118.410318,34.048686],[-118.410322,34.048706],[-118.410343,34.048718],[-118.410378,34.048716],[-118.410506,34.048686]]]}},{"type":"Feature","properties":{"k":"tee"},"geometry":{"type":"Polygon","coordinates":[[[-118.410097,34.048286],[-118.410243,34.048135],[-118.410243,34.048121],[-118.410229,34.048104],[-118.410172,34.048063],[-118.410116,34.048096],[-118.409994,34.048218],[-118.409996,34.048234],[-118.410057,34.048282],[-118.410097,34.048286]]]}},{"type":"Feature","properties":{"k":"tee"},"geometry":{"type":"Polygon","coordinates":[[[-118.409845,34.048506],[-118.409873,34.048516],[-118.409891,34.048512],[-118.410033,34.04836],[-118.410039,34.048337],[-118.410035,34.048316],[-118.409946,34.048269],[-118.409925,34.048274],[-118.409908,34.04829],[-118.409786,34.04843],[-118.409781,34.048451],[-118.409788,34.048469],[-118.409845,34.048506]]]}},{"type":"Feature","properties":{"k":"tee"},"geometry":{"type":"Polygon","coordinates":[[[-118.410274,34.048042],[-118.410333,34.047987],[-118.410333,34.047976],[-118.410288,34.047944],[-118.410274,34.047948],[-118.410218,34.048004],[-118.410222,34.04802],[-118.410274,34.048042]]]}},{"type":"Feature","properties":{"k":"green"},"geometry":{"type":"Polygon","coordinates":[[[-118.411052,34.047392],[-118.411097,34.047355],[-118.411111,34.047322],[-118.411139,34.047289],[-118.411186,34.047262],[-118.411296,34.047244],[-118.411308,34.047231],[-118.41131,34.047213],[-118.411299,34.047199],[-118.411202,34.047135],[-118.411172,34.047129],[-118.411148,34.047135],[-118.411075,34.047215],[-118.410951,34.04732],[-118.410944,34.047343],[-118.410949,34.047365],[-118.410972,34.047384],[-118.410998,34.047396],[-118.411052,34.047392]]]}},{"type":"Feature","properties":{"k":"tee"},"geometry":{"type":"Polygon","coordinates":[[[-118.411587,34.04745],[-118.411611,34.047452],[-118.411654,34.047428],[-118.411658,34.047413],[-118.411613,34.047359],[-118.411597,34.047355],[-118.411546,34.047382],[-118.411543,34.047397],[-118.411587,34.04745]]]}},{"type":"Feature","properties":{"k":"tee"},"geometry":{"type":"Polygon","coordinates":[[[-118.411448,34.047608],[-118.411467,34.047613],[-118.411511,34.047587],[-118.411515,34.047571],[-118.411462,34.047518],[-118.411446,34.047514],[-118.411396,34.047546],[-118.411396,34.047559],[-118.411448,34.047608]]]}},{"type":"Feature","properties":{"k":"tee"},"geometry":{"type":"Polygon","coordinates":[[[-118.411194,34.047758],[-118.411231,34.047762],[-118.411344,34.047686],[-118.411341,34.047665],[-118.41128,34.047608],[-118.41125,34.047617],[-118.411144,34.047703],[-118.411144,34.047718],[-118.411194,34.047758]]]}},{"type":"Feature","properties":{"k":"tee"},"geometry":{"type":"Polygon","coordinates":[[[-118.41098,34.047909],[-118.410995,34.047917],[-118.411013,34.047913],[-118.411126,34.047841],[-118.411133,34.047829],[-118.411129,34.047814],[-118.411067,34.047765],[-118.411039,34.047769],[-118.410938,34.047852],[-118.410945,34.047882],[-118.41098,34.047909]]]}},{"type":"Feature","properties":{"k":"tee"},"geometry":{"type":"Polygon","coordinates":[[[-118.415727,34.045465],[-118.41562,34.045395],[-118.415507,34.045512],[-118.41561,34.045582],[-118.415727,34.045465]]]}},{"type":"Feature","properties":{"k":"tee"},"geometry":{"type":"Polygon","coordinates":[[[-118.416324,34.045419],[-118.416258,34.045461],[-118.416328,34.045535],[-118.416393,34.045492],[-118.416324,34.045419]]]}},{"type":"Feature","properties":{"k":"tee"},"geometry":{"type":"Polygon","coordinates":[[[-118.416436,34.045321],[-118.416356,34.045239],[-118.416296,34.045285],[-118.416376,34.045367],[-118.416436,34.045321]]]}},{"type":"Feature","properties":{"k":"tee"},"geometry":{"type":"Polygon","coordinates":[[[-118.416206,34.045293],[-118.41613,34.045341],[-118.416042,34.045254],[-118.416117,34.045207],[-118.416206,34.045293]]]}},{"type":"Feature","properties":{"k":"tee"},"geometry":{"type":"Polygon","coordinates":[[[-118.415858,34.045538],[-118.415751,34.045468],[-118.415618,34.045596],[-118.415723,34.045666],[-118.415858,34.045538]]]}},{"type":"Feature","properties":{"k":"tee"},"geometry":{"type":"Polygon","coordinates":[[[-118.415971,34.045604],[-118.415905,34.04567],[-118.415994,34.045729],[-118.416061,34.045662],[-118.415971,34.045604]]]}},{"type":"Feature","properties":{"k":"tee"},"geometry":{"type":"Polygon","coordinates":[[[-118.415511,34.045346],[-118.415455,34.045312],[-118.41538,34.045393],[-118.415436,34.045429],[-118.415511,34.045346]]]}},{"type":"Feature","properties":{"k":"tee"},"geometry":{"type":"Polygon","coordinates":[[[-118.41344,34.044016],[-118.413375,34.044043],[-118.413337,34.043962],[-118.413403,34.043935],[-118.41344,34.044016]]]}},{"type":"Feature","properties":{"k":"tee"},"geometry":{"type":"Polygon","coordinates":[[[-118.41335,34.044052],[-118.413277,34.044078],[-118.413239,34.043993],[-118.413313,34.04397],[-118.41335,34.044052]]]}},{"type":"Feature","properties":{"k":"tee"},"geometry":{"type":"Polygon","coordinates":[[[-118.413224,34.044106],[-118.413136,34.044133],[-118.413097,34.04404],[-118.413187,34.044016],[-118.413224,34.044106]]]}},{"type":"Feature","properties":{"k":"tee"},"geometry":{"type":"Polygon","coordinates":[[[-118.413102,34.044156],[-118.413029,34.044176],[-118.41299,34.044074],[-118.413065,34.044052],[-118.413102,34.044156]]]}},{"type":"Feature","properties":{"k":"tee"},"geometry":{"type":"Polygon","coordinates":[[[-118.409741,34.044552],[-118.409751,34.044528],[-118.409721,34.044471],[-118.409695,34.044466],[-118.409638,34.044483],[-118.409627,34.044505],[-118.409661,34.044564],[-118.409689,34.044568],[-118.409741,34.044552]]]}},{"type":"Feature","properties":{"k":"tee"},"geometry":{"type":"Polygon","coordinates":[[[-118.409951,34.044365],[-118.409964,34.04435],[-118.409941,34.044287],[-118.40988,34.044298],[-118.409862,34.044319],[-118.409885,34.044376],[-118.409909,34.044381],[-118.409951,34.044365]]]}},{"type":"Feature","properties":{"k":"tee"},"geometry":{"type":"Polygon","coordinates":[[[-118.409398,34.044595],[-118.40943,34.044603],[-118.409543,34.044572],[-118.409558,34.044548],[-118.409497,34.044427],[-118.409464,34.044424],[-118.409361,34.044455],[-118.409347,34.044494],[-118.409398,34.044595]]]}},{"type":"Feature","properties":{"k":"tee"},"geometry":{"type":"Polygon","coordinates":[[[-118.409329,34.044626],[-118.409342,34.044611],[-118.409304,34.044541],[-118.409267,34.044548],[-118.409267,34.044567],[-118.409295,34.044618],[-118.40931,34.044631],[-118.409329,34.044626]]]}},{"type":"Feature","properties":{"k":"tee"},"geometry":{"type":"Polygon","coordinates":[[[-118.409868,34.043965],[-118.409815,34.04395],[-118.40976,34.044058],[-118.409817,34.044074],[-118.409868,34.043965]]]}},{"type":"Feature","properties":{"k":"tee"},"geometry":{"type":"Polygon","coordinates":[[[-118.409751,34.043918],[-118.409661,34.043891],[-118.40962,34.043984],[-118.409708,34.044012],[-118.409751,34.043918]]]}},{"type":"Feature","properties":{"k":"tee"},"geometry":{"type":"Polygon","coordinates":[[[-118.409858,34.04388],[-118.409877,34.043867],[-118.409905,34.043755],[-118.409892,34.043732],[-118.409796,34.043721],[-118.409778,34.043743],[-118.409755,34.043852],[-118.409778,34.043868],[-118.409858,34.04388]]]}},{"type":"Feature","properties":{"k":"tee"},"geometry":{"type":"Polygon","coordinates":[[[-118.409479,34.043925],[-118.409511,34.043844],[-118.409441,34.043825],[-118.409408,34.043906],[-118.409479,34.043925]]]}},{"type":"Feature","properties":{"k":"tee"},"geometry":{"type":"Polygon","coordinates":[[[-118.40906,34.043732],[-118.409075,34.043751],[-118.409098,34.043751],[-118.409117,34.043727],[-118.409117,34.043708],[-118.409098,34.043688],[-118.409075,34.043685],[-118.409055,34.043715],[-118.40906,34.043732]]]}},{"type":"Feature","properties":{"k":"tee"},"geometry":{"type":"Polygon","coordinates":[[[-118.409913,34.043401],[-118.409847,34.043326],[-118.409731,34.043396],[-118.409796,34.043466],[-118.409913,34.043401]]]}},{"type":"Feature","properties":{"k":"tee"},"geometry":{"type":"Polygon","coordinates":[[[-118.410121,34.043279],[-118.41005,34.043197],[-118.409956,34.043247],[-118.410027,34.043333],[-118.410121,34.043279]]]}},{"type":"Feature","properties":{"k":"tee"},"geometry":{"type":"Polygon","coordinates":[[[-118.410228,34.043205],[-118.410168,34.043135],[-118.410252,34.043093],[-118.410308,34.043162],[-118.410228,34.043205]]]}},{"type":"Feature","properties":{"k":"tee"},"geometry":{"type":"Polygon","coordinates":[[[-118.410041,34.043094],[-118.410007,34.043052],[-118.410116,34.042994],[-118.410148,34.043039],[-118.410041,34.043094]]]}},{"type":"Feature","properties":{"k":"bunker"},"geometry":{"type":"Polygon","coordinates":[[[-118.407923,34.043487],[-118.407967,34.043461],[-118.40797,34.043444],[-118.407959,34.043419],[-118.40793,34.043412],[-118.40789,34.043418],[-118.407867,34.043441],[-118.407873,34.043474],[-118.407904,34.043489],[-118.407923,34.043487]]]}},{"type":"Feature","properties":{"k":"bunker"},"geometry":{"type":"Polygon","coordinates":[[[-118.407571,34.043523],[-118.407588,34.043523],[-118.407696,34.043457],[-118.407714,34.043433],[-118.407712,34.043419],[-118.407694,34.043408],[-118.407669,34.04341],[-118.407583,34.043468],[-118.407553,34.043495],[-118.407553,34.043511],[-118.407571,34.043523]]]}},{"type":"Feature","properties":{"k":"bunker"},"geometry":{"type":"Polygon","coordinates":[[[-118.408094,34.0435],[-118.408048,34.043488],[-118.408032,34.043475],[-118.408029,34.043454],[-118.40803,34.043427],[-118.40804,34.043412],[-118.408081,34.043394],[-118.408119,34.043399],[-118.408162,34.043439],[-118.408164,34.043457],[-118.408146,34.043492],[-118.408121,34.043501],[-118.408094,34.0435]]]}},{"type":"Feature","properties":{"k":"bunker"},"geometry":{"type":"Polygon","coordinates":[[[-118.407729,34.043737],[-118.407757,34.043742],[-118.407786,34.043737],[-118.40778,34.043706],[-118.407767,34.043695],[-118.407719,34.043681],[-118.407688,34.043675],[-118.407666,34.043684],[-118.407652,34.043712],[-118.407668,34.04373],[-118.407729,34.043737]]]}},{"type":"Feature","properties":{"k":"green"},"geometry":{"type":"Polygon","coordinates":[[[-118.407837,34.043627],[-118.407747,34.043643],[-118.407719,34.043635],[-118.407703,34.043618],[-118.407689,34.043589],[-118.407692,34.043553],[-118.40772,34.043517],[-118.407748,34.043498],[-118.40779,34.04349],[-118.407828,34.043495],[-118.407864,34.04351],[-118.407891,34.043534],[-118.407892,34.043586],[-118.407872,34.043609],[-118.407837,34.043627]]]}},{"type":"Feature","properties":{"k":"bunker"},"geometry":{"type":"Polygon","coordinates":[[[-118.410973,34.047225],[-118.41104,34.047201],[-118.411082,34.04715],[-118.41109,34.047096],[-118.41108,34.047068],[-118.411056,34.047054],[-118.411025,34.047054],[-118.411007,34.047067],[-118.410998,34.047089],[-118.410998,34.04713],[-118.410921,34.047132],[-118.410895,34.047147],[-118.410896,34.047211],[-118.410946,34.047226],[-118.410973,34.047225]]]}},{"type":"Feature","properties":{"k":"green"},"geometry":{"type":"Polygon","coordinates":[[[-118.415479,34.04595],[-118.415563,34.045937],[-118.415587,34.045916],[-118.415594,34.045887],[-118.41559,34.045859],[-118.415564,34.045827],[-118.415453,34.045777],[-118.415355,34.045755],[-118.415304,34.045756],[-118.415263,34.04577],[-118.415241,34.045787],[-118.415238,34.045811],[-118.415259,34.04586],[-118.41531,34.045939],[-118.41533,34.045954],[-118.415362,34.045962],[-118.415479,34.04595]]]}},{"type":"Feature","properties":{"k":"bunker"},"geometry":{"type":"Polygon","coordinates":[[[-118.415257,34.046053],[-118.41528,34.046027],[-118.415277,34.046013],[-118.415233,34.045975],[-118.415243,34.045917],[-118.415231,34.045898],[-118.4152,34.045885],[-118.415175,34.045886],[-118.415154,34.045896],[-118.415131,34.045925],[-118.415124,34.045975],[-118.41513,34.046025],[-118.415143,34.046045],[-118.415175,34.046053],[-118.415257,34.046053]]]}},{"type":"Feature","properties":{"k":"bunker"},"geometry":{"type":"Polygon","coordinates":[[[-118.41363,34.043998],[-118.41366,34.043987],[-118.413689,34.043958],[-118.413708,34.043916],[-118.413703,34.043871],[-118.413673,34.043822],[-118.413644,34.043793],[-118.413644,34.043779],[-118.413691,34.043737],[-118.4137,34.043707],[-118.413696,34.043683],[-118.413668,34.043662],[-118.413622,34.043659],[-118.413589,34.043678],[-118.413571,34.0437],[-118.413577,34.043748],[-118.413554,34.043794],[-118.413552,34.043833],[-118.413578,34.043878],[-118.413583,34.043905],[-118.413556,34.043969],[-118.413563,34.043985],[-118.413595,34.043997],[-118.41363,34.043998]]]}},{"type":"Feature","properties":{"k":"bunker"},"geometry":{"type":"Polygon","coordinates":[[[-118.413683,34.043201],[-118.413705,34.043189],[-118.413708,34.043143],[-118.413735,34.04309],[-118.413732,34.043077],[-118.413713,34.043063],[-118.41368,34.043071],[-118.413649,34.043094],[-118.413618,34.043157],[-118.413641,34.043193],[-118.413683,34.043201]]]}},{"type":"Feature","properties":{"k":"bunker"},"geometry":{"type":"Polygon","coordinates":[[[-118.41416,34.043077],[-118.414175,34.043025],[-118.414169,34.043009],[-118.414145,34.042989],[-118.414105,34.042969],[-118.414098,34.042882],[-118.414077,34.042864],[-118.414043,34.042857],[-118.414007,34.042865],[-118.413966,34.042902],[-118.413963,34.04293],[-118.413983,34.042968],[-118.414014,34.042999],[-118.414038,34.043056],[-118.414073,34.043087],[-118.414139,34.043089],[-118.41416,34.043077]]]}},{"type":"Feature","properties":{"k":"green"},"geometry":{"type":"Polygon","coordinates":[[[-118.413903,34.043301],[-118.413954,34.043276],[-118.413973,34.043244],[-118.413977,34.043107],[-118.413959,34.043074],[-118.413917,34.043047],[-118.413866,34.043043],[-118.413807,34.043052],[-118.413776,34.04308],[-118.413752,34.043122],[-118.413742,34.043162],[-118.413768,34.043234],[-118.413777,34.043306],[-118.413792,34.043321],[-118.413819,34.043331],[-118.413855,34.043328],[-118.413903,34.043301]]]}},{"type":"Feature","properties":{"k":"green"},"geometry":{"type":"Polygon","coordinates":[[[-118.409656,34.045008],[-118.409708,34.045019],[-118.409765,34.045015],[-118.40988,34.044991],[-118.409915,34.044973],[-118.409928,34.044948],[-118.409913,34.044902],[-118.409877,34.044877],[-118.409743,34.044847],[-118.409703,34.044839],[-118.409667,34.044849],[-118.409628,34.044879],[-118.409603,34.044927],[-118.409599,34.044967],[-118.409622,34.044993],[-118.409656,34.045008]]]}},{"type":"Feature","properties":{"k":"bunker"},"geometry":{"type":"Polygon","coordinates":[[[-118.409847,34.04484],[-118.409897,34.044847],[-118.409961,34.044828],[-118.40998,34.044812],[-118.409989,34.044791],[-118.409977,34.044766],[-118.409953,34.044753],[-118.409857,34.044741],[-118.409828,34.044744],[-118.409784,34.04478],[-118.409784,34.044816],[-118.409815,34.044835],[-118.409847,34.04484]]]}},{"type":"Feature","properties":{"k":"green"},"geometry":{"type":"Polygon","coordinates":[[[-118.412789,34.043725],[-118.412835,34.043698],[-118.412926,34.043705],[-118.412965,34.043696],[-118.412995,34.043669],[-118.413001,34.043635],[-118.412986,34.043611],[-118.412922,34.043574],[-118.412862,34.043555],[-118.412798,34.043559],[-118.412734,34.043582],[-118.412698,34.043628],[-118.412685,34.043664],[-118.412687,34.043695],[-118.412705,34.043723],[-118.412727,34.043737],[-118.412758,34.043737],[-118.412789,34.043725]]]}},{"type":"Feature","properties":{"k":"bunker"},"geometry":{"type":"Polygon","coordinates":[[[-118.413098,34.043679],[-118.413111,34.043648],[-118.413105,34.043628],[-118.413112,34.043586],[-118.413106,34.043562],[-118.413091,34.043546],[-118.413069,34.043544],[-118.41305,34.043552],[-118.413037,34.04358],[-118.413054,34.043619],[-118.413053,34.043671],[-118.413073,34.043688],[-118.413098,34.043679]]]}},{"type":"Feature","properties":{"k":"bunker"},"geometry":{"type":"Polygon","coordinates":[[[-118.41293,34.043539],[-118.412971,34.043559],[-118.413001,34.043553],[-118.413029,34.043529],[-118.413021,34.043509],[-118.412955,34.043493],[-118.412932,34.043468],[-118.412889,34.043462],[-118.412872,34.04347],[-118.412865,34.043485],[-118.412872,34.043501],[-118.412897,34.043528],[-118.41293,34.043539]]]}},{"type":"Feature","properties":{"k":"bunker"},"geometry":{"type":"Polygon","coordinates":[[[-118.411736,34.043748],[-118.41177,34.04374],[-118.411796,34.043699],[-118.41178,34.043672],[-118.411758,34.043654],[-118.411725,34.043647],[-118.411675,34.043664],[-118.411659,34.043684],[-118.411656,34.043704],[-118.411673,34.043731],[-118.411736,34.043748]]]}},{"type":"Feature","properties":{"k":"bunker"},"geometry":{"type":"Polygon","coordinates":[[[-118.411501,34.043813],[-118.411542,34.043799],[-118.411558,34.043785],[-118.411564,34.043758],[-118.411557,34.043734],[-118.411534,34.043715],[-118.411504,34.043705],[-118.411472,34.043708],[-118.411443,34.043721],[-118.41143,34.043744],[-118.411438,34.043787],[-118.411451,34.043801],[-118.411475,34.043814],[-118.411501,34.043813]]]}},{"type":"Feature","properties":{"k":"bunker"},"geometry":{"type":"Polygon","coordinates":[[[-118.411325,34.043847],[-118.411353,34.043825],[-118.41136,34.043787],[-118.411351,34.043768],[-118.41133,34.043757],[-118.411282,34.043751],[-118.411243,34.043779],[-118.411235,34.043802],[-118.411239,34.04382],[-118.411256,34.043841],[-118.411283,34.043852],[-118.411325,34.043847]]]}},{"type":"Feature","properties":{"k":"range"},"geometry":{"type":"Polygon","coordinates":[[[-118.41587,34.043428],[-118.416273,34.043024],[-118.417835,34.044255],[-118.417882,34.044317],[-118.417725,34.044514],[-118.417565,34.044663],[-118.417413,34.044765],[-118.417232,34.044856],[-118.417197,34.044808],[-118.41587,34.043428]]]}},{"type":"Feature","properties":{"k":"path"},"geometry":{"type":"LineString","coordinates":[[-118.410868,34.041711],[-118.410835,34.041621],[-118.410803,34.041573],[-118.410674,34.04146]]}},{"type":"Feature","properties":{"k":"path"},"geometry":{"type":"LineString","coordinates":[[-118.414893,34.042143],[-118.415219,34.042715],[-118.415702,34.043277]]}},{"type":"Feature","properties":{"k":"path"},"geometry":{"type":"LineString","coordinates":[[-118.414234,34.042355],[-118.414243,34.042433],[-118.414228,34.042552],[-118.414233,34.04259],[-118.414271,34.042625],[-118.414319,34.042621],[-118.414361,34.042588]]}},{"type":"Feature","properties":{"k":"path"},"geometry":{"type":"LineString","coordinates":[[-118.411232,34.04744],[-118.411422,34.047251],[-118.411497,34.047155],[-118.411516,34.04706],[-118.411389,34.046687]]}},{"type":"Feature","properties":{"k":"path"},"geometry":{"type":"LineString","coordinates":[[-118.410917,34.04805],[-118.411114,34.047966],[-118.411456,34.047756],[-118.41192,34.04745]]}},{"type":"Feature","properties":{"k":"path"},"geometry":{"type":"LineString","coordinates":[[-118.41192,34.04745],[-118.412175,34.047319],[-118.412523,34.047117],[-118.412671,34.047012],[-118.412864,34.046892],[-118.41308,34.046787],[-118.413445,34.046665],[-118.413641,34.046549],[-118.413848,34.046412],[-118.414043,34.046318],[-118.414528,34.046182],[-118.414687,34.046158],[-118.415101,34.04617],[-118.415208,34.046158],[-118.415408,34.046117],[-118.415588,34.04606],[-118.415768,34.045971],[-118.415958,34.045846],[-118.416232,34.045695],[-118.416387,34.045619],[-118.416484,34.045507],[-118.416618,34.045176],[-118.416627,34.045091],[-118.416596,34.045038],[-118.416509,34.044971],[-118.416431,34.04484],[-118.416382,34.044776],[-118.416346,34.044756],[-118.416317,34.044754],[-118.416268,34.044765],[-118.415986,34.044608],[-118.415692,34.044375],[-118.415204,34.043812],[-118.41508,34.043636],[-118.414791,34.043171],[-118.414676,34.043002],[-118.414583,34.042744],[-118.414528,34.042636],[-118.414459,34.042564],[-118.414377,34.042446],[-118.414334,34.042406],[-118.414234,34.042355],[-118.414221,34.042257],[-118.414254,34.042183],[-118.414313,34.042158],[-118.414385,34.042161],[-118.414514,34.042194],[-118.414666,34.042211],[-118.414756,34.042209],[-118.414812,34.042192],[-118.414893,34.042143],[-118.41478,34.041866],[-118.414652,34.041432],[-118.414547,34.041214],[-118.414421,34.040979],[-118.414228,34.040718],[-118.414208,34.040662],[-118.414224,34.040609],[-118.414254,34.040559],[-118.414543,34.040392],[-118.414695,34.040369],[-118.414793,34.040381],[-118.414859,34.040419],[-118.415395,34.041117],[-118.415667,34.04144],[-118.415906,34.041751],[-118.416209,34.042083]]}},{"type":"Feature","properties":{"k":"green"},"geometry":{"type":"Polygon","coordinates":[[[-118.414007,34.042609],[-118.414075,34.042549],[-118.414081,34.042524],[-118.414075,34.042492],[-118.414058,34.042465],[-118.414019,34.042442],[-118.413969,34.042428],[-118.413931,34.042434],[-118.413909,34.042464],[-118.413893,34.042511],[-118.413808,34.042614],[-118.413814,34.042637],[-118.413836,34.042659],[-118.413874,34.042666],[-118.413917,34.042659],[-118.414007,34.042609]]]}},{"type":"Feature","properties":{"k":"tee"},"geometry":{"type":"Polygon","coordinates":[[[-118.411835,34.043478],[-118.411912,34.04344],[-118.41186,34.043354],[-118.411781,34.043394],[-118.411835,34.043478]]]}},{"type":"Feature","properties":{"k":"tee"},"geometry":{"type":"Polygon","coordinates":[[[-118.412119,34.043383],[-118.412071,34.043294],[-118.411975,34.043322],[-118.412022,34.043421],[-118.412119,34.043383]]]}},{"type":"Feature","properties":{"k":"tee"},"geometry":{"type":"Polygon","coordinates":[[[-118.412212,34.04335],[-118.412365,34.043299],[-118.412286,34.043181],[-118.412145,34.04324],[-118.412212,34.04335]]]}},{"type":"Feature","properties":{"k":"tee"},"geometry":{"type":"Polygon","coordinates":[[[-118.414432,34.042376],[-118.4145,34.042337],[-118.414431,34.042246],[-118.414358,34.042285],[-118.414432,34.042376]]]}},{"type":"Feature","properties":{"k":"tee"},"geometry":{"type":"Polygon","coordinates":[[[-118.414498,34.04246],[-118.414446,34.042391],[-118.414607,34.042315],[-118.414656,34.042386],[-118.414498,34.04246]]]}},{"type":"Feature","properties":{"k":"tee"},"geometry":{"type":"Polygon","coordinates":[[[-118.414763,34.042678],[-118.414829,34.04264],[-118.414764,34.042555],[-118.414696,34.042598],[-118.414763,34.042678]]]}},{"type":"Feature","properties":{"k":"fairway"},"geometry":{"type":"Polygon","coordinates":[[[-118.415091,34.042937],[-118.415027,34.042899],[-118.414915,34.042903],[-118.414818,34.042939],[-118.41479,34.043012],[-118.414811,34.043081],[-118.414908,34.043143],[-118.414974,34.043204],[-118.415069,34.04337],[-118.415183,34.043546],[-118.415326,34.043708],[-118.415429,34.043801],[-118.415516,34.0439],[-118.415573,34.04398],[-118.415651,34.044034],[-118.415703,34.044144],[-118.415801,34.044288],[-118.415899,34.044383],[-118.416332,34.044685],[-118.416395,34.044677],[-118.416515,34.044755],[-118.41651,34.044707],[-118.416523,34.04467],[-118.416619,34.044661],[-118.416454,34.044584],[-118.416284,34.044412],[-118.416217,34.044325],[-118.416133,34.044155],[-118.416064,34.044052],[-118.415905,34.043917],[-118.415819,34.043779],[-118.415633,34.043575],[-118.415566,34.043492],[-118.415405,34.043252],[-118.415327,34.043172],[-118.415222,34.043107],[-118.415091,34.042937]]]}},{"type":"Feature","properties":{"k":"bunker"},"geometry":{"type":"Polygon","coordinates":[[[-118.416646,34.04464],[-118.416662,34.044633],[-118.416669,34.044617],[-118.416646,34.044558],[-118.416675,34.044501],[-118.416664,34.044486],[-118.416646,34.04448],[-118.416604,34.044484],[-118.416591,34.044473],[-118.416585,34.044431],[-118.416568,34.044417],[-118.416539,34.044411],[-118.416509,34.044423],[-118.416479,34.044461],[-118.416466,34.044493],[-118.416475,34.044548],[-118.41651,34.044576],[-118.416532,34.044578],[-118.416572,34.044554],[-118.416587,34.044565],[-118.416586,34.044605],[-118.416594,34.044624],[-118.416629,34.044642],[-118.416646,34.04464]]]}},{"type":"Feature","properties":{"k":"green"},"geometry":{"type":"Polygon","coordinates":[[[-118.416681,34.044683],[-118.416569,34.044678],[-118.416545,34.044686],[-118.41653,34.044708],[-118.416542,34.044758],[-118.416567,34.044778],[-118.416604,34.044846],[-118.416638,34.044879],[-118.416667,34.044892],[-118.416693,34.044894],[-118.416808,34.044886],[-118.416826,34.044869],[-118.416832,34.044843],[-118.416819,34.04479],[-118.416812,34.044692],[-118.416781,34.044677],[-118.416681,34.044683]]]}},{"type":"Feature","properties":{"k":"green"},"geometry":{"type":"Polygon","coordinates":[[[-118.414292,34.043044],[-118.414317,34.04302],[-118.414318,34.04298],[-118.414378,34.042888],[-118.414359,34.042849],[-118.414335,34.042825],[-118.414311,34.04281],[-118.414263,34.042807],[-118.41422,34.042817],[-118.414183,34.042849],[-118.414175,34.042867],[-118.414222,34.043025],[-118.414266,34.043052],[-118.414292,34.043044]]]}},{"type":"Feature","properties":{"k":"tee"},"geometry":{"type":"Polygon","coordinates":[[[-118.414549,34.041944],[-118.414451,34.041975],[-118.414413,34.041879],[-118.414519,34.041853],[-118.414549,34.041944]]]}},{"type":"Feature","properties":{"k":"tee"},"geometry":{"type":"Polygon","coordinates":[[[-118.414281,34.042028],[-118.414242,34.041932],[-118.414129,34.041962],[-118.414166,34.042055],[-118.414281,34.042028]]]}},{"type":"Feature","properties":{"k":"tee"},"geometry":{"type":"Polygon","coordinates":[[[-118.414094,34.042088],[-118.414058,34.041996],[-118.413951,34.042021],[-118.413979,34.042114],[-118.414094,34.042088]]]}},{"type":"Feature","properties":{"k":"green"},"geometry":{"type":"Polygon","coordinates":[[[-118.410465,34.043685],[-118.410506,34.043662],[-118.410522,34.043644],[-118.410536,34.043621],[-118.410534,34.043593],[-118.41052,34.043558],[-118.410487,34.043519],[-118.410452,34.043503],[-118.410415,34.043498],[-118.410371,34.043526],[-118.410299,34.043614],[-118.410282,34.043643],[-118.41029,34.043673],[-118.410319,34.043702],[-118.410377,34.043713],[-118.410465,34.043685]]]}},{"type":"Feature","properties":{"k":"bunker"},"geometry":{"type":"Polygon","coordinates":[[[-118.410502,34.043776],[-118.410549,34.043769],[-118.410558,34.04376],[-118.410562,34.043729],[-118.410536,34.04371],[-118.410494,34.043707],[-118.410458,34.043715],[-118.410423,34.043737],[-118.410378,34.043749],[-118.410357,34.043794],[-118.410387,34.043821],[-118.41044,34.043822],[-118.410459,34.043816],[-118.410502,34.043776]]]}},{"type":"Feature","properties":{"k":"green"},"geometry":{"type":"Polygon","coordinates":[[[-118.410455,34.041781],[-118.410504,34.041768],[-118.410539,34.041747],[-118.410565,34.041721],[-118.41057,34.041639],[-118.410561,34.041618],[-118.410539,34.041601],[-118.410505,34.0416],[-118.410458,34.041619],[-118.41038,34.041668],[-118.41037,34.04171],[-118.410389,34.041759],[-118.410419,34.041782],[-118.410455,34.041781]]]}},{"type":"Feature","properties":{"k":"green"},"geometry":{"type":"Polygon","coordinates":[[[-118.414199,34.039839],[-118.414233,34.039815],[-118.414241,34.039792],[-118.414235,34.039764],[-118.414216,34.039735],[-118.414176,34.039692],[-118.414098,34.039622],[-118.414044,34.039614],[-118.414004,34.039624],[-118.413983,34.039638],[-118.413959,34.039666],[-118.413952,34.0397],[-118.413957,34.039735],[-118.413967,34.039767],[-118.414012,34.039825],[-118.414047,34.039843],[-118.414084,34.03985],[-118.414171,34.039848],[-118.414199,34.039839]]]}},{"type":"Feature","properties":{"k":"tee"},"geometry":{"type":"Polygon","coordinates":[[[-118.410277,34.041475],[-118.410486,34.04137],[-118.41045,34.041324],[-118.410244,34.041434],[-118.410277,34.041475]]]}},{"type":"Feature","properties":{"k":"tee"},"geometry":{"type":"Polygon","coordinates":[[[-118.410907,34.041191],[-118.411096,34.041102],[-118.411046,34.041026],[-118.410852,34.041125],[-118.410907,34.041191]]]}},{"type":"Feature","properties":{"k":"tee"},"geometry":{"type":"Polygon","coordinates":[[[-118.411095,34.041232],[-118.411276,34.041151],[-118.411221,34.04109],[-118.411048,34.041178],[-118.411095,34.041232]]]}},{"type":"Feature","properties":{"k":"tee"},"geometry":{"type":"Polygon","coordinates":[[[-118.414564,34.040253],[-118.414661,34.040217],[-118.414575,34.040093],[-118.414484,34.040133],[-118.414564,34.040253]]]}},{"type":"Feature","properties":{"k":"tee"},"geometry":{"type":"Polygon","coordinates":[[[-118.414278,34.040446],[-118.414495,34.040325],[-118.41441,34.040218],[-118.41418,34.040338],[-118.414278,34.040446]]]}},{"type":"Feature","properties":{"k":"tee"},"geometry":{"type":"Polygon","coordinates":[[[-118.414013,34.040502],[-118.414124,34.040453],[-118.414073,34.04038],[-118.41396,34.040437],[-118.414013,34.040502]]]}},{"type":"Feature","properties":{"k":"bunker"},"geometry":{"type":"Polygon","coordinates":[[[-118.412412,34.041216],[-118.412461,34.041192],[-118.412467,34.041177],[-118.412468,34.041156],[-118.412459,34.041141],[-118.412443,34.041134],[-118.412388,34.041143],[-118.412336,34.041179],[-118.412228,34.041197],[-118.412204,34.041211],[-118.41219,34.041235],[-118.412198,34.041266],[-118.412214,34.041282],[-118.41226,34.041287],[-118.412315,34.041247],[-118.412412,34.041216]]]}},{"type":"Feature","properties":{"k":"bunker"},"geometry":{"type":"Polygon","coordinates":[[[-118.410993,34.041819],[-118.41103,34.041797],[-118.41103,34.041772],[-118.410993,34.041727],[-118.410977,34.041721],[-118.410951,34.041723],[-118.410918,34.041752],[-118.410918,34.041788],[-118.41093,34.041799],[-118.410961,34.041793],[-118.410993,34.041819]]]}},{"type":"Feature","properties":{"k":"bunker"},"geometry":{"type":"Polygon","coordinates":[[[-118.410958,34.042165],[-118.411039,34.042104],[-118.411052,34.042087],[-118.411051,34.042068],[-118.411018,34.042056],[-118.410983,34.042059],[-118.410927,34.042087],[-118.410909,34.042104],[-118.410907,34.042132],[-118.410918,34.042155],[-118.410935,34.042166],[-118.410958,34.042165]]]}},{"type":"Feature","properties":{"k":"bunker"},"geometry":{"type":"Polygon","coordinates":[[[-118.414069,34.041604],[-118.414104,34.041604],[-118.414128,34.041594],[-118.414137,34.041573],[-118.414113,34.041543],[-118.414092,34.04154],[-118.414034,34.041559],[-118.413991,34.041563],[-118.413976,34.041569],[-118.41397,34.041582],[-118.413999,34.041603],[-118.414042,34.041596],[-118.414069,34.041604]]]}},{"type":"Feature","properties":{"k":"bunker"},"geometry":{"type":"Polygon","coordinates":[[[-118.413931,34.041711],[-118.41396,34.041733],[-118.413989,34.041735],[-118.414022,34.04171],[-118.414038,34.041685],[-118.414034,34.041671],[-118.414002,34.041658],[-118.413956,34.04166],[-118.413896,34.041637],[-118.413862,34.041638],[-118.413843,34.041655],[-118.413838,34.041685],[-118.413854,34.041703],[-118.413931,34.041711]]]}},{"type":"Feature","properties":{"k":"bunker"},"geometry":{"type":"Polygon","coordinates":[[[-118.414089,34.041752],[-118.414115,34.041741],[-118.414132,34.041722],[-118.414138,34.0417],[-118.414123,34.041692],[-118.414084,34.041693],[-118.41405,34.041708],[-118.414027,34.04173],[-118.414031,34.041748],[-118.41405,34.041757],[-118.414089,34.041752]]]}},{"type":"Feature","properties":{"k":"green"},"geometry":{"type":"Polygon","coordinates":[[[-118.414411,34.041668],[-118.414474,34.041671],[-118.414493,34.041659],[-118.414504,34.04164],[-118.41452,34.041564],[-118.414507,34.041537],[-118.414487,34.041525],[-118.414421,34.04151],[-118.414371,34.041516],[-118.414313,34.041545],[-118.41422,34.041571],[-118.414198,34.041586],[-118.414185,34.041617],[-118.414187,34.041635],[-118.414211,34.041681],[-118.41424,34.041697],[-118.414283,34.041696],[-118.414374,34.041664],[-118.414411,34.041668]]]}},{"type":"Feature","properties":{"k":"green"},"geometry":{"type":"Polygon","coordinates":[[[-118.408978,34.042857],[-118.409044,34.042839],[-118.409098,34.04284],[-118.409145,34.042908],[-118.409119,34.042944],[-118.408979,34.043034],[-118.408915,34.043084],[-118.408883,34.043099],[-118.408841,34.043096],[-118.408801,34.043044],[-118.408805,34.042971],[-118.408933,34.042875],[-118.408978,34.042857]]]}},{"type":"Feature","properties":{"k":"green"},"geometry":{"type":"Polygon","coordinates":[[[-118.409264,34.043356],[-118.409307,34.043328],[-118.40935,34.043285],[-118.409368,34.043238],[-118.409367,34.043206],[-118.409333,34.043173],[-118.409291,34.043174],[-118.40926,34.04319],[-118.409179,34.043256],[-118.409166,34.04328],[-118.409169,34.043323],[-118.409195,34.043354],[-118.40923,34.043367],[-118.409264,34.043356]]]}},{"type":"Feature","properties":{"k":"bunker"},"geometry":{"type":"Polygon","coordinates":[[[-118.409449,34.043348],[-118.40949,34.043322],[-118.409527,34.043269],[-118.409528,34.043237],[-118.409497,34.043223],[-118.409459,34.043225],[-118.409434,34.043241],[-118.409386,34.04331],[-118.409396,34.043332],[-118.409415,34.043344],[-118.409449,34.043348]]]}},{"type":"Feature","properties":{"k":"tee"},"geometry":{"type":"Polygon","coordinates":[[[-118.410668,34.042361],[-118.410614,34.042301],[-118.410469,34.042386],[-118.410535,34.042449],[-118.410668,34.042361]]]}},{"type":"Feature","properties":{"k":"tee"},"geometry":{"type":"Polygon","coordinates":[[[-118.410372,34.042526],[-118.410456,34.042478],[-118.410398,34.042413],[-118.410312,34.042466],[-118.410372,34.042526]]]}},{"type":"Feature","properties":{"k":"tee"},"geometry":{"type":"Polygon","coordinates":[[[-118.410549,34.042221],[-118.410468,34.04212],[-118.410318,34.042203],[-118.410404,34.042299],[-118.410549,34.042221]]]}},{"type":"Feature","properties":{"k":"tee"},"geometry":{"type":"Polygon","coordinates":[[[-118.410353,34.042267],[-118.410303,34.042208],[-118.410216,34.042253],[-118.41027,34.04231],[-118.410353,34.042267]]]}},{"type":"Feature","properties":{"k":"green"},"geometry":{"type":"Polygon","coordinates":[[[-118.410876,34.042097],[-118.410891,34.042048],[-118.410926,34.042006],[-118.410956,34.041987],[-118.410958,34.041956],[-118.410948,34.041928],[-118.410927,34.041913],[-118.410903,34.041901],[-118.41085,34.041894],[-118.410772,34.041924],[-118.41075,34.041946],[-118.410711,34.042],[-118.410682,34.042071],[-118.410693,34.042108],[-118.410766,34.042163],[-118.410803,34.042164],[-118.410852,34.042154],[-118.41087,34.042136],[-118.410876,34.042097]]]}},{"type":"Feature","properties":{"k":"green"},"geometry":{"type":"Polygon","coordinates":[[[-118.414044,34.041432],[-118.414104,34.041397],[-118.414214,34.041357],[-118.414319,34.041232],[-118.414312,34.041197],[-118.414281,34.041184],[-118.41422,34.041173],[-118.41417,34.041175],[-118.414126,34.041193],[-118.414101,34.041219],[-118.414049,34.041306],[-118.413986,34.041368],[-118.413979,34.041394],[-118.413986,34.041419],[-118.414006,34.041432],[-118.414044,34.041432]]]}},{"type":"Feature","properties":{"k":"bunker"},"geometry":{"type":"Polygon","coordinates":[[[-118.413913,34.041381],[-118.413963,34.041328],[-118.414021,34.041302],[-118.414031,34.041287],[-118.414029,34.041269],[-118.414011,34.041258],[-118.413939,34.041273],[-118.413838,34.04134],[-118.413833,34.041362],[-118.413847,34.041388],[-118.413871,34.041401],[-118.413894,34.041395],[-118.413913,34.041381]]]}},{"type":"Feature","properties":{"k":"tee"},"geometry":{"type":"Polygon","coordinates":[[[-118.407448,34.043442],[-118.407611,34.043352],[-118.407573,34.043305],[-118.407404,34.043392],[-118.407448,34.043442]]]}},{"type":"Feature","properties":{"k":"tee"},"geometry":{"type":"Polygon","coordinates":[[[-118.407241,34.043373],[-118.407312,34.043334],[-118.407232,34.043229],[-118.407148,34.043272],[-118.407241,34.043373]]]}},{"type":"Feature","properties":{"k":"tee"},"geometry":{"type":"Polygon","coordinates":[[[-118.407338,34.043318],[-118.407524,34.043225],[-118.407415,34.043095],[-118.407241,34.043205],[-118.407338,34.043318]]]}}]}