{"type":"FeatureCollection","features":[{"type":"Feature","properties":{"k":"water"},"geometry":{"type":"Polygon","coordinates":[[[-75.055856,39.818075],[-75.055873,39.818071],[-75.055947,39.818153],[-75.056026,39.818256],[-75.056024,39.818281],[-75.05596,39.818304],[-75.055831,39.818323],[-75.055719,39.818355],[-75.055491,39.818512],[-75.055385,39.81857],[-75.055232,39.818612],[-75.055097,39.818661],[-75.055044,39.818645],[-75.055032,39.818602],[-75.055158,39.81856],[-75.055253,39.81856],[-75.055314,39.818523],[-75.055422,39.818391],[-75.055506,39.818259],[-75.055656,39.818128],[-75.055727,39.818089],[-75.055856,39.818075]]]}},{"type":"Feature","properties":{"k":"water"},"geometry":{"type":"Polygon","coordinates":[[[-75.061442,39.816056],[-75.061403,39.816021],[-75.061409,39.815979],[-75.061571,39.815981],[-75.061686,39.815973],[-75.06188,39.815981],[-75.061989,39.815971],[-75.062105,39.815995],[-75.062108,39.816015],[-75.062109,39.81605],[-75.062096,39.816087],[-75.06208,39.816105],[-75.061952,39.816153],[-75.061839,39.816143],[-75.061807,39.816123],[-75.061681,39.816077],[-75.061577,39.816055],[-75.061442,39.816056]]]}},{"type":"Feature","properties":{"k":"water"},"geometry":{"type":"Polygon","coordinates":[[[-75.054885,39.819254],[-75.054854,39.81929],[-75.054812,39.819312],[-75.054758,39.819332],[-75.054704,39.819334],[-75.054684,39.81933],[-75.054638,39.819302],[-75.054604,39.819267],[-75.054595,39.819196],[-75.054631,39.819157],[-75.054677,39.819126],[-75.054702,39.819115],[-75.054731,39.819115],[-75.054828,39.819171],[-75.054885,39.819254]]]}},{"type":"Feature","properties":{"k":"water"},"geometry":{"type":"Polygon","coordinates":[[[-75.05636,39.817834],[-75.056618,39.81774],[-75.056645,39.817706],[-75.05656,39.817639],[-75.056515,39.817583],[-75.056497,39.817546],[-75.056463,39.81753],[-75.056432,39.8175],[-75.056434,39.817474],[-75.056578,39.817421],[-75.056669,39.817396],[-75.056748,39.817387],[-75.056804,39.817387],[-75.056869,39.817404],[-75.057003,39.817476],[-75.057037,39.817474],[-75.057072,39.81745],[-75.057103,39.817417],[-75.057169,39.817402],[-75.057184,39.817416],[-75.057159,39.817473],[-75.057131,39.817477],[-75.057045,39.817531],[-75.056996,39.817537],[-75.056869,39.817585],[-75.056697,39.817743],[-75.056685,39.81783],[-75.056763,39.817836],[-75.056808,39.817856],[-75.056809,39.817915],[-75.056696,39.817994],[-75.056628,39.818027],[-75.056476,39.818071],[-75.056408,39.818104],[-75.056304,39.818175],[-75.056254,39.818236],[-75.056192,39.818249],[-75.05611,39.818237],[-75.056067,39.818202],[-75.056063,39.818103],[-75.056038,39.818087],[-75.055951,39.818086],[-75.055915,39.818062],[-75.056078,39.81802],[-75.056175,39.817978],[-75.056287,39.817869],[-75.05636,39.817834]]]}},{"type":"Feature","properties":{"k":"water"},"geometry":{"type":"Polygon","coordinates":[[[-75.055808,39.818638],[-75.056006,39.81867],[-75.056118,39.818698],[-75.056475,39.818748],[-75.056512,39.818767],[-75.056524,39.818786],[-75.056518,39.818837],[-75.056466,39.818868],[-75.056383,39.818898],[-75.056172,39.818958],[-75.055666,39.819064],[-75.055528,39.819106],[-75.055266,39.81917],[-75.055209,39.81917],[-75.055148,39.819152],[-75.054998,39.819044],[-75.054976,39.819002],[-75.054975,39.818981],[-75.054981,39.818969],[-75.055008,39.818953],[-75.055426,39.818847],[-75.055734,39.818648],[-75.055808,39.818638]]]}},{"type":"Feature","properties":{"k":"water"},"geometry":{"type":"Polygon","coordinates":[[[-75.058384,39.815796],[-75.058455,39.815821],[-75.058493,39.815861],[-75.0585,39.815893],[-75.058474,39.815952],[-75.058476,39.81601],[-75.058497,39.816106],[-75.058487,39.816127],[-75.058398,39.816207],[-75.058337,39.816221],[-75.058256,39.816219],[-75.058157,39.816187],[-75.058074,39.816143],[-75.058035,39.816136],[-75.057968,39.816134],[-75.057919,39.81614],[-75.057758,39.816179],[-75.057716,39.816181],[-75.057697,39.816172],[-75.057637,39.816036],[-75.057654,39.816018],[-75.057708,39.815989],[-75.057748,39.815924],[-75.057778,39.815797],[-75.057832,39.815667],[-75.057836,39.815604],[-75.05774,39.815357],[-75.057733,39.815313],[-75.057756,39.815247],[-75.057838,39.815159],[-75.057897,39.815167],[-75.057945,39.815192],[-75.057974,39.815239],[-75.057996,39.815355],[-75.058009,39.81554],[-75.058022,39.815606],[-75.058051,39.815647],[-75.058194,39.815756],[-75.058243,39.815778],[-75.058384,39.815796]]]}},{"type":"Feature","properties":{"k":"stream"},"geometry":{"type":"LineString","coordinates":[[-75.055043,39.818644],[-75.055395,39.81853],[-75.055546,39.81837],[-75.055595,39.818268],[-75.055617,39.818241],[-75.055738,39.818142],[-75.055823,39.818093],[-75.05588,39.81808]]}},{"type":"Feature","properties":{"k":"stream"},"geometry":{"type":"LineString","coordinates":[[-75.057243,39.817282],[-75.057444,39.817052]]}},{"type":"Feature","properties":{"k":"stream"},"geometry":{"type":"LineString","coordinates":[[-75.057149,39.817406],[-75.057243,39.817282]]}},{"type":"Feature","properties":{"k":"stream"},"geometry":{"type":"LineString","coordinates":[[-75.055928,39.81807],[-75.056057,39.818051],[-75.056251,39.817999],[-75.056341,39.817953],[-75.056457,39.81788],[-75.056637,39.817751],[-75.056701,39.817641],[-75.056746,39.817586],[-75.056777,39.817562],[-75.056906,39.81752],[-75.057016,39.817505],[-75.057085,39.817476],[-75.057149,39.817406]]}},{"type":"Feature","properties":{"k":"stream"},"geometry":{"type":"LineString","coordinates":[[-75.05588,39.81808],[-75.055928,39.81807]]}},{"type":"Feature","properties":{"k":"stream"},"geometry":{"type":"LineString","coordinates":[[-75.052946,39.819261],[-75.053109,39.819159],[-75.053184,39.819135],[-75.053256,39.819129],[-75.053367,39.819225],[-75.053469,39.819271],[-75.053492,39.819304],[-75.05356,39.819321],[-75.053604,39.819352],[-75.053725,39.819353],[-75.05384,39.819254],[-75.05406,39.819209],[-75.054156,39.819159],[-75.05421,39.819123],[-75.054248,39.819067],[-75.05428,39.819054],[-75.054408,39.819027],[-75.054521,39.818991],[-75.054588,39.818961],[-75.054771,39.818789],[-75.054952,39.818672],[-75.055043,39.818644]]}},{"type":"Feature","properties":{"k":"stream"},"geometry":{"type":"LineString","coordinates":[[-75.057444,39.817052],[-75.057586,39.816908],[-75.057772,39.816746],[-75.057894,39.816656],[-75.058019,39.816588],[-75.058122,39.816577],[-75.058187,39.816555],[-75.058222,39.816521],[-75.058271,39.816427],[-75.058287,39.816415],[-75.058598,39.816341],[-75.05869,39.816291],[-75.058763,39.816222],[-75.058873,39.816175],[-75.059048,39.816131],[-75.0591,39.816082],[-75.059166,39.816055],[-75.059229,39.816054],[-75.059286,39.816063],[-75.059317,39.816058],[-75.059464,39.816],[-75.059554,39.815976],[-75.060139,39.815856],[-75.060384,39.815831]]}},{"type":"Feature","properties":{"k":"clubhouse"},"geometry":{"type":"Polygon","coordinates":[[[-75.058586,39.818219],[-75.058648,39.818292],[-75.058658,39.818287],[-75.058871,39.818537],[-75.058933,39.818591],[-75.058952,39.818583],[-75.059072,39.818729],[-75.058943,39.818788],[-75.058825,39.818642],[-75.058899,39.818607],[-75.058837,39.818554],[-75.058813,39.818564],[-75.058822,39.818575],[-75.058646,39.818657],[-75.058508,39.818481],[-75.0585,39.818484],[-75.058459,39.818433],[-75.058424,39.81845],[-75.058389,39.818406],[-75.05847,39.818365],[-75.058418,39.818303],[-75.058586,39.818219]]]}},{"type":"Feature","properties":{"k":"wood"},"geometry":{"type":"Polygon","coordinates":[[[-75.060125,39.815532],[-75.059151,39.815456],[-75.058523,39.814936],[-75.057537,39.814694],[-75.056533,39.814713],[-75.056576,39.814874],[-75.057069,39.81504],[-75.05718,39.815262],[-75.057494,39.815589],[-75.057666,39.815347],[-75.057796,39.81513],[-75.057999,39.815182],[-75.058147,39.815655],[-75.058332,39.815745],[-75.058684,39.815524],[-75.059731,39.815679],[-75.060125,39.815532]]]}},{"type":"Feature","properties":{"k":"green"},"geometry":{"type":"Polygon","coordinates":[[[-75.058112,39.822367],[-75.058157,39.822375],[-75.058192,39.822367],[-75.058226,39.822349],[-75.058244,39.822314],[-75.058234,39.822273],[-75.058199,39.822229],[-75.058126,39.822202],[-75.058069,39.822209],[-75.058034,39.822237],[-75.058015,39.822267],[-75.058043,39.822329],[-75.058112,39.822367]]]}},{"type":"Feature","properties":{"k":"fairway"},"geometry":{"type":"Polygon","coordinates":[[[-75.0583,39.822715],[-75.058387,39.822701],[-75.058457,39.822658],[-75.058522,39.822597],[-75.058527,39.822525],[-75.058487,39.822462],[-75.058395,39.822389],[-75.058244,39.822314],[-75.058226,39.822349],[-75.058192,39.822367],[-75.058157,39.822375],[-75.058178,39.82243],[-75.058157,39.822567],[-75.058165,39.822641],[-75.058185,39.822682],[-75.058233,39.82271],[-75.0583,39.822715]]]}},{"type":"Feature","properties":{"k":"tee"},"geometry":{"type":"Polygon","coordinates":[[[-75.057968,39.822997],[-75.058008,39.823009],[-75.058043,39.823007],[-75.058059,39.822989],[-75.058062,39.822965],[-75.058034,39.822929],[-75.058002,39.822912],[-75.057958,39.822911],[-75.05793,39.822934],[-75.057929,39.822959],[-75.057968,39.822997]]]}},{"type":"Feature","properties":{"k":"tee"},"geometry":{"type":"Polygon","coordinates":[[[-75.057738,39.822836],[-75.057797,39.822875],[-75.057849,39.822897],[-75.057881,39.822897],[-75.057909,39.822888],[-75.057922,39.82287],[-75.057916,39.822842],[-75.057856,39.822789],[-75.057796,39.82275],[-75.057748,39.822739],[-75.057712,39.822752],[-75.057702,39.82278],[-75.057707,39.822805],[-75.057738,39.822836]]]}},{"type":"Feature","properties":{"k":"tee"},"geometry":{"type":"Polygon","coordinates":[[[-75.057583,39.822705],[-75.057647,39.822751],[-75.057689,39.822747],[-75.05771,39.822722],[-75.057713,39.822704],[-75.057699,39.82268],[-75.057635,39.822643],[-75.057602,39.822644],[-75.057577,39.822663],[-75.057583,39.822705]]]}},{"type":"Feature","properties":{"k":"bunker"},"geometry":{"type":"Polygon","coordinates":[[[-75.056654,39.821747],[-75.056702,39.8218],[-75.056731,39.821812],[-75.056777,39.821809],[-75.056783,39.821793],[-75.05676,39.821773],[-75.056687,39.821736],[-75.056634,39.821653],[-75.056607,39.821634],[-75.056577,39.82164],[-75.056563,39.821654],[-75.056561,39.821673],[-75.056654,39.821747]]]}},{"type":"Feature","properties":{"k":"bunker"},"geometry":{"type":"Polygon","coordinates":[[[-75.056408,39.821571],[-75.056439,39.821585],[-75.056459,39.821578],[-75.056477,39.821556],[-75.056459,39.821498],[-75.056437,39.821476],[-75.05641,39.821481],[-75.056395,39.821497],[-75.0564,39.821511],[-75.05643,39.821524],[-75.056407,39.821557],[-75.056408,39.821571]]]}},{"type":"Feature","properties":{"k":"bunker"},"geometry":{"type":"Polygon","coordinates":[[[-75.056161,39.821299],[-75.056176,39.821282],[-75.056203,39.82128],[-75.056222,39.821348],[-75.056246,39.821355],[-75.056284,39.821338],[-75.056302,39.821312],[-75.056302,39.821287],[-75.056288,39.821273],[-75.056225,39.821265],[-75.056192,39.821219],[-75.056155,39.821211],[-75.056136,39.821226],[-75.056123,39.821275],[-75.056125,39.82129],[-75.056143,39.821302],[-75.056161,39.821299]]]}},{"type":"Feature","properties":{"k":"green"},"geometry":{"type":"Polygon","coordinates":[[[-75.055638,39.82106],[-75.055669,39.821084],[-75.055702,39.821092],[-75.055735,39.821089],[-75.055762,39.821077],[-75.055786,39.821045],[-75.055783,39.821001],[-75.055763,39.820967],[-75.055683,39.820913],[-75.055632,39.820899],[-75.055579,39.820903],[-75.05555,39.820925],[-75.055531,39.82096],[-75.055541,39.820983],[-75.055623,39.821042],[-75.055638,39.82106]]]}},{"type":"Feature","properties":{"k":"fairway"},"geometry":{"type":"Polygon","coordinates":[[[-75.055669,39.821084],[-75.055702,39.821092],[-75.055735,39.821089],[-75.055762,39.821077],[-75.055786,39.821045],[-75.055783,39.821001],[-75.055839,39.821044],[-75.055995,39.82113],[-75.056038,39.821188],[-75.05611,39.821331],[-75.056181,39.821376],[-75.056316,39.821433],[-75.05636,39.821548],[-75.056398,39.82159],[-75.056455,39.821623],[-75.056573,39.821787],[-75.056662,39.821831],[-75.056875,39.8219],[-75.05694,39.821942],[-75.056963,39.821974],[-75.056959,39.822017],[-75.056935,39.822044],[-75.056875,39.822054],[-75.056658,39.822],[-75.056375,39.821876],[-75.056154,39.821764],[-75.0561,39.82171],[-75.056078,39.821582],[-75.056041,39.821523],[-75.055826,39.821342],[-75.055745,39.821248],[-75.055669,39.821084]]]}},{"type":"Feature","properties":{"k":"fairway"},"geometry":{"type":"Polygon","coordinates":[[[-75.054772,39.82049],[-75.054823,39.820556],[-75.054883,39.820606],[-75.054942,39.820604],[-75.055012,39.820571],[-75.055078,39.820535],[-75.055103,39.820487],[-75.055062,39.820425],[-75.054963,39.82033],[-75.054847,39.820148],[-75.05477,39.820082],[-75.054742,39.820113],[-75.05466,39.820139],[-75.054698,39.820193],[-75.054704,39.820255],[-75.054691,39.820316],[-75.054702,39.820371],[-75.054772,39.82049]]]}},{"type":"Feature","properties":{"k":"green"},"geometry":{"type":"Polygon","coordinates":[[[-75.054579,39.820149],[-75.054631,39.820148],[-75.054695,39.820133],[-75.054742,39.820113],[-75.05477,39.820082],[-75.054774,39.820021],[-75.054729,39.819971],[-75.054681,39.819956],[-75.054621,39.819951],[-75.054575,39.819963],[-75.054533,39.820005],[-75.054506,39.820039],[-75.054494,39.820074],[-75.054506,39.820106],[-75.054537,39.820135],[-75.054579,39.820149]]]}},{"type":"Feature","properties":{"k":"green"},"geometry":{"type":"Polygon","coordinates":[[[-75.054382,39.819597],[-75.054441,39.819571],[-75.054498,39.819527],[-75.054519,39.819485],[-75.054485,39.819435],[-75.05443,39.819387],[-75.054366,39.819364],[-75.054284,39.819361],[-75.054216,39.819394],[-75.054177,39.819425],[-75.05416,39.81948],[-75.054166,39.819531],[-75.054194,39.819571],[-75.054229,39.8196],[-75.054269,39.819617],[-75.054316,39.819619],[-75.054382,39.819597]]]}},{"type":"Feature","properties":{"k":"green"},"geometry":{"type":"Polygon","coordinates":[[[-75.053544,39.819849],[-75.053623,39.819919],[-75.053679,39.819931],[-75.053717,39.819903],[-75.053669,39.819814],[-75.053629,39.819784],[-75.053595,39.81977],[-75.053556,39.819766],[-75.053521,39.81979],[-75.053526,39.819824],[-75.053544,39.819849]]]}},{"type":"Feature","properties":{"k":"tee"},"geometry":{"type":"Polygon","coordinates":[[[-75.053947,39.819722],[-75.053932,39.819732],[-75.053918,39.819759],[-75.053927,39.819788],[-75.053959,39.819807],[-75.053979,39.819809],[-75.054019,39.819798],[-75.05404,39.819771],[-75.054033,39.819739],[-75.054003,39.819719],[-75.053965,39.819716],[-75.053947,39.819722]]]}},{"type":"Feature","properties":{"k":"tee"},"geometry":{"type":"Polygon","coordinates":[[[-75.05375,39.819692],[-75.05373,39.819717],[-75.053729,39.819732],[-75.053744,39.819758],[-75.053779,39.819773],[-75.053818,39.819767],[-75.053834,39.819757],[-75.053848,39.819729],[-75.053835,39.819699],[-75.053804,39.819683],[-75.053785,39.819682],[-75.05375,39.819692]]]}},{"type":"Feature","properties":{"k":"tee"},"geometry":{"type":"Polygon","coordinates":[[[-75.053729,39.819617],[-75.053689,39.819607],[-75.053649,39.819617],[-75.053635,39.81963],[-75.053625,39.819661],[-75.053642,39.819691],[-75.053679,39.819706],[-75.0537,39.819706],[-75.053737,39.81969],[-75.053754,39.81966],[-75.053752,39.819644],[-75.053729,39.819617]]]}},{"type":"Feature","properties":{"k":"tee"},"geometry":{"type":"Polygon","coordinates":[[[-75.053542,39.819527],[-75.053517,39.819558],[-75.053522,39.819594],[-75.053557,39.819618],[-75.053581,39.819623],[-75.053622,39.819614],[-75.053649,39.819588],[-75.053651,39.819555],[-75.053642,39.81954],[-75.053609,39.819519],[-75.053587,39.819516],[-75.053542,39.819527]]]}},{"type":"Feature","properties":{"k":"tee"},"geometry":{"type":"Polygon","coordinates":[[[-75.053265,39.819557],[-75.053318,39.819613],[-75.053361,39.819619],[-75.053383,39.819602],[-75.053384,39.819572],[-75.053364,39.819528],[-75.053336,39.819494],[-75.053299,39.819474],[-75.053275,39.819473],[-75.053244,39.819494],[-75.05324,39.819514],[-75.053265,39.819557]]]}},{"type":"Feature","properties":{"k":"tee"},"geometry":{"type":"Polygon","coordinates":[[[-75.053517,39.818881],[-75.05357,39.81893],[-75.053627,39.818966],[-75.053699,39.818976],[-75.05375,39.818965],[-75.053808,39.818933],[-75.053855,39.818888],[-75.053847,39.818841],[-75.053806,39.818788],[-75.053704,39.8187],[-75.053494,39.818465],[-75.053258,39.81828],[-75.053225,39.818212],[-75.053172,39.818139],[-75.053119,39.818086],[-75.053055,39.818066],[-75.052993,39.818076],[-75.052949,39.818106],[-75.052946,39.818159],[-75.052971,39.818247],[-75.053048,39.81839],[-75.053095,39.818431],[-75.053261,39.818642],[-75.053426,39.818803],[-75.053517,39.818881]]]}},{"type":"Feature","properties":{"k":"tee"},"geometry":{"type":"Polygon","coordinates":[[[-75.052493,39.817516],[-75.052506,39.817528],[-75.052514,39.817557],[-75.052498,39.817584],[-75.052464,39.817599],[-75.052444,39.817599],[-75.052406,39.817585],[-75.052389,39.817555],[-75.052401,39.817524],[-75.052436,39.817505],[-75.052458,39.817504],[-75.052493,39.817516]]]}},{"type":"Feature","properties":{"k":"tee"},"geometry":{"type":"Polygon","coordinates":[[[-75.052203,39.817427],[-75.052257,39.817478],[-75.052306,39.817511],[-75.052352,39.817513],[-75.052407,39.81748],[-75.052402,39.817459],[-75.052272,39.817323],[-75.052226,39.817292],[-75.052189,39.817291],[-75.052153,39.81731],[-75.052142,39.817337],[-75.052152,39.817376],[-75.052203,39.817427]]]}},{"type":"Feature","properties":{"k":"tee"},"geometry":{"type":"Polygon","coordinates":[[[-75.052123,39.817287],[-75.052196,39.817235],[-75.052192,39.817196],[-75.052173,39.817178],[-75.052139,39.817167],[-75.0521,39.817176],[-75.052056,39.817204],[-75.052029,39.817238],[-75.05203,39.81727],[-75.052052,39.81729],[-75.052084,39.8173],[-75.052123,39.817287]]]}},{"type":"Feature","properties":{"k":"green"},"geometry":{"type":"Polygon","coordinates":[[[-75.05195,39.817737],[-75.05198,39.817783],[-75.052025,39.817808],[-75.052081,39.817802],[-75.052112,39.81776],[-75.052107,39.817683],[-75.052078,39.817619],[-75.052043,39.817585],[-75.051985,39.817571],[-75.051896,39.817614],[-75.051893,39.817663],[-75.051916,39.817703],[-75.05195,39.817737]]]}},{"type":"Feature","properties":{"k":"bunker"},"geometry":{"type":"Polygon","coordinates":[[[-75.052012,39.817536],[-75.052046,39.817561],[-75.052094,39.817567],[-75.052115,39.817537],[-75.052107,39.817493],[-75.052077,39.817454],[-75.052024,39.817448],[-75.051987,39.81748],[-75.05198,39.817515],[-75.052012,39.817536]]]}},{"type":"Feature","properties":{"k":"bunker"},"geometry":{"type":"Polygon","coordinates":[[[-75.052151,39.817715],[-75.052175,39.817743],[-75.052176,39.817765],[-75.052166,39.817779],[-75.052175,39.817801],[-75.052243,39.817792],[-75.052262,39.817777],[-75.052261,39.817752],[-75.052223,39.817739],[-75.052245,39.817692],[-75.052185,39.817645],[-75.052162,39.817642],[-75.052153,39.817658],[-75.052162,39.817693],[-75.052151,39.817715]]]}},{"type":"Feature","properties":{"k":"fairway"},"geometry":{"type":"Polygon","coordinates":[[[-75.052025,39.817808],[-75.052053,39.817848],[-75.052081,39.818059],[-75.052111,39.81811],[-75.052231,39.818185],[-75.052307,39.818249],[-75.052415,39.818425],[-75.052624,39.818564],[-75.052774,39.818779],[-75.052816,39.818822],[-75.052937,39.818823],[-75.053022,39.818787],[-75.05305,39.818722],[-75.053047,39.81866],[-75.052946,39.818586],[-75.052869,39.818478],[-75.052652,39.818234],[-75.052454,39.817977],[-75.052356,39.817904],[-75.052129,39.817822],[-75.052101,39.817776],[-75.052081,39.817802],[-75.052025,39.817808]]]}},{"type":"Feature","properties":{"k":"green"},"geometry":{"type":"Polygon","coordinates":[[[-75.052623,39.817328],[-75.052675,39.817383],[-75.052723,39.817418],[-75.052774,39.817423],[-75.05284,39.817411],[-75.052873,39.817377],[-75.052872,39.81734],[-75.052837,39.817296],[-75.052713,39.817209],[-75.0527,39.817164],[-75.052664,39.817143],[-75.052612,39.81714],[-75.052527,39.817207],[-75.052525,39.817236],[-75.052546,39.817273],[-75.052581,39.817291],[-75.052623,39.817328]]]}},{"type":"Feature","properties":{"k":"bunker"},"geometry":{"type":"Polygon","coordinates":[[[-75.052778,39.817493],[-75.052791,39.817505],[-75.052821,39.817507],[-75.052841,39.817489],[-75.052839,39.817472],[-75.052823,39.81746],[-75.0528,39.817458],[-75.052781,39.817468],[-75.052778,39.817493]]]}},{"type":"Feature","properties":{"k":"fairway"},"geometry":{"type":"Polygon","coordinates":[[[-75.05287,39.81746],[-75.052834,39.817437],[-75.052774,39.817423],[-75.05284,39.817411],[-75.052873,39.817377],[-75.052872,39.81734],[-75.053217,39.817599],[-75.053325,39.81769],[-75.05338,39.817763],[-75.053376,39.817819],[-75.053329,39.817872],[-75.053286,39.817898],[-75.053215,39.817901],[-75.053134,39.817843],[-75.052992,39.817709],[-75.052895,39.817595],[-75.052886,39.817558],[-75.052893,39.817518],[-75.05287,39.81746]]]}},{"type":"Feature","properties":{"k":"fairway"},"geometry":{"type":"Polygon","coordinates":[[[-75.053954,39.818238],[-75.053825,39.818118],[-75.053703,39.818027],[-75.053495,39.817888],[-75.053454,39.817882],[-75.053404,39.817901],[-75.053302,39.817975],[-75.053306,39.818029],[-75.053373,39.818127],[-75.053531,39.818255],[-75.053675,39.818344],[-75.053816,39.81842],[-75.05402,39.818562],[-75.054285,39.81879],[-75.05443,39.818868],[-75.054504,39.818871],[-75.054547,39.818853],[-75.054575,39.818825],[-75.054586,39.818787],[-75.054405,39.818608],[-75.05431,39.818495],[-75.054152,39.818372],[-75.053954,39.818238]]]}},{"type":"Feature","properties":{"k":"tee"},"geometry":{"type":"Polygon","coordinates":[[[-75.055108,39.819322],[-75.055073,39.819328],[-75.055041,39.819315],[-75.055028,39.819289],[-75.055049,39.819255],[-75.055096,39.819249],[-75.055122,39.819264],[-75.05513,39.8193],[-75.055108,39.819322]]]}},{"type":"Feature","properties":{"k":"green"},"geometry":{"type":"Polygon","coordinates":[[[-75.05724,39.818454],[-75.057197,39.818454],[-75.057157,39.818464],[-75.057124,39.818485],[-75.057102,39.818512],[-75.057093,39.818544],[-75.057099,39.818576],[-75.057119,39.818605],[-75.057147,39.818625],[-75.057181,39.818638],[-75.057219,39.818642],[-75.057257,39.818637],[-75.057291,39.818623],[-75.057317,39.818602],[-75.057334,39.818576],[-75.05734,39.818547],[-75.057333,39.818515],[-75.057312,39.818487],[-75.057279,39.818466],[-75.05724,39.818454]]]}},{"type":"Feature","properties":{"k":"tee"},"geometry":{"type":"Polygon","coordinates":[[[-75.057306,39.818293],[-75.057396,39.818338],[-75.057493,39.818367],[-75.057564,39.818355],[-75.057577,39.818301],[-75.057429,39.818234],[-75.0573,39.818194],[-75.057242,39.818219],[-75.057236,39.818264],[-75.057306,39.818293]]]}},{"type":"Feature","properties":{"k":"tee"},"geometry":{"type":"Polygon","coordinates":[[[-75.057004,39.818221],[-75.05711,39.818219],[-75.057139,39.818184],[-75.057146,39.818135],[-75.057007,39.818098],[-75.05694,39.818135],[-75.056946,39.818187],[-75.057004,39.818221]]]}},{"type":"Feature","properties":{"k":"tee"},"geometry":{"type":"Polygon","coordinates":[[[-75.056628,39.81806],[-75.056604,39.8181],[-75.056619,39.818142],[-75.056666,39.818168],[-75.056695,39.81817],[-75.056745,39.818154],[-75.056772,39.818119],[-75.056767,39.818078],[-75.056753,39.818061],[-75.056706,39.818041],[-75.056679,39.81804],[-75.056628,39.81806]]]}},{"type":"Feature","properties":{"k":"fairway"},"geometry":{"type":"Polygon","coordinates":[[[-75.055756,39.817999],[-75.055955,39.81796],[-75.056077,39.817905],[-75.056126,39.817833],[-75.056016,39.817754],[-75.055707,39.817633],[-75.055038,39.817401],[-75.054517,39.81724],[-75.054073,39.816969],[-75.05368,39.816798],[-75.05342,39.816672],[-75.053262,39.81658],[-75.05324,39.81662],[-75.053206,39.816634],[-75.053165,39.816632],[-75.053182,39.816734],[-75.053249,39.816857],[-75.053513,39.817018],[-75.05407,39.817339],[-75.055279,39.817715],[-75.055479,39.817806],[-75.055669,39.817962],[-75.055756,39.817999]]]}},{"type":"Feature","properties":{"k":"green"},"geometry":{"type":"Polygon","coordinates":[[[-75.053008,39.816551],[-75.053097,39.81659],[-75.053165,39.816632],[-75.053206,39.816634],[-75.05324,39.81662],[-75.053262,39.81658],[-75.05323,39.816534],[-75.053124,39.81649],[-75.053092,39.816445],[-75.053022,39.81643],[-75.052967,39.816469],[-75.052959,39.81651],[-75.053008,39.816551]]]}},{"type":"Feature","properties":{"k":"bunker"},"geometry":{"type":"Polygon","coordinates":[[[-75.052969,39.816664],[-75.053005,39.816665],[-75.053027,39.816639],[-75.053056,39.816668],[-75.053071,39.8167],[-75.053122,39.816708],[-75.053137,39.816686],[-75.053119,39.816653],[-75.053061,39.816618],[-75.052993,39.816609],[-75.052963,39.816634],[-75.052969,39.816664]]]}},{"type":"Feature","properties":{"k":"bunker"},"geometry":{"type":"Polygon","coordinates":[[[-75.053151,39.816474],[-75.053156,39.816429],[-75.053093,39.816404],[-75.053027,39.816396],[-75.053001,39.81638],[-75.053014,39.816352],[-75.053048,39.816336],[-75.053077,39.816354],[-75.053092,39.816376],[-75.053146,39.816356],[-75.05317,39.81637],[-75.053199,39.816423],[-75.05323,39.816451],[-75.053235,39.816488],[-75.05317,39.81649],[-75.053151,39.816474]]]}},{"type":"Feature","properties":{"k":"tee"},"geometry":{"type":"Polygon","coordinates":[[[-75.05301,39.816131],[-75.053051,39.81615],[-75.053103,39.816146],[-75.053129,39.816115],[-75.053127,39.816092],[-75.052993,39.81603],[-75.052948,39.816027],[-75.052921,39.816057],[-75.052924,39.816092],[-75.05301,39.816131]]]}},{"type":"Feature","properties":{"k":"tee"},"geometry":{"type":"Polygon","coordinates":[[[-75.05317,39.816195],[-75.053215,39.816221],[-75.053256,39.816224],[-75.05329,39.816212],[-75.053312,39.816177],[-75.053249,39.816111],[-75.053201,39.816098],[-75.053161,39.816111],[-75.053138,39.81615],[-75.053145,39.816171],[-75.05317,39.816195]]]}},{"type":"Feature","properties":{"k":"tee"},"geometry":{"type":"Polygon","coordinates":[[[-75.053312,39.816319],[-75.053362,39.816338],[-75.053412,39.81633],[-75.053431,39.816301],[-75.05342,39.81626],[-75.053373,39.816235],[-75.053312,39.816246],[-75.053293,39.816282],[-75.053312,39.816319]]]}},{"type":"Feature","properties":{"k":"green"},"geometry":{"type":"Polygon","coordinates":[[[-75.05608,39.81715],[-75.056115,39.817137],[-75.056146,39.817114],[-75.056163,39.817087],[-75.056158,39.817034],[-75.056116,39.816985],[-75.056077,39.816964],[-75.056032,39.816953],[-75.055978,39.816959],[-75.055939,39.817005],[-75.055935,39.81709],[-75.056001,39.817148],[-75.056039,39.817154],[-75.05608,39.81715]]]}},{"type":"Feature","properties":{"k":"bunker"},"geometry":{"type":"Polygon","coordinates":[[[-75.056284,39.817131],[-75.056238,39.817088],[-75.056233,39.817051],[-75.056186,39.817017],[-75.056173,39.816988],[-75.056194,39.816963],[-75.056233,39.816962],[-75.05626,39.816992],[-75.05627,39.817023],[-75.056323,39.817067],[-75.056327,39.817094],[-75.056284,39.817131]]]}},{"type":"Feature","properties":{"k":"tee"},"geometry":{"type":"Polygon","coordinates":[[[-75.056397,39.817323],[-75.05643,39.817267],[-75.056428,39.817216],[-75.056384,39.817199],[-75.056332,39.81721],[-75.056286,39.817242],[-75.056266,39.817283],[-75.056271,39.817315],[-75.05631,39.817338],[-75.056355,39.817341],[-75.056397,39.817323]]]}},{"type":"Feature","properties":{"k":"tee"},"geometry":{"type":"Polygon","coordinates":[[[-75.056238,39.817452],[-75.056279,39.817413],[-75.056284,39.817381],[-75.056266,39.817348],[-75.056192,39.817344],[-75.056155,39.817368],[-75.056122,39.817409],[-75.05614,39.817448],[-75.056194,39.81746],[-75.056238,39.817452]]]}},{"type":"Feature","properties":{"k":"tee"},"geometry":{"type":"Polygon","coordinates":[[[-75.056445,39.817203],[-75.056489,39.817216],[-75.056527,39.817213],[-75.056547,39.817159],[-75.056543,39.81714],[-75.056508,39.817118],[-75.056445,39.817115],[-75.056414,39.817162],[-75.056445,39.817203]]]}},{"type":"Feature","properties":{"k":"green"},"geometry":{"type":"Polygon","coordinates":[[[-75.057332,39.81788],[-75.057395,39.817883],[-75.057452,39.817853],[-75.057486,39.817811],[-75.05748,39.817763],[-75.057423,39.817733],[-75.057343,39.817721],[-75.057269,39.817729],[-75.057232,39.817755],[-75.05721,39.81779],[-75.057208,39.817829],[-75.057238,39.817862],[-75.057332,39.81788]]]}},{"type":"Feature","properties":{"k":"bunker"},"geometry":{"type":"Polygon","coordinates":[[[-75.057243,39.817971],[-75.057177,39.817964],[-75.057101,39.817903],[-75.057055,39.817903],[-75.05702,39.817882],[-75.057038,39.817838],[-75.056989,39.817799],[-75.057,39.81776],[-75.057029,39.817736],[-75.057096,39.817744],[-75.057129,39.817768],[-75.057105,39.817841],[-75.057125,39.817873],[-75.057184,39.817904],[-75.057267,39.817921],[-75.057284,39.81794],[-75.057277,39.817958],[-75.057243,39.817971]]]}},{"type":"Feature","properties":{"k":"fairway"},"geometry":{"type":"Polygon","coordinates":[[[-75.05721,39.81779],[-75.057151,39.817736],[-75.057064,39.817706],[-75.056974,39.817686],[-75.056955,39.817662],[-75.056975,39.817619],[-75.057033,39.817589],[-75.057099,39.817575],[-75.057231,39.817646],[-75.05728,39.817694],[-75.057269,39.817729],[-75.057232,39.817755],[-75.05721,39.81779]]]}},{"type":"Feature","properties":{"k":"bunker"},"geometry":{"type":"Polygon","coordinates":[[[-75.057552,39.817746],[-75.057606,39.817737],[-75.057604,39.817706],[-75.057589,39.817682],[-75.057541,39.817673],[-75.057517,39.817699],[-75.057524,39.817727],[-75.057552,39.817746]]]}},{"type":"Feature","properties":{"k":"tee"},"geometry":{"type":"Polygon","coordinates":[[[-75.05787,39.817467],[-75.057881,39.817522],[-75.057901,39.81754],[-75.05796,39.817545],[-75.058008,39.81753],[-75.058029,39.817495],[-75.058014,39.817421],[-75.057973,39.817383],[-75.057909,39.817384],[-75.057875,39.817406],[-75.05787,39.817467]]]}},{"type":"Feature","properties":{"k":"tee"},"geometry":{"type":"Polygon","coordinates":[[[-75.057789,39.817309],[-75.057805,39.81735],[-75.057859,39.81737],[-75.057896,39.817363],[-75.057929,39.81734],[-75.057914,39.817239],[-75.057868,39.817207],[-75.057824,39.817214],[-75.057794,39.817244],[-75.057789,39.817309]]]}},{"type":"Feature","properties":{"k":"green"},"geometry":{"type":"Polygon","coordinates":[[[-75.058308,39.817238],[-75.058374,39.817232],[-75.058435,39.817218],[-75.058483,39.817157],[-75.058487,39.817103],[-75.058447,39.817055],[-75.058371,39.817046],[-75.058313,39.817061],[-75.058247,39.817107],[-75.058204,39.817184],[-75.058265,39.817228],[-75.058308,39.817238]]]}},{"type":"Feature","properties":{"k":"bunker"},"geometry":{"type":"Polygon","coordinates":[[[-75.058079,39.817119],[-75.05811,39.817142],[-75.058149,39.81715],[-75.058167,39.817132],[-75.05816,39.817099],[-75.058301,39.817027],[-75.058376,39.81701],[-75.058415,39.81698],[-75.058391,39.81694],[-75.05833,39.816937],[-75.058241,39.816981],[-75.058162,39.817034],[-75.058075,39.817071],[-75.058058,39.81709],[-75.058079,39.817119]]]}},{"type":"Feature","properties":{"k":"fairway"},"geometry":{"type":"Polygon","coordinates":[[[-75.058487,39.817103],[-75.058511,39.817039],[-75.058703,39.816896],[-75.058753,39.816808],[-75.058746,39.816706],[-75.058875,39.816449],[-75.058879,39.816398],[-75.058838,39.816375],[-75.058761,39.816364],[-75.058694,39.816394],[-75.058622,39.81648],[-75.058604,39.816558],[-75.058541,39.816711],[-75.058494,39.816772],[-75.058434,39.816892],[-75.058411,39.816919],[-75.058434,39.816973],[-75.058371,39.817046],[-75.058447,39.817055],[-75.058487,39.817103]]]}},{"type":"Feature","properties":{"k":"tee"},"geometry":{"type":"Polygon","coordinates":[[[-75.059274,39.81713],[-75.059332,39.817098],[-75.059346,39.817069],[-75.059326,39.817042],[-75.059265,39.817042],[-75.059219,39.817073],[-75.059208,39.817099],[-75.059228,39.817125],[-75.059274,39.81713]]]}},{"type":"Feature","properties":{"k":"fairway"},"geometry":{"type":"Polygon","coordinates":[[[-75.06046,39.816535],[-75.05987,39.816773],[-75.059717,39.816848],[-75.059584,39.816876],[-75.05949,39.816868],[-75.059429,39.816806],[-75.05938,39.816726],[-75.059393,39.816638],[-75.059439,39.816533],[-75.059596,39.816452],[-75.060057,39.816318],[-75.060473,39.816211],[-75.060955,39.816152],[-75.061337,39.816152],[-75.061549,39.816144],[-75.06188,39.816194],[-75.062184,39.816157],[-75.062322,39.816181],[-75.062303,39.816302],[-75.062309,39.816348],[-75.062335,39.816388],[-75.062169,39.816395],[-75.061906,39.816387],[-75.061698,39.816421],[-75.061367,39.816415],[-75.060997,39.816418],[-75.060709,39.81647],[-75.06046,39.816535]]]}},{"type":"Feature","properties":{"k":"bunker"},"geometry":{"type":"Polygon","coordinates":[[[-75.061863,39.816499],[-75.061914,39.816496],[-75.061974,39.816506],[-75.062033,39.816498],[-75.06204,39.816454],[-75.061991,39.816419],[-75.061906,39.816452],[-75.061838,39.816431],[-75.061819,39.816459],[-75.061817,39.816488],[-75.061863,39.816499]]]}},{"type":"Feature","properties":{"k":"green"},"geometry":{"type":"Polygon","coordinates":[[[-75.06243,39.816384],[-75.062485,39.81637],[-75.062517,39.816339],[-75.062524,39.816278],[-75.0625,39.816175],[-75.062466,39.816157],[-75.062398,39.81616],[-75.062362,39.816173],[-75.062316,39.816211],[-75.062306,39.816259],[-75.062309,39.816348],[-75.062321,39.816366],[-75.062364,39.816388],[-75.062396,39.816392],[-75.06243,39.816384]]]}},{"type":"Feature","properties":{"k":"tee"},"geometry":{"type":"Polygon","coordinates":[[[-75.059419,39.818846],[-75.059526,39.818962],[-75.059617,39.819037],[-75.059692,39.819045],[-75.059734,39.819007],[-75.059739,39.818968],[-75.059473,39.818781],[-75.059434,39.818659],[-75.05938,39.818612],[-75.059317,39.818597],[-75.059268,39.818618],[-75.05927,39.818681],[-75.059329,39.818762],[-75.059419,39.818846]]]}},{"type":"Feature","properties":{"k":"green"},"geometry":{"type":"Polygon","coordinates":[[[-75.05927,39.818486],[-75.059341,39.818451],[-75.059404,39.818402],[-75.059424,39.818342],[-75.0594,39.818281],[-75.059346,39.818247],[-75.05927,39.818258],[-75.059183,39.81832],[-75.059156,39.818374],[-75.059156,39.81843],[-75.059187,39.818475],[-75.059224,39.818488],[-75.05927,39.818486]]]}},{"type":"Feature","properties":{"k":"bunker"},"geometry":{"type":"Polygon","coordinates":[[[-75.060109,39.818758],[-75.060014,39.818805],[-75.060007,39.81885],[-75.059941,39.818837],[-75.05997,39.818796],[-75.05989,39.818775],[-75.059963,39.818715],[-75.059992,39.818758],[-75.060087,39.818736],[-75.060109,39.818758]]]}},{"type":"Feature","properties":{"k":"green"},"geometry":{"type":"Polygon","coordinates":[[[-75.059665,39.818644],[-75.059721,39.818704],[-75.059758,39.818722],[-75.059839,39.818726],[-75.059897,39.818696],[-75.0599,39.818631],[-75.059748,39.818507],[-75.05968,39.818509],[-75.059631,39.818537],[-75.059626,39.818604],[-75.059665,39.818644]]]}},{"type":"Feature","properties":{"k":"bunker"},"geometry":{"type":"Polygon","coordinates":[[[-75.059678,39.818466],[-75.059739,39.81847],[-75.059778,39.818444],[-75.059809,39.818457],[-75.059802,39.818502],[-75.059817,39.818524],[-75.059868,39.818524],[-75.059851,39.818449],[-75.059821,39.818399],[-75.059758,39.818419],[-75.05969,39.818408],[-75.059665,39.818434],[-75.059678,39.818466]]]}},{"type":"Feature","properties":{"k":"bunker"},"geometry":{"type":"Polygon","coordinates":[[[-75.060343,39.818619],[-75.060356,39.818562],[-75.060333,39.818517],[-75.060336,39.818488],[-75.060402,39.818518],[-75.060397,39.818618],[-75.06036,39.818636],[-75.060343,39.818619]]]}},{"type":"Feature","properties":{"k":"green"},"geometry":{"type":"Polygon","coordinates":[[[-75.060087,39.818635],[-75.060187,39.818651],[-75.060243,39.818651],[-75.060287,39.818633],[-75.060299,39.818591],[-75.06028,39.818537],[-75.060229,39.818509],[-75.060151,39.818488],[-75.06007,39.818485],[-75.060014,39.818507],[-75.059987,39.818558],[-75.06,39.818601],[-75.060026,39.818618],[-75.060087,39.818635]]]}},{"type":"Feature","properties":{"k":"tee"},"geometry":{"type":"Polygon","coordinates":[[[-75.062039,39.817251],[-75.06214,39.817178],[-75.062071,39.817122],[-75.06197,39.817195],[-75.062039,39.817251]]]}},{"type":"Feature","properties":{"k":"tee"},"geometry":{"type":"Polygon","coordinates":[[[-75.062969,39.816737],[-75.063207,39.816603],[-75.063221,39.816547],[-75.0632,39.816515],[-75.063158,39.816494],[-75.063085,39.816494],[-75.062922,39.816585],[-75.062833,39.816652],[-75.06281,39.816697],[-75.06282,39.816737],[-75.062854,39.816761],[-75.062905,39.816764],[-75.062969,39.816737]]]}},{"type":"Feature","properties":{"k":"tee"},"geometry":{"type":"Polygon","coordinates":[[[-75.062517,39.816963],[-75.062706,39.816864],[-75.062773,39.816815],[-75.062799,39.816772],[-75.062761,39.816735],[-75.062718,39.816714],[-75.062616,39.816741],[-75.062481,39.816854],[-75.062449,39.816904],[-75.062457,39.816937],[-75.062517,39.816963]]]}},{"type":"Feature","properties":{"k":"fairway"},"geometry":{"type":"Polygon","coordinates":[[[-75.060927,39.818186],[-75.061566,39.817718],[-75.061768,39.817549],[-75.061907,39.817461],[-75.061927,39.817414],[-75.06191,39.817358],[-75.061829,39.817294],[-75.061776,39.817268],[-75.061676,39.817287],[-75.061566,39.817405],[-75.0613,39.81762],[-75.060974,39.817854],[-75.060574,39.818092],[-75.060396,39.81818],[-75.060269,39.818221],[-75.060225,39.818309],[-75.06021,39.818379],[-75.060269,39.818437],[-75.060383,39.818448],[-75.060513,39.818409],[-75.060927,39.818186]]]}},{"type":"Feature","properties":{"k":"tee"},"geometry":{"type":"Polygon","coordinates":[[[-75.05859,39.817377],[-75.058606,39.817412],[-75.058591,39.817446],[-75.058551,39.817465],[-75.058527,39.817466],[-75.058485,39.817451],[-75.058464,39.81742],[-75.058464,39.817403],[-75.058486,39.817372],[-75.058505,39.817362],[-75.05855,39.817358],[-75.05859,39.817377]]]}},{"type":"Feature","properties":{"k":"tee"},"geometry":{"type":"Polygon","coordinates":[[[-75.058391,39.817763],[-75.058457,39.817867],[-75.058521,39.817888],[-75.058572,39.817873],[-75.058601,39.817836],[-75.058574,39.817761],[-75.058518,39.817654],[-75.058442,39.817635],[-75.058399,39.817656],[-75.058372,39.817691],[-75.058391,39.817763]]]}},{"type":"Feature","properties":{"k":"tee"},"geometry":{"type":"Polygon","coordinates":[[[-75.058216,39.817614],[-75.058347,39.817557],[-75.058435,39.817506],[-75.05842,39.817468],[-75.058381,39.817437],[-75.058306,39.817431],[-75.058118,39.817525],[-75.058091,39.817557],[-75.058094,39.817583],[-75.058123,39.817613],[-75.05816,39.817624],[-75.058216,39.817614]]]}},{"type":"Feature","properties":{"k":"tee"},"geometry":{"type":"Polygon","coordinates":[[[-75.057961,39.817722],[-75.057984,39.817759],[-75.058005,39.817771],[-75.058057,39.817778],[-75.058105,39.81776],[-75.058121,39.817744],[-75.058128,39.8177],[-75.058098,39.817663],[-75.058044,39.817649],[-75.05799,39.817665],[-75.057972,39.817682],[-75.057961,39.817722]]]}},{"type":"Feature","properties":{"k":"green"},"geometry":{"type":"Polygon","coordinates":[[[-75.057967,39.814585],[-75.058073,39.814594],[-75.058115,39.814572],[-75.058155,39.814535],[-75.05816,39.814493],[-75.058115,39.814452],[-75.058051,39.814419],[-75.057984,39.814437],[-75.05793,39.814411],[-75.057855,39.814398],[-75.057793,39.814428],[-75.057785,39.81449],[-75.057804,39.814548],[-75.057849,39.81457],[-75.057967,39.814585]]]}},{"type":"Feature","properties":{"k":"fairway"},"geometry":{"type":"Polygon","coordinates":[[[-75.057967,39.814585],[-75.057807,39.814606],[-75.057726,39.814602],[-75.057656,39.814587],[-75.057603,39.814533],[-75.05762,39.814495],[-75.057659,39.814462],[-75.057793,39.814428],[-75.057785,39.81449],[-75.057804,39.814548],[-75.057849,39.81457],[-75.057967,39.814585]]]}},{"type":"Feature","properties":{"k":"tee"},"geometry":{"type":"Polygon","coordinates":[[[-75.055855,39.814542],[-75.056054,39.814484],[-75.056015,39.814409],[-75.055816,39.814467],[-75.055855,39.814542]]]}},{"type":"Feature","properties":{"k":"tee"},"geometry":{"type":"Polygon","coordinates":[[[-75.056269,39.81469],[-75.056247,39.814591],[-75.056034,39.814606],[-75.056045,39.814686],[-75.056269,39.81469]]]}},{"type":"Feature","properties":{"k":"green"},"geometry":{"type":"Polygon","coordinates":[[[-75.056429,39.815052],[-75.05646,39.815129],[-75.056538,39.815144],[-75.056578,39.815131],[-75.056625,39.81508],[-75.056617,39.815005],[-75.056516,39.814938],[-75.056474,39.814869],[-75.056429,39.814843],[-75.056356,39.814858],[-75.056328,39.814893],[-75.056323,39.814931],[-75.056351,39.814979],[-75.056412,39.815013],[-75.056429,39.815052]]]}},{"type":"Feature","properties":{"k":"bunker"},"geometry":{"type":"Polygon","coordinates":[[[-75.056804,39.8152],[-75.056855,39.815256],[-75.056863,39.815301],[-75.056905,39.815314],[-75.056928,39.815338],[-75.056981,39.815349],[-75.056973,39.815403],[-75.057076,39.815407],[-75.057107,39.815353],[-75.057096,39.815312],[-75.057042,39.815314],[-75.057012,39.815252],[-75.056931,39.815252],[-75.056936,39.815177],[-75.056891,39.815142],[-75.056832,39.81516],[-75.056804,39.8152]]]}},{"type":"Feature","properties":{"k":"tee"},"geometry":{"type":"Polygon","coordinates":[[[-75.056507,39.814566],[-75.056611,39.814583],[-75.056664,39.814548],[-75.056684,39.814514],[-75.056651,39.814475],[-75.056597,39.814456],[-75.056502,39.814464],[-75.056485,39.814523],[-75.056507,39.814566]]]}},{"type":"Feature","properties":{"k":"fairway"},"geometry":{"type":"Polygon","coordinates":[[[-75.056625,39.81508],[-75.056729,39.815146],[-75.056802,39.815239],[-75.056832,39.815295],[-75.056953,39.81542],[-75.057054,39.815452],[-75.057149,39.815534],[-75.057219,39.815734],[-75.057393,39.81588],[-75.057513,39.816121],[-75.057687,39.816429],[-75.057673,39.816528],[-75.057611,39.816571],[-75.057552,39.816586],[-75.057292,39.816405],[-75.056995,39.815958],[-75.056874,39.815695],[-75.056709,39.815465],[-75.056524,39.815271],[-75.056516,39.81519],[-75.056538,39.815144],[-75.056578,39.815131],[-75.056625,39.81508]]]}},{"type":"Feature","properties":{"k":"fairway"},"geometry":{"type":"Polygon","coordinates":[[[-75.058706,39.816179],[-75.058843,39.816151],[-75.05893,39.816078],[-75.058981,39.816016],[-75.059093,39.815956],[-75.059306,39.815893],[-75.059393,39.815859],[-75.059412,39.81579],[-75.059353,39.815717],[-75.059185,39.815708],[-75.058832,39.815775],[-75.058703,39.815826],[-75.058586,39.816104],[-75.0586,39.816156],[-75.058636,39.816177],[-75.058706,39.816179]]]}},{"type":"Feature","properties":{"k":"tee"},"geometry":{"type":"Polygon","coordinates":[[[-75.060436,39.815754],[-75.06095,39.815672],[-75.060908,39.815516],[-75.060394,39.815598],[-75.060436,39.815754]]]}},{"type":"Feature","properties":{"k":"green"},"geometry":{"type":"Polygon","coordinates":[[[-75.060908,39.815377],[-75.060983,39.8154],[-75.06107,39.815392],[-75.061076,39.815312],[-75.06104,39.81525],[-75.060958,39.815209],[-75.060815,39.815207],[-75.060754,39.815254],[-75.060754,39.815321],[-75.060771,39.815364],[-75.060908,39.815377]]]}},{"type":"Feature","properties":{"k":"fairway"},"geometry":{"type":"Polygon","coordinates":[[[-75.060771,39.815364],[-75.060639,39.81539],[-75.060575,39.815379],[-75.060521,39.815336],[-75.060532,39.815293],[-75.060575,39.815239],[-75.060661,39.81522],[-75.060775,39.815238],[-75.060754,39.815254],[-75.060754,39.815321],[-75.060771,39.815364]]]}},{"type":"Feature","properties":{"k":"fairway"},"geometry":{"type":"Polygon","coordinates":[[[-75.059202,39.815357],[-75.059373,39.815422],[-75.059535,39.815454],[-75.059944,39.815452],[-75.060017,39.815426],[-75.060048,39.815362],[-75.059964,39.815301],[-75.059474,39.815115],[-75.059303,39.815099],[-75.059224,39.815127],[-75.059166,39.815192],[-75.059135,39.815261],[-75.059143,39.815327],[-75.059202,39.815357]]]}},{"type":"Feature","properties":{"k":"green"},"geometry":{"type":"Polygon","coordinates":[[[-75.061973,39.820849],[-75.062024,39.820853],[-75.062081,39.820835],[-75.062131,39.820804],[-75.062158,39.820761],[-75.062162,39.820704],[-75.062139,39.820648],[-75.062111,39.820622],[-75.062067,39.8206],[-75.062004,39.820591],[-75.061934,39.820611],[-75.061896,39.820631],[-75.061861,39.820661],[-75.061848,39.820696],[-75.061856,39.820755],[-75.061881,39.820797],[-75.061915,39.820829],[-75.061973,39.820849]]]}},{"type":"Feature","properties":{"k":"bunker"},"geometry":{"type":"Polygon","coordinates":[[[-75.061919,39.82057],[-75.062063,39.820528],[-75.06217,39.820585],[-75.062207,39.820539],[-75.062144,39.820502],[-75.062063,39.820482],[-75.06198,39.820489],[-75.061906,39.820507],[-75.061883,39.820554],[-75.061919,39.82057]]]}},{"type":"Feature","properties":{"k":"tee"},"geometry":{"type":"Polygon","coordinates":[[[-75.062365,39.821116],[-75.062453,39.821065],[-75.062457,39.82103],[-75.062411,39.820989],[-75.062336,39.821004],[-75.062267,39.82105],[-75.062265,39.821095],[-75.062277,39.821127],[-75.062316,39.821133],[-75.062365,39.821116]]]}},{"type":"Feature","properties":{"k":"bunker"},"geometry":{"type":"Polygon","coordinates":[[[-75.060726,39.819535],[-75.06077,39.819545],[-75.0608,39.819535],[-75.0608,39.8195],[-75.060774,39.819477],[-75.060727,39.819477],[-75.060705,39.819498],[-75.060726,39.819535]]]}},{"type":"Feature","properties":{"k":"bunker"},"geometry":{"type":"Polygon","coordinates":[[[-75.060846,39.81963],[-75.060908,39.819606],[-75.060916,39.819552],[-75.060901,39.819521],[-75.060857,39.819517],[-75.060853,39.819552],[-75.060827,39.819576],[-75.060801,39.819586],[-75.060796,39.819609],[-75.060846,39.81963]]]}},{"type":"Feature","properties":{"k":"bunker"},"geometry":{"type":"Polygon","coordinates":[[[-75.060933,39.819722],[-75.060934,39.819761],[-75.060973,39.819768],[-75.060995,39.819757],[-75.060979,39.819676],[-75.060936,39.819662],[-75.060908,39.819671],[-75.060933,39.819722]]]}},{"type":"Feature","properties":{"k":"tee"},"geometry":{"type":"Polygon","coordinates":[[[-75.062594,39.820982],[-75.062649,39.820956],[-75.062692,39.820922],[-75.062723,39.820855],[-75.062681,39.820821],[-75.062629,39.820832],[-75.062518,39.820909],[-75.062507,39.82094],[-75.062524,39.820973],[-75.062557,39.820984],[-75.062594,39.820982]]]}},{"type":"Feature","properties":{"k":"tee"},"geometry":{"type":"Polygon","coordinates":[[[-75.062816,39.820817],[-75.062851,39.82079],[-75.062851,39.820759],[-75.062819,39.820729],[-75.062773,39.820719],[-75.062745,39.820744],[-75.06272,39.82081],[-75.062738,39.820828],[-75.062777,39.820832],[-75.062816,39.820817]]]}},{"type":"Feature","properties":{"k":"tee"},"geometry":{"type":"Polygon","coordinates":[[[-75.062235,39.821011],[-75.062333,39.82095],[-75.062354,39.820912],[-75.062313,39.820888],[-75.062261,39.820896],[-75.062187,39.820928],[-75.062163,39.820962],[-75.062169,39.820993],[-75.062196,39.821013],[-75.062235,39.821011]]]}},{"type":"Feature","properties":{"k":"green"},"geometry":{"type":"Polygon","coordinates":[[[-75.061232,39.821194],[-75.0613,39.821193],[-75.061369,39.821177],[-75.061396,39.821152],[-75.061409,39.821112],[-75.061367,39.821068],[-75.061295,39.821018],[-75.061217,39.821011],[-75.061158,39.82104],[-75.061117,39.821121],[-75.061127,39.82116],[-75.061173,39.821187],[-75.061232,39.821194]]]}},{"type":"Feature","properties":{"k":"tee"},"geometry":{"type":"Polygon","coordinates":[[[-75.062409,39.820908],[-75.062572,39.82081],[-75.062575,39.82077],[-75.062514,39.820744],[-75.06245,39.820776],[-75.062354,39.820839],[-75.062346,39.820871],[-75.062376,39.820895],[-75.062409,39.820908]]]}},{"type":"Feature","properties":{"k":"fairway"},"geometry":{"type":"Polygon","coordinates":[[[-75.060947,39.822168],[-75.061073,39.822138],[-75.061151,39.822067],[-75.061282,39.821967],[-75.061448,39.821817],[-75.061592,39.821729],[-75.061694,39.821656],[-75.061744,39.821583],[-75.061749,39.821525],[-75.061701,39.821484],[-75.061629,39.821455],[-75.061548,39.821454],[-75.061465,39.821471],[-75.061317,39.821589],[-75.061086,39.821754],[-75.060888,39.821877],[-75.060796,39.821954],[-75.060757,39.821996],[-75.060781,39.82206],[-75.060822,39.822116],[-75.060875,39.822157],[-75.060947,39.822168]]]}},{"type":"Feature","properties":{"k":"fairway"},"geometry":{"type":"Polygon","coordinates":[[[-75.059321,39.823355],[-75.059365,39.823413],[-75.059425,39.823376],[-75.05951,39.82331],[-75.059561,39.82324],[-75.059937,39.822995],[-75.060118,39.822865],[-75.06041,39.822632],[-75.060535,39.822503],[-75.060642,39.822411],[-75.060796,39.822304],[-75.060811,39.822245],[-75.060696,39.822125],[-75.060644,39.82212],[-75.06047,39.822199],[-75.060404,39.822212],[-75.06019,39.822401],[-75.059587,39.822854],[-75.059484,39.82291],[-75.059425,39.823003],[-75.059399,39.82319],[-75.059414,39.823255],[-75.059375,39.823325],[-75.059321,39.823355]]]}},{"type":"Feature","properties":{"k":"green"},"geometry":{"type":"Polygon","coordinates":[[[-75.059249,39.82353],[-75.059284,39.823563],[-75.059325,39.823567],[-75.05938,39.823552],[-75.059401,39.823523],[-75.059399,39.823482],[-75.059365,39.823413],[-75.059321,39.823355],[-75.059269,39.823333],[-75.059184,39.823356],[-75.059136,39.823401],[-75.059147,39.823438],[-75.059183,39.823471],[-75.059225,39.823496],[-75.059249,39.82353]]]}},{"type":"Feature","properties":{"k":"bunker"},"geometry":{"type":"Polygon","coordinates":[[[-75.059478,39.823498],[-75.059517,39.823482],[-75.059537,39.823459],[-75.059511,39.823403],[-75.059486,39.823374],[-75.059436,39.823387],[-75.059417,39.823413],[-75.059439,39.823471],[-75.059478,39.823498]]]}},{"type":"Feature","properties":{"k":"bunker"},"geometry":{"type":"Polygon","coordinates":[[[-75.059151,39.823332],[-75.059208,39.823285],[-75.059316,39.823285],[-75.059362,39.823275],[-75.059375,39.823234],[-75.059349,39.823196],[-75.059292,39.823189],[-75.059258,39.823228],[-75.059203,39.823231],[-75.059171,39.823211],[-75.059129,39.823221],[-75.059125,39.823247],[-75.059144,39.823276],[-75.059103,39.823303],[-75.059101,39.823332],[-75.059131,39.823342],[-75.059151,39.823332]]]}},{"type":"Feature","properties":{"k":"tee"},"geometry":{"type":"Polygon","coordinates":[[[-75.059138,39.823836],[-75.059184,39.823857],[-75.059236,39.823841],[-75.059269,39.823814],[-75.059262,39.823776],[-75.059229,39.823738],[-75.05917,39.823725],[-75.059118,39.823732],[-75.059088,39.823786],[-75.059138,39.823836]]]}},{"type":"Feature","properties":{"k":"tee"},"geometry":{"type":"Polygon","coordinates":[[[-75.058933,39.823655],[-75.058972,39.823699],[-75.059024,39.823729],[-75.059097,39.823722],[-75.059134,39.823688],[-75.059138,39.823643],[-75.059096,39.823579],[-75.05904,39.823526],[-75.058979,39.823506],[-75.058922,39.823526],[-75.058883,39.823555],[-75.058881,39.823597],[-75.058933,39.823655]]]}},{"type":"Feature","properties":{"k":"tee"},"geometry":{"type":"Polygon","coordinates":[[[-75.058649,39.823386],[-75.05868,39.823407],[-75.05873,39.82341],[-75.058763,39.823393],[-75.058767,39.823356],[-75.058743,39.823326],[-75.058698,39.823299],[-75.058641,39.823312],[-75.058632,39.823347],[-75.058649,39.823386]]]}},{"type":"Feature","properties":{"k":"tee"},"geometry":{"type":"Polygon","coordinates":[[[-75.058862,39.823068],[-75.058682,39.822888],[-75.058772,39.822835],[-75.058952,39.823014],[-75.058862,39.823068]]]}},{"type":"Feature","properties":{"k":"tee"},"geometry":{"type":"Polygon","coordinates":[[[-75.059074,39.818686],[-75.05912,39.818727],[-75.059169,39.818723],[-75.059194,39.818702],[-75.059206,39.818665],[-75.059123,39.818594],[-75.059064,39.81856],[-75.059028,39.818577],[-75.059008,39.818606],[-75.059074,39.818686]]]}},{"type":"Feature","properties":{"k":"path"},"geometry":{"type":"LineString","coordinates":[[-75.059013,39.81853],[-75.059146,39.818558],[-75.059206,39.818599],[-75.059317,39.818802],[-75.059399,39.818883],[-75.059494,39.819004],[-75.059615,39.81918],[-75.059871,39.819584],[-75.060083,39.819795],[-75.060241,39.819909],[-75.060419,39.820015],[-75.060565,39.820121],[-75.060725,39.820168],[-75.060849,39.82026],[-75.061153,39.82046],[-75.061238,39.820539],[-75.0614,39.820621],[-75.061563,39.820716],[-75.061848,39.820904],[-75.061992,39.820926],[-75.062295,39.82087],[-75.062349,39.820799],[-75.062464,39.820727],[-75.062568,39.820713],[-75.062618,39.820755],[-75.062602,39.820802],[-75.062507,39.820885],[-75.062295,39.820999],[-75.062084,39.821098],[-75.061843,39.821145],[-75.061727,39.82118],[-75.061009,39.821689],[-75.060812,39.821852],[-75.060736,39.821934],[-75.06071,39.821991],[-75.060736,39.822065],[-75.060824,39.82218],[-75.060865,39.822262],[-75.060849,39.822315],[-75.060676,39.822427],[-75.060641,39.822479],[-75.06061,39.822558],[-75.060139,39.822932],[-75.060025,39.822972],[-75.059951,39.82306],[-75.05993,39.823198],[-75.059864,39.823301],[-75.059782,39.823388],[-75.059653,39.823498],[-75.059555,39.8236],[-75.059479,39.82369],[-75.05942,39.82379],[-75.059232,39.823875],[-75.059145,39.823878],[-75.05891,39.823698],[-75.058836,39.8236],[-75.058715,39.823465],[-75.058587,39.823396],[-75.058538,39.823294],[-75.058403,39.823108],[-75.058246,39.82293],[-75.058109,39.822758],[-75.05867,39.822939],[-75.058756,39.823018],[-75.058818,39.823098],[-75.058834,39.82318],[-75.058799,39.823491],[-75.058783,39.82354]]}},{"type":"Feature","properties":{"k":"path"},"geometry":{"type":"LineString","coordinates":[[-75.058109,39.822758],[-75.058041,39.822669],[-75.057988,39.822578],[-75.05789,39.822484],[-75.057644,39.822318],[-75.057525,39.822159],[-75.057356,39.822144],[-75.057267,39.822149],[-75.057144,39.822126]]}},{"type":"Feature","properties":{"k":"path"},"geometry":{"type":"LineString","coordinates":[[-75.058155,39.822816],[-75.058045,39.822863],[-75.057877,39.822916],[-75.057811,39.822902],[-75.057657,39.822819],[-75.057435,39.822641],[-75.056576,39.822092],[-75.056312,39.82193],[-75.055831,39.821667],[-75.055709,39.821541],[-75.055601,39.821408],[-75.05545,39.821251],[-75.055224,39.820986],[-75.055142,39.820931],[-75.054986,39.820901],[-75.054875,39.820847],[-75.054758,39.820755],[-75.054475,39.820424],[-75.054169,39.820124],[-75.054081,39.820023],[-75.053744,39.819785],[-75.053518,39.819665],[-75.053427,39.819561],[-75.053366,39.819441],[-75.053349,39.819368],[-75.053374,39.819297]]}},{"type":"Feature","properties":{"k":"path"},"geometry":{"type":"LineString","coordinates":[[-75.053439,39.819222],[-75.053466,39.819181],[-75.053436,39.819133],[-75.053321,39.819087],[-75.053191,39.819061],[-75.053096,39.819076],[-75.052891,39.819075],[-75.052853,39.819034],[-75.052786,39.818887],[-75.05257,39.81862],[-75.05249,39.818555],[-75.052364,39.818477],[-75.052268,39.818382],[-75.052152,39.818236],[-75.052007,39.81808],[-75.051727,39.817794],[-75.051692,39.817706],[-75.051709,39.81763],[-75.051904,39.81742],[-75.05196,39.817372],[-75.052049,39.817371],[-75.052346,39.817613],[-75.052597,39.817885],[-75.05271,39.818015],[-75.052828,39.818171],[-75.052934,39.818335],[-75.053006,39.818477],[-75.053133,39.818636],[-75.053257,39.818736],[-75.053374,39.818862],[-75.053535,39.819126],[-75.053595,39.819163],[-75.053833,39.819046],[-75.054034,39.818984],[-75.054266,39.818959],[-75.054354,39.81897],[-75.054401,39.819002]]}},{"type":"Feature","properties":{"k":"path"},"geometry":{"type":"LineString","coordinates":[[-75.054401,39.819002],[-75.054348,39.818934],[-75.05425,39.81885],[-75.054161,39.818744],[-75.054048,39.818649],[-75.053703,39.818456],[-75.053334,39.818184],[-75.053235,39.818101],[-75.053185,39.818042],[-75.053228,39.817975],[-75.053321,39.817904],[-75.053511,39.817717],[-75.053485,39.817676],[-75.053391,39.817642],[-75.053078,39.817399],[-75.052676,39.817063],[-75.052601,39.816984],[-75.052622,39.816929],[-75.052707,39.816952],[-75.052855,39.817048],[-75.052967,39.817134],[-75.053046,39.817218],[-75.053082,39.817312],[-75.053355,39.817541],[-75.053485,39.817676]]}},{"type":"Feature","properties":{"k":"fairway"},"geometry":{"type":"Polygon","coordinates":[[[-75.054558,39.818417],[-75.05469,39.818512],[-75.054785,39.81854],[-75.054964,39.818508],[-75.055127,39.818443],[-75.055213,39.818394],[-75.055272,39.818323],[-75.054771,39.818131],[-75.054485,39.817972],[-75.054222,39.817856],[-75.054087,39.817651],[-75.053961,39.817531],[-75.053821,39.817467],[-75.053707,39.81749],[-75.053653,39.817535],[-75.053622,39.817651],[-75.053723,39.817791],[-75.054029,39.817972],[-75.054412,39.818247],[-75.054558,39.818417]]]}},{"type":"Feature","properties":{"k":"tee"},"geometry":{"type":"Polygon","coordinates":[[[-75.052926,39.816984],[-75.052902,39.817024],[-75.052917,39.817067],[-75.052963,39.817092],[-75.052992,39.817094],[-75.053041,39.817079],[-75.053068,39.817045],[-75.05307,39.817024],[-75.05305,39.816987],[-75.053005,39.816966],[-75.052978,39.816965],[-75.052926,39.816984]]]}},{"type":"Feature","properties":{"k":"tee"},"geometry":{"type":"Polygon","coordinates":[[[-75.052841,39.816989],[-75.052922,39.816918],[-75.05265,39.816744],[-75.052572,39.816828],[-75.052841,39.816989]]]}},{"type":"Feature","properties":{"k":"tee"},"geometry":{"type":"Polygon","coordinates":[[[-75.054954,39.819191],[-75.054965,39.819221],[-75.055005,39.819226],[-75.05505,39.819206],[-75.05506,39.819178],[-75.055029,39.81913],[-75.054978,39.819101],[-75.054937,39.819107],[-75.054915,39.819123],[-75.054905,39.819144],[-75.054954,39.819191]]]}},{"type":"Feature","properties":{"k":"tee"},"geometry":{"type":"Polygon","coordinates":[[[-75.054801,39.81907],[-75.054847,39.819108],[-75.054878,39.819111],[-75.054912,39.819096],[-75.054928,39.819076],[-75.054917,39.819055],[-75.054875,39.819023],[-75.054822,39.819005],[-75.054794,39.819024],[-75.054783,39.819049],[-75.054801,39.81907]]]}},{"type":"Feature","properties":{"k":"green"},"geometry":{"type":"Polygon","coordinates":[[[-75.056716,39.8187],[-75.056831,39.8187],[-75.056884,39.818731],[-75.056926,39.818778],[-75.056993,39.81878],[-75.057057,39.81875],[-75.057057,39.818672],[-75.056982,39.818606],[-75.056878,39.818565],[-75.056766,39.818556],[-75.056674,39.818595],[-75.056637,39.818632],[-75.056643,39.81867],[-75.056674,39.818698],[-75.056716,39.8187]]]}},{"type":"Feature","properties":{"k":"path"},"geometry":{"type":"LineString","coordinates":[[-75.053511,39.817717],[-75.054002,39.818076],[-75.054347,39.818353],[-75.054684,39.818649],[-75.054778,39.818657],[-75.055003,39.818531],[-75.055077,39.818548]]}},{"type":"Feature","properties":{"k":"path"},"geometry":{"type":"LineString","coordinates":[[-75.055206,39.818674],[-75.055363,39.81862],[-75.055711,39.818437],[-75.055897,39.818358],[-75.056534,39.818358],[-75.056715,39.818377],[-75.056863,39.818424],[-75.05695,39.818429],[-75.057023,39.81837],[-75.057236,39.818385],[-75.057342,39.818434],[-75.057445,39.818452],[-75.057545,39.818397],[-75.057609,39.818333],[-75.057603,39.818239],[-75.057648,39.818098],[-75.057801,39.818085]]}},{"type":"Feature","properties":{"k":"bunker"},"geometry":{"type":"Polygon","coordinates":[[[-75.060788,39.822491],[-75.060863,39.822499],[-75.060889,39.822465],[-75.060844,39.822409],[-75.060774,39.82239],[-75.060735,39.822435],[-75.060738,39.822467],[-75.060754,39.822482],[-75.060788,39.822491]]]}},{"type":"Feature","properties":{"k":"bunker"},"geometry":{"type":"Polygon","coordinates":[[[-75.060516,39.822142],[-75.060564,39.822123],[-75.060583,39.822063],[-75.060648,39.822041],[-75.060648,39.821996],[-75.060567,39.821994],[-75.060533,39.822045],[-75.06048,39.822082],[-75.060463,39.822116],[-75.060474,39.822138],[-75.060516,39.822142]]]}},{"type":"Feature","properties":{"k":"path"},"geometry":{"type":"LineString","coordinates":[[-75.052749,39.816586],[-75.052827,39.816414],[-75.052866,39.816298],[-75.052963,39.816249],[-75.053149,39.816276],[-75.053305,39.816358],[-75.053461,39.816511],[-75.053739,39.816628],[-75.054075,39.816789],[-75.054231,39.816908],[-75.054383,39.816983],[-75.054856,39.817249],[-75.055997,39.817654],[-75.056158,39.817748],[-75.056197,39.817819]]}},{"type":"Feature","properties":{"k":"path"},"geometry":{"type":"LineString","coordinates":[[-75.053344,39.816397],[-75.053631,39.816485],[-75.053905,39.816628],[-75.054222,39.816762],[-75.054436,39.816822],[-75.054748,39.816924],[-75.055085,39.816987],[-75.055446,39.817073],[-75.055763,39.817175],[-75.055953,39.817336],[-75.056065,39.81747],[-75.056182,39.817519],[-75.056504,39.817403],[-75.056723,39.817343],[-75.056801,39.817298],[-75.056865,39.817231],[-75.05686,39.817137],[-75.056797,39.816991]]}},{"type":"Feature","properties":{"k":"path"},"geometry":{"type":"LineString","coordinates":[[-75.057089,39.817521],[-75.057211,39.817568],[-75.05743,39.817571],[-75.057504,39.817628],[-75.057616,39.81765],[-75.057601,39.817542],[-75.057387,39.817313],[-75.057333,39.817277]]}},{"type":"Feature","properties":{"k":"path"},"geometry":{"type":"LineString","coordinates":[[-75.059206,39.818599],[-75.059357,39.818519],[-75.059606,39.818403],[-75.059908,39.818309],[-75.060147,39.818156],[-75.060483,39.818036],[-75.060844,39.817853],[-75.061181,39.817628],[-75.061639,39.817208],[-75.062,39.817085],[-75.062317,39.81689],[-75.062819,39.816553],[-75.062907,39.81647],[-75.062844,39.816369],[-75.062761,39.816298],[-75.062619,39.816369],[-75.062502,39.816511],[-75.062371,39.81656],[-75.062224,39.816511],[-75.061903,39.816549],[-75.061746,39.8165],[-75.061483,39.816451],[-75.060971,39.816474],[-75.060552,39.816579],[-75.060181,39.816736],[-75.059449,39.817088],[-75.058573,39.817458],[-75.058411,39.817579],[-75.058196,39.817647],[-75.058069,39.817613],[-75.058055,39.817534],[-75.05806,39.817418],[-75.057996,39.817268],[-75.057908,39.817017],[-75.057797,39.816811]]}},{"type":"Feature","properties":{"k":"path"},"geometry":{"type":"LineString","coordinates":[[-75.057724,39.816753],[-75.057694,39.816699],[-75.057796,39.81662],[-75.057933,39.816496],[-75.057903,39.816392],[-75.057728,39.816276],[-75.057552,39.816043],[-75.057445,39.815818],[-75.057304,39.81556],[-75.057231,39.815376],[-75.057109,39.815223],[-75.056884,39.815073],[-75.056706,39.814918],[-75.056509,39.814822],[-75.056382,39.814773],[-75.056211,39.814788],[-75.05608,39.814781],[-75.055953,39.814691],[-75.055919,39.814597],[-75.056006,39.814534],[-75.056187,39.814519],[-75.056499,39.814635],[-75.056875,39.814665],[-75.05745,39.81465],[-75.058182,39.814646],[-75.058435,39.814691],[-75.058854,39.814916],[-75.058858,39.815214],[-75.058918,39.815376],[-75.059151,39.815456],[-75.059503,39.815511],[-75.059969,39.81552],[-75.06021,39.815508],[-75.060352,39.815556],[-75.060313,39.815732],[-75.060181,39.815804],[-75.059801,39.81583],[-75.059176,39.815983],[-75.059006,39.816043],[-75.058987,39.816123]]}},{"type":"Feature","properties":{"k":"path"},"geometry":{"type":"LineString","coordinates":[[-75.053439,39.819222],[-75.053374,39.819297]]}},{"type":"Feature","properties":{"k":"path"},"geometry":{"type":"LineString","coordinates":[[-75.055206,39.818674],[-75.055077,39.818548]]}},{"type":"Feature","properties":{"k":"path"},"geometry":{"type":"LineString","coordinates":[[-75.057797,39.816811],[-75.057724,39.816753]]}}]}