{"type":"FeatureCollection","features":[{"type":"Feature","properties":{"k":"hole","ref":"1","par":4},"geometry":{"type":"LineString","coordinates":[[-118.292632,34.11828],[-118.293248,34.119304],[-118.293696,34.120319]]}},{"type":"Feature","properties":{"k":"hole","ref":"2","par":4},"geometry":{"type":"LineString","coordinates":[[-118.293222,34.120398],[-118.291128,34.120368],[-118.289695,34.121023]]}},{"type":"Feature","properties":{"k":"hole","ref":"3","par":3},"geometry":{"type":"LineString","coordinates":[[-118.289857,34.121393],[-118.289034,34.121943]]}},{"type":"Feature","properties":{"k":"hole","ref":"4","par":4},"geometry":{"type":"LineString","coordinates":[[-118.288613,34.121452],[-118.289761,34.120336],[-118.290999,34.119644]]}},{"type":"Feature","properties":{"k":"hole","ref":"5","par":4},"geometry":{"type":"LineString","coordinates":[[-118.289728,34.119409],[-118.288487,34.120192],[-118.288478,34.120944]]}},{"type":"Feature","properties":{"k":"hole","ref":"6","par":4},"geometry":{"type":"LineString","coordinates":[[-118.288035,34.120974],[-118.286783,34.119007]]}},{"type":"Feature","properties":{"k":"hole","ref":"7","par":3},"geometry":{"type":"LineString","coordinates":[[-118.287042,34.119005],[-118.288761,34.11911]]}},{"type":"Feature","properties":{"k":"hole","ref":"8","par":4},"geometry":{"type":"LineString","coordinates":[[-118.289083,34.118883],[-118.29073,34.118633],[-118.291733,34.119475]]}},{"type":"Feature","properties":{"k":"hole","ref":"9","par":3},"geometry":{"type":"LineString","coordinates":[[-118.292144,34.119634],[-118.292126,34.118273]]}},{"type":"Feature","properties":{"k":"green"},"geometry":{"type":"Polygon","coordinates":[[[-118.289798,34.121111],[-118.289769,34.121129],[-118.289696,34.121143],[-118.28964,34.121131],[-118.289616,34.121116],[-118.289588,34.121071],[-118.289577,34.121015],[-118.28958,34.120961],[-118.289609,34.120916],[-118.289638,34.120901],[-118.289702,34.120892],[-118.289728,34.120896],[-118.289762,34.120922],[-118.289784,34.120972],[-118.289832,34.121026],[-118.289829,34.121064],[-118.289798,34.121111]]]}},{"type":"Feature","properties":{"k":"green"},"geometry":{"type":"Polygon","coordinates":[[[-118.289149,34.121997],[-118.289115,34.12204],[-118.289087,34.122058],[-118.28903,34.12206],[-118.289005,34.122051],[-118.288981,34.122034],[-118.288922,34.121959],[-118.288911,34.121914],[-118.288922,34.121873],[-118.288955,34.12185],[-118.288984,34.121842],[-118.289045,34.121842],[-118.289096,34.121858],[-118.289147,34.121909],[-118.289159,34.121956],[-118.289149,34.121997]]]}},{"type":"Feature","properties":{"k":"green"},"geometry":{"type":"Polygon","coordinates":[[[-118.288537,34.121097],[-118.288471,34.121088],[-118.288426,34.121051],[-118.28836,34.120915],[-118.288364,34.12088],[-118.288394,34.120846],[-118.288458,34.12084],[-118.288523,34.120881],[-118.28857,34.120995],[-118.288577,34.121048],[-118.288537,34.121097]]]}},{"type":"Feature","properties":{"k":"green"},"geometry":{"type":"Polygon","coordinates":[[[-118.291065,34.119794],[-118.290992,34.119795],[-118.290941,34.119746],[-118.290911,34.119693],[-118.290898,34.119652],[-118.290924,34.119552],[-118.291007,34.119519],[-118.291102,34.119541],[-118.291112,34.119583],[-118.291123,34.119694],[-118.291107,34.119768],[-118.291065,34.119794]]]}},{"type":"Feature","properties":{"k":"green"},"geometry":{"type":"Polygon","coordinates":[[[-118.291807,34.11961],[-118.291777,34.119615],[-118.29175,34.119608],[-118.29171,34.119566],[-118.29164,34.119447],[-118.291631,34.119388],[-118.291636,34.119375],[-118.291685,34.119364],[-118.291716,34.119365],[-118.291745,34.119376],[-118.291798,34.119444],[-118.291852,34.119538],[-118.291852,34.119566],[-118.291837,34.11959],[-118.291807,34.11961]]]}},{"type":"Feature","properties":{"k":"green"},"geometry":{"type":"Polygon","coordinates":[[[-118.292219,34.118338],[-118.292175,34.118367],[-118.292148,34.118374],[-118.292112,34.118377],[-118.292086,34.118368],[-118.292054,34.118336],[-118.292008,34.118252],[-118.29202,34.118212],[-118.292037,34.118195],[-118.292109,34.118174],[-118.292185,34.118185],[-118.292217,34.118214],[-118.292236,34.118258],[-118.292241,34.11829],[-118.292219,34.118338]]]}},{"type":"Feature","properties":{"k":"green"},"geometry":{"type":"Polygon","coordinates":[[[-118.293767,34.120417],[-118.293713,34.120448],[-118.293693,34.120451],[-118.29366,34.120442],[-118.293647,34.120429],[-118.293602,34.12035],[-118.293554,34.120285],[-118.293559,34.120252],[-118.29358,34.120233],[-118.293646,34.120207],[-118.293688,34.120206],[-118.293719,34.120213],[-118.293784,34.120257],[-118.293817,34.120295],[-118.293832,34.120332],[-118.29382,34.120371],[-118.293767,34.120417]]]}},{"type":"Feature","properties":{"k":"bunker"},"geometry":{"type":"Polygon","coordinates":[[[-118.29375,34.120197],[-118.293716,34.120185],[-118.293675,34.120182],[-118.293662,34.120173],[-118.29366,34.120136],[-118.293678,34.120127],[-118.293703,34.120128],[-118.293767,34.120144],[-118.293776,34.12018],[-118.293768,34.120195],[-118.29375,34.120197]]]}},{"type":"Feature","properties":{"k":"bunker"},"geometry":{"type":"Polygon","coordinates":[[[-118.291705,34.119347],[-118.291645,34.119347],[-118.29163,34.119339],[-118.291618,34.119295],[-118.29162,34.119269],[-118.291634,34.119252],[-118.291665,34.119251],[-118.29168,34.119285],[-118.29172,34.119314],[-118.291723,34.119326],[-118.291705,34.119347]]]}},{"type":"Feature","properties":{"k":"bunker"},"geometry":{"type":"Polygon","coordinates":[[[-118.290325,34.12015],[-118.290295,34.120103],[-118.29023,34.120076],[-118.290224,34.120046],[-118.290242,34.120022],[-118.290289,34.12002],[-118.290335,34.120043],[-118.290376,34.120093],[-118.290393,34.120126],[-118.290368,34.120154],[-118.290325,34.12015]]]}},{"type":"Feature","properties":{"k":"bunker"},"geometry":{"type":"Polygon","coordinates":[[[-118.289236,34.121971],[-118.2892,34.121962],[-118.289195,34.12193],[-118.289172,34.121896],[-118.289176,34.121879],[-118.289193,34.121865],[-118.289254,34.121866],[-118.28927,34.121881],[-118.28927,34.121895],[-118.289253,34.121917],[-118.289262,34.121944],[-118.289236,34.121971]]]}},{"type":"Feature","properties":{"k":"bunker"},"geometry":{"type":"Polygon","coordinates":[[[-118.288685,34.120216],[-118.288662,34.120198],[-118.288666,34.120165],[-118.288692,34.120152],[-118.288726,34.120164],[-118.288739,34.120196],[-118.288721,34.120224],[-118.288685,34.120216]]]}},{"type":"Feature","properties":{"k":"green"},"geometry":{"type":"Polygon","coordinates":[[[-118.286788,34.1191],[-118.286723,34.119092],[-118.286674,34.119057],[-118.286657,34.119002],[-118.286689,34.118938],[-118.286724,34.118891],[-118.286778,34.118902],[-118.286814,34.118925],[-118.286841,34.119001],[-118.286852,34.119068],[-118.286822,34.119099],[-118.286788,34.1191]]]}},{"type":"Feature","properties":{"k":"green"},"geometry":{"type":"Polygon","coordinates":[[[-118.288787,34.119193],[-118.288679,34.119169],[-118.288622,34.11912],[-118.28864,34.119069],[-118.288724,34.11904],[-118.288831,34.119059],[-118.288892,34.119104],[-118.288895,34.119161],[-118.288787,34.119193]]]}},{"type":"Feature","properties":{"k":"tee"},"geometry":{"type":"Polygon","coordinates":[[[-118.29273,34.118357],[-118.292668,34.118205],[-118.292545,34.118236],[-118.292605,34.118389],[-118.29273,34.118357]]]}},{"type":"Feature","properties":{"k":"tee"},"geometry":{"type":"Polygon","coordinates":[[[-118.290253,34.121214],[-118.290185,34.121064],[-118.289752,34.121387],[-118.289812,34.121482],[-118.290253,34.121214]]]}},{"type":"Feature","properties":{"k":"tee"},"geometry":{"type":"Polygon","coordinates":[[[-118.288636,34.121528],[-118.288518,34.121466],[-118.288612,34.121359],[-118.288727,34.121432],[-118.288636,34.121528]]]}},{"type":"Feature","properties":{"k":"tee"},"geometry":{"type":"Polygon","coordinates":[[[-118.292248,34.119682],[-118.292222,34.119275],[-118.292071,34.119276],[-118.292086,34.119687],[-118.292248,34.119682]]]}},{"type":"Feature","properties":{"k":"tee"},"geometry":{"type":"Polygon","coordinates":[[[-118.28987,34.119433],[-118.28981,34.119332],[-118.289654,34.119398],[-118.289719,34.1195],[-118.28987,34.119433]]]}},{"type":"Feature","properties":{"k":"tee"},"geometry":{"type":"Polygon","coordinates":[[[-118.287122,34.119059],[-118.287135,34.118957],[-118.286977,34.118933],[-118.28698,34.119061],[-118.287122,34.119059]]]}},{"type":"Feature","properties":{"k":"tee"},"geometry":{"type":"Polygon","coordinates":[[[-118.28813,34.121021],[-118.288053,34.120898],[-118.287928,34.120949],[-118.287999,34.121071],[-118.28813,34.121021]]]}},{"type":"Feature","properties":{"k":"tee"},"geometry":{"type":"Polygon","coordinates":[[[-118.287895,34.120616],[-118.287827,34.120517],[-118.287703,34.120579],[-118.287766,34.120664],[-118.287895,34.120616]]]}},{"type":"Feature","properties":{"k":"tee"},"geometry":{"type":"Polygon","coordinates":[[[-118.2934,34.120481],[-118.293077,34.120451],[-118.293099,34.120318],[-118.293417,34.120353],[-118.2934,34.120481]]]}},{"type":"Feature","properties":{"k":"tee"},"geometry":{"type":"Polygon","coordinates":[[[-118.289341,34.118926],[-118.289331,34.118825],[-118.288801,34.118852],[-118.288805,34.118944],[-118.289341,34.118926]]]}},{"type":"Feature","properties":{"k":"fairway"},"geometry":{"type":"Polygon","coordinates":[[[-118.291695,34.119329],[-118.291769,34.119371],[-118.291872,34.119528],[-118.291881,34.119562],[-118.29187,34.119594],[-118.291822,34.119631],[-118.291767,34.119638],[-118.291729,34.119625],[-118.2917,34.119594],[-118.291624,34.119456],[-118.291608,34.11939],[-118.291509,34.119279],[-118.291397,34.119092],[-118.291287,34.118978],[-118.291194,34.118912],[-118.291092,34.118853],[-118.290944,34.118795],[-118.290818,34.118759],[-118.290687,34.118736],[-118.290541,34.118725],[-118.289962,34.118793],[-118.289734,34.118861],[-118.289708,34.118862],[-118.289693,34.118844],[-118.289704,34.11882],[-118.289833,34.118746],[-118.290164,34.118636],[-118.290371,34.118583],[-118.290734,34.118582],[-118.29091,34.118621],[-118.29113,34.118676],[-118.291212,34.11871],[-118.291289,34.11875],[-118.291376,34.118829],[-118.291495,34.118966],[-118.291528,34.119045],[-118.291558,34.119184],[-118.291602,34.119285],[-118.291658,34.11932],[-118.291695,34.119329]]]}},{"type":"Feature","properties":{"k":"tee"},"geometry":{"type":"Polygon","coordinates":[[[-118.290321,34.119285],[-118.290136,34.119361],[-118.290083,34.119264],[-118.290273,34.11919],[-118.290321,34.119285]]]}},{"type":"Feature","properties":{"k":"fairway"},"geometry":{"type":"Polygon","coordinates":[[[-118.287401,34.120079],[-118.287616,34.120436],[-118.287659,34.120459],[-118.287725,34.120447],[-118.287734,34.12038],[-118.287569,34.119967],[-118.287408,34.119723],[-118.287097,34.119313],[-118.286993,34.119157],[-118.286977,34.119122],[-118.286955,34.119115],[-118.286909,34.119119],[-118.286864,34.119164],[-118.286889,34.119265],[-118.287106,34.119654],[-118.287346,34.119989],[-118.287401,34.120079]]]}},{"type":"Feature","properties":{"k":"bunker"},"geometry":{"type":"Polygon","coordinates":[[[-118.288307,34.119221],[-118.288212,34.119198],[-118.288195,34.119175],[-118.28819,34.119146],[-118.288205,34.119128],[-118.288256,34.119127],[-118.288361,34.119169],[-118.288377,34.1192],[-118.288363,34.119227],[-118.288333,34.119233],[-118.288307,34.119221]]]}},{"type":"Feature","properties":{"k":"bunker"},"geometry":{"type":"Polygon","coordinates":[[[-118.28858,34.119046],[-118.288564,34.119082],[-118.288513,34.119111],[-118.288487,34.119105],[-118.288459,34.11908],[-118.288445,34.119056],[-118.288445,34.119031],[-118.288461,34.11901],[-118.288485,34.119001],[-118.288526,34.118998],[-118.288554,34.119004],[-118.288579,34.119024],[-118.28858,34.119046]]]}},{"type":"Feature","properties":{"k":"fairway"},"geometry":{"type":"Polygon","coordinates":[[[-118.287829,34.118999],[-118.287539,34.11899],[-118.287426,34.118979],[-118.287387,34.11894],[-118.287399,34.118843],[-118.287456,34.118823],[-118.287599,34.118828],[-118.287947,34.118885],[-118.288209,34.118945],[-118.288314,34.118973],[-118.28847,34.119107],[-118.2885,34.119121],[-118.288542,34.119115],[-118.288561,34.119149],[-118.288554,34.119166],[-118.288506,34.119165],[-118.288434,34.119152],[-118.287829,34.118999]]]}},{"type":"Feature","properties":{"k":"bunker"},"geometry":{"type":"Polygon","coordinates":[[[-118.291486,34.118718],[-118.291489,34.118757],[-118.291461,34.118797],[-118.291416,34.11881],[-118.291391,34.118801],[-118.291382,34.118775],[-118.291385,34.118705],[-118.291428,34.118684],[-118.291461,34.118698],[-118.291486,34.118718]]]}},{"type":"Feature","properties":{"k":"bunker"},"geometry":{"type":"Polygon","coordinates":[[[-118.291515,34.119482],[-118.29149,34.119399],[-118.291499,34.119367],[-118.291532,34.119364],[-118.291561,34.119376],[-118.291579,34.119405],[-118.291589,34.119449],[-118.291582,34.119475],[-118.291559,34.119495],[-118.291515,34.119482]]]}},{"type":"Feature","properties":{"k":"bunker"},"geometry":{"type":"Polygon","coordinates":[[[-118.288665,34.119977],[-118.288669,34.120026],[-118.288657,34.120063],[-118.288622,34.120071],[-118.288592,34.120068],[-118.288573,34.120042],[-118.288566,34.120008],[-118.288564,34.119968],[-118.288581,34.119945],[-118.288611,34.11993],[-118.288632,34.119929],[-118.288665,34.119977]]]}}]}