{"type":"FeatureCollection","features":[{"type":"Feature","properties":{"k":"hole","ref":"1","par":4,"hcp":7},"geometry":{"type":"LineString","coordinates":[[-118.198308,34.160717],[-118.198482,34.159689],[-118.198781,34.158757]]}},{"type":"Feature","properties":{"k":"hole","ref":"2","par":3,"hcp":15},"geometry":{"type":"LineString","coordinates":[[-118.199106,34.158162],[-118.200028,34.158054]]}},{"type":"Feature","properties":{"k":"hole","ref":"3","par":4,"hcp":1},"geometry":{"type":"LineString","coordinates":[[-118.20013,34.15772],[-118.201654,34.158283],[-118.203009,34.158363]]}},{"type":"Feature","properties":{"k":"hole","ref":"4","par":3,"hcp":11},"geometry":{"type":"LineString","coordinates":[[-118.202914,34.158679],[-118.201878,34.158751]]}},{"type":"Feature","properties":{"k":"hole","ref":"5","par":3},"geometry":{"type":"LineString","coordinates":[[-118.20145,34.159297],[-118.200955,34.160444]]}},{"type":"Feature","properties":{"k":"hole","ref":"6","par":3,"hcp":13},"geometry":{"type":"LineString","coordinates":[[-118.200395,34.160303],[-118.200567,34.159385]]}},{"type":"Feature","properties":{"k":"hole","ref":"7","par":3,"hcp":17},"geometry":{"type":"LineString","coordinates":[[-118.200383,34.158998],[-118.201186,34.159177]]}},{"type":"Feature","properties":{"k":"hole","ref":"8","par":3,"hcp":9},"geometry":{"type":"LineString","coordinates":[[-118.20155,34.158948],[-118.200456,34.158361]]}},{"type":"Feature","properties":{"k":"hole","ref":"9","par":4,"hcp":5},"geometry":{"type":"LineString","coordinates":[[-118.199255,34.158565],[-118.198982,34.159853],[-118.198856,34.160545]]}},{"type":"Feature","properties":{"k":"hole","ref":"10","par":4,"hcp":8},"geometry":{"type":"LineString","coordinates":[[-118.197674,34.161074],[-118.197749,34.15986],[-118.198024,34.159041]]}},{"type":"Feature","properties":{"k":"hole","ref":"11","par":3,"hcp":18},"geometry":{"type":"LineString","coordinates":[[-118.198281,34.158849],[-118.198742,34.158299]]}},{"type":"Feature","properties":{"k":"hole","ref":"12","par":3,"hcp":10},"geometry":{"type":"LineString","coordinates":[[-118.196951,34.159061],[-118.196291,34.159354]]}},{"type":"Feature","properties":{"k":"hole","ref":"14","par":3,"hcp":4},"geometry":{"type":"LineString","coordinates":[[-118.193864,34.160918],[-118.193918,34.161629]]}},{"type":"Feature","properties":{"k":"hole","ref":"15","par":4,"hcp":6},"geometry":{"type":"LineString","coordinates":[[-118.194449,34.161376],[-118.195958,34.160492],[-118.196451,34.160166]]}},{"type":"Feature","properties":{"k":"hole","ref":"16","par":3,"hcp":16},"geometry":{"type":"LineString","coordinates":[[-118.196647,34.160007],[-118.196977,34.159392]]}},{"type":"Feature","properties":{"k":"hole","ref":"17","par":3,"hcp":12},"geometry":{"type":"LineString","coordinates":[[-118.197122,34.159825],[-118.197062,34.160695]]}},{"type":"Feature","properties":{"k":"hole","ref":"18","par":3,"hcp":14},"geometry":{"type":"LineString","coordinates":[[-118.196518,34.160896],[-118.197369,34.161318]]}},{"type":"Feature","properties":{"k":"path"},"geometry":{"type":"LineString","coordinates":[[-118.198881,34.161217],[-118.198378,34.161182],[-118.197611,34.16115],[-118.197266,34.161071],[-118.196982,34.161068],[-118.196689,34.161031],[-118.196487,34.160988],[-118.196382,34.160941],[-118.196357,34.160919],[-118.196359,34.160879],[-118.196593,34.16075],[-118.196749,34.160618],[-118.196827,34.160481],[-118.196892,34.160309],[-118.196965,34.160073],[-118.197059,34.159869],[-118.197135,34.15962],[-118.197156,34.159457],[-118.197135,34.159243],[-118.197097,34.159202],[-118.197044,34.159187],[-118.196896,34.15923],[-118.196814,34.159306],[-118.196786,34.159416],[-118.196756,34.159653],[-118.196664,34.159804],[-118.196541,34.159931],[-118.196447,34.160002],[-118.196317,34.160063],[-118.196208,34.160137],[-118.195943,34.160335],[-118.195057,34.160823],[-118.194952,34.160896],[-118.194951,34.16097],[-118.194991,34.161079],[-118.195017,34.161186],[-118.194987,34.161204],[-118.194831,34.161125],[-118.194761,34.161123],[-118.194708,34.161176],[-118.194709,34.161242],[-118.194684,34.161293],[-118.194478,34.161428],[-118.194305,34.161487],[-118.194189,34.161503],[-118.194073,34.161496],[-118.193979,34.161403],[-118.193896,34.161258],[-118.19387,34.161149],[-118.193893,34.161032],[-118.193901,34.160925],[-118.193884,34.160803],[-118.1939,34.160736],[-118.193958,34.160709],[-118.194058,34.160743],[-118.194295,34.160808],[-118.19452,34.160859],[-118.194753,34.160898],[-118.194875,34.160908],[-118.194941,34.160852],[-118.194985,34.160793],[-118.195133,34.160679],[-118.19579,34.160244],[-118.195957,34.159967],[-118.196102,34.159848],[-118.196365,34.159662],[-118.196364,34.15963],[-118.196311,34.159599],[-118.196202,34.159609],[-118.196085,34.159591],[-118.196025,34.159502],[-118.196014,34.159406],[-118.19608,34.159278],[-118.196214,34.159186],[-118.196411,34.159111],[-118.19668,34.159046],[-118.196866,34.158984],[-118.197162,34.158944],[-118.19745,34.158669],[-118.197652,34.158424],[-118.197731,34.158392],[-118.197767,34.158392],[-118.197813,34.158426],[-118.197838,34.158494],[-118.197858,34.158628],[-118.197903,34.158658],[-118.197991,34.15865],[-118.198024,34.158609],[-118.198053,34.1585],[-118.198037,34.158234],[-118.198009,34.158054],[-118.198027,34.158014],[-118.198273,34.158191],[-118.19838,34.158299],[-118.198377,34.158443],[-118.198332,34.158642],[-118.198248,34.158809],[-118.198139,34.158856],[-118.197901,34.158922],[-118.197797,34.159008],[-118.197709,34.159171],[-118.19769,34.159289]]}},{"type":"Feature","properties":{"k":"path"},"geometry":{"type":"LineString","coordinates":[[-118.199058,34.160292],[-118.199046,34.160476],[-118.199017,34.160589],[-118.198899,34.160758],[-118.19882,34.160887],[-118.198739,34.160919],[-118.19847,34.160911],[-118.198424,34.160939],[-118.198396,34.16098],[-118.198337,34.160971],[-118.19827,34.160943],[-118.198202,34.160879],[-118.198202,34.160792],[-118.198247,34.160557]]}},{"type":"Feature","properties":{"k":"path"},"geometry":{"type":"LineString","coordinates":[[-118.198227,34.160658],[-118.198141,34.160522],[-118.198114,34.160459],[-118.198117,34.160379],[-118.198186,34.160093],[-118.198244,34.159758],[-118.198307,34.159513],[-118.198453,34.159127],[-118.198546,34.158967],[-118.198597,34.158781],[-118.198676,34.158666],[-118.19882,34.158528],[-118.199091,34.158294],[-118.199304,34.158199],[-118.199483,34.158083],[-118.199562,34.158023],[-118.199718,34.15784],[-118.199776,34.157795],[-118.199838,34.157763],[-118.199929,34.157756],[-118.200032,34.157765],[-118.200154,34.157812],[-118.200468,34.157908]]}},{"type":"Feature","properties":{"k":"path"},"geometry":{"type":"LineString","coordinates":[[-118.199058,34.160292],[-118.199094,34.160069],[-118.199141,34.159897],[-118.199199,34.159765],[-118.199242,34.159632],[-118.199283,34.159375],[-118.19929,34.159275],[-118.19927,34.159216],[-118.199278,34.159009],[-118.199156,34.15877],[-118.19917,34.158564],[-118.199187,34.158462],[-118.199244,34.158413],[-118.199332,34.158401],[-118.199525,34.158413],[-118.199738,34.158413],[-118.199958,34.158362],[-118.200058,34.158362],[-118.200137,34.158406],[-118.200223,34.158542],[-118.200311,34.158575],[-118.200604,34.15859],[-118.201011,34.158772],[-118.201519,34.159019],[-118.201521,34.159067],[-118.201423,34.159118],[-118.201324,34.159267],[-118.201215,34.159361],[-118.201097,34.1594],[-118.200996,34.159409],[-118.200928,34.159375],[-118.200824,34.159257],[-118.200674,34.159134],[-118.200547,34.15911],[-118.200367,34.15909],[-118.200315,34.159116],[-118.200298,34.159163],[-118.200276,34.159242],[-118.200254,34.159371],[-118.20027,34.159495],[-118.200343,34.159679],[-118.200437,34.15983],[-118.200525,34.160009],[-118.200544,34.160115],[-118.200508,34.160323],[-118.200529,34.160451],[-118.20069,34.160556],[-118.200869,34.160636],[-118.20102,34.160634],[-118.201152,34.16055],[-118.201213,34.160454],[-118.201232,34.160294],[-118.201434,34.159473],[-118.201513,34.159278],[-118.20161,34.15911],[-118.201733,34.159015],[-118.201855,34.158956],[-118.202013,34.158944],[-118.202123,34.158874],[-118.202276,34.1588],[-118.202439,34.158747],[-118.202566,34.15867],[-118.202637,34.158612],[-118.202922,34.158598],[-118.203069,34.158598],[-118.20313,34.158517],[-118.20313,34.158417],[-118.2031,34.158331],[-118.20305,34.158283],[-118.202941,34.158245],[-118.202697,34.158227],[-118.202555,34.158238]]}},{"type":"Feature","properties":{"k":"path"},"geometry":{"type":"LineString","coordinates":[[-118.197776,34.161157],[-118.197748,34.16078],[-118.197703,34.160705],[-118.197653,34.160658],[-118.197614,34.160607],[-118.197611,34.160508]]}},{"type":"Feature","properties":{"k":"range"},"geometry":{"type":"Polygon","coordinates":[[[-118.200213,34.160699],[-118.20019,34.160417],[-118.200187,34.160196],[-118.20021,34.158961],[-118.200222,34.158675],[-118.199888,34.158449],[-118.199466,34.158502],[-118.199354,34.159214],[-118.199255,34.159757],[-118.199205,34.160095],[-118.199081,34.160759],[-118.19954,34.160806],[-118.199813,34.160814],[-118.200107,34.160794],[-118.200213,34.160699]]]}},{"type":"Feature","properties":{"k":"tee"},"geometry":{"type":"Polygon","coordinates":[[[-118.198383,34.160889],[-118.198384,34.160837],[-118.198365,34.16081],[-118.198332,34.160801],[-118.198285,34.160795],[-118.19825,34.160823],[-118.198229,34.160863],[-118.19826,34.160905],[-118.198303,34.16093],[-118.198348,34.160921],[-118.198383,34.160889]]]}},{"type":"Feature","properties":{"k":"tee"},"geometry":{"type":"Polygon","coordinates":[[[-118.198373,34.160655],[-118.198366,34.16074],[-118.198339,34.160756],[-118.1983,34.160752],[-118.198271,34.160737],[-118.198268,34.160645],[-118.198276,34.160602],[-118.198296,34.160585],[-118.198318,34.160581],[-118.198345,34.160589],[-118.198372,34.160612],[-118.198373,34.160655]]]}},{"type":"Feature","properties":{"k":"green"},"geometry":{"type":"Polygon","coordinates":[[[-118.198917,34.158841],[-118.198937,34.158828],[-118.198949,34.158767],[-118.198929,34.158731],[-118.198894,34.158709],[-118.198851,34.158695],[-118.198783,34.158701],[-118.198728,34.158716],[-118.198688,34.158751],[-118.19866,34.158796],[-118.198654,34.158833],[-118.198664,34.158863],[-118.198703,34.158881],[-118.198917,34.158841]]]}},{"type":"Feature","properties":{"k":"bunker"},"geometry":{"type":"Polygon","coordinates":[[[-118.198944,34.158926],[-118.198958,34.158896],[-118.198941,34.158885],[-118.198852,34.158887],[-118.198831,34.1589],[-118.198826,34.158926],[-118.198845,34.159002],[-118.198834,34.159045],[-118.19884,34.159075],[-118.198865,34.159088],[-118.198905,34.159062],[-118.198912,34.159036],[-118.198896,34.158988],[-118.198892,34.15894],[-118.198944,34.158926]]]}},{"type":"Feature","properties":{"k":"tee"},"geometry":{"type":"Polygon","coordinates":[[[-118.19927,34.158174],[-118.199225,34.158209],[-118.199146,34.158234],[-118.199074,34.158228],[-118.199025,34.158213],[-118.199008,34.158183],[-118.199037,34.158121],[-118.199088,34.158094],[-118.199155,34.158085],[-118.199225,34.158098],[-118.199261,34.158124],[-118.19927,34.158174]]]}},{"type":"Feature","properties":{"k":"green"},"geometry":{"type":"Polygon","coordinates":[[[-118.200187,34.158082],[-118.200173,34.158054],[-118.200135,34.158026],[-118.200077,34.157987],[-118.200037,34.157978],[-118.199982,34.157985],[-118.19991,34.158017],[-118.199873,34.158064],[-118.199873,34.158089],[-118.1999,34.158113],[-118.199937,34.15812],[-118.200022,34.158118],[-118.200109,34.158136],[-118.200152,34.158136],[-118.200179,34.158115],[-118.200187,34.158082]]]}},{"type":"Feature","properties":{"k":"bunker"},"geometry":{"type":"Polygon","coordinates":[[[-118.200075,34.158187],[-118.200067,34.158167],[-118.200043,34.158155],[-118.199978,34.158154],[-118.199963,34.15817],[-118.199966,34.158186],[-118.199984,34.158199],[-118.20002,34.158198],[-118.200043,34.158206],[-118.200061,34.158202],[-118.200075,34.158187]]]}},{"type":"Feature","properties":{"k":"bunker"},"geometry":{"type":"Polygon","coordinates":[[[-118.199938,34.157921],[-118.199947,34.15794],[-118.199936,34.157966],[-118.199881,34.157982],[-118.199822,34.158009],[-118.199798,34.157996],[-118.199794,34.157979],[-118.199825,34.1579],[-118.199852,34.157894],[-118.199877,34.157906],[-118.199891,34.157924],[-118.199938,34.157921]]]}},{"type":"Feature","properties":{"k":"tee"},"geometry":{"type":"Polygon","coordinates":[[[-118.200383,34.15779],[-118.200347,34.157747],[-118.200232,34.157707],[-118.200067,34.157637],[-118.20004,34.157631],[-118.19999,34.15765],[-118.199974,34.157674],[-118.19999,34.157714],[-118.200044,34.157745],[-118.200173,34.157798],[-118.20034,34.15785],[-118.20037,34.157841],[-118.200384,34.157823],[-118.200383,34.15779]]]}},{"type":"Feature","properties":{"k":"green"},"geometry":{"type":"Polygon","coordinates":[[[-118.20303,34.158513],[-118.203059,34.15851],[-118.20308,34.158498],[-118.203099,34.158472],[-118.203105,34.158434],[-118.203091,34.158396],[-118.203065,34.158357],[-118.203018,34.158323],[-118.202967,34.158304],[-118.202886,34.158287],[-118.20282,34.158288],[-118.202808,34.158304],[-118.202809,34.158341],[-118.202839,34.158363],[-118.202924,34.158382],[-118.202963,34.158403],[-118.20298,34.158432],[-118.202991,34.158488],[-118.20303,34.158513]]]}},{"type":"Feature","properties":{"k":"bunker"},"geometry":{"type":"Polygon","coordinates":[[[-118.202911,34.158522],[-118.202925,34.158466],[-118.20291,34.158428],[-118.202869,34.15841],[-118.202819,34.15841],[-118.202795,34.158439],[-118.202818,34.15846],[-118.202855,34.158465],[-118.202857,34.158476],[-118.202837,34.158509],[-118.202845,34.158528],[-118.202887,34.158537],[-118.202911,34.158522]]]}},{"type":"Feature","properties":{"k":"bunker"},"geometry":{"type":"Polygon","coordinates":[[[-118.202428,34.158442],[-118.202409,34.158458],[-118.202268,34.158525],[-118.202241,34.158515],[-118.202209,34.158489],[-118.202188,34.15846],[-118.202182,34.158435],[-118.202205,34.158416],[-118.202231,34.158416],[-118.202265,34.158428],[-118.202294,34.158458],[-118.202311,34.158452],[-118.20234,34.158419],[-118.202359,34.158411],[-118.202398,34.158411],[-118.202425,34.158421],[-118.202428,34.158442]]]}},{"type":"Feature","properties":{"k":"bunker"},"geometry":{"type":"Polygon","coordinates":[[[-118.202141,34.158641],[-118.202105,34.158666],[-118.202074,34.158668],[-118.201979,34.158653],[-118.201926,34.158631],[-118.201899,34.15858],[-118.201892,34.158537],[-118.201906,34.158519],[-118.201926,34.158515],[-118.201958,34.158537],[-118.201958,34.158581],[-118.201974,34.158583],[-118.201995,34.158555],[-118.20204,34.158552],[-118.202058,34.158579],[-118.202037,34.158608],[-118.202043,34.158622],[-118.202072,34.158629],[-118.20209,34.158597],[-118.202136,34.158598],[-118.202147,34.15862],[-118.202141,34.158641]]]}},{"type":"Feature","properties":{"k":"bunker"},"geometry":{"type":"Polygon","coordinates":[[[-118.201868,34.158627],[-118.201865,34.158552],[-118.201856,34.158531],[-118.20182,34.158502],[-118.201803,34.158462],[-118.201773,34.158453],[-118.201734,34.15846],[-118.201722,34.158487],[-118.201726,34.158511],[-118.201788,34.158561],[-118.201791,34.158586],[-118.201774,34.158618],[-118.201783,34.158638],[-118.201804,34.158656],[-118.20184,34.158657],[-118.201868,34.158627]]]}},{"type":"Feature","properties":{"k":"bunker"},"geometry":{"type":"Polygon","coordinates":[[[-118.201967,34.158148],[-118.201946,34.158171],[-118.20189,34.158182],[-118.201869,34.158191],[-118.201857,34.158206],[-118.201834,34.158206],[-118.201818,34.158198],[-118.201789,34.158162],[-118.201762,34.15815],[-118.201748,34.158135],[-118.201754,34.158115],[-118.201783,34.158099],[-118.201809,34.158099],[-118.201846,34.158138],[-118.201922,34.158119],[-118.201957,34.158128],[-118.201967,34.158148]]]}},{"type":"Feature","properties":{"k":"tee"},"geometry":{"type":"Polygon","coordinates":[[[-118.203089,34.158727],[-118.203047,34.158759],[-118.20282,34.158748],[-118.202693,34.158733],[-118.202668,34.158713],[-118.20266,34.158678],[-118.202675,34.158651],[-118.203032,34.158665],[-118.203079,34.158679],[-118.203094,34.158694],[-118.203089,34.158727]]]}},{"type":"Feature","properties":{"k":"green"},"geometry":{"type":"Polygon","coordinates":[[[-118.202061,34.15877],[-118.202042,34.158789],[-118.201946,34.15883],[-118.201897,34.15888],[-118.201867,34.158882],[-118.201818,34.158866],[-118.201784,34.158825],[-118.201774,34.15879],[-118.201781,34.158761],[-118.201811,34.158721],[-118.201879,34.158687],[-118.201945,34.158683],[-118.202039,34.158714],[-118.202057,34.158731],[-118.202061,34.15877]]]}},{"type":"Feature","properties":{"k":"bunker"},"geometry":{"type":"Polygon","coordinates":[[[-118.202069,34.15885],[-118.202066,34.158865],[-118.202048,34.158879],[-118.202008,34.158882],[-118.201969,34.158908],[-118.201951,34.158907],[-118.201944,34.158877],[-118.201994,34.158836],[-118.202048,34.158831],[-118.202069,34.15885]]]}},{"type":"Feature","properties":{"k":"tee"},"geometry":{"type":"Polygon","coordinates":[[[-118.201537,34.159188],[-118.201436,34.159399],[-118.201392,34.159407],[-118.201385,34.159366],[-118.20146,34.159177],[-118.201489,34.159164],[-118.20151,34.159167],[-118.201537,34.159188]]]}},{"type":"Feature","properties":{"k":"green"},"geometry":{"type":"Polygon","coordinates":[[[-118.201049,34.160397],[-118.201055,34.160487],[-118.201041,34.160526],[-118.20102,34.160544],[-118.200975,34.160558],[-118.20093,34.160561],[-118.200875,34.160559],[-118.200849,34.160539],[-118.200834,34.160502],[-118.200837,34.160479],[-118.20089,34.160426],[-118.200944,34.160358],[-118.200977,34.160342],[-118.20102,34.160355],[-118.201049,34.160397]]]}},{"type":"Feature","properties":{"k":"bunker"},"geometry":{"type":"Polygon","coordinates":[[[-118.201183,34.160401],[-118.201179,34.160424],[-118.201154,34.160454],[-118.201154,34.160488],[-118.201107,34.1605],[-118.201097,34.160488],[-118.201094,34.160357],[-118.201119,34.160349],[-118.201183,34.160401]]]}},{"type":"Feature","properties":{"k":"bunker"},"geometry":{"type":"Polygon","coordinates":[[[-118.200903,34.16033],[-118.200862,34.160404],[-118.2008,34.160443],[-118.200755,34.16041],[-118.200757,34.160387],[-118.200769,34.160367],[-118.200813,34.16037],[-118.200872,34.160299],[-118.200898,34.16031],[-118.200903,34.16033]]]}},{"type":"Feature","properties":{"k":"tee"},"geometry":{"type":"Polygon","coordinates":[[[-118.200478,34.160398],[-118.200464,34.160456],[-118.200438,34.160477],[-118.20039,34.160472],[-118.200372,34.160464],[-118.200347,34.160394],[-118.200344,34.160303],[-118.200368,34.160194],[-118.200391,34.160172],[-118.200467,34.160155],[-118.200503,34.160176],[-118.20051,34.160229],[-118.200478,34.160398]]]}},{"type":"Feature","properties":{"k":"green"},"geometry":{"type":"Polygon","coordinates":[[[-118.200703,34.15939],[-118.200695,34.159414],[-118.200666,34.159439],[-118.200609,34.15947],[-118.200592,34.159498],[-118.20057,34.159506],[-118.200526,34.159508],[-118.200503,34.159482],[-118.200452,34.159367],[-118.200451,34.15934],[-118.200465,34.159325],[-118.20049,34.159314],[-118.200517,34.159314],[-118.200609,34.159348],[-118.200639,34.159339],[-118.200665,34.159345],[-118.200693,34.159363],[-118.200703,34.15939]]]}},{"type":"Feature","properties":{"k":"bunker"},"geometry":{"type":"Polygon","coordinates":[[[-118.20078,34.159488],[-118.200801,34.159532],[-118.200792,34.159551],[-118.200773,34.159557],[-118.200729,34.159526],[-118.200688,34.15954],[-118.200662,34.15954],[-118.200639,34.159517],[-118.200641,34.159496],[-118.200661,34.159477],[-118.200712,34.159458],[-118.200766,34.159418],[-118.20079,34.159424],[-118.200805,34.159441],[-118.20078,34.159488]]]}},{"type":"Feature","properties":{"k":"bunker"},"geometry":{"type":"Polygon","coordinates":[[[-118.200441,34.159502],[-118.200448,34.159482],[-118.200442,34.15945],[-118.2004,34.159365],[-118.200368,34.159347],[-118.20031,34.159354],[-118.2003,34.159378],[-118.200312,34.159399],[-118.200365,34.159432],[-118.200373,34.159449],[-118.200355,34.159475],[-118.200349,34.159508],[-118.200372,34.159526],[-118.200408,34.159528],[-118.200441,34.159502]]]}},{"type":"Feature","properties":{"k":"tee"},"geometry":{"type":"Polygon","coordinates":[[[-118.200468,34.159032],[-118.200453,34.159059],[-118.200423,34.159065],[-118.200374,34.159044],[-118.20035,34.159023],[-118.20036,34.158952],[-118.200399,34.158942],[-118.200451,34.158955],[-118.200474,34.158987],[-118.200468,34.159032]]]}},{"type":"Feature","properties":{"k":"tee"},"geometry":{"type":"Polygon","coordinates":[[[-118.200654,34.159036],[-118.200603,34.159082],[-118.200564,34.159087],[-118.200525,34.15907],[-118.200508,34.159048],[-118.20051,34.159016],[-118.200529,34.158991],[-118.20056,34.158978],[-118.200599,34.15898],[-118.200641,34.159003],[-118.200654,34.159036]]]}},{"type":"Feature","properties":{"k":"green"},"geometry":{"type":"Polygon","coordinates":[[[-118.201295,34.159247],[-118.201304,34.159219],[-118.201303,34.159188],[-118.201275,34.159168],[-118.201233,34.159163],[-118.201168,34.159169],[-118.20107,34.159109],[-118.201026,34.159105],[-118.200993,34.159141],[-118.200992,34.159179],[-118.201021,34.159225],[-118.201075,34.159246],[-118.201196,34.159287],[-118.201246,34.159284],[-118.201273,34.159273],[-118.201295,34.159247]]]}},{"type":"Feature","properties":{"k":"bunker"},"geometry":{"type":"Polygon","coordinates":[[[-118.201143,34.159309],[-118.201131,34.159292],[-118.201002,34.159248],[-118.200962,34.159203],[-118.200939,34.1592],[-118.200919,34.159207],[-118.200954,34.159268],[-118.20093,34.159304],[-118.200932,34.159318],[-118.200949,34.159334],[-118.200987,34.15934],[-118.201035,34.15931],[-118.201061,34.159307],[-118.201109,34.159328],[-118.201132,34.159329],[-118.201143,34.159309]]]}},{"type":"Feature","properties":{"k":"bunker"},"geometry":{"type":"Polygon","coordinates":[[[-118.201236,34.159123],[-118.201202,34.159147],[-118.201154,34.159131],[-118.201144,34.159107],[-118.201153,34.159093],[-118.201177,34.159084],[-118.201213,34.159088],[-118.201234,34.159106],[-118.201236,34.159123]]]}},{"type":"Feature","properties":{"k":"tee"},"geometry":{"type":"Polygon","coordinates":[[[-118.201644,34.159025],[-118.20166,34.159007],[-118.201648,34.15898],[-118.201577,34.158926],[-118.201423,34.158841],[-118.20135,34.158811],[-118.20132,34.158812],[-118.20129,34.158827],[-118.201282,34.158856],[-118.201357,34.158918],[-118.201613,34.159037],[-118.201644,34.159025]]]}},{"type":"Feature","properties":{"k":"green"},"geometry":{"type":"Polygon","coordinates":[[[-118.200702,34.158454],[-118.200707,34.158443],[-118.200689,34.158388],[-118.200646,34.158371],[-118.200554,34.158359],[-118.200516,34.158339],[-118.20047,34.158278],[-118.20037,34.158284],[-118.200323,34.158314],[-118.200339,34.158394],[-118.20037,34.158422],[-118.20047,34.15844],[-118.200562,34.158496],[-118.2006,34.158507],[-118.200651,34.158496],[-118.200691,34.158477],[-118.200702,34.158454]]]}},{"type":"Feature","properties":{"k":"bunker"},"geometry":{"type":"Polygon","coordinates":[[[-118.200463,34.158537],[-118.200485,34.158521],[-118.200486,34.158503],[-118.200474,34.158484],[-118.200395,34.158466],[-118.200326,34.158483],[-118.200309,34.158509],[-118.200319,34.15853],[-118.200346,34.158544],[-118.200404,34.158532],[-118.200463,34.158537]]]}},{"type":"Feature","properties":{"k":"tee"},"geometry":{"type":"Polygon","coordinates":[[[-118.199295,34.158787],[-118.199308,34.15873],[-118.199335,34.158492],[-118.199313,34.158457],[-118.199252,34.158448],[-118.199209,34.158498],[-118.199192,34.158647],[-118.199193,34.158713],[-118.199222,34.158795],[-118.199266,34.158818],[-118.199295,34.158787]]]}},{"type":"Feature","properties":{"k":"bunker"},"geometry":{"type":"Polygon","coordinates":[[[-118.198909,34.160113],[-118.198889,34.160075],[-118.198876,34.160024],[-118.19885,34.160001],[-118.198802,34.160013],[-118.198786,34.160031],[-118.198797,34.160058],[-118.198826,34.160091],[-118.198823,34.16011],[-118.198785,34.160094],[-118.198744,34.160111],[-118.198747,34.16014],[-118.198778,34.160181],[-118.198781,34.160205],[-118.198795,34.160229],[-118.198814,34.160242],[-118.198829,34.160232],[-118.198837,34.160213],[-118.198837,34.160187],[-118.198909,34.160113]]]}},{"type":"Feature","properties":{"k":"bunker"},"geometry":{"type":"Polygon","coordinates":[[[-118.198864,34.160394],[-118.198821,34.160419],[-118.198724,34.160406],[-118.198703,34.160412],[-118.198686,34.160429],[-118.198697,34.160463],[-118.198693,34.160472],[-118.198665,34.160482],[-118.198646,34.160501],[-118.198628,34.160549],[-118.198661,34.160568],[-118.198684,34.16057],[-118.198739,34.160512],[-118.198884,34.160441],[-118.198891,34.160406],[-118.198864,34.160394]]]}},{"type":"Feature","properties":{"k":"green"},"geometry":{"type":"Polygon","coordinates":[[[-118.19899,34.160516],[-118.198979,34.160538],[-118.19886,34.160649],[-118.198787,34.160661],[-118.198762,34.160648],[-118.198743,34.160626],[-118.198734,34.16059],[-118.198744,34.160565],[-118.198779,34.160525],[-118.19883,34.160506],[-118.198881,34.160473],[-118.198942,34.160455],[-118.198969,34.160459],[-118.198997,34.160477],[-118.19899,34.160516]]]}},{"type":"Feature","properties":{"k":"bunker"},"geometry":{"type":"Polygon","coordinates":[[[-118.198872,34.160358],[-118.198828,34.160391],[-118.198809,34.160396],[-118.198746,34.160375],[-118.19872,34.160355],[-118.19874,34.160319],[-118.198735,34.160274],[-118.198744,34.160263],[-118.198766,34.160257],[-118.198787,34.160268],[-118.198803,34.160303],[-118.198818,34.160318],[-118.198846,34.160323],[-118.198872,34.160358]]]}},{"type":"Feature","properties":{"k":"tee"},"geometry":{"type":"Polygon","coordinates":[[[-118.197723,34.161082],[-118.197729,34.161057],[-118.197709,34.161036],[-118.197676,34.161026],[-118.197632,34.161038],[-118.197614,34.16107],[-118.197613,34.1611],[-118.197637,34.161119],[-118.197672,34.161119],[-118.197723,34.161082]]]}},{"type":"Feature","properties":{"k":"tee"},"geometry":{"type":"Polygon","coordinates":[[[-118.197773,34.161001],[-118.197781,34.160941],[-118.197707,34.160932],[-118.197661,34.160946],[-118.197624,34.160982],[-118.197629,34.161001],[-118.197652,34.161017],[-118.197723,34.161017],[-118.197772,34.161026],[-118.197773,34.161001]]]}},{"type":"Feature","properties":{"k":"green"},"geometry":{"type":"Polygon","coordinates":[[[-118.198184,34.159139],[-118.198135,34.159023],[-118.1981,34.158996],[-118.198005,34.15898],[-118.197926,34.158984],[-118.197886,34.159012],[-118.197867,34.15905],[-118.197892,34.159099],[-118.197975,34.159111],[-118.198018,34.159126],[-118.198078,34.159173],[-118.198114,34.159187],[-118.198173,34.159164],[-118.198184,34.159139]]]}},{"type":"Feature","properties":{"k":"bunker"},"geometry":{"type":"Polygon","coordinates":[[[-118.198071,34.159284],[-118.198118,34.159283],[-118.198137,34.159268],[-118.198135,34.159242],[-118.198065,34.15922],[-118.198012,34.159163],[-118.197982,34.159145],[-118.197958,34.159143],[-118.197946,34.159157],[-118.197951,34.159184],[-118.197979,34.159206],[-118.197952,34.15922],[-118.197941,34.159235],[-118.197968,34.159273],[-118.197926,34.159282],[-118.197919,34.159306],[-118.197936,34.159321],[-118.198001,34.159318],[-118.19802,34.159363],[-118.198034,34.159374],[-118.198058,34.159372],[-118.198073,34.15936],[-118.198076,34.159342],[-118.198063,34.159292],[-118.198071,34.159284]]]}},{"type":"Feature","properties":{"k":"tee"},"geometry":{"type":"Polygon","coordinates":[[[-118.198444,34.158726],[-118.198402,34.1588],[-118.198319,34.158901],[-118.19828,34.15891],[-118.198243,34.158877],[-118.198272,34.15882],[-118.198375,34.15867],[-118.198401,34.158656],[-118.19844,34.158682],[-118.198444,34.158726]]]}},{"type":"Feature","properties":{"k":"green"},"geometry":{"type":"Polygon","coordinates":[[[-118.198941,34.158305],[-118.198929,34.158329],[-118.198894,34.158353],[-118.198665,34.158363],[-118.198613,34.15836],[-118.198581,34.158344],[-118.198566,34.158304],[-118.198584,34.158274],[-118.198618,34.158252],[-118.198868,34.158251],[-118.198916,34.15827],[-118.198941,34.158305]]]}},{"type":"Feature","properties":{"k":"bunker"},"geometry":{"type":"Polygon","coordinates":[[[-118.198774,34.158417],[-118.198778,34.158397],[-118.198756,34.158378],[-118.198729,34.158378],[-118.198703,34.158389],[-118.198699,34.158408],[-118.198716,34.158425],[-118.19874,34.158431],[-118.198774,34.158417]]]}},{"type":"Feature","properties":{"k":"tee"},"geometry":{"type":"Polygon","coordinates":[[[-118.196993,34.159098],[-118.197007,34.159075],[-118.197006,34.159048],[-118.196982,34.159023],[-118.196943,34.159012],[-118.196906,34.159023],[-118.196884,34.159059],[-118.196903,34.159095],[-118.196935,34.159109],[-118.196993,34.159098]]]}},{"type":"Feature","properties":{"k":"green"},"geometry":{"type":"Polygon","coordinates":[[[-118.196437,34.159328],[-118.196426,34.159361],[-118.196392,34.159392],[-118.196288,34.15941],[-118.196198,34.159465],[-118.196168,34.159467],[-118.196146,34.159459],[-118.196137,34.159409],[-118.196156,34.159385],[-118.196299,34.159283],[-118.196357,34.159277],[-118.196408,34.159283],[-118.196433,34.159307],[-118.196437,34.159328]]]}},{"type":"Feature","properties":{"k":"bunker"},"geometry":{"type":"Polygon","coordinates":[[[-118.19654,34.159177],[-118.196523,34.15916],[-118.196508,34.159159],[-118.196482,34.159166],[-118.196445,34.159217],[-118.196429,34.159217],[-118.196373,34.159191],[-118.19634,34.159218],[-118.196361,34.159239],[-118.196443,34.159272],[-118.196459,34.159272],[-118.196501,34.159251],[-118.196538,34.159197],[-118.19654,34.159177]]]}},{"type":"Feature","properties":{"k":"tee"},"geometry":{"type":"Polygon","coordinates":[[[-118.196491,34.159739],[-118.196287,34.159871],[-118.196258,34.159882],[-118.196226,34.159877],[-118.196205,34.159859],[-118.196205,34.159818],[-118.196236,34.159784],[-118.196387,34.159691],[-118.196451,34.159665],[-118.196486,34.159672],[-118.196498,34.159698],[-118.196491,34.159739]]]}},{"type":"Feature","properties":{"k":"tee"},"geometry":{"type":"Polygon","coordinates":[[[-118.196156,34.159939],[-118.196134,34.159973],[-118.196104,34.159983],[-118.196065,34.159977],[-118.196048,34.15996],[-118.196048,34.159931],[-118.196096,34.159894],[-118.196152,34.159912],[-118.196156,34.159939]]]}},{"type":"Feature","properties":{"k":"fairway"},"geometry":{"type":"Polygon","coordinates":[[[-118.195806,34.160184],[-118.195695,34.16029],[-118.19532,34.160527],[-118.194935,34.160786],[-118.19481,34.160768],[-118.194755,34.160737],[-118.194786,34.160674],[-118.194983,34.160545],[-118.195097,34.16048],[-118.195413,34.160338],[-118.195517,34.160265],[-118.195608,34.160174],[-118.195654,34.160103],[-118.195684,34.160016],[-118.195753,34.159959],[-118.195875,34.159957],[-118.19592,34.159997],[-118.195806,34.160184]]]}},{"type":"Feature","properties":{"k":"green"},"geometry":{"type":"Polygon","coordinates":[[[-118.194298,34.1607],[-118.194288,34.160672],[-118.194191,34.160535],[-118.19415,34.160529],[-118.194092,34.160556],[-118.194055,34.160589],[-118.194043,34.160621],[-118.194057,34.160652],[-118.19418,34.160728],[-118.194232,34.160745],[-118.194293,34.160723],[-118.194298,34.1607]]]}},{"type":"Feature","properties":{"k":"bunker"},"geometry":{"type":"Polygon","coordinates":[[[-118.194311,34.160591],[-118.194318,34.160609],[-118.194306,34.160627],[-118.194293,34.160626],[-118.194264,34.16058],[-118.194282,34.160572],[-118.194311,34.160591]]]}},{"type":"Feature","properties":{"k":"tee"},"geometry":{"type":"Polygon","coordinates":[[[-118.194901,34.160831],[-118.194902,34.160845],[-118.194876,34.160863],[-118.194812,34.160874],[-118.194785,34.160858],[-118.194727,34.160856],[-118.194687,34.160844],[-118.194674,34.160826],[-118.194683,34.160806],[-118.19471,34.160803],[-118.19474,34.160817],[-118.194798,34.160808],[-118.194825,34.160831],[-118.194864,34.160812],[-118.19489,34.160817],[-118.194901,34.160831]]]}},{"type":"Feature","properties":{"k":"tee"},"geometry":{"type":"Polygon","coordinates":[[[-118.193856,34.1612],[-118.193864,34.161098],[-118.193888,34.160971],[-118.193888,34.160914],[-118.19388,34.160854],[-118.19384,34.160767],[-118.193818,34.160779],[-118.193798,34.160814],[-118.193808,34.160856],[-118.193838,34.160899],[-118.193846,34.160949],[-118.193828,34.161004],[-118.193788,34.161078],[-118.19374,34.161134],[-118.193742,34.161184],[-118.193763,34.161207],[-118.19382,34.161219],[-118.193856,34.1612]]]}},{"type":"Feature","properties":{"k":"green"},"geometry":{"type":"Polygon","coordinates":[[[-118.194042,34.161608],[-118.194035,34.161572],[-118.194014,34.161548],[-118.193971,34.161535],[-118.193929,34.16155],[-118.193888,34.161586],[-118.193794,34.161633],[-118.193759,34.161672],[-118.193762,34.161712],[-118.19379,34.16173],[-118.19383,34.161737],[-118.193894,34.161686],[-118.193939,34.16166],[-118.194027,34.161635],[-118.194042,34.161608]]]}},{"type":"Feature","properties":{"k":"tee"},"geometry":{"type":"Polygon","coordinates":[[[-118.194439,34.161433],[-118.194464,34.161424],[-118.194565,34.161352],[-118.194599,34.161303],[-118.194591,34.161276],[-118.19457,34.161265],[-118.19454,34.161271],[-118.194487,34.161303],[-118.194427,34.161362],[-118.194379,34.161416],[-118.194384,34.161432],[-118.194408,34.161438],[-118.194439,34.161433]]]}},{"type":"Feature","properties":{"k":"tee"},"geometry":{"type":"Polygon","coordinates":[[[-118.194875,34.161266],[-118.194874,34.161245],[-118.19484,34.161194],[-118.19481,34.161177],[-118.194777,34.161171],[-118.194746,34.161188],[-118.194748,34.161228],[-118.194772,34.161273],[-118.194799,34.1613],[-118.194836,34.161305],[-118.194875,34.161266]]]}},{"type":"Feature","properties":{"k":"green"},"geometry":{"type":"Polygon","coordinates":[[[-118.196523,34.160222],[-118.196479,34.160264],[-118.19642,34.160302],[-118.196345,34.160313],[-118.196317,34.16028],[-118.196319,34.160243],[-118.196391,34.160156],[-118.196424,34.160128],[-118.196466,34.16011],[-118.196525,34.160114],[-118.19655,34.160142],[-118.19654,34.160204],[-118.196523,34.160222]]]}},{"type":"Feature","properties":{"k":"bunker"},"geometry":{"type":"Polygon","coordinates":[[[-118.196539,34.160305],[-118.19648,34.160371],[-118.196421,34.160379],[-118.196352,34.160412],[-118.196332,34.160412],[-118.196324,34.160389],[-118.196334,34.16037],[-118.196446,34.160333],[-118.1965,34.160278],[-118.19653,34.160279],[-118.196542,34.16029],[-118.196539,34.160305]]]}},{"type":"Feature","properties":{"k":"bunker"},"geometry":{"type":"Polygon","coordinates":[[[-118.196458,34.160411],[-118.196445,34.160445],[-118.196398,34.160485],[-118.196262,34.160565],[-118.196217,34.160583],[-118.196178,34.160584],[-118.196152,34.160573],[-118.196147,34.160541],[-118.196173,34.160529],[-118.19622,34.160529],[-118.196236,34.160514],[-118.196242,34.160456],[-118.196262,34.16044],[-118.196345,34.160455],[-118.196373,34.160449],[-118.196435,34.160395],[-118.196458,34.160411]]]}},{"type":"Feature","properties":{"k":"tee"},"geometry":{"type":"Polygon","coordinates":[[[-118.196708,34.160038],[-118.196685,34.16006],[-118.196635,34.160054],[-118.196613,34.160043],[-118.1966,34.160025],[-118.196609,34.159995],[-118.196634,34.159977],[-118.196671,34.159981],[-118.196712,34.160001],[-118.196708,34.160038]]]}},{"type":"Feature","properties":{"k":"tee"},"geometry":{"type":"Polygon","coordinates":[[[-118.196823,34.15989],[-118.196817,34.159922],[-118.196786,34.159944],[-118.196749,34.159945],[-118.19672,34.159928],[-118.196696,34.159892],[-118.196702,34.159858],[-118.196754,34.159846],[-118.196793,34.159853],[-118.196823,34.15989]]]}},{"type":"Feature","properties":{"k":"green"},"geometry":{"type":"Polygon","coordinates":[[[-118.19707,34.159303],[-118.197065,34.159376],[-118.197036,34.159489],[-118.197009,34.159538],[-118.196964,34.159548],[-118.196945,34.159534],[-118.19692,34.159466],[-118.196938,34.159326],[-118.197019,34.159269],[-118.19707,34.159303]]]}},{"type":"Feature","properties":{"k":"tee"},"geometry":{"type":"Polygon","coordinates":[[[-118.197063,34.160112],[-118.197143,34.159973],[-118.197166,34.159845],[-118.197194,34.159751],[-118.197177,34.1597],[-118.197149,34.159698],[-118.197027,34.160026],[-118.196997,34.160087],[-118.197014,34.16012],[-118.197063,34.160112]]]}},{"type":"Feature","properties":{"k":"green"},"geometry":{"type":"Polygon","coordinates":[[[-118.197208,34.160764],[-118.197216,34.160728],[-118.197194,34.160694],[-118.197116,34.160669],[-118.197079,34.160608],[-118.197041,34.160589],[-118.196995,34.160588],[-118.196953,34.160625],[-118.196954,34.160696],[-118.196989,34.160739],[-118.197034,34.160765],[-118.197151,34.160788],[-118.197193,34.160779],[-118.197208,34.160764]]]}},{"type":"Feature","properties":{"k":"bunker"},"geometry":{"type":"Polygon","coordinates":[[[-118.197308,34.160675],[-118.19733,34.160662],[-118.197343,34.160643],[-118.197328,34.160617],[-118.197259,34.160613],[-118.197274,34.160579],[-118.197265,34.160542],[-118.197244,34.160538],[-118.197206,34.160577],[-118.197186,34.160582],[-118.19717,34.160555],[-118.19715,34.160545],[-118.197119,34.160545],[-118.197112,34.160588],[-118.197139,34.160633],[-118.197269,34.160674],[-118.197308,34.160675]]]}},{"type":"Feature","properties":{"k":"green"},"geometry":{"type":"Polygon","coordinates":[[[-118.197468,34.16136],[-118.197486,34.161331],[-118.19746,34.161291],[-118.1974,34.161274],[-118.19731,34.161218],[-118.197255,34.161206],[-118.197205,34.16121],[-118.197179,34.161237],[-118.197191,34.161286],[-118.197231,34.161328],[-118.197287,34.161367],[-118.197343,34.161388],[-118.197402,34.161394],[-118.197468,34.16136]]]}},{"type":"Feature","properties":{"k":"tee"},"geometry":{"type":"Polygon","coordinates":[[[-118.196548,34.160962],[-118.196603,34.160912],[-118.196617,34.160879],[-118.196577,34.160843],[-118.196444,34.160872],[-118.19641,34.160893],[-118.196424,34.160946],[-118.196486,34.160967],[-118.196548,34.160962]]]}},{"type":"Feature","properties":{"k":"tee"},"geometry":{"type":"Polygon","coordinates":[[[-118.19675,34.160836],[-118.196721,34.160779],[-118.196665,34.160788],[-118.196694,34.160847],[-118.19675,34.160836]]]}},{"type":"Feature","properties":{"k":"bunker"},"geometry":{"type":"Polygon","coordinates":[[[-118.197438,34.161245],[-118.197444,34.16123],[-118.197424,34.161206],[-118.197398,34.161197],[-118.197377,34.161212],[-118.197378,34.161234],[-118.197398,34.161251],[-118.197421,34.161257],[-118.197438,34.161245]]]}},{"type":"Feature","properties":{"k":"bunker"},"geometry":{"type":"Polygon","coordinates":[[[-118.197344,34.161204],[-118.197373,34.161175],[-118.197365,34.16115],[-118.19734,34.161134],[-118.197262,34.16113],[-118.1972,34.161141],[-118.197181,34.161159],[-118.197189,34.16118],[-118.197225,34.161184],[-118.197268,34.161178],[-118.197295,34.161194],[-118.197344,34.161204]]]}},{"type":"Feature","properties":{"k":"bunker"},"geometry":{"type":"Polygon","coordinates":[[[-118.197202,34.161366],[-118.197193,34.161381],[-118.197151,34.161385],[-118.197122,34.161353],[-118.197143,34.161331],[-118.19717,34.161331],[-118.197202,34.161366]]]}}]}