{"type":"FeatureCollection","features":[{"type":"Feature","properties":{"k":"hole","ref":"1","par":4,"hcp":5},"geometry":{"type":"LineString","coordinates":[[-118.495745,34.17124],[-118.493214,34.171375],[-118.492205,34.171445]]}},{"type":"Feature","properties":{"k":"hole","ref":"2","par":4,"hcp":9},"geometry":{"type":"LineString","coordinates":[[-118.492391,34.171935],[-118.490092,34.172717],[-118.489484,34.173068]]}},{"type":"Feature","properties":{"k":"hole","ref":"3","par":5,"hcp":15},"geometry":{"type":"LineString","coordinates":[[-118.489562,34.173584],[-118.491852,34.175279],[-118.493149,34.175793]]}},{"type":"Feature","properties":{"k":"hole","ref":"4","par":3,"hcp":7},"geometry":{"type":"LineString","coordinates":[[-118.49231,34.174937],[-118.491474,34.173481]]}},{"type":"Feature","properties":{"k":"hole","ref":"5","par":5,"hcp":17},"geometry":{"type":"LineString","coordinates":[[-118.492013,34.17318],[-118.4934,34.174963],[-118.49489,34.176387]]}},{"type":"Feature","properties":{"k":"hole","ref":"6","par":4,"hcp":1},"geometry":{"type":"LineString","coordinates":[[-118.495972,34.175823],[-118.498003,34.176624],[-118.499609,34.177511]]}},{"type":"Feature","properties":{"k":"hole","ref":"7","par":4,"hcp":13},"geometry":{"type":"LineString","coordinates":[[-118.499604,34.176834],[-118.496738,34.174973]]}},{"type":"Feature","properties":{"k":"hole","ref":"8","par":4,"hcp":3},"geometry":{"type":"LineString","coordinates":[[-118.496621,34.174376],[-118.497953,34.174886],[-118.499824,34.176209]]}},{"type":"Feature","properties":{"k":"hole","ref":"9","par":4,"hcp":11},"geometry":{"type":"LineString","coordinates":[[-118.499933,34.175791],[-118.499201,34.174374],[-118.498532,34.172908]]}},{"type":"Feature","properties":{"k":"hole","ref":"10","par":4,"hcp":6},"geometry":{"type":"LineString","coordinates":[[-118.4992,34.172664],[-118.500018,34.174065],[-118.500377,34.1755]]}},{"type":"Feature","properties":{"k":"hole","ref":"11","par":4,"hcp":18},"geometry":{"type":"LineString","coordinates":[[-118.50081,34.175554],[-118.500542,34.176804],[-118.500256,34.178064]]}},{"type":"Feature","properties":{"k":"hole","ref":"12","par":5,"hcp":14},"geometry":{"type":"LineString","coordinates":[[-118.500495,34.178836],[-118.498402,34.177802],[-118.496362,34.176695]]}},{"type":"Feature","properties":{"k":"hole","ref":"13","par":3,"hcp":12},"geometry":{"type":"LineString","coordinates":[[-118.496376,34.177265],[-118.495479,34.176234]]}},{"type":"Feature","properties":{"k":"hole","ref":"14","par":4,"hcp":2},"geometry":{"type":"LineString","coordinates":[[-118.495306,34.175673],[-118.493868,34.174311],[-118.492894,34.173278]]}},{"type":"Feature","properties":{"k":"hole","ref":"15","par":4,"hcp":16},"geometry":{"type":"LineString","coordinates":[[-118.493843,34.173203],[-118.495045,34.174612],[-118.495744,34.175382]]}},{"type":"Feature","properties":{"k":"hole","ref":"16","par":4,"hcp":8},"geometry":{"type":"LineString","coordinates":[[-118.496245,34.175314],[-118.495379,34.173575],[-118.495709,34.172463]]}},{"type":"Feature","properties":{"k":"hole","ref":"17","par":3,"hcp":4},"geometry":{"type":"LineString","coordinates":[[-118.49494,34.172523],[-118.492834,34.172549]]}},{"type":"Feature","properties":{"k":"hole","ref":"18","par":4,"hcp":10},"geometry":{"type":"LineString","coordinates":[[-118.492487,34.172215],[-118.495958,34.171673]]}},{"type":"Feature","properties":{"k":"bunker"},"geometry":{"type":"Polygon","coordinates":[[[-118.495774,34.171792],[-118.495799,34.171806],[-118.495815,34.171842],[-118.495808,34.17186],[-118.495782,34.17187],[-118.495728,34.171848],[-118.495705,34.171828],[-118.4957,34.171808],[-118.495731,34.171786],[-118.495774,34.171792]]]}},{"type":"Feature","properties":{"k":"bunker"},"geometry":{"type":"Polygon","coordinates":[[[-118.495862,34.172521],[-118.495849,34.172534],[-118.49583,34.172582],[-118.49579,34.172602],[-118.495783,34.172613],[-118.495793,34.172652],[-118.495818,34.172662],[-118.495845,34.17266],[-118.495885,34.172644],[-118.495903,34.172628],[-118.495918,34.172598],[-118.495924,34.17255],[-118.495917,34.172534],[-118.495886,34.172519],[-118.495862,34.172521]]]}},{"type":"Feature","properties":{"k":"bunker"},"geometry":{"type":"Polygon","coordinates":[[[-118.493014,34.172437],[-118.493007,34.172399],[-118.49299,34.172376],[-118.492969,34.172365],[-118.49293,34.172373],[-118.492918,34.172392],[-118.492917,34.172413],[-118.492933,34.172451],[-118.492953,34.172461],[-118.492982,34.172459],[-118.493003,34.172451],[-118.493014,34.172437]]]}},{"type":"Feature","properties":{"k":"green"},"geometry":{"type":"Polygon","coordinates":[[[-118.49293,34.172493],[-118.492891,34.172459],[-118.492852,34.172445],[-118.492796,34.172441],[-118.492764,34.172455],[-118.492713,34.172588],[-118.492714,34.172622],[-118.492729,34.172649],[-118.492756,34.172666],[-118.492802,34.172666],[-118.492848,34.17265],[-118.492907,34.172614],[-118.492935,34.17259],[-118.492952,34.172557],[-118.492948,34.172519],[-118.49293,34.172493]]]}},{"type":"Feature","properties":{"k":"bunker"},"geometry":{"type":"Polygon","coordinates":[[[-118.492963,34.172674],[-118.492942,34.172706],[-118.492917,34.172722],[-118.492891,34.172723],[-118.492874,34.172716],[-118.492866,34.172703],[-118.492873,34.172673],[-118.492919,34.172644],[-118.492941,34.172645],[-118.492961,34.172658],[-118.492963,34.172674]]]}},{"type":"Feature","properties":{"k":"bunker"},"geometry":{"type":"Polygon","coordinates":[[[-118.492936,34.1748],[-118.492975,34.174838],[-118.493011,34.174859],[-118.49305,34.174854],[-118.493065,34.174827],[-118.493061,34.174806],[-118.493022,34.174763],[-118.492995,34.174749],[-118.492965,34.174749],[-118.492939,34.174759],[-118.492929,34.174779],[-118.492936,34.1748]]]}},{"type":"Feature","properties":{"k":"green"},"geometry":{"type":"Polygon","coordinates":[[[-118.495694,34.175274],[-118.49567,34.175336],[-118.495653,34.175422],[-118.495661,34.175465],[-118.495705,34.175494],[-118.495759,34.175505],[-118.495803,34.175492],[-118.49583,34.17546],[-118.495831,34.175384],[-118.495787,34.175287],[-118.495753,34.17526],[-118.495726,34.175254],[-118.495694,34.175274]]]}},{"type":"Feature","properties":{"k":"bunker"},"geometry":{"type":"Polygon","coordinates":[[[-118.495618,34.175325],[-118.495605,34.175275],[-118.495568,34.175237],[-118.495555,34.175232],[-118.495514,34.175243],[-118.495496,34.175278],[-118.4955,34.175306],[-118.495519,34.175328],[-118.495538,34.17534],[-118.495582,34.17535],[-118.495601,34.175348],[-118.495618,34.175325]]]}},{"type":"Feature","properties":{"k":"bunker"},"geometry":{"type":"Polygon","coordinates":[[[-118.496894,34.174889],[-118.49691,34.174925],[-118.496934,34.174943],[-118.496965,34.174948],[-118.496996,34.174926],[-118.496998,34.174907],[-118.496976,34.174869],[-118.496923,34.174863],[-118.496901,34.174873],[-118.496894,34.174889]]]}},{"type":"Feature","properties":{"k":"green"},"geometry":{"type":"Polygon","coordinates":[[[-118.49693,34.175055],[-118.496925,34.175009],[-118.496912,34.174989],[-118.496836,34.174885],[-118.496783,34.17485],[-118.496645,34.17483],[-118.496581,34.174855],[-118.496559,34.174878],[-118.49654,34.17492],[-118.496554,34.174957],[-118.496695,34.175068],[-118.49676,34.175106],[-118.496844,34.175129],[-118.49687,34.175126],[-118.496912,34.175095],[-118.49693,34.175055]]]}},{"type":"Feature","properties":{"k":"bunker"},"geometry":{"type":"Polygon","coordinates":[[[-118.499609,34.176199],[-118.499605,34.176244],[-118.499619,34.176297],[-118.499601,34.176309],[-118.499574,34.176307],[-118.499547,34.176299],[-118.499507,34.17626],[-118.499508,34.176218],[-118.499535,34.176168],[-118.499551,34.17616],[-118.49957,34.176159],[-118.499592,34.176169],[-118.499609,34.176199]]]}},{"type":"Feature","properties":{"k":"green"},"geometry":{"type":"Polygon","coordinates":[[[-118.499733,34.176136],[-118.499732,34.176171],[-118.499747,34.176229],[-118.499759,34.176264],[-118.499786,34.176303],[-118.499817,34.176319],[-118.49984,34.176321],[-118.499885,34.176311],[-118.499924,34.176291],[-118.499943,34.176259],[-118.499942,34.176238],[-118.499915,34.176189],[-118.499863,34.176138],[-118.499822,34.176115],[-118.499779,34.176107],[-118.499758,34.17611],[-118.499733,34.176136]]]}},{"type":"Feature","properties":{"k":"bunker"},"geometry":{"type":"Polygon","coordinates":[[[-118.500671,34.17536],[-118.500602,34.175382],[-118.500532,34.175415],[-118.500495,34.175403],[-118.500487,34.17538],[-118.500491,34.175351],[-118.500516,34.175327],[-118.500571,34.175293],[-118.500633,34.175271],[-118.500659,34.175272],[-118.500689,34.17529],[-118.500694,34.175331],[-118.500671,34.17536]]]}},{"type":"Feature","properties":{"k":"green"},"geometry":{"type":"Polygon","coordinates":[[[-118.500378,34.175408],[-118.500407,34.175427],[-118.500526,34.175548],[-118.500529,34.175579],[-118.500491,34.175616],[-118.500462,34.175628],[-118.500422,34.175628],[-118.500339,34.1756],[-118.500295,34.175559],[-118.500284,34.175526],[-118.500282,34.175459],[-118.500296,34.175427],[-118.500309,34.175409],[-118.500332,34.175398],[-118.500378,34.175408]]]}},{"type":"Feature","properties":{"k":"bunker"},"geometry":{"type":"Polygon","coordinates":[[[-118.500169,34.175391],[-118.500126,34.175429],[-118.500108,34.175459],[-118.500113,34.175494],[-118.500132,34.175507],[-118.500154,34.17551],[-118.500204,34.175499],[-118.500223,34.175485],[-118.50024,34.175444],[-118.500234,34.175414],[-118.500218,34.175398],[-118.500188,34.175389],[-118.500169,34.175391]]]}},{"type":"Feature","properties":{"k":"green"},"geometry":{"type":"Polygon","coordinates":[[[-118.499595,34.177404],[-118.499676,34.17745],[-118.499693,34.177477],[-118.499705,34.177538],[-118.499702,34.177567],[-118.499677,34.177611],[-118.499633,34.177638],[-118.499608,34.17764],[-118.499586,34.177636],[-118.499558,34.177614],[-118.499543,34.177566],[-118.499527,34.177441],[-118.499538,34.17741],[-118.499551,34.177402],[-118.499595,34.177404]]]}},{"type":"Feature","properties":{"k":"bunker"},"geometry":{"type":"Polygon","coordinates":[[[-118.499472,34.177536],[-118.499445,34.17747],[-118.499416,34.177454],[-118.499391,34.177454],[-118.499376,34.177467],[-118.499375,34.177493],[-118.4994,34.177552],[-118.499434,34.177566],[-118.499466,34.177554],[-118.499472,34.177536]]]}},{"type":"Feature","properties":{"k":"bunker"},"geometry":{"type":"Polygon","coordinates":[[[-118.495702,34.176249],[-118.495722,34.176271],[-118.49573,34.176303],[-118.49572,34.17633],[-118.495695,34.176341],[-118.495672,34.176342],[-118.495641,34.176326],[-118.495621,34.176301],[-118.495619,34.176273],[-118.495627,34.176251],[-118.495651,34.176234],[-118.495671,34.176232],[-118.495702,34.176249]]]}},{"type":"Feature","properties":{"k":"bunker"},"geometry":{"type":"Polygon","coordinates":[[[-118.495547,34.176382],[-118.495502,34.176345],[-118.495477,34.176347],[-118.495463,34.176358],[-118.495454,34.176382],[-118.495458,34.176411],[-118.495498,34.176439],[-118.495524,34.176438],[-118.495559,34.17642],[-118.49556,34.176404],[-118.495547,34.176382]]]}},{"type":"Feature","properties":{"k":"path"},"geometry":{"type":"LineString","coordinates":[[-118.50072,34.178647],[-118.500578,34.17868],[-118.50045,34.178675],[-118.500335,34.178637],[-118.50021,34.178562],[-118.500109,34.178485],[-118.499937,34.178326]]}},{"type":"Feature","properties":{"k":"bunker"},"geometry":{"type":"Polygon","coordinates":[[[-118.498851,34.172983],[-118.498855,34.173],[-118.498845,34.173027],[-118.498802,34.173081],[-118.498778,34.17308],[-118.498755,34.173065],[-118.498744,34.17304],[-118.498775,34.172973],[-118.498812,34.172959],[-118.498842,34.172969],[-118.498851,34.172983]]]}},{"type":"Feature","properties":{"k":"green"},"geometry":{"type":"Polygon","coordinates":[[[-118.498664,34.172987],[-118.498632,34.173017],[-118.49859,34.173038],[-118.498555,34.173038],[-118.498402,34.172905],[-118.49839,34.17288],[-118.498397,34.172853],[-118.498466,34.17279],[-118.498508,34.172788],[-118.498534,34.172797],[-118.498605,34.172842],[-118.498654,34.172892],[-118.498671,34.172947],[-118.498664,34.172987]]]}},{"type":"Feature","properties":{"k":"bunker"},"geometry":{"type":"Polygon","coordinates":[[[-118.498418,34.173017],[-118.49843,34.173034],[-118.49843,34.173054],[-118.498406,34.1731],[-118.498401,34.173131],[-118.498377,34.173155],[-118.498354,34.173158],[-118.498336,34.173147],[-118.498323,34.173124],[-118.498284,34.173024],[-118.498291,34.173007],[-118.498303,34.172994],[-118.498351,34.172987],[-118.498394,34.173],[-118.498418,34.173017]]]}},{"type":"Feature","properties":{"k":"bunker"},"geometry":{"type":"Polygon","coordinates":[[[-118.499793,34.174048],[-118.499804,34.174076],[-118.499796,34.174091],[-118.499752,34.174095],[-118.499709,34.174066],[-118.499694,34.17403],[-118.499706,34.17401],[-118.499719,34.174007],[-118.49975,34.174014],[-118.499793,34.174048]]]}},{"type":"Feature","properties":{"k":"bunker"},"geometry":{"type":"Polygon","coordinates":[[[-118.500352,34.174132],[-118.500346,34.174072],[-118.50036,34.174055],[-118.500397,34.174053],[-118.500412,34.174068],[-118.500418,34.17412],[-118.500411,34.174159],[-118.500396,34.174168],[-118.500371,34.174166],[-118.500351,34.174142],[-118.500352,34.174132]]]}},{"type":"Feature","properties":{"k":"path"},"geometry":{"type":"LineString","coordinates":[[-118.500574,34.174843],[-118.500652,34.175018],[-118.500674,34.175039],[-118.500719,34.175054],[-118.500736,34.175072],[-118.500778,34.175196],[-118.500778,34.175229],[-118.500743,34.175295],[-118.500732,34.175412],[-118.500717,34.175483],[-118.500528,34.175788],[-118.500444,34.175973],[-118.500311,34.176077],[-118.500251,34.176114],[-118.500198,34.176169],[-118.50018,34.176209]]}},{"type":"Feature","properties":{"k":"path"},"geometry":{"type":"LineString","coordinates":[[-118.495893,34.176131],[-118.495881,34.176166],[-118.495926,34.176363],[-118.495991,34.17654],[-118.495996,34.176628],[-118.495976,34.176999],[-118.495986,34.177052],[-118.496004,34.177088],[-118.496115,34.177214],[-118.496145,34.177222],[-118.496172,34.177218],[-118.496278,34.177157],[-118.496347,34.177131],[-118.496363,34.17712],[-118.496385,34.177078],[-118.496408,34.177063],[-118.496441,34.177058],[-118.496468,34.177065],[-118.496494,34.177084],[-118.49656,34.177211],[-118.496905,34.177348]]}},{"type":"Feature","properties":{"k":"bunker"},"geometry":{"type":"Polygon","coordinates":[[[-118.492179,34.171264],[-118.49217,34.171303],[-118.492188,34.171321],[-118.492216,34.171328],[-118.492258,34.171325],[-118.492278,34.171307],[-118.492289,34.171271],[-118.492289,34.171233],[-118.492275,34.171203],[-118.49223,34.171189],[-118.4922,34.171199],[-118.492183,34.171212],[-118.492186,34.171248],[-118.492179,34.171264]]]}},{"type":"Feature","properties":{"k":"green"},"geometry":{"type":"Polygon","coordinates":[[[-118.492329,34.171386],[-118.492348,34.171408],[-118.492353,34.171447],[-118.492317,34.171493],[-118.49229,34.171507],[-118.492183,34.171538],[-118.492127,34.171537],[-118.492098,34.17152],[-118.492079,34.171488],[-118.492075,34.17145],[-118.492088,34.171417],[-118.492125,34.17138],[-118.49215,34.171366],[-118.492218,34.171354],[-118.492278,34.171363],[-118.492329,34.171386]]]}},{"type":"Feature","properties":{"k":"bunker"},"geometry":{"type":"Polygon","coordinates":[[[-118.491709,34.173518],[-118.491725,34.173527],[-118.491744,34.173559],[-118.491733,34.173588],[-118.4917,34.173597],[-118.491654,34.173573],[-118.491642,34.173554],[-118.491643,34.173532],[-118.491663,34.173517],[-118.491685,34.173513],[-118.491709,34.173518]]]}},{"type":"Feature","properties":{"k":"bunker"},"geometry":{"type":"Polygon","coordinates":[[[-118.491417,34.173629],[-118.49139,34.173663],[-118.491369,34.173666],[-118.491339,34.173645],[-118.491336,34.173633],[-118.491353,34.173598],[-118.491383,34.173576],[-118.491419,34.173583],[-118.491425,34.173608],[-118.491417,34.173629]]]}},{"type":"Feature","properties":{"k":"green"},"geometry":{"type":"Polygon","coordinates":[[[-118.491505,34.173572],[-118.491321,34.173539],[-118.491301,34.173517],[-118.491299,34.173488],[-118.491323,34.173453],[-118.491418,34.173411],[-118.491531,34.173376],[-118.491579,34.173381],[-118.491609,34.17341],[-118.491623,34.173454],[-118.491623,34.17349],[-118.491603,34.173527],[-118.491575,34.173556],[-118.491543,34.173571],[-118.491505,34.173572]]]}},{"type":"Feature","properties":{"k":"bunker"},"geometry":{"type":"Polygon","coordinates":[[[-118.492896,34.174685],[-118.49285,34.174618],[-118.492811,34.174593],[-118.492777,34.174598],[-118.492757,34.17461],[-118.492749,34.174629],[-118.492752,34.174658],[-118.492778,34.174695],[-118.492827,34.174732],[-118.492869,34.174737],[-118.492886,34.174729],[-118.492897,34.174711],[-118.492896,34.174685]]]}},{"type":"Feature","properties":{"k":"bunker"},"geometry":{"type":"Polygon","coordinates":[[[-118.494677,34.176328],[-118.494708,34.176442],[-118.494694,34.176462],[-118.494667,34.176473],[-118.494638,34.176472],[-118.494587,34.176446],[-118.494573,34.176423],[-118.494565,34.176372],[-118.49457,34.176349],[-118.494593,34.176308],[-118.494619,34.1763],[-118.494643,34.176303],[-118.494677,34.176328]]]}},{"type":"Feature","properties":{"k":"green"},"geometry":{"type":"Polygon","coordinates":[[[-118.494968,34.176338],[-118.495003,34.176358],[-118.495015,34.176372],[-118.495029,34.176409],[-118.495027,34.17643],[-118.495002,34.176467],[-118.494963,34.176484],[-118.494928,34.17649],[-118.494861,34.176474],[-118.494804,34.176437],[-118.494776,34.1764],[-118.494759,34.176351],[-118.494767,34.176313],[-118.494787,34.176294],[-118.494801,34.176291],[-118.494841,34.176296],[-118.494968,34.176338]]]}},{"type":"Feature","properties":{"k":"green"},"geometry":{"type":"Polygon","coordinates":[[[-118.49321,34.175721],[-118.493264,34.175768],[-118.493281,34.17581],[-118.493281,34.175832],[-118.493271,34.175856],[-118.493231,34.175894],[-118.493206,34.175903],[-118.493152,34.175901],[-118.493057,34.175839],[-118.493016,34.175771],[-118.493006,34.175734],[-118.49301,34.17572],[-118.493028,34.175699],[-118.493047,34.175691],[-118.493074,34.175691],[-118.49321,34.175721]]]}},{"type":"Feature","properties":{"k":"bunker"},"geometry":{"type":"Polygon","coordinates":[[[-118.493249,34.175657],[-118.49325,34.175686],[-118.493238,34.175695],[-118.493219,34.175696],[-118.493165,34.17567],[-118.493113,34.175661],[-118.493106,34.175648],[-118.493121,34.175624],[-118.493154,34.175618],[-118.493203,34.175644],[-118.493234,34.175648],[-118.493249,34.175657]]]}},{"type":"Feature","properties":{"k":"bunker"},"geometry":{"type":"Polygon","coordinates":[[[-118.492839,34.175714],[-118.492865,34.175737],[-118.492856,34.175777],[-118.492837,34.175784],[-118.492772,34.175756],[-118.492718,34.175778],[-118.492685,34.175762],[-118.492676,34.175745],[-118.49269,34.17571],[-118.492773,34.175666],[-118.492813,34.175675],[-118.492839,34.175714]]]}},{"type":"Feature","properties":{"k":"bunker"},"geometry":{"type":"Polygon","coordinates":[[[-118.492126,34.175067],[-118.492151,34.17512],[-118.492146,34.175143],[-118.492115,34.175164],[-118.492085,34.175166],[-118.49206,34.175148],[-118.492054,34.175099],[-118.49204,34.175085],[-118.491989,34.175072],[-118.491938,34.175035],[-118.491883,34.175025],[-118.49187,34.175015],[-118.491861,34.174976],[-118.491869,34.174955],[-118.491908,34.174948],[-118.49194,34.174961],[-118.49202,34.175021],[-118.492089,34.175041],[-118.492126,34.175067]]]}},{"type":"Feature","properties":{"k":"green"},"geometry":{"type":"Polygon","coordinates":[[[-118.489583,34.173052],[-118.489588,34.173095],[-118.489577,34.173114],[-118.489562,34.17313],[-118.489514,34.173157],[-118.489454,34.173159],[-118.489431,34.173151],[-118.489404,34.173124],[-118.489396,34.173073],[-118.489408,34.173022],[-118.489428,34.172984],[-118.489449,34.172972],[-118.4895,34.172975],[-118.489542,34.172994],[-118.489563,34.173012],[-118.489583,34.173052]]]}},{"type":"Feature","properties":{"k":"bunker"},"geometry":{"type":"Polygon","coordinates":[[[-118.489557,34.172892],[-118.489562,34.172905],[-118.489555,34.172922],[-118.489532,34.172938],[-118.489503,34.172939],[-118.489443,34.172913],[-118.489426,34.172892],[-118.489425,34.172874],[-118.489444,34.172853],[-118.489477,34.172849],[-118.489537,34.172872],[-118.489557,34.172892]]]}},{"type":"Feature","properties":{"k":"bunker"},"geometry":{"type":"Polygon","coordinates":[[[-118.489862,34.173143],[-118.489856,34.173174],[-118.489813,34.173224],[-118.489781,34.173226],[-118.489761,34.173217],[-118.489753,34.173196],[-118.489759,34.173139],[-118.489734,34.173089],[-118.489747,34.173072],[-118.489765,34.173068],[-118.489813,34.173082],[-118.489856,34.173117],[-118.489862,34.173143]]]}},{"type":"Feature","properties":{"k":"bunker"},"geometry":{"type":"Polygon","coordinates":[[[-118.495168,34.173748],[-118.495182,34.173768],[-118.495179,34.173789],[-118.49517,34.173796],[-118.495142,34.173806],[-118.495118,34.173803],[-118.495097,34.173785],[-118.495107,34.173755],[-118.495129,34.173743],[-118.495168,34.173748]]]}},{"type":"Feature","properties":{"k":"bunker"},"geometry":{"type":"Polygon","coordinates":[[[-118.495728,34.171499],[-118.495684,34.171516],[-118.49566,34.171549],[-118.495627,34.171573],[-118.495576,34.17158],[-118.495524,34.171572],[-118.495494,34.171548],[-118.495486,34.171529],[-118.495499,34.171483],[-118.495531,34.171464],[-118.49564,34.171463],[-118.495718,34.171439],[-118.495749,34.171444],[-118.495761,34.171464],[-118.495756,34.171479],[-118.495728,34.171499]]]}},{"type":"Feature","properties":{"k":"bunker"},"geometry":{"type":"Polygon","coordinates":[[[-118.494026,34.171072],[-118.494008,34.171114],[-118.49399,34.171129],[-118.493948,34.171126],[-118.493934,34.171107],[-118.493938,34.171076],[-118.493952,34.171053],[-118.493973,34.171044],[-118.494001,34.171045],[-118.494017,34.171052],[-118.494026,34.171072]]]}},{"type":"Feature","properties":{"k":"path"},"geometry":{"type":"LineString","coordinates":[[-118.492338,34.171023],[-118.492046,34.171054],[-118.491813,34.171104],[-118.491783,34.171115],[-118.491721,34.171163]]}},{"type":"Feature","properties":{"k":"path"},"geometry":{"type":"LineString","coordinates":[[-118.493772,34.170379],[-118.493727,34.17039],[-118.493618,34.170393],[-118.493484,34.170408],[-118.492716,34.170545],[-118.491953,34.170703],[-118.491868,34.170728],[-118.491653,34.170835],[-118.491599,34.170875],[-118.491582,34.170906],[-118.491577,34.170933],[-118.491586,34.170972],[-118.491612,34.171027],[-118.491799,34.171274],[-118.491835,34.171362],[-118.491877,34.171677],[-118.491909,34.17182],[-118.491909,34.171845],[-118.491886,34.171878],[-118.49181,34.171903],[-118.491219,34.171984],[-118.490834,34.172063],[-118.490276,34.172227],[-118.490134,34.172283],[-118.489206,34.172785],[-118.489117,34.172912],[-118.489083,34.173034],[-118.489097,34.173101],[-118.489186,34.173247],[-118.48921,34.173414],[-118.489239,34.173489],[-118.489336,34.173624],[-118.489453,34.173767],[-118.489583,34.173881],[-118.489611,34.17392],[-118.489711,34.174117],[-118.489724,34.174178],[-118.489707,34.17424],[-118.489643,34.174303],[-118.489577,34.174345],[-118.489276,34.174455]]}},{"type":"Feature","properties":{"k":"path"},"geometry":{"type":"LineString","coordinates":[[-118.496406,34.171052],[-118.496289,34.171048],[-118.496256,34.171057],[-118.496178,34.171099],[-118.496136,34.171106],[-118.495636,34.171133],[-118.495391,34.171161],[-118.495322,34.171155],[-118.495169,34.171124]]}},{"type":"Feature","properties":{"k":"path"},"geometry":{"type":"LineString","coordinates":[[-118.496106,34.17212],[-118.495968,34.17208],[-118.495858,34.172085],[-118.495049,34.172208],[-118.494696,34.172234],[-118.494337,34.172233],[-118.49351,34.172252],[-118.492984,34.172239],[-118.492941,34.172242],[-118.492793,34.17228],[-118.492498,34.172385],[-118.492435,34.172414],[-118.492399,34.172396],[-118.492209,34.172387]]}},{"type":"Feature","properties":{"k":"path"},"geometry":{"type":"LineString","coordinates":[[-118.489573,34.173408],[-118.490141,34.173811]]}},{"type":"Feature","properties":{"k":"path"},"geometry":{"type":"LineString","coordinates":[[-118.489573,34.173408],[-118.489609,34.1734],[-118.489748,34.173405],[-118.489818,34.173395],[-118.489899,34.173397],[-118.49004,34.17342],[-118.490325,34.17349],[-118.490533,34.173598],[-118.490628,34.173676],[-118.490717,34.173722],[-118.490761,34.17372],[-118.490831,34.173688],[-118.490932,34.173582],[-118.491106,34.17328],[-118.49125,34.173073],[-118.491365,34.17292],[-118.491404,34.17288],[-118.491439,34.172853],[-118.491576,34.172778],[-118.491923,34.172648],[-118.491988,34.172629],[-118.492132,34.172613],[-118.492279,34.172611],[-118.492404,34.172486],[-118.492435,34.172414]]}},{"type":"Feature","properties":{"k":"path"},"geometry":{"type":"LineString","coordinates":[[-118.491909,34.171845],[-118.491988,34.17188],[-118.492137,34.172022],[-118.492171,34.172091],[-118.492198,34.172257],[-118.492214,34.172495],[-118.492248,34.172567],[-118.492279,34.172611],[-118.492328,34.172741],[-118.492372,34.172919],[-118.492576,34.173449],[-118.492683,34.173613],[-118.49308,34.17409],[-118.493458,34.174505],[-118.493772,34.174872],[-118.49407,34.175145],[-118.494427,34.1754],[-118.494964,34.175719],[-118.495235,34.175853],[-118.495374,34.175891],[-118.496965,34.17663],[-118.49815,34.177251],[-118.498533,34.177469],[-118.499076,34.177746],[-118.499377,34.177877],[-118.499523,34.177916],[-118.499611,34.177928],[-118.499793,34.177884],[-118.499858,34.177832],[-118.499938,34.177748],[-118.500041,34.177504],[-118.500067,34.177363],[-118.500064,34.176744],[-118.500078,34.176642],[-118.500184,34.176316],[-118.500178,34.176135],[-118.500149,34.176028],[-118.500135,34.175699],[-118.500072,34.175587],[-118.499765,34.174526],[-118.499681,34.174307],[-118.499179,34.173323],[-118.49892,34.172634],[-118.498879,34.172563],[-118.498818,34.17252],[-118.498748,34.172503],[-118.498679,34.172503],[-118.49829,34.172615],[-118.498194,34.172623]]}},{"type":"Feature","properties":{"k":"path"},"geometry":{"type":"LineString","coordinates":[[-118.489186,34.173247],[-118.489573,34.173408]]}},{"type":"Feature","properties":{"k":"path"},"geometry":{"type":"LineString","coordinates":[[-118.489609,34.1734],[-118.489638,34.173373],[-118.489868,34.173291],[-118.490081,34.173156],[-118.490145,34.173105],[-118.490168,34.173073],[-118.490193,34.173015],[-118.490228,34.172979],[-118.490309,34.172936],[-118.490412,34.172859],[-118.490468,34.172803]]}},{"type":"Feature","properties":{"k":"path"},"geometry":{"type":"LineString","coordinates":[[-118.491988,34.17188],[-118.492467,34.171775],[-118.492616,34.171775],[-118.492944,34.171799],[-118.49299,34.171789],[-118.493206,34.171702]]}},{"type":"Feature","properties":{"k":"path"},"geometry":{"type":"LineString","coordinates":[[-118.496248,34.17446],[-118.49636,34.174491],[-118.49665,34.174673],[-118.496981,34.174762],[-118.497041,34.174797],[-118.497184,34.174928],[-118.497221,34.174973]]}},{"type":"Feature","properties":{"k":"path"},"geometry":{"type":"LineString","coordinates":[[-118.49636,34.174491],[-118.496355,34.174458],[-118.496361,34.174448],[-118.4964,34.174444],[-118.496802,34.17454]]}},{"type":"Feature","properties":{"k":"path"},"geometry":{"type":"LineString","coordinates":[[-118.500068,34.177065],[-118.499789,34.177094],[-118.499365,34.176842]]}},{"type":"Feature","properties":{"k":"tee"},"geometry":{"type":"Polygon","coordinates":[[[-118.494615,34.172668],[-118.494603,34.172694],[-118.494585,34.1727],[-118.494521,34.172693],[-118.494514,34.172682],[-118.494522,34.172643],[-118.494542,34.172637],[-118.494595,34.172639],[-118.494613,34.172651],[-118.494615,34.172668]]]}},{"type":"Feature","properties":{"k":"tee"},"geometry":{"type":"Polygon","coordinates":[[[-118.495787,34.171223],[-118.495782,34.17129],[-118.495765,34.171305],[-118.495737,34.171305],[-118.495717,34.171293],[-118.495708,34.171272],[-118.4957,34.171237],[-118.495703,34.171204],[-118.495719,34.171184],[-118.495751,34.171177],[-118.495772,34.171184],[-118.495785,34.171198],[-118.495787,34.171223]]]}},{"type":"Feature","properties":{"k":"tee"},"geometry":{"type":"Polygon","coordinates":[[[-118.492524,34.171955],[-118.492503,34.171971],[-118.492306,34.17202],[-118.492281,34.172009],[-118.492249,34.171929],[-118.492267,34.171904],[-118.492482,34.171854],[-118.492502,34.171861],[-118.492509,34.171873],[-118.492527,34.171936],[-118.492524,34.171955]]]}},{"type":"Feature","properties":{"k":"bunker"},"geometry":{"type":"Polygon","coordinates":[[[-118.49133,34.1745],[-118.491321,34.174516],[-118.491299,34.174527],[-118.491281,34.174521],[-118.491244,34.174493],[-118.491203,34.174478],[-118.491189,34.174459],[-118.491187,34.174436],[-118.491218,34.174417],[-118.491243,34.174422],[-118.491264,34.174461],[-118.491308,34.174474],[-118.491327,34.174486],[-118.49133,34.1745]]]}},{"type":"Feature","properties":{"k":"tee"},"geometry":{"type":"Polygon","coordinates":[[[-118.492322,34.174723],[-118.492311,34.174737],[-118.492211,34.174761],[-118.492189,34.174757],[-118.492174,34.174733],[-118.492179,34.174715],[-118.492199,34.174701],[-118.492275,34.174684],[-118.492303,34.174686],[-118.492322,34.174698],[-118.492322,34.174723]]]}},{"type":"Feature","properties":{"k":"bunker"},"geometry":{"type":"Polygon","coordinates":[[[-118.493422,34.174548],[-118.493414,34.174576],[-118.493391,34.174591],[-118.493362,34.174592],[-118.49334,34.174582],[-118.49332,34.174553],[-118.493303,34.174522],[-118.493301,34.174491],[-118.493318,34.174478],[-118.493349,34.174479],[-118.493389,34.174499],[-118.493416,34.174524],[-118.493422,34.174548]]]}},{"type":"Feature","properties":{"k":"bunker"},"geometry":{"type":"Polygon","coordinates":[[[-118.498066,34.176037],[-118.49806,34.176058],[-118.498042,34.17607],[-118.498018,34.176076],[-118.497997,34.176069],[-118.497991,34.176058],[-118.498004,34.17603],[-118.498022,34.176021],[-118.498045,34.176017],[-118.498064,34.176024],[-118.498066,34.176037]]]}},{"type":"Feature","properties":{"k":"tee"},"geometry":{"type":"Polygon","coordinates":[[[-118.496259,34.171272],[-118.496144,34.171267],[-118.496129,34.171256],[-118.496122,34.171163],[-118.496132,34.171152],[-118.496263,34.171151],[-118.496287,34.171186],[-118.49628,34.171253],[-118.496259,34.171272]]]}},{"type":"Feature","properties":{"k":"tee"},"geometry":{"type":"Polygon","coordinates":[[[-118.496057,34.171287],[-118.495891,34.171291],[-118.495868,34.171281],[-118.495861,34.171182],[-118.495871,34.171167],[-118.496073,34.171152],[-118.496087,34.171171],[-118.496086,34.171267],[-118.49608,34.171278],[-118.496057,34.171287]]]}},{"type":"Feature","properties":{"k":"tee"},"geometry":{"type":"Polygon","coordinates":[[[-118.494942,34.172712],[-118.494816,34.172714],[-118.494787,34.172707],[-118.494776,34.172648],[-118.494803,34.172634],[-118.49496,34.172643],[-118.494975,34.172654],[-118.494977,34.172697],[-118.494942,34.172712]]]}},{"type":"Feature","properties":{"k":"tee"},"geometry":{"type":"Polygon","coordinates":[[[-118.494981,34.172573],[-118.494787,34.172555],[-118.494769,34.172537],[-118.494769,34.172486],[-118.494788,34.172471],[-118.494997,34.172467],[-118.495019,34.172475],[-118.49503,34.172488],[-118.495025,34.172554],[-118.495009,34.172569],[-118.494981,34.172573]]]}},{"type":"Feature","properties":{"k":"tee"},"geometry":{"type":"Polygon","coordinates":[[[-118.493878,34.173296],[-118.493825,34.173311],[-118.493731,34.173208],[-118.493732,34.173162],[-118.493829,34.173111],[-118.493851,34.173113],[-118.493948,34.173217],[-118.493952,34.173231],[-118.493949,34.173248],[-118.493878,34.173296]]]}},{"type":"Feature","properties":{"k":"tee"},"geometry":{"type":"Polygon","coordinates":[[[-118.493683,34.173071],[-118.493643,34.173081],[-118.493625,34.173074],[-118.493607,34.173037],[-118.493672,34.172994],[-118.493711,34.172986],[-118.493745,34.173016],[-118.493726,34.173044],[-118.493683,34.173071]]]}},{"type":"Feature","properties":{"k":"tee"},"geometry":{"type":"Polygon","coordinates":[[[-118.492697,34.171881],[-118.492702,34.171893],[-118.492733,34.171905],[-118.492751,34.171909],[-118.492773,34.171898],[-118.492794,34.171863],[-118.492792,34.171842],[-118.49278,34.171823],[-118.492755,34.171811],[-118.492705,34.171822],[-118.492689,34.171848],[-118.492697,34.171881]]]}},{"type":"Feature","properties":{"k":"tee"},"geometry":{"type":"Polygon","coordinates":[[[-118.492815,34.172124],[-118.492798,34.172128],[-118.492766,34.172117],[-118.492764,34.172091],[-118.492796,34.172072],[-118.492851,34.17207],[-118.492865,34.172093],[-118.492859,34.172115],[-118.492815,34.172124]]]}},{"type":"Feature","properties":{"k":"tee"},"geometry":{"type":"Polygon","coordinates":[[[-118.49263,34.17223],[-118.492523,34.172255],[-118.492359,34.17228],[-118.492332,34.172268],[-118.49232,34.172249],[-118.492318,34.172223],[-118.49233,34.172202],[-118.492379,34.172187],[-118.492579,34.172148],[-118.492627,34.172166],[-118.49264,34.172202],[-118.49263,34.17223]]]}},{"type":"Feature","properties":{"k":"tee"},"geometry":{"type":"Polygon","coordinates":[[[-118.496319,34.175332],[-118.496327,34.175376],[-118.496321,34.175384],[-118.496217,34.175404],[-118.49615,34.175254],[-118.496165,34.175224],[-118.496239,34.175207],[-118.496265,34.17521],[-118.496281,34.175223],[-118.496319,34.175332]]]}},{"type":"Feature","properties":{"k":"tee"},"geometry":{"type":"Polygon","coordinates":[[[-118.500732,34.178927],[-118.500716,34.178942],[-118.500692,34.178947],[-118.500638,34.178925],[-118.500617,34.178911],[-118.500625,34.178869],[-118.500661,34.178851],[-118.500717,34.178872],[-118.50074,34.178886],[-118.500732,34.178927]]]}},{"type":"Feature","properties":{"k":"tee"},"geometry":{"type":"Polygon","coordinates":[[[-118.499266,34.172751],[-118.499208,34.17277],[-118.499175,34.172754],[-118.499097,34.172602],[-118.49911,34.172581],[-118.499186,34.172554],[-118.499219,34.172561],[-118.499304,34.172707],[-118.499306,34.172726],[-118.499266,34.172751]]]}},{"type":"Feature","properties":{"k":"tee"},"geometry":{"type":"Polygon","coordinates":[[[-118.499505,34.173017],[-118.499467,34.173011],[-118.49945,34.172974],[-118.499459,34.172951],[-118.499484,34.172947],[-118.499511,34.172956],[-118.499529,34.172995],[-118.499521,34.173009],[-118.499505,34.173017]]]}},{"type":"Feature","properties":{"k":"tee"},"geometry":{"type":"Polygon","coordinates":[[[-118.49642,34.177327],[-118.496389,34.177335],[-118.496357,34.177322],[-118.49627,34.177257],[-118.496266,34.177227],[-118.496326,34.177178],[-118.496346,34.177174],[-118.496365,34.177179],[-118.496399,34.177205],[-118.496454,34.17727],[-118.496456,34.17729],[-118.49642,34.177327]]]}},{"type":"Feature","properties":{"k":"tee"},"geometry":{"type":"Polygon","coordinates":[[[-118.496191,34.177179],[-118.49616,34.177189],[-118.496132,34.177189],[-118.496082,34.177125],[-118.496086,34.177108],[-118.496128,34.177074],[-118.496185,34.177052],[-118.496207,34.177058],[-118.496252,34.177122],[-118.496252,34.177137],[-118.496191,34.177179]]]}},{"type":"Feature","properties":{"k":"tee"},"geometry":{"type":"Polygon","coordinates":[[[-118.496093,34.177032],[-118.496065,34.177042],[-118.496042,34.177038],[-118.496018,34.177014],[-118.496015,34.176995],[-118.496028,34.176966],[-118.496083,34.176945],[-118.496112,34.176947],[-118.496126,34.176957],[-118.49614,34.17699],[-118.496126,34.177012],[-118.496093,34.177032]]]}},{"type":"Feature","properties":{"k":"tee"},"geometry":{"type":"Polygon","coordinates":[[[-118.495012,34.175505],[-118.494974,34.17546],[-118.494975,34.175451],[-118.495007,34.175429],[-118.495042,34.175444],[-118.495071,34.175479],[-118.495067,34.175493],[-118.495036,34.175511],[-118.495012,34.175505]]]}},{"type":"Feature","properties":{"k":"tee"},"geometry":{"type":"Polygon","coordinates":[[[-118.492395,34.175002],[-118.492291,34.175027],[-118.492273,34.175015],[-118.492218,34.174914],[-118.492226,34.174881],[-118.49231,34.17485],[-118.492334,34.174853],[-118.492355,34.174865],[-118.492407,34.174971],[-118.492395,34.175002]]]}},{"type":"Feature","properties":{"k":"tee"},"geometry":{"type":"Polygon","coordinates":[[[-118.489434,34.173507],[-118.489404,34.17352],[-118.48938,34.173521],[-118.489371,34.173504],[-118.489375,34.173488],[-118.489422,34.173444],[-118.489439,34.173435],[-118.489467,34.173438],[-118.489476,34.173445],[-118.489472,34.173472],[-118.489434,34.173507]]]}},{"type":"Feature","properties":{"k":"tee"},"geometry":{"type":"Polygon","coordinates":[[[-118.489357,34.173452],[-118.489317,34.173463],[-118.489273,34.173441],[-118.489261,34.173414],[-118.489262,34.173383],[-118.489299,34.173368],[-118.489336,34.173374],[-118.48937,34.173403],[-118.489372,34.173435],[-118.489357,34.173452]]]}},{"type":"Feature","properties":{"k":"bunker"},"geometry":{"type":"Polygon","coordinates":[[[-118.490386,34.172325],[-118.490369,34.172342],[-118.490319,34.172361],[-118.490293,34.172331],[-118.490315,34.17228],[-118.490332,34.172266],[-118.490382,34.172252],[-118.49041,34.172271],[-118.490416,34.172291],[-118.490408,34.172311],[-118.490386,34.172325]]]}},{"type":"Feature","properties":{"k":"tee"},"geometry":{"type":"Polygon","coordinates":[[[-118.489654,34.17361],[-118.489617,34.173645],[-118.489575,34.173667],[-118.489531,34.173646],[-118.489469,34.1736],[-118.489459,34.173587],[-118.489458,34.173562],[-118.489519,34.173508],[-118.489532,34.173501],[-118.48955,34.173504],[-118.489655,34.173571],[-118.489664,34.173596],[-118.489654,34.17361]]]}},{"type":"Feature","properties":{"k":"tee"},"geometry":{"type":"Polygon","coordinates":[[[-118.492105,34.174321],[-118.492084,34.174324],[-118.492056,34.17431],[-118.492049,34.174296],[-118.492059,34.174262],[-118.492091,34.174255],[-118.492123,34.174274],[-118.492127,34.174303],[-118.492105,34.174321]]]}},{"type":"Feature","properties":{"k":"tee"},"geometry":{"type":"Polygon","coordinates":[[[-118.492076,34.173209],[-118.49199,34.173244],[-118.491967,34.173229],[-118.491937,34.173183],[-118.491934,34.173164],[-118.491955,34.173143],[-118.492024,34.173119],[-118.492041,34.173121],[-118.492083,34.173164],[-118.492088,34.173186],[-118.492076,34.173209]]]}},{"type":"Feature","properties":{"k":"tee"},"geometry":{"type":"Polygon","coordinates":[[[-118.491979,34.173084],[-118.491915,34.173107],[-118.491891,34.173102],[-118.491866,34.173077],[-118.491867,34.173054],[-118.491875,34.173044],[-118.491965,34.17302],[-118.491986,34.173034],[-118.491994,34.173049],[-118.491994,34.173068],[-118.491979,34.173084]]]}},{"type":"Feature","properties":{"k":"tee"},"geometry":{"type":"Polygon","coordinates":[[[-118.496067,34.175872],[-118.496032,34.175917],[-118.495993,34.175919],[-118.495867,34.17585],[-118.495853,34.175838],[-118.495849,34.175812],[-118.495906,34.17575],[-118.495932,34.175732],[-118.495954,34.175732],[-118.496089,34.17581],[-118.496093,34.175831],[-118.496067,34.175872]]]}},{"type":"Feature","properties":{"k":"tee"},"geometry":{"type":"Polygon","coordinates":[[[-118.496242,34.175982],[-118.496224,34.17599],[-118.496181,34.175983],[-118.496149,34.175959],[-118.496149,34.175944],[-118.496172,34.17592],[-118.496222,34.17593],[-118.496241,34.175942],[-118.49625,34.17596],[-118.496242,34.175982]]]}},{"type":"Feature","properties":{"k":"tee"},"geometry":{"type":"Polygon","coordinates":[[[-118.499744,34.176862],[-118.499716,34.176875],[-118.499661,34.17694],[-118.499663,34.176959],[-118.499685,34.176978],[-118.499746,34.177013],[-118.499765,34.177015],[-118.499797,34.176999],[-118.499837,34.176949],[-118.499856,34.176904],[-118.499786,34.176861],[-118.499744,34.176862]]]}},{"type":"Feature","properties":{"k":"tee"},"geometry":{"type":"Polygon","coordinates":[[[-118.499687,34.176852],[-118.499613,34.176912],[-118.499591,34.176919],[-118.499526,34.176885],[-118.499493,34.176854],[-118.499491,34.176837],[-118.499536,34.17679],[-118.499608,34.176746],[-118.499662,34.176766],[-118.499698,34.176798],[-118.49971,34.176816],[-118.499687,34.176852]]]}},{"type":"Feature","properties":{"k":"tee"},"geometry":{"type":"Polygon","coordinates":[[[-118.499411,34.176733],[-118.499388,34.176746],[-118.499355,34.176745],[-118.499285,34.176677],[-118.499296,34.17665],[-118.499329,34.176646],[-118.499358,34.176664],[-118.499399,34.176695],[-118.499414,34.17672],[-118.499411,34.176733]]]}},{"type":"Feature","properties":{"k":"tee"},"geometry":{"type":"Polygon","coordinates":[[[-118.496728,34.17438],[-118.496694,34.174459],[-118.496673,34.174469],[-118.496472,34.17441],[-118.496436,34.174397],[-118.496428,34.174387],[-118.496429,34.174369],[-118.49646,34.174303],[-118.496483,34.174293],[-118.496695,34.174352],[-118.496713,34.17436],[-118.496728,34.17438]]]}},{"type":"Feature","properties":{"k":"tee"},"geometry":{"type":"Polygon","coordinates":[[[-118.496893,34.174492],[-118.496861,34.17451],[-118.49683,34.174502],[-118.496808,34.174476],[-118.496811,34.17446],[-118.496821,34.174448],[-118.496838,34.174444],[-118.496874,34.174451],[-118.496896,34.174478],[-118.496893,34.174492]]]}},{"type":"Feature","properties":{"k":"tee"},"geometry":{"type":"Polygon","coordinates":[[[-118.500035,34.175904],[-118.500018,34.175913],[-118.499959,34.175921],[-118.499942,34.175919],[-118.499925,34.175906],[-118.49983,34.175699],[-118.499839,34.17567],[-118.499895,34.175657],[-118.499925,34.175658],[-118.499941,34.175671],[-118.50003,34.175858],[-118.50004,34.175886],[-118.500035,34.175904]]]}},{"type":"Feature","properties":{"k":"tee"},"geometry":{"type":"Polygon","coordinates":[[[-118.499656,34.175594],[-118.499656,34.175614],[-118.499645,34.175629],[-118.499625,34.175634],[-118.499601,34.175628],[-118.499571,34.17557],[-118.499581,34.175533],[-118.499616,34.175526],[-118.499634,34.175537],[-118.499656,34.175594]]]}},{"type":"Feature","properties":{"k":"tee"},"geometry":{"type":"Polygon","coordinates":[[[-118.500868,34.175419],[-118.500839,34.175426],[-118.500811,34.175418],[-118.500802,34.175402],[-118.500812,34.175369],[-118.500855,34.175368],[-118.50087,34.175376],[-118.500876,34.1754],[-118.500868,34.175419]]]}},{"type":"Feature","properties":{"k":"tee"},"geometry":{"type":"Polygon","coordinates":[[[-118.500862,34.175481],[-118.500869,34.175498],[-118.500841,34.175578],[-118.500827,34.175657],[-118.500798,34.175678],[-118.500749,34.175674],[-118.500732,34.175661],[-118.500745,34.175607],[-118.500798,34.17548],[-118.500806,34.175473],[-118.500838,34.175469],[-118.500862,34.175481]]]}},{"type":"Feature","properties":{"k":"tee"},"geometry":{"type":"Polygon","coordinates":[[[-118.500804,34.175832],[-118.500795,34.175885],[-118.500778,34.175914],[-118.50074,34.175923],[-118.500716,34.175912],[-118.50071,34.175844],[-118.500742,34.175791],[-118.500802,34.175811],[-118.500804,34.175832]]]}},{"type":"Feature","properties":{"k":"tee"},"geometry":{"type":"Polygon","coordinates":[[[-118.500665,34.17615],[-118.500663,34.176184],[-118.500646,34.176206],[-118.500608,34.176208],[-118.500596,34.176194],[-118.500601,34.176156],[-118.500613,34.176142],[-118.50063,34.176131],[-118.500656,34.176138],[-118.500665,34.17615]]]}},{"type":"Feature","properties":{"k":"green"},"geometry":{"type":"Polygon","coordinates":[[[-118.500346,34.178111],[-118.500271,34.178177],[-118.500233,34.178191],[-118.500181,34.178188],[-118.500133,34.178176],[-118.500108,34.178143],[-118.500122,34.178099],[-118.500153,34.178057],[-118.500191,34.178024],[-118.500222,34.177982],[-118.500263,34.177963],[-118.500291,34.177966],[-118.500339,34.177986],[-118.500368,34.178032],[-118.500367,34.178072],[-118.500346,34.178111]]]}},{"type":"Feature","properties":{"k":"bunker"},"geometry":{"type":"Polygon","coordinates":[[[-118.500463,34.177876],[-118.500446,34.177912],[-118.50043,34.177923],[-118.500403,34.177927],[-118.500389,34.177918],[-118.500382,34.177905],[-118.500384,34.17787],[-118.500406,34.177817],[-118.500447,34.177806],[-118.500468,34.177818],[-118.500477,34.177843],[-118.500463,34.177876]]]}},{"type":"Feature","properties":{"k":"bunker"},"geometry":{"type":"Polygon","coordinates":[[[-118.500236,34.177909],[-118.500227,34.177944],[-118.500201,34.177951],[-118.500171,34.177934],[-118.500151,34.177911],[-118.50015,34.177887],[-118.500178,34.177869],[-118.500216,34.17787],[-118.50023,34.177877],[-118.500236,34.177909]]]}},{"type":"Feature","properties":{"k":"bunker"},"geometry":{"type":"Polygon","coordinates":[[[-118.500093,34.178011],[-118.500041,34.178049],[-118.49999,34.178056],[-118.499965,34.178041],[-118.499941,34.178012],[-118.499942,34.177975],[-118.49999,34.177921],[-118.500037,34.177906],[-118.500072,34.17792],[-118.500093,34.177943],[-118.500103,34.177972],[-118.500093,34.178011]]]}},{"type":"Feature","properties":{"k":"tee"},"geometry":{"type":"Polygon","coordinates":[[[-118.500582,34.17884],[-118.50055,34.178881],[-118.500527,34.178885],[-118.500375,34.17881],[-118.50037,34.17878],[-118.500406,34.178739],[-118.50043,34.178738],[-118.500563,34.178803],[-118.500584,34.178821],[-118.500582,34.17884]]]}},{"type":"Feature","properties":{"k":"tee"},"geometry":{"type":"Polygon","coordinates":[[[-118.500256,34.178701],[-118.500229,34.178731],[-118.500214,34.178737],[-118.500178,34.178726],[-118.500166,34.178711],[-118.500172,34.178684],[-118.500217,34.178637],[-118.500248,34.178643],[-118.500271,34.17866],[-118.500272,34.178678],[-118.500256,34.178701]]]}},{"type":"Feature","properties":{"k":"tee"},"geometry":{"type":"Polygon","coordinates":[[[-118.49989,34.178447],[-118.499854,34.178431],[-118.499835,34.178432],[-118.499825,34.178442],[-118.499824,34.178461],[-118.499849,34.178483],[-118.499889,34.178497],[-118.499905,34.17849],[-118.499914,34.178473],[-118.499905,34.178455],[-118.49989,34.178447]]]}},{"type":"Feature","properties":{"k":"bunker"},"geometry":{"type":"Polygon","coordinates":[[[-118.498559,34.17766],[-118.498536,34.177672],[-118.498507,34.177672],[-118.49846,34.177658],[-118.49839,34.177615],[-118.498387,34.177588],[-118.498406,34.177574],[-118.498451,34.17757],[-118.4985,34.177613],[-118.498565,34.177638],[-118.498559,34.17766]]]}},{"type":"Feature","properties":{"k":"bunker"},"geometry":{"type":"Polygon","coordinates":[[[-118.496957,34.177277],[-118.496923,34.177288],[-118.496749,34.177225],[-118.49671,34.1772],[-118.496702,34.177152],[-118.496713,34.177139],[-118.496758,34.17714],[-118.496778,34.177157],[-118.496799,34.177196],[-118.496818,34.177211],[-118.496943,34.17725],[-118.49696,34.177263],[-118.496957,34.177277]]]}},{"type":"Feature","properties":{"k":"bunker"},"geometry":{"type":"Polygon","coordinates":[[[-118.496374,34.176856],[-118.496377,34.176892],[-118.496357,34.176906],[-118.496334,34.176904],[-118.496325,34.176894],[-118.496318,34.176862],[-118.496295,34.176836],[-118.496296,34.176825],[-118.496313,34.176815],[-118.496339,34.176814],[-118.496362,34.17683],[-118.496374,34.176856]]]}},{"type":"Feature","properties":{"k":"bunker"},"geometry":{"type":"Polygon","coordinates":[[[-118.49649,34.17662],[-118.496474,34.176637],[-118.496455,34.176641],[-118.496428,34.176629],[-118.496414,34.176606],[-118.496424,34.176576],[-118.496445,34.176569],[-118.49648,34.176575],[-118.496496,34.176595],[-118.49649,34.17662]]]}},{"type":"Feature","properties":{"k":"green"},"geometry":{"type":"Polygon","coordinates":[[[-118.496506,34.176765],[-118.496499,34.176778],[-118.496477,34.176791],[-118.496436,34.176804],[-118.496383,34.176796],[-118.496304,34.176765],[-118.496258,34.176726],[-118.496218,34.176663],[-118.496216,34.176629],[-118.496229,34.176594],[-118.496248,34.176577],[-118.496293,34.176562],[-118.496323,34.176564],[-118.49635,34.17658],[-118.496411,34.176654],[-118.496501,34.176706],[-118.496518,34.176734],[-118.496506,34.176765]]]}},{"type":"Feature","properties":{"k":"green"},"geometry":{"type":"Polygon","coordinates":[[[-118.495576,34.176208],[-118.495578,34.176237],[-118.495566,34.176307],[-118.495559,34.176317],[-118.495532,34.176324],[-118.495488,34.176319],[-118.495412,34.176295],[-118.495388,34.176279],[-118.495361,34.176238],[-118.495359,34.176218],[-118.495378,34.176177],[-118.495481,34.176123],[-118.495546,34.176128],[-118.495569,34.176162],[-118.495576,34.176208]]]}},{"type":"Feature","properties":{"k":"tee"},"geometry":{"type":"Polygon","coordinates":[[[-118.495417,34.175726],[-118.495329,34.175773],[-118.495295,34.175768],[-118.495156,34.175629],[-118.49515,34.175602],[-118.495174,34.175578],[-118.495257,34.175542],[-118.4953,34.17557],[-118.495398,34.175666],[-118.495423,34.175696],[-118.495417,34.175726]]]}},{"type":"Feature","properties":{"k":"bunker"},"geometry":{"type":"Polygon","coordinates":[[[-118.494373,34.174421],[-118.494341,34.174439],[-118.494287,34.174421],[-118.494227,34.174378],[-118.494217,34.174363],[-118.494218,34.17433],[-118.494238,34.174325],[-118.494275,34.174333],[-118.494352,34.174379],[-118.494379,34.17441],[-118.494373,34.174421]]]}},{"type":"Feature","properties":{"k":"bunker"},"geometry":{"type":"Polygon","coordinates":[[[-118.493142,34.173252],[-118.493135,34.173274],[-118.49312,34.173286],[-118.49308,34.173296],[-118.493065,34.173292],[-118.493041,34.173268],[-118.493046,34.173215],[-118.493073,34.173194],[-118.493102,34.173195],[-118.493127,34.173216],[-118.493142,34.173252]]]}},{"type":"Feature","properties":{"k":"bunker"},"geometry":{"type":"Polygon","coordinates":[[[-118.492867,34.173453],[-118.492846,34.173464],[-118.492818,34.173464],[-118.492741,34.173443],[-118.49272,34.17342],[-118.492723,34.173403],[-118.492756,34.173378],[-118.492792,34.173378],[-118.49287,34.173422],[-118.492867,34.173453]]]}},{"type":"Feature","properties":{"k":"green"},"geometry":{"type":"Polygon","coordinates":[[[-118.492991,34.173344],[-118.492947,34.173364],[-118.492902,34.173373],[-118.49285,34.173364],[-118.492796,34.173343],[-118.49277,34.173304],[-118.492772,34.173266],[-118.492793,34.173217],[-118.492824,34.173182],[-118.492861,34.173168],[-118.492895,34.173165],[-118.492951,34.173182],[-118.492964,34.173192],[-118.492998,34.173253],[-118.493005,34.17332],[-118.492991,34.173344]]]}},{"type":"Feature","properties":{"k":"path"},"geometry":{"type":"LineString","coordinates":[[-118.498974,34.172777],[-118.499057,34.172758],[-118.499083,34.172762],[-118.499159,34.172872],[-118.499192,34.172904],[-118.499252,34.172946]]}},{"type":"Feature","properties":{"k":"path"},"geometry":{"type":"LineString","coordinates":[[-118.495475,34.175938],[-118.495566,34.175876],[-118.495662,34.175829],[-118.495714,34.175834],[-118.495767,34.175852],[-118.495963,34.175974],[-118.496074,34.175997]]}},{"type":"Feature","properties":{"k":"path"},"geometry":{"type":"LineString","coordinates":[[-118.495767,34.175852],[-118.495754,34.175818],[-118.495769,34.175778],[-118.495963,34.175677],[-118.496024,34.175661],[-118.496154,34.175755],[-118.496179,34.175798]]}},{"type":"Feature","properties":{"k":"path"},"geometry":{"type":"LineString","coordinates":[[-118.495308,34.175874],[-118.495293,34.175839],[-118.495025,34.175566]]}},{"type":"Feature","properties":{"k":"path"},"geometry":{"type":"LineString","coordinates":[[-118.492498,34.172385],[-118.492494,34.172333],[-118.492504,34.172318],[-118.492529,34.172304],[-118.492728,34.172254],[-118.492754,34.172257],[-118.492793,34.17228]]}},{"type":"Feature","properties":{"k":"path"},"geometry":{"type":"LineString","coordinates":[[-118.493228,34.173249],[-118.493268,34.173198],[-118.493292,34.173185],[-118.493573,34.173166],[-118.493625,34.173172],[-118.493646,34.173189],[-118.493734,34.173296],[-118.493856,34.173481]]}},{"type":"Feature","properties":{"k":"tee"},"geometry":{"type":"Polygon","coordinates":[[[-118.494129,34.173423],[-118.494106,34.173436],[-118.494084,34.173433],[-118.494041,34.173393],[-118.494042,34.173369],[-118.49407,34.173352],[-118.494098,34.173357],[-118.494129,34.173385],[-118.494135,34.173407],[-118.494129,34.173423]]]}},{"type":"Feature","properties":{"k":"tee"},"geometry":{"type":"Polygon","coordinates":[[[-118.496168,34.175055],[-118.496079,34.175088],[-118.496034,34.175089],[-118.495995,34.174999],[-118.495991,34.174959],[-118.496044,34.174934],[-118.496115,34.174918],[-118.496126,34.174923],[-118.496148,34.17495],[-118.496181,34.175027],[-118.496168,34.175055]]]}},{"type":"Feature","properties":{"k":"bunker"},"geometry":{"type":"Polygon","coordinates":[[[-118.495168,34.173676],[-118.495137,34.173691],[-118.495103,34.173688],[-118.495084,34.173671],[-118.495084,34.173659],[-118.495116,34.173632],[-118.495158,34.17363],[-118.495181,34.173652],[-118.49518,34.173665],[-118.495168,34.173676]]]}},{"type":"Feature","properties":{"k":"path"},"geometry":{"type":"LineString","coordinates":[[-118.495251,34.172991],[-118.495266,34.172734],[-118.49531,34.172686],[-118.495344,34.172589],[-118.495345,34.172546],[-118.495327,34.172521],[-118.495233,34.172504],[-118.495139,34.1725],[-118.495104,34.172514],[-118.495025,34.172594],[-118.494998,34.172598],[-118.494614,34.172585]]}},{"type":"Feature","properties":{"k":"green"},"geometry":{"type":"Polygon","coordinates":[[[-118.495795,34.17249],[-118.495718,34.172564],[-118.495685,34.172578],[-118.495632,34.172583],[-118.495608,34.172576],[-118.495591,34.172556],[-118.495586,34.172522],[-118.495605,34.172471],[-118.495697,34.172382],[-118.495738,34.172359],[-118.495792,34.172362],[-118.495817,34.172386],[-118.495822,34.172441],[-118.495795,34.17249]]]}},{"type":"Feature","properties":{"k":"bunker"},"geometry":{"type":"Polygon","coordinates":[[[-118.494671,34.172103],[-118.494652,34.172128],[-118.494619,34.172128],[-118.494597,34.172108],[-118.494598,34.172075],[-118.494631,34.17205],[-118.494653,34.172052],[-118.494672,34.172067],[-118.494671,34.172103]]]}},{"type":"Feature","properties":{"k":"green"},"geometry":{"type":"Polygon","coordinates":[[[-118.49609,34.171664],[-118.49609,34.171682],[-118.496062,34.171737],[-118.496023,34.171762],[-118.495871,34.171756],[-118.495807,34.171727],[-118.495777,34.171687],[-118.49579,34.171645],[-118.495816,34.17162],[-118.495892,34.17159],[-118.496006,34.171563],[-118.496037,34.171566],[-118.496068,34.171584],[-118.496087,34.17162],[-118.49609,34.171664]]]}},{"type":"Feature","properties":{"k":"path"},"geometry":{"type":"LineString","coordinates":[[-118.492839,34.175343],[-118.492749,34.1753],[-118.492645,34.175214],[-118.492461,34.174894],[-118.49242,34.174838],[-118.492371,34.174691],[-118.492287,34.174546],[-118.492198,34.174299],[-118.492136,34.173937],[-118.492103,34.173862],[-118.492001,34.173682],[-118.491951,34.173569],[-118.491909,34.173501],[-118.491731,34.173295],[-118.491685,34.173215],[-118.49168,34.173173],[-118.491706,34.173142],[-118.49174,34.173136],[-118.491769,34.173145],[-118.491786,34.173161],[-118.49185,34.173291],[-118.492008,34.173453],[-118.492042,34.1735]]}},{"type":"Feature","properties":{"k":"bunker"},"geometry":{"type":"Polygon","coordinates":[[[-118.49834,34.175683],[-118.498258,34.175686],[-118.498208,34.175667],[-118.498209,34.175653],[-118.498214,34.175641],[-118.498237,34.175636],[-118.49834,34.175629],[-118.498354,34.175643],[-118.498355,34.175655],[-118.498354,34.175671],[-118.49834,34.175683]]]}},{"type":"Feature","properties":{"k":"bunker"},"geometry":{"type":"Polygon","coordinates":[[[-118.498278,34.175439],[-118.498267,34.175421],[-118.498279,34.175387],[-118.498309,34.175378],[-118.498344,34.175398],[-118.49834,34.175426],[-118.498309,34.175447],[-118.498288,34.175449],[-118.498278,34.175439]]]}},{"type":"Feature","properties":{"k":"bunker"},"geometry":{"type":"Polygon","coordinates":[[[-118.498976,34.175346],[-118.498955,34.175353],[-118.498919,34.175322],[-118.498901,34.175271],[-118.498903,34.17525],[-118.498917,34.175226],[-118.498946,34.175239],[-118.498987,34.175296],[-118.498996,34.175318],[-118.498987,34.175339],[-118.498976,34.175346]]]}},{"type":"Feature","properties":{"k":"path"},"geometry":{"type":"LineString","coordinates":[[-118.495809,34.175082],[-118.495951,34.175192],[-118.496014,34.175268],[-118.49612,34.175432],[-118.496188,34.175514]]}},{"type":"Feature","properties":{"k":"path"},"geometry":{"type":"LineString","coordinates":[[-118.495969,34.175079],[-118.495982,34.175191],[-118.495979,34.175226]]}},{"type":"Feature","properties":{"k":"path"},"geometry":{"type":"LineString","coordinates":[[-118.500149,34.176006],[-118.500082,34.175998],[-118.499984,34.175973],[-118.49989,34.175928],[-118.499815,34.175868],[-118.499754,34.175786],[-118.499727,34.175691],[-118.499719,34.175605]]}},{"type":"Feature","properties":{"k":"bunker"},"geometry":{"type":"Polygon","coordinates":[[[-118.495756,34.173586],[-118.49574,34.1736],[-118.495712,34.173607],[-118.495673,34.1736],[-118.495614,34.17354],[-118.495601,34.173518],[-118.495604,34.17349],[-118.49563,34.173473],[-118.495662,34.173468],[-118.495704,34.173485],[-118.495754,34.173531],[-118.495764,34.173569],[-118.495756,34.173586]]]}},{"type":"Feature","properties":{"k":"tee"},"geometry":{"type":"Polygon","coordinates":[[[-118.489745,34.173709],[-118.489705,34.173745],[-118.489692,34.173743],[-118.489663,34.173718],[-118.489674,34.173692],[-118.4897,34.173668],[-118.48971,34.173667],[-118.48975,34.173689],[-118.489756,34.173702],[-118.489745,34.173709]]]}},{"type":"Feature","properties":{"k":"tee"},"geometry":{"type":"Polygon","coordinates":[[[-118.492207,34.173393],[-118.492216,34.173417],[-118.4922,34.173439],[-118.492126,34.173471],[-118.492106,34.173472],[-118.492078,34.173458],[-118.492074,34.173426],[-118.492084,34.173412],[-118.492168,34.173382],[-118.492191,34.173381],[-118.492207,34.173393]]]}},{"type":"Feature","properties":{"k":"bunker"},"geometry":{"type":"Polygon","coordinates":[[[-118.497792,34.176724],[-118.497812,34.176748],[-118.497814,34.176773],[-118.497801,34.176786],[-118.497772,34.176791],[-118.497756,34.176785],[-118.497723,34.176752],[-118.49768,34.176741],[-118.497675,34.176726],[-118.49769,34.1767],[-118.497757,34.176668],[-118.497778,34.176686],[-118.497784,34.176719],[-118.497792,34.176724]]]}},{"type":"Feature","properties":{"k":"bunker"},"geometry":{"type":"Polygon","coordinates":[[[-118.495215,34.174402],[-118.495187,34.174443],[-118.495168,34.174447],[-118.495135,34.174433],[-118.49512,34.174407],[-118.495122,34.174388],[-118.49509,34.17433],[-118.495088,34.174307],[-118.495116,34.174274],[-118.495136,34.174272],[-118.495168,34.174291],[-118.495172,34.174332],[-118.495184,34.174355],[-118.495219,34.174385],[-118.495215,34.174402]]]}},{"type":"Feature","properties":{"k":"path"},"geometry":{"type":"LineString","coordinates":[[-118.495499,34.175797],[-118.495566,34.175876]]}}]}