{"type":"FeatureCollection","features":[{"type":"Feature","properties":{"k":"hole","ref":"1","par":4,"hcp":1},"geometry":{"type":"LineString","coordinates":[[-120.234056,39.35215],[-120.236348,39.352033],[-120.238836,39.351822]]}},{"type":"Feature","properties":{"k":"hole","ref":"2","par":5,"hcp":9},"geometry":{"type":"LineString","coordinates":[[-120.239491,39.351842],[-120.241279,39.350456],[-120.243937,39.349305]]}},{"type":"Feature","properties":{"k":"hole","ref":"3","par":4,"hcp":5},"geometry":{"type":"LineString","coordinates":[[-120.245049,39.349231],[-120.245916,39.350942],[-120.246423,39.352693]]}},{"type":"Feature","properties":{"k":"hole","ref":"4","par":3,"hcp":11},"geometry":{"type":"LineString","coordinates":[[-120.246672,39.353289],[-120.24857,39.353698]]}},{"type":"Feature","properties":{"k":"hole","ref":"5","par":4,"hcp":17},"geometry":{"type":"LineString","coordinates":[[-120.249722,39.353317],[-120.248838,39.355347],[-120.2482,39.356201]]}},{"type":"Feature","properties":{"k":"hole","ref":"6","par":4,"hcp":13},"geometry":{"type":"LineString","coordinates":[[-120.24783,39.356504],[-120.246895,39.357652],[-120.245507,39.358732]]}},{"type":"Feature","properties":{"k":"hole","ref":"7","par":3,"hcp":15},"geometry":{"type":"LineString","coordinates":[[-120.245657,39.359444],[-120.24391,39.359237]]}},{"type":"Feature","properties":{"k":"hole","ref":"8","par":4,"hcp":3},"geometry":{"type":"LineString","coordinates":[[-120.243387,39.359075],[-120.240614,39.358619],[-120.239053,39.357484]]}},{"type":"Feature","properties":{"k":"hole","ref":"9","par":5,"hcp":7},"geometry":{"type":"LineString","coordinates":[[-120.238143,39.357111],[-120.236643,39.354645],[-120.235449,39.352843]]}},{"type":"Feature","properties":{"k":"hole","ref":"10","par":4,"hcp":4},"geometry":{"type":"LineString","coordinates":[[-120.233946,39.35169],[-120.236142,39.3512],[-120.238069,39.351026]]}},{"type":"Feature","properties":{"k":"hole","ref":"11","par":5,"hcp":6},"geometry":{"type":"LineString","coordinates":[[-120.238496,39.351323],[-120.240594,39.349895],[-120.242588,39.348819]]}},{"type":"Feature","properties":{"k":"hole","ref":"12","par":3,"hcp":12},"geometry":{"type":"LineString","coordinates":[[-120.242981,39.347912],[-120.244908,39.34868]]}},{"type":"Feature","properties":{"k":"hole","ref":"13","par":4,"hcp":18},"geometry":{"type":"LineString","coordinates":[[-120.24542,39.34887],[-120.247022,39.348958],[-120.248442,39.348095]]}},{"type":"Feature","properties":{"k":"hole","ref":"14","par":4,"hcp":14},"geometry":{"type":"LineString","coordinates":[[-120.249031,39.348284],[-120.249328,39.346843],[-120.249839,39.344949]]}},{"type":"Feature","properties":{"k":"hole","ref":"15","par":5,"hcp":8},"geometry":{"type":"LineString","coordinates":[[-120.249529,39.344695],[-120.247781,39.343873],[-120.245739,39.343733],[-120.244376,39.343821]]}},{"type":"Feature","properties":{"k":"hole","ref":"16","par":4,"hcp":2},"geometry":{"type":"LineString","coordinates":[[-120.243771,39.343883],[-120.241781,39.345053],[-120.239842,39.34602]]}},{"type":"Feature","properties":{"k":"hole","ref":"17","par":3,"hcp":16},"geometry":{"type":"LineString","coordinates":[[-120.239149,39.346095],[-120.237371,39.347347]]}},{"type":"Feature","properties":{"k":"hole","ref":"18","par":4,"hcp":10},"geometry":{"type":"LineString","coordinates":[[-120.23705,39.349322],[-120.235004,39.350479],[-120.233423,39.351289]]}},{"type":"Feature","properties":{"k":"range"},"geometry":{"type":"Polygon","coordinates":[[[-120.230881,39.350498],[-120.230644,39.350772],[-120.23048,39.350903],[-120.22998,39.350637],[-120.229964,39.350665],[-120.228771,39.350213],[-120.228666,39.350157],[-120.228582,39.350054],[-120.228305,39.349567],[-120.228234,39.349324],[-120.228214,39.349176],[-120.22818,39.349037],[-120.228383,39.348904],[-120.228672,39.349053],[-120.229058,39.349276],[-120.230236,39.349981],[-120.230672,39.350364],[-120.230881,39.350498]]]}},{"type":"Feature","properties":{"k":"clubhouse","name":"Tahoe Donner Club House"},"geometry":{"type":"Polygon","coordinates":[[[-120.233618,39.352299],[-120.233624,39.352187],[-120.233398,39.352024],[-120.233356,39.35206],[-120.233326,39.352039],[-120.233211,39.352134],[-120.233291,39.352192],[-120.23326,39.352217],[-120.233323,39.352263],[-120.23329,39.35229],[-120.233361,39.352342],[-120.233401,39.352308],[-120.233439,39.352335],[-120.233474,39.352306],[-120.233546,39.352359],[-120.233618,39.352299]]]}},{"type":"Feature","properties":{"k":"bunker"},"geometry":{"type":"Polygon","coordinates":[[[-120.249762,39.34513],[-120.249746,39.345155],[-120.24973,39.345165],[-120.249707,39.345165],[-120.24969,39.345155],[-120.249676,39.345127],[-120.249651,39.345122],[-120.249634,39.345104],[-120.249637,39.345078],[-120.249667,39.345071],[-120.249679,39.345076],[-120.2497,39.345066],[-120.249726,39.34507],[-120.249729,39.345096],[-120.249761,39.345107],[-120.249762,39.34513]]]}},{"type":"Feature","properties":{"k":"bunker"},"geometry":{"type":"Polygon","coordinates":[[[-120.24967,39.344996],[-120.249701,39.345006],[-120.249677,39.34503],[-120.24964,39.345033],[-120.249614,39.345018],[-120.249619,39.344975],[-120.249598,39.344949],[-120.249608,39.344929],[-120.249657,39.34492],[-120.249676,39.34493],[-120.249689,39.344969],[-120.249669,39.344985],[-120.24967,39.344996]]]}},{"type":"Feature","properties":{"k":"bunker"},"geometry":{"type":"Polygon","coordinates":[[[-120.249719,39.345753],[-120.249679,39.345761],[-120.249662,39.345753],[-120.249649,39.345721],[-120.249674,39.345684],[-120.249687,39.345679],[-120.249674,39.345662],[-120.249683,39.345632],[-120.249674,39.345617],[-120.249676,39.345597],[-120.249691,39.345578],[-120.249731,39.345566],[-120.249751,39.345576],[-120.249762,39.345606],[-120.249754,39.345624],[-120.249731,39.345643],[-120.249749,39.345656],[-120.249754,39.345681],[-120.24974,39.345697],[-120.249744,39.345726],[-120.249719,39.345753]]]}},{"type":"Feature","properties":{"k":"bunker"},"geometry":{"type":"Polygon","coordinates":[[[-120.237874,39.350996],[-120.237859,39.351014],[-120.237807,39.351014],[-120.237789,39.350998],[-120.237793,39.350975],[-120.237773,39.350951],[-120.237795,39.350928],[-120.23784,39.350932],[-120.237853,39.3509],[-120.237876,39.350891],[-120.237899,39.350892],[-120.237927,39.350917],[-120.23792,39.350936],[-120.237893,39.350956],[-120.237882,39.35095],[-120.237869,39.350953],[-120.23788,39.350959],[-120.237878,39.350968],[-120.237843,39.350978],[-120.237848,39.350985],[-120.237873,39.350988],[-120.237874,39.350996]]]}},{"type":"Feature","properties":{"k":"bunker"},"geometry":{"type":"Polygon","coordinates":[[[-120.240741,39.349714],[-120.240731,39.349733],[-120.240712,39.349746],[-120.240685,39.349753],[-120.24064,39.34975],[-120.240609,39.349769],[-120.240574,39.349776],[-120.240519,39.349758],[-120.240513,39.34974],[-120.240515,39.349716],[-120.240538,39.349714],[-120.240558,39.349728],[-120.240565,39.349696],[-120.24058,39.349693],[-120.240612,39.349707],[-120.240618,39.34969],[-120.240631,39.349684],[-120.240644,39.349684],[-120.240656,39.349716],[-120.240692,39.349678],[-120.240731,39.349695],[-120.240741,39.349714]]]}},{"type":"Feature","properties":{"k":"green"},"geometry":{"type":"Polygon","coordinates":[[[-120.234657,39.352654],[-120.234648,39.352696],[-120.234609,39.352714],[-120.234535,39.352731],[-120.234473,39.352725],[-120.234374,39.352703],[-120.234329,39.35267],[-120.234303,39.352637],[-120.234309,39.352593],[-120.234346,39.352573],[-120.234493,39.352573],[-120.234586,39.352591],[-120.234646,39.352615],[-120.234657,39.352654]]]}},{"type":"Feature","properties":{"k":"bunker"},"geometry":{"type":"Polygon","coordinates":[[[-120.234562,39.352526],[-120.234585,39.352539],[-120.234585,39.352551],[-120.234566,39.352564],[-120.234537,39.352562],[-120.234526,39.352543],[-120.234502,39.352548],[-120.234498,39.352556],[-120.234474,39.352548],[-120.234458,39.352554],[-120.234409,39.352536],[-120.234391,39.352545],[-120.234382,39.352534],[-120.234347,39.352525],[-120.234355,39.352542],[-120.234329,39.352546],[-120.234313,39.352558],[-120.234287,39.35255],[-120.234271,39.352522],[-120.234276,39.352499],[-120.234305,39.352477],[-120.23436,39.352486],[-120.234389,39.352464],[-120.234422,39.352474],[-120.234414,39.352489],[-120.234427,39.3525],[-120.234482,39.352481],[-120.234516,39.352487],[-120.234564,39.35248],[-120.234582,39.352496],[-120.234585,39.352516],[-120.234562,39.352526]]]}},{"type":"Feature","properties":{"k":"green"},"geometry":{"type":"Polygon","coordinates":[[[-120.242773,39.348841],[-120.242726,39.348862],[-120.242609,39.348879],[-120.242474,39.348919],[-120.242419,39.348915],[-120.242388,39.348873],[-120.242399,39.348824],[-120.242415,39.348801],[-120.242441,39.348784],[-120.242644,39.348733],[-120.242723,39.348738],[-120.242768,39.34876],[-120.242791,39.348798],[-120.24279,39.348821],[-120.242773,39.348841]]]}},{"type":"Feature","properties":{"k":"bunker"},"geometry":{"type":"Polygon","coordinates":[[[-120.242624,39.34447],[-120.24261,39.344502],[-120.242575,39.344499],[-120.242554,39.344455],[-120.242564,39.344422],[-120.242577,39.344413],[-120.242612,39.344417],[-120.242639,39.344397],[-120.24266,39.344399],[-120.242689,39.344418],[-120.242707,39.344443],[-120.24271,39.344473],[-120.242698,39.344485],[-120.242666,39.344495],[-120.242652,39.344493],[-120.242656,39.344473],[-120.242648,39.344466],[-120.242624,39.34447]]]}},{"type":"Feature","properties":{"k":"bunker"},"geometry":{"type":"Polygon","coordinates":[[[-120.249376,39.345662],[-120.249388,39.345672],[-120.249388,39.345684],[-120.249347,39.345715],[-120.249322,39.34572],[-120.249295,39.345708],[-120.249292,39.345686],[-120.2493,39.34568],[-120.249324,39.345675],[-120.24935,39.345658],[-120.249376,39.345662]]]}},{"type":"Feature","properties":{"k":"bunker"},"geometry":{"type":"Polygon","coordinates":[[[-120.249228,39.345815],[-120.249234,39.345803],[-120.249277,39.345771],[-120.249277,39.345745],[-120.249256,39.345723],[-120.249224,39.345733],[-120.249204,39.345751],[-120.249207,39.345781],[-120.249202,39.345788],[-120.24918,39.34579],[-120.249171,39.34581],[-120.249176,39.345846],[-120.249186,39.345854],[-120.249215,39.34585],[-120.249225,39.345839],[-120.249228,39.345815]]]}},{"type":"Feature","properties":{"k":"bunker"},"geometry":{"type":"Polygon","coordinates":[[[-120.248261,39.348116],[-120.248285,39.34812],[-120.248293,39.348129],[-120.248285,39.348151],[-120.248254,39.348171],[-120.248215,39.348169],[-120.248209,39.348159],[-120.248219,39.348139],[-120.248206,39.348128],[-120.248203,39.348099],[-120.248223,39.348071],[-120.248224,39.348034],[-120.248243,39.348023],[-120.248291,39.348033],[-120.248275,39.348067],[-120.248291,39.348078],[-120.24829,39.348091],[-120.248286,39.3481],[-120.248257,39.348108],[-120.248261,39.348116]]]}},{"type":"Feature","properties":{"k":"bunker"},"geometry":{"type":"Polygon","coordinates":[[[-120.24831,39.347971],[-120.248316,39.347987],[-120.248304,39.348005],[-120.248276,39.348009],[-120.248244,39.347999],[-120.24824,39.34797],[-120.248276,39.347945],[-120.248315,39.34794],[-120.24833,39.347899],[-120.248362,39.347883],[-120.248398,39.34789],[-120.248407,39.347912],[-120.248399,39.347923],[-120.248362,39.347931],[-120.248346,39.347959],[-120.24831,39.347971]]]}},{"type":"Feature","properties":{"k":"bunker"},"geometry":{"type":"Polygon","coordinates":[[[-120.248362,39.348277],[-120.24835,39.348275],[-120.248346,39.348258],[-120.248315,39.348247],[-120.248277,39.348258],[-120.248268,39.348269],[-120.248288,39.348311],[-120.248326,39.348307],[-120.248339,39.348323],[-120.248355,39.348326],[-120.248392,39.348306],[-120.248398,39.348293],[-120.248386,39.348272],[-120.248362,39.348277]]]}},{"type":"Feature","properties":{"k":"bunker"},"geometry":{"type":"Polygon","coordinates":[[[-120.246893,39.343554],[-120.246898,39.343589],[-120.246883,39.343596],[-120.246853,39.3436],[-120.2468,39.343592],[-120.246771,39.343577],[-120.246777,39.343555],[-120.246841,39.34356],[-120.246858,39.343541],[-120.246893,39.343554]]]}},{"type":"Feature","properties":{"k":"bunker"},"geometry":{"type":"Polygon","coordinates":[[[-120.247005,39.343565],[-120.246994,39.343579],[-120.246995,39.343598],[-120.247017,39.343612],[-120.247118,39.343639],[-120.247147,39.34363],[-120.247145,39.343591],[-120.24713,39.343581],[-120.247111,39.34358],[-120.247081,39.343594],[-120.247061,39.343574],[-120.247005,39.343565]]]}},{"type":"Feature","properties":{"k":"bunker"},"geometry":{"type":"Polygon","coordinates":[[[-120.247432,39.343661],[-120.247405,39.343652],[-120.247375,39.343664],[-120.247326,39.343648],[-120.247294,39.343625],[-120.247291,39.343606],[-120.247303,39.3436],[-120.247319,39.343603],[-120.247339,39.343617],[-120.247364,39.343607],[-120.247392,39.343607],[-120.247404,39.343622],[-120.247417,39.343614],[-120.247448,39.343618],[-120.24746,39.343644],[-120.247432,39.343661]]]}},{"type":"Feature","properties":{"k":"bunker"},"geometry":{"type":"Polygon","coordinates":[[[-120.244388,39.343663],[-120.244366,39.343684],[-120.244338,39.343689],[-120.244308,39.343681],[-120.244297,39.343655],[-120.244318,39.343635],[-120.244336,39.343633],[-120.244375,39.343639],[-120.244388,39.34365],[-120.244388,39.343663]]]}},{"type":"Feature","properties":{"k":"bunker"},"geometry":{"type":"Polygon","coordinates":[[[-120.244567,39.34375],[-120.244554,39.343728],[-120.244524,39.343724],[-120.244525,39.343712],[-120.244492,39.343699],[-120.244492,39.343685],[-120.244507,39.343676],[-120.244544,39.343675],[-120.244579,39.343691],[-120.244616,39.343695],[-120.244649,39.343717],[-120.244653,39.343732],[-120.24463,39.343755],[-120.244587,39.34376],[-120.244567,39.34375]]]}},{"type":"Feature","properties":{"k":"bunker"},"geometry":{"type":"Polygon","coordinates":[[[-120.244636,39.343957],[-120.244582,39.343978],[-120.244487,39.343995],[-120.244469,39.343993],[-120.244453,39.343965],[-120.244474,39.343942],[-120.244497,39.343941],[-120.244548,39.343958],[-120.244557,39.343925],[-120.244597,39.343907],[-120.244622,39.343908],[-120.244637,39.343919],[-120.244636,39.343957]]]}},{"type":"Feature","properties":{"k":"bunker"},"geometry":{"type":"Polygon","coordinates":[[[-120.240148,39.346012],[-120.240137,39.34604],[-120.240093,39.346062],[-120.240081,39.346089],[-120.240067,39.346099],[-120.240031,39.346108],[-120.240021,39.346128],[-120.240006,39.346139],[-120.239963,39.346148],[-120.23995,39.346159],[-120.239932,39.346162],[-120.239918,39.346156],[-120.239915,39.346141],[-120.239937,39.346117],[-120.239969,39.346117],[-120.240012,39.346077],[-120.240044,39.346072],[-120.240049,39.346028],[-120.24008,39.346013],[-120.240068,39.345994],[-120.240074,39.345984],[-120.240105,39.345977],[-120.240124,39.34598],[-120.240148,39.346012]]]}},{"type":"Feature","properties":{"k":"bunker"},"geometry":{"type":"Polygon","coordinates":[[[-120.239931,39.345868],[-120.239908,39.345878],[-120.239857,39.345881],[-120.239837,39.345894],[-120.239813,39.345898],[-120.239791,39.345886],[-120.239765,39.345891],[-120.239753,39.345885],[-120.239743,39.345854],[-120.239749,39.345843],[-120.239786,39.345837],[-120.239839,39.345847],[-120.239848,39.345828],[-120.239874,39.345818],[-120.239931,39.345868]]]}},{"type":"Feature","properties":{"k":"bunker"},"geometry":{"type":"Polygon","coordinates":[[[-120.239724,39.3459],[-120.239725,39.34592],[-120.239678,39.345914],[-120.239664,39.345941],[-120.239652,39.345948],[-120.239632,39.345952],[-120.239609,39.34594],[-120.23961,39.345903],[-120.239654,39.345859],[-120.239687,39.345861],[-120.239724,39.3459]]]}},{"type":"Feature","properties":{"k":"bunker"},"geometry":{"type":"Polygon","coordinates":[[[-120.237628,39.347277],[-120.237641,39.347294],[-120.237634,39.347316],[-120.237622,39.347327],[-120.237598,39.34733],[-120.237582,39.347318],[-120.237599,39.347299],[-120.237592,39.347293],[-120.237578,39.347295],[-120.237574,39.347276],[-120.23759,39.34726],[-120.237605,39.347257],[-120.237617,39.347259],[-120.237628,39.347277]]]}},{"type":"Feature","properties":{"k":"bunker"},"geometry":{"type":"Polygon","coordinates":[[[-120.237606,39.347387],[-120.237594,39.347423],[-120.237555,39.347446],[-120.237542,39.347467],[-120.237518,39.347476],[-120.237497,39.347467],[-120.237495,39.347437],[-120.237542,39.34742],[-120.237541,39.347403],[-120.237566,39.347374],[-120.237592,39.347373],[-120.237606,39.347387]]]}},{"type":"Feature","properties":{"k":"bunker"},"geometry":{"type":"Polygon","coordinates":[[[-120.237461,39.347474],[-120.237476,39.347485],[-120.237467,39.347504],[-120.237421,39.347519],[-120.237383,39.347542],[-120.237312,39.347545],[-120.237288,39.347523],[-120.237285,39.347508],[-120.237295,39.347495],[-120.237312,39.34749],[-120.237373,39.347491],[-120.237392,39.347471],[-120.23742,39.34747],[-120.23744,39.347456],[-120.237462,39.347462],[-120.237461,39.347474]]]}},{"type":"Feature","properties":{"k":"bunker"},"geometry":{"type":"Polygon","coordinates":[[[-120.237148,39.347304],[-120.237131,39.347323],[-120.237119,39.347325],[-120.237105,39.347321],[-120.237093,39.3473],[-120.237098,39.34729],[-120.237139,39.347285],[-120.237145,39.347275],[-120.237159,39.347271],[-120.237184,39.34724],[-120.237201,39.347193],[-120.237235,39.347187],[-120.237256,39.347205],[-120.237283,39.347212],[-120.237284,39.347223],[-120.237266,39.34724],[-120.237229,39.347241],[-120.237215,39.347286],[-120.237191,39.34729],[-120.237182,39.347313],[-120.237172,39.347315],[-120.237148,39.347304]]]}},{"type":"Feature","properties":{"k":"bunker"},"geometry":{"type":"Polygon","coordinates":[[[-120.244839,39.348512],[-120.244841,39.348526],[-120.244828,39.348536],[-120.244814,39.348542],[-120.244785,39.348538],[-120.24478,39.348548],[-120.244748,39.34855],[-120.244742,39.348558],[-120.244749,39.348568],[-120.244739,39.348577],[-120.244702,39.348577],[-120.244679,39.348559],[-120.244686,39.348528],[-120.244735,39.348514],[-120.244741,39.348504],[-120.244809,39.348494],[-120.244839,39.348512]]]}},{"type":"Feature","properties":{"k":"bunker"},"geometry":{"type":"Polygon","coordinates":[[[-120.233595,39.351367],[-120.233618,39.351399],[-120.233616,39.35141],[-120.233598,39.351424],[-120.233574,39.351422],[-120.233553,39.351402],[-120.233527,39.351415],[-120.233511,39.351414],[-120.233509,39.351389],[-120.233546,39.351365],[-120.233575,39.351331],[-120.233592,39.35133],[-120.233616,39.351346],[-120.233595,39.351367]]]}},{"type":"Feature","properties":{"k":"bunker"},"geometry":{"type":"Polygon","coordinates":[[[-120.233455,39.351445],[-120.233449,39.351472],[-120.233423,39.351485],[-120.233399,39.351484],[-120.233348,39.351465],[-120.233355,39.351448],[-120.233417,39.351434],[-120.233445,39.351435],[-120.233455,39.351445]]]}},{"type":"Feature","properties":{"k":"bunker"},"geometry":{"type":"Polygon","coordinates":[[[-120.233736,39.351291],[-120.233735,39.351302],[-120.233712,39.351319],[-120.233696,39.35132],[-120.233676,39.351304],[-120.233677,39.35129],[-120.233699,39.351269],[-120.233733,39.351265],[-120.23374,39.351257],[-120.233726,39.351238],[-120.23373,39.35123],[-120.233766,39.351206],[-120.233801,39.351203],[-120.233823,39.351222],[-120.233817,39.35125],[-120.233785,39.351263],[-120.233767,39.351281],[-120.233736,39.351291]]]}},{"type":"Feature","properties":{"k":"bunker"},"geometry":{"type":"Polygon","coordinates":[[[-120.233624,39.351086],[-120.233616,39.351113],[-120.233586,39.351117],[-120.233572,39.351103],[-120.233583,39.351078],[-120.233547,39.351075],[-120.233543,39.35105],[-120.23357,39.351033],[-120.233585,39.351034],[-120.2336,39.351051],[-120.233617,39.35104],[-120.233635,39.35104],[-120.233649,39.351047],[-120.23366,39.351069],[-120.233647,39.351087],[-120.233624,39.351086]]]}},{"type":"Feature","properties":{"k":"bunker"},"geometry":{"type":"Polygon","coordinates":[[[-120.247809,39.348907],[-120.247828,39.348908],[-120.247831,39.348917],[-120.247819,39.348931],[-120.247766,39.348933],[-120.247747,39.348953],[-120.247732,39.348957],[-120.247699,39.348949],[-120.247682,39.34893],[-120.247701,39.348908],[-120.247748,39.348897],[-120.247782,39.348873],[-120.247816,39.348872],[-120.247823,39.348879],[-120.247822,39.348887],[-120.247804,39.348899],[-120.247809,39.348907]]]}},{"type":"Feature","properties":{"k":"bunker"},"geometry":{"type":"Polygon","coordinates":[[[-120.247628,39.349008],[-120.24763,39.349032],[-120.247596,39.349043],[-120.247573,39.349026],[-120.247566,39.349],[-120.247583,39.348981],[-120.247613,39.348972],[-120.247624,39.348953],[-120.24764,39.348949],[-120.24768,39.348987],[-120.247675,39.349003],[-120.247655,39.34901],[-120.247628,39.349008]]]}},{"type":"Feature","properties":{"k":"bunker"},"geometry":{"type":"Polygon","coordinates":[[[-120.247431,39.34909],[-120.247429,39.349126],[-120.2474,39.349139],[-120.247386,39.349141],[-120.247355,39.34913],[-120.247349,39.34915],[-120.247309,39.34916],[-120.247281,39.349157],[-120.247271,39.349146],[-120.247269,39.349116],[-120.247292,39.349094],[-120.24731,39.349092],[-120.247334,39.349101],[-120.247377,39.349074],[-120.247405,39.34907],[-120.247425,39.349076],[-120.247431,39.34909]]]}},{"type":"Feature","properties":{"k":"bunker"},"geometry":{"type":"Polygon","coordinates":[[[-120.242353,39.348865],[-120.242349,39.348892],[-120.242328,39.348907],[-120.242211,39.348938],[-120.242187,39.348926],[-120.242184,39.348908],[-120.242198,39.348891],[-120.24223,39.348875],[-120.242259,39.348893],[-120.242265,39.348871],[-120.242298,39.348867],[-120.242292,39.348852],[-120.242314,39.348835],[-120.242339,39.348839],[-120.242353,39.348865]]]}},{"type":"Feature","properties":{"k":"bunker"},"geometry":{"type":"Polygon","coordinates":[[[-120.24202,39.349047],[-120.242003,39.349074],[-120.241981,39.349082],[-120.241968,39.349078],[-120.241952,39.349085],[-120.241875,39.349088],[-120.241853,39.349074],[-120.241854,39.349063],[-120.241927,39.34904],[-120.241971,39.349046],[-120.241999,39.34903],[-120.242011,39.349033],[-120.24202,39.349047]]]}},{"type":"Feature","properties":{"k":"bunker"},"geometry":{"type":"Polygon","coordinates":[[[-120.240357,39.349937],[-120.24037,39.349947],[-120.240385,39.349938],[-120.24039,39.349918],[-120.240383,39.3499],[-120.240358,39.34989],[-120.240337,39.349891],[-120.240322,39.349907],[-120.240299,39.3499],[-120.240281,39.349912],[-120.240283,39.349933],[-120.240313,39.349972],[-120.240344,39.349967],[-120.240347,39.349939],[-120.240357,39.349937]]]}},{"type":"Feature","properties":{"k":"bunker"},"geometry":{"type":"Polygon","coordinates":[[[-120.240259,39.349989],[-120.240217,39.35],[-120.240189,39.350016],[-120.240166,39.350011],[-120.240151,39.349997],[-120.240159,39.34996],[-120.240186,39.349948],[-120.240193,39.349961],[-120.240202,39.349961],[-120.240205,39.349947],[-120.240224,39.349942],[-120.240253,39.349958],[-120.240264,39.349973],[-120.240259,39.349989]]]}},{"type":"Feature","properties":{"k":"tee"},"geometry":{"type":"Polygon","coordinates":[[[-120.238096,39.357094],[-120.238094,39.357128],[-120.238119,39.357147],[-120.238159,39.357147],[-120.238183,39.357136],[-120.238193,39.357121],[-120.238183,39.357087],[-120.238165,39.357072],[-120.23812,39.357069],[-120.238096,39.357094]]]}},{"type":"Feature","properties":{"k":"tee"},"geometry":{"type":"Polygon","coordinates":[[[-120.23798,39.356886],[-120.237997,39.356919],[-120.238012,39.356929],[-120.23808,39.356926],[-120.238096,39.356918],[-120.238104,39.356895],[-120.238089,39.356829],[-120.238056,39.356791],[-120.238045,39.356757],[-120.238008,39.356721],[-120.237988,39.356718],[-120.237928,39.356732],[-120.237909,39.356754],[-120.237907,39.35677],[-120.23798,39.356886]]]}},{"type":"Feature","properties":{"k":"tee"},"geometry":{"type":"Polygon","coordinates":[[[-120.237816,39.356636],[-120.237838,39.356691],[-120.237881,39.35671],[-120.237946,39.356693],[-120.237965,39.356659],[-120.237965,39.356622],[-120.237953,39.356602],[-120.237907,39.356559],[-120.237888,39.356552],[-120.237852,39.356549],[-120.237803,39.356568],[-120.237804,39.356619],[-120.237816,39.356636]]]}},{"type":"Feature","properties":{"k":"tee"},"geometry":{"type":"Polygon","coordinates":[[[-120.237508,39.356276],[-120.237548,39.356278],[-120.237539,39.356241],[-120.237512,39.356193],[-120.237485,39.356169],[-120.23744,39.356165],[-120.23743,39.356183],[-120.237508,39.356276]]]}},{"type":"Feature","properties":{"k":"tee"},"geometry":{"type":"Polygon","coordinates":[[[-120.237527,39.355832],[-120.23754,39.35586],[-120.237573,39.355897],[-120.237602,39.355906],[-120.237626,39.355901],[-120.237645,39.355886],[-120.23763,39.355839],[-120.237595,39.355799],[-120.237574,39.355789],[-120.237548,39.355786],[-120.237531,39.355795],[-120.237519,39.355813],[-120.237527,39.355832]]]}},{"type":"Feature","properties":{"k":"bunker"},"geometry":{"type":"Polygon","coordinates":[[[-120.23537,39.352757],[-120.235319,39.352782],[-120.235288,39.352774],[-120.235291,39.352751],[-120.235302,39.352742],[-120.235342,39.352735],[-120.235333,39.35272],[-120.235339,39.352711],[-120.235397,39.352702],[-120.235406,39.352711],[-120.235404,39.352734],[-120.235381,39.352735],[-120.23537,39.352757]]]}},{"type":"Feature","properties":{"k":"bunker"},"geometry":{"type":"Polygon","coordinates":[[[-120.235367,39.352967],[-120.235416,39.353009],[-120.235422,39.353023],[-120.235396,39.353041],[-120.235374,39.353041],[-120.235361,39.353034],[-120.235358,39.35302],[-120.235333,39.353027],[-120.235316,39.35302],[-120.235299,39.352991],[-120.235313,39.352988],[-120.235282,39.352946],[-120.23529,39.352935],[-120.235309,39.352934],[-120.235333,39.352941],[-120.235367,39.352967]]]}},{"type":"Feature","properties":{"k":"bunker"},"geometry":{"type":"Polygon","coordinates":[[[-120.23542,39.353175],[-120.235413,39.35324],[-120.235405,39.353249],[-120.235368,39.353252],[-120.235333,39.353224],[-120.235348,39.353198],[-120.235346,39.353184],[-120.235317,39.353152],[-120.23532,39.353136],[-120.235358,39.353123],[-120.235404,39.353128],[-120.235422,39.353153],[-120.23542,39.353175]]]}},{"type":"Feature","properties":{"k":"green"},"geometry":{"type":"Polygon","coordinates":[[[-120.235597,39.352831],[-120.235601,39.352876],[-120.235577,39.352936],[-120.235517,39.352973],[-120.235462,39.352985],[-120.235405,39.352967],[-120.235332,39.352902],[-120.235304,39.352861],[-120.235303,39.352841],[-120.235329,39.352805],[-120.235412,39.352751],[-120.235466,39.352736],[-120.235535,39.352751],[-120.235586,39.352805],[-120.235597,39.352831]]]}},{"type":"Feature","properties":{"k":"bunker"},"geometry":{"type":"Polygon","coordinates":[[[-120.235944,39.353888],[-120.235939,39.353905],[-120.23592,39.353911],[-120.235901,39.353905],[-120.235855,39.353846],[-120.23586,39.353825],[-120.235889,39.353815],[-120.235919,39.353828],[-120.235925,39.353859],[-120.235944,39.353888]]]}},{"type":"Feature","properties":{"k":"bunker"},"geometry":{"type":"Polygon","coordinates":[[[-120.236134,39.354309],[-120.236126,39.354275],[-120.236163,39.354264],[-120.236177,39.35427],[-120.23619,39.354283],[-120.23619,39.354311],[-120.236218,39.354328],[-120.236224,39.354345],[-120.236215,39.354359],[-120.236153,39.354349],[-120.236124,39.354326],[-120.236134,39.354309]]]}},{"type":"Feature","properties":{"k":"bunker"},"geometry":{"type":"Polygon","coordinates":[[[-120.23697,39.354674],[-120.237004,39.354676],[-120.237015,39.354687],[-120.237011,39.354707],[-120.236972,39.354732],[-120.236928,39.354731],[-120.236909,39.354711],[-120.236863,39.354708],[-120.236849,39.354681],[-120.236854,39.354671],[-120.236873,39.354668],[-120.23687,39.354657],[-120.236837,39.35466],[-120.236819,39.354653],[-120.236813,39.354624],[-120.236836,39.354621],[-120.236833,39.354611],[-120.236801,39.354613],[-120.236781,39.354601],[-120.236772,39.354567],[-120.236792,39.354557],[-120.236825,39.354572],[-120.236832,39.354549],[-120.236849,39.35455],[-120.236881,39.354575],[-120.236901,39.354577],[-120.236915,39.354611],[-120.236914,39.354636],[-120.236936,39.354623],[-120.23695,39.354625],[-120.236973,39.354655],[-120.23697,39.354674]]]}},{"type":"Feature","properties":{"k":"bunker"},"geometry":{"type":"Polygon","coordinates":[[[-120.23676,39.355082],[-120.236773,39.355093],[-120.236766,39.355108],[-120.236742,39.355111],[-120.236707,39.355095],[-120.236695,39.355053],[-120.236715,39.35503],[-120.236751,39.355035],[-120.236764,39.355047],[-120.23676,39.355082]]]}},{"type":"Feature","properties":{"k":"bunker"},"geometry":{"type":"Polygon","coordinates":[[[-120.236901,39.35529],[-120.236914,39.355306],[-120.236916,39.355345],[-120.236889,39.355348],[-120.23685,39.355335],[-120.236832,39.355274],[-120.236869,39.355261],[-120.236901,39.35529]]]}},{"type":"Feature","properties":{"k":"tee"},"geometry":{"type":"Polygon","coordinates":[[[-120.234104,39.352145],[-120.23408,39.352125],[-120.234033,39.352127],[-120.23402,39.352147],[-120.234026,39.352167],[-120.234045,39.352181],[-120.23407,39.352184],[-120.234098,39.352174],[-120.234104,39.352145]]]}},{"type":"Feature","properties":{"k":"tee"},"geometry":{"type":"Polygon","coordinates":[[[-120.234364,39.352066],[-120.234233,39.352069],[-120.234194,39.352082],[-120.234179,39.352141],[-120.234194,39.352167],[-120.234243,39.352189],[-120.234406,39.352175],[-120.234431,39.352148],[-120.234433,39.352119],[-120.234408,39.352077],[-120.234364,39.352066]]]}},{"type":"Feature","properties":{"k":"bunker"},"geometry":{"type":"Polygon","coordinates":[[[-120.238673,39.351639],[-120.238649,39.351662],[-120.23861,39.351664],[-120.238571,39.351688],[-120.238567,39.35171],[-120.238593,39.351736],[-120.238627,39.351728],[-120.238658,39.351734],[-120.23869,39.351726],[-120.238686,39.351703],[-120.238662,39.3517],[-120.238653,39.351693],[-120.238656,39.351686],[-120.238698,39.351687],[-120.23871,39.35171],[-120.23873,39.351717],[-120.238752,39.351712],[-120.238795,39.351684],[-120.238794,39.351672],[-120.238769,39.351653],[-120.238773,39.351639],[-120.238762,39.351622],[-120.238733,39.351627],[-120.238712,39.351647],[-120.238686,39.351634],[-120.238673,39.351639]]]}},{"type":"Feature","properties":{"k":"green"},"geometry":{"type":"Polygon","coordinates":[[[-120.238974,39.351875],[-120.238927,39.351908],[-120.238889,39.351919],[-120.238849,39.351923],[-120.238792,39.351916],[-120.238725,39.351897],[-120.238646,39.351861],[-120.23862,39.35183],[-120.238619,39.351802],[-120.238635,39.351776],[-120.238665,39.351755],[-120.23875,39.351736],[-120.238841,39.351703],[-120.238868,39.351699],[-120.238921,39.351706],[-120.238981,39.351733],[-120.239006,39.351774],[-120.239007,39.351821],[-120.238974,39.351875]]]}},{"type":"Feature","properties":{"k":"fairway"},"geometry":{"type":"Polygon","coordinates":[[[-120.23632,39.352138],[-120.236467,39.352106],[-120.236648,39.352102],[-120.236782,39.352117],[-120.23705,39.352096],[-120.237127,39.352082],[-120.237183,39.352052],[-120.237201,39.352006],[-120.237192,39.351968],[-120.237115,39.351897],[-120.23706,39.351868],[-120.236998,39.351845],[-120.236925,39.351845],[-120.236734,39.351868],[-120.236243,39.351902],[-120.235704,39.351921],[-120.235378,39.351948],[-120.235294,39.351961],[-120.235248,39.351987],[-120.235226,39.352015],[-120.235226,39.352055],[-120.23524,39.352087],[-120.235257,39.352107],[-120.235283,39.352117],[-120.235516,39.352109],[-120.235671,39.352159],[-120.235727,39.352168],[-120.235913,39.35217],[-120.23632,39.352138]]]}},{"type":"Feature","properties":{"k":"tee"},"geometry":{"type":"Polygon","coordinates":[[[-120.23958,39.351756],[-120.239516,39.351776],[-120.239463,39.351813],[-120.239445,39.351836],[-120.239444,39.351859],[-120.239463,39.351875],[-120.239491,39.351882],[-120.239528,39.351872],[-120.23962,39.351807],[-120.239613,39.351769],[-120.239598,39.351757],[-120.23958,39.351756]]]}},{"type":"Feature","properties":{"k":"tee"},"geometry":{"type":"Polygon","coordinates":[[[-120.240162,39.351185],[-120.240133,39.351188],[-120.240076,39.351219],[-120.240059,39.35124],[-120.24006,39.351264],[-120.240078,39.351277],[-120.240099,39.351279],[-120.240127,39.35127],[-120.240178,39.351238],[-120.24019,39.351208],[-120.240182,39.351191],[-120.240162,39.351185]]]}},{"type":"Feature","properties":{"k":"tee"},"geometry":{"type":"Polygon","coordinates":[[[-120.24046,39.351218],[-120.2404,39.351251],[-120.240365,39.351249],[-120.24034,39.351233],[-120.240337,39.35121],[-120.240358,39.351178],[-120.240442,39.351131],[-120.240473,39.351122],[-120.240496,39.351132],[-120.240506,39.351186],[-120.24046,39.351218]]]}},{"type":"Feature","properties":{"k":"tee"},"geometry":{"type":"Polygon","coordinates":[[[-120.235072,39.352194],[-120.235012,39.352194],[-120.235003,39.352186],[-120.235002,39.352163],[-120.235012,39.352154],[-120.235036,39.352149],[-120.235091,39.352148],[-120.235101,39.352158],[-120.235102,39.352183],[-120.235072,39.352194]]]}},{"type":"Feature","properties":{"k":"tee"},"geometry":{"type":"Polygon","coordinates":[[[-120.235412,39.352165],[-120.235368,39.352167],[-120.235353,39.352179],[-120.235355,39.352204],[-120.235388,39.352215],[-120.235435,39.352202],[-120.235434,39.352176],[-120.235412,39.352165]]]}},{"type":"Feature","properties":{"k":"tee"},"geometry":{"type":"Polygon","coordinates":[[[-120.244015,39.34938],[-120.243921,39.349404],[-120.243859,39.349397],[-120.243811,39.349376],[-120.243791,39.349347],[-120.24379,39.3493],[-120.243796,39.349278],[-120.243826,39.349241],[-120.243897,39.349205],[-120.24393,39.349197],[-120.243968,39.349197],[-120.244024,39.34921],[-120.244062,39.349248],[-120.244073,39.349303],[-120.244065,39.34933],[-120.244044,39.34936],[-120.244015,39.34938]]]}},{"type":"Feature","properties":{"k":"tee"},"geometry":{"type":"Polygon","coordinates":[[[-120.245122,39.349297],[-120.245149,39.349377],[-120.245132,39.349399],[-120.245102,39.349408],[-120.245075,39.349399],[-120.245062,39.349378],[-120.244995,39.349213],[-120.245009,39.349187],[-120.245032,39.349176],[-120.24506,39.349182],[-120.245122,39.349297]]]}},{"type":"Feature","properties":{"k":"tee"},"geometry":{"type":"Polygon","coordinates":[[[-120.24537,39.349999],[-120.2453,39.349872],[-120.245265,39.349858],[-120.245243,39.349875],[-120.245246,39.349906],[-120.245337,39.350062],[-120.245363,39.350068],[-120.245384,39.350062],[-120.245387,39.350032],[-120.24537,39.349999]]]}},{"type":"Feature","properties":{"k":"tee"},"geometry":{"type":"Polygon","coordinates":[[[-120.245519,39.350392],[-120.245502,39.350361],[-120.245467,39.350349],[-120.245436,39.350358],[-120.245431,39.350383],[-120.245467,39.350426],[-120.245491,39.350436],[-120.245522,39.350426],[-120.245519,39.350392]]]}},{"type":"Feature","properties":{"k":"green"},"geometry":{"type":"Polygon","coordinates":[[[-120.246528,39.352666],[-120.246565,39.352697],[-120.246577,39.352726],[-120.24657,39.352764],[-120.246558,39.352779],[-120.246521,39.35281],[-120.246478,39.35283],[-120.246447,39.352834],[-120.246391,39.352824],[-120.246334,39.352768],[-120.246295,39.352674],[-120.24629,39.352627],[-120.246316,39.352581],[-120.246358,39.352557],[-120.246412,39.35256],[-120.246436,39.352573],[-120.246494,39.35264],[-120.246528,39.352666]]]}},{"type":"Feature","properties":{"k":"bunker"},"geometry":{"type":"Polygon","coordinates":[[[-120.246483,39.352478],[-120.246465,39.352477],[-120.246451,39.352501],[-120.246421,39.352515],[-120.246425,39.352539],[-120.246468,39.352563],[-120.246514,39.352613],[-120.246543,39.352618],[-120.246591,39.352607],[-120.2466,39.352594],[-120.246598,39.352578],[-120.246552,39.352551],[-120.246537,39.352523],[-120.246505,39.352506],[-120.246499,39.352483],[-120.246483,39.352478]]]}},{"type":"Feature","properties":{"k":"bunker"},"geometry":{"type":"Polygon","coordinates":[[[-120.246238,39.35257],[-120.246222,39.352561],[-120.2462,39.352562],[-120.246184,39.352575],[-120.246187,39.352611],[-120.246169,39.352635],[-120.246165,39.352675],[-120.246187,39.352695],[-120.246188,39.352724],[-120.246198,39.352733],[-120.246216,39.352735],[-120.24625,39.352717],[-120.246258,39.35269],[-120.24624,39.352647],[-120.246259,39.352595],[-120.246238,39.35257]]]}},{"type":"Feature","properties":{"k":"tee"},"geometry":{"type":"Polygon","coordinates":[[[-120.246765,39.3533],[-120.246771,39.353259],[-120.246749,39.353221],[-120.2467,39.353202],[-120.246645,39.353203],[-120.246611,39.353236],[-120.246594,39.353272],[-120.246597,39.353315],[-120.24661,39.35334],[-120.246641,39.353356],[-120.24668,39.353365],[-120.246719,39.353363],[-120.246749,39.353347],[-120.246765,39.3533]]]}},{"type":"Feature","properties":{"k":"tee"},"geometry":{"type":"Polygon","coordinates":[[[-120.246901,39.353376],[-120.246876,39.35336],[-120.246848,39.353352],[-120.246805,39.353364],[-120.246798,39.353385],[-120.24681,39.3534],[-120.24688,39.353417],[-120.246898,39.353412],[-120.24691,39.353396],[-120.246901,39.353376]]]}},{"type":"Feature","properties":{"k":"tee"},"geometry":{"type":"Polygon","coordinates":[[[-120.24721,39.353265],[-120.247181,39.35324],[-120.247144,39.353227],[-120.247105,39.353226],[-120.247076,39.353235],[-120.24707,39.353262],[-120.247092,39.35328],[-120.24718,39.353296],[-120.247203,39.353289],[-120.24721,39.353265]]]}},{"type":"Feature","properties":{"k":"green"},"geometry":{"type":"Polygon","coordinates":[[[-120.248685,39.353622],[-120.248601,39.353629],[-120.248497,39.353602],[-120.248424,39.353604],[-120.248372,39.353629],[-120.248355,39.353651],[-120.248351,39.353676],[-120.248359,39.353698],[-120.248395,39.353724],[-120.248509,39.353738],[-120.248559,39.353762],[-120.248625,39.353816],[-120.248678,39.353819],[-120.248731,39.353799],[-120.248754,39.353783],[-120.248782,39.353745],[-120.248788,39.35372],[-120.248778,39.35367],[-120.24876,39.353649],[-120.248718,39.353625],[-120.248685,39.353622]]]}},{"type":"Feature","properties":{"k":"bunker"},"geometry":{"type":"Polygon","coordinates":[[[-120.248294,39.353685],[-120.248245,39.353647],[-120.248186,39.353645],[-120.248163,39.353654],[-120.248156,39.353671],[-120.248163,39.353695],[-120.248204,39.353756],[-120.248222,39.353769],[-120.248242,39.353772],[-120.248254,39.353767],[-120.248255,39.35376],[-120.248239,39.353734],[-120.248244,39.353718],[-120.248236,39.353693],[-120.248252,39.353691],[-120.248262,39.353703],[-120.248265,39.353732],[-120.248285,39.353762],[-120.248298,39.35377],[-120.248325,39.353758],[-120.248308,39.353735],[-120.24831,39.35372],[-120.248294,39.353708],[-120.248294,39.353685]]]}},{"type":"Feature","properties":{"k":"bunker"},"geometry":{"type":"Polygon","coordinates":[[[-120.24849,39.353772],[-120.248472,39.353775],[-120.248402,39.353757],[-120.248372,39.35377],[-120.248369,39.353785],[-120.248375,39.353803],[-120.248388,39.353811],[-120.248417,39.353815],[-120.248448,39.353803],[-120.248478,39.353826],[-120.248507,39.353829],[-120.248519,39.353822],[-120.248521,39.353797],[-120.248505,39.353777],[-120.24849,39.353772]]]}},{"type":"Feature","properties":{"k":"bunker"},"geometry":{"type":"Polygon","coordinates":[[[-120.248457,39.353832],[-120.248474,39.35384],[-120.248483,39.353864],[-120.248464,39.353873],[-120.24843,39.353851],[-120.248407,39.353845],[-120.248355,39.353847],[-120.248346,39.35384],[-120.248351,39.353829],[-120.248375,39.353819],[-120.248457,39.353832]]]}},{"type":"Feature","properties":{"k":"green"},"geometry":{"type":"Polygon","coordinates":[[[-120.248294,39.356234],[-120.248246,39.356277],[-120.248172,39.356308],[-120.248142,39.356309],[-120.248089,39.35629],[-120.248063,39.356253],[-120.248067,39.356193],[-120.248147,39.35609],[-120.248171,39.356077],[-120.24823,39.356071],[-120.248263,39.356077],[-120.248308,39.356106],[-120.248323,39.356167],[-120.248294,39.356234]]]}},{"type":"Feature","properties":{"k":"tee"},"geometry":{"type":"Polygon","coordinates":[[[-120.249752,39.353322],[-120.249752,39.353299],[-120.249736,39.353283],[-120.249708,39.353284],[-120.249686,39.353298],[-120.249655,39.35338],[-120.249656,39.353429],[-120.249667,39.353443],[-120.249691,39.353444],[-120.249716,39.353436],[-120.249752,39.353322]]]}},{"type":"Feature","properties":{"k":"tee"},"geometry":{"type":"Polygon","coordinates":[[[-120.249236,39.35387],[-120.249208,39.353876],[-120.24919,39.353867],[-120.249184,39.353845],[-120.2492,39.353814],[-120.249221,39.353806],[-120.249242,39.35381],[-120.249253,39.353829],[-120.249236,39.35387]]]}},{"type":"Feature","properties":{"k":"tee"},"geometry":{"type":"Polygon","coordinates":[[[-120.249136,39.354184],[-120.249117,39.354238],[-120.249094,39.354244],[-120.249068,39.354236],[-120.249063,39.354214],[-120.249077,39.354136],[-120.249095,39.354114],[-120.249117,39.354108],[-120.249137,39.354116],[-120.249144,39.35414],[-120.249136,39.354184]]]}},{"type":"Feature","properties":{"k":"fairway"},"geometry":{"type":"Polygon","coordinates":[[[-120.249422,39.354008],[-120.249386,39.354083],[-120.249362,39.354115],[-120.249226,39.354214],[-120.249135,39.354291],[-120.249089,39.354338],[-120.249057,39.354389],[-120.249026,39.354477],[-120.249021,39.354521],[-120.24904,39.354562],[-120.249082,39.35458],[-120.249137,39.354586],[-120.249203,39.354581],[-120.249314,39.354559],[-120.249414,39.354506],[-120.249443,39.354475],[-120.24946,39.354439],[-120.249545,39.354083],[-120.249547,39.354005],[-120.249528,39.353985],[-120.249502,39.353972],[-120.249453,39.353978],[-120.249422,39.354008]]]}},{"type":"Feature","properties":{"k":"bunker"},"geometry":{"type":"Polygon","coordinates":[[[-120.249193,39.355132],[-120.249165,39.355117],[-120.249143,39.35512],[-120.249117,39.355143],[-120.249121,39.355155],[-120.249173,39.35518],[-120.249199,39.355161],[-120.249205,39.355147],[-120.249193,39.355132]]]}},{"type":"Feature","properties":{"k":"bunker"},"geometry":{"type":"Polygon","coordinates":[[[-120.249289,39.354982],[-120.249256,39.354973],[-120.249226,39.354997],[-120.249195,39.355039],[-120.249192,39.355055],[-120.249211,39.355074],[-120.249238,39.355074],[-120.249254,39.355032],[-120.249296,39.355001],[-120.249289,39.354982]]]}},{"type":"Feature","properties":{"k":"bunker"},"geometry":{"type":"Polygon","coordinates":[[[-120.248604,39.355533],[-120.248582,39.355484],[-120.248555,39.355478],[-120.248526,39.355502],[-120.248488,39.355519],[-120.248478,39.355533],[-120.248481,39.355559],[-120.248518,39.355556],[-120.248521,39.35557],[-120.248508,39.355582],[-120.248475,39.355585],[-120.248451,39.355569],[-120.248422,39.35557],[-120.248412,39.35562],[-120.24843,39.355641],[-120.24843,39.355654],[-120.248379,39.355672],[-120.248361,39.355693],[-120.248358,39.35571],[-120.248368,39.355719],[-120.248424,39.355723],[-120.248479,39.355684],[-120.248498,39.355635],[-120.248549,39.355615],[-120.248553,39.355587],[-120.248588,39.355568],[-120.248604,39.355533]]]}},{"type":"Feature","properties":{"k":"bunker"},"geometry":{"type":"Polygon","coordinates":[[[-120.248446,39.35613],[-120.248416,39.356092],[-120.248396,39.356083],[-120.248359,39.356085],[-120.248339,39.356099],[-120.24835,39.356118],[-120.248347,39.356143],[-120.24837,39.356166],[-120.248351,39.356175],[-120.248344,39.35619],[-120.248363,39.356214],[-120.248363,39.356228],[-120.248327,39.356237],[-120.2483,39.356266],[-120.248288,39.356293],[-120.248301,39.356312],[-120.248339,39.356301],[-120.248402,39.356255],[-120.248415,39.35623],[-120.248407,39.356186],[-120.248439,39.356185],[-120.248446,39.356176],[-120.248446,39.35613]]]}},{"type":"Feature","properties":{"k":"bunker"},"geometry":{"type":"Polygon","coordinates":[[[-120.248063,39.356089],[-120.24805,39.356084],[-120.248015,39.356089],[-120.248009,39.356113],[-120.247976,39.356129],[-120.247981,39.356152],[-120.248007,39.356162],[-120.248041,39.356154],[-120.248048,39.356147],[-120.248043,39.356128],[-120.248069,39.356124],[-120.24808,39.356108],[-120.248063,39.356089]]]}},{"type":"Feature","properties":{"k":"bunker"},"geometry":{"type":"Polygon","coordinates":[[[-120.248148,39.355989],[-120.248118,39.355994],[-120.24807,39.356037],[-120.248066,39.356056],[-120.248083,39.356072],[-120.248122,39.356071],[-120.248151,39.35604],[-120.248181,39.356037],[-120.248185,39.356011],[-120.248148,39.355989]]]}},{"type":"Feature","properties":{"k":"tee"},"geometry":{"type":"Polygon","coordinates":[[[-120.247514,39.357125],[-120.24749,39.357159],[-120.247445,39.357191],[-120.247408,39.357202],[-120.247387,39.357192],[-120.247382,39.35717],[-120.247406,39.357133],[-120.247468,39.357083],[-120.247491,39.357077],[-120.247511,39.357084],[-120.247521,39.357106],[-120.247514,39.357125]]]}},{"type":"Feature","properties":{"k":"tee"},"geometry":{"type":"Polygon","coordinates":[[[-120.247721,39.356817],[-120.24772,39.356787],[-120.247693,39.356774],[-120.247647,39.356786],[-120.247608,39.356831],[-120.247603,39.356854],[-120.247617,39.356879],[-120.247642,39.356884],[-120.247672,39.356879],[-120.247702,39.356858],[-120.247721,39.356817]]]}},{"type":"Feature","properties":{"k":"tee"},"geometry":{"type":"Polygon","coordinates":[[[-120.247907,39.356474],[-120.247881,39.356442],[-120.247852,39.356426],[-120.247797,39.35642],[-120.247755,39.356446],[-120.247684,39.356561],[-120.247686,39.356594],[-120.247707,39.356616],[-120.247782,39.356648],[-120.24782,39.356645],[-120.247868,39.356608],[-120.247904,39.356564],[-120.247914,39.35652],[-120.247907,39.356474]]]}},{"type":"Feature","properties":{"k":"green"},"geometry":{"type":"Polygon","coordinates":[[[-120.245619,39.358663],[-120.245576,39.358635],[-120.245538,39.358625],[-120.245473,39.358624],[-120.245453,39.35863],[-120.245408,39.35866],[-120.245341,39.358722],[-120.245338,39.358758],[-120.245349,39.358782],[-120.245393,39.358813],[-120.245453,39.358836],[-120.245484,39.358838],[-120.245548,39.358829],[-120.24559,39.358801],[-120.245641,39.358746],[-120.245649,39.358724],[-120.245646,39.358701],[-120.245619,39.358663]]]}},{"type":"Feature","properties":{"k":"bunker"},"geometry":{"type":"Polygon","coordinates":[[[-120.246924,39.357878],[-120.246936,39.35785],[-120.246925,39.357842],[-120.246905,39.357839],[-120.246866,39.357858],[-120.246846,39.357893],[-120.246811,39.357923],[-120.246794,39.357963],[-120.246758,39.357988],[-120.246748,39.358005],[-120.246758,39.358034],[-120.246771,39.358042],[-120.24681,39.358036],[-120.246821,39.358025],[-120.246807,39.357982],[-120.246819,39.35797],[-120.246862,39.357961],[-120.246876,39.357936],[-120.246908,39.357918],[-120.246924,39.357878]]]}},{"type":"Feature","properties":{"k":"bunker"},"geometry":{"type":"Polygon","coordinates":[[[-120.245568,39.358545],[-120.245529,39.358534],[-120.245485,39.358548],[-120.24543,39.35854],[-120.245405,39.358561],[-120.245398,39.358598],[-120.245419,39.358611],[-120.245489,39.3586],[-120.245512,39.358588],[-120.245527,39.358607],[-120.245579,39.358608],[-120.245595,39.35859],[-120.245594,39.358577],[-120.245568,39.358545]]]}},{"type":"Feature","properties":{"k":"bunker"},"geometry":{"type":"Polygon","coordinates":[[[-120.244124,39.359346],[-120.2441,39.359325],[-120.24408,39.359324],[-120.244052,39.359344],[-120.244036,39.359368],[-120.244007,39.359367],[-120.24399,39.359384],[-120.243977,39.359385],[-120.24396,39.359371],[-120.243922,39.359373],[-120.24391,39.35938],[-120.243907,39.359411],[-120.243942,39.359433],[-120.244001,39.359421],[-120.244034,39.359425],[-120.244058,39.359405],[-120.244103,39.359393],[-120.244124,39.359346]]]}},{"type":"Feature","properties":{"k":"green"},"geometry":{"type":"Polygon","coordinates":[[[-120.244069,39.359213],[-120.244051,39.359186],[-120.24397,39.359133],[-120.243887,39.359122],[-120.243821,39.359133],[-120.243776,39.359158],[-120.243751,39.3592],[-120.243751,39.359226],[-120.243773,39.359274],[-120.243812,39.359311],[-120.243875,39.359336],[-120.24396,39.359349],[-120.244034,39.359332],[-120.244061,39.359311],[-120.244075,39.359291],[-120.244078,39.359248],[-120.244069,39.359213]]]}},{"type":"Feature","properties":{"k":"tee"},"geometry":{"type":"Polygon","coordinates":[[[-120.245048,39.359419],[-120.245076,39.359411],[-120.245092,39.359386],[-120.245088,39.359357],[-120.245066,39.359335],[-120.244989,39.359337],[-120.244974,39.359367],[-120.244976,39.359395],[-120.245003,39.359417],[-120.245048,39.359419]]]}},{"type":"Feature","properties":{"k":"tee"},"geometry":{"type":"Polygon","coordinates":[[[-120.245308,39.359423],[-120.245291,39.359452],[-120.245251,39.359463],[-120.245212,39.359463],[-120.245182,39.359453],[-120.245161,39.359441],[-120.245153,39.359414],[-120.245165,39.359357],[-120.245204,39.359343],[-120.245261,39.359343],[-120.245289,39.359354],[-120.245312,39.359381],[-120.245308,39.359423]]]}},{"type":"Feature","properties":{"k":"tee"},"geometry":{"type":"Polygon","coordinates":[[[-120.245533,39.359423],[-120.245525,39.359458],[-120.245493,39.359478],[-120.24542,39.359478],[-120.245383,39.359466],[-120.245369,39.359442],[-120.245383,39.35939],[-120.245413,39.359375],[-120.245495,39.359379],[-120.245527,39.359394],[-120.245533,39.359423]]]}},{"type":"Feature","properties":{"k":"tee"},"geometry":{"type":"Polygon","coordinates":[[[-120.245702,39.359472],[-120.24568,39.359485],[-120.245633,39.359482],[-120.245598,39.359471],[-120.245588,39.359452],[-120.245594,39.359428],[-120.245611,39.359409],[-120.245649,39.359406],[-120.245688,39.359415],[-120.24571,39.359436],[-120.245702,39.359472]]]}},{"type":"Feature","properties":{"k":"bunker"},"geometry":{"type":"Polygon","coordinates":[[[-120.239133,39.357627],[-120.239104,39.357636],[-120.239084,39.357626],[-120.239056,39.357631],[-120.239048,39.357659],[-120.239072,39.357672],[-120.239136,39.357674],[-120.23916,39.357649],[-120.239149,39.357632],[-120.239133,39.357627]]]}},{"type":"Feature","properties":{"k":"bunker"},"geometry":{"type":"Polygon","coordinates":[[[-120.238961,39.357268],[-120.238951,39.357262],[-120.238914,39.357261],[-120.238886,39.357288],[-120.23885,39.357292],[-120.238803,39.357317],[-120.238773,39.357353],[-120.238775,39.357408],[-120.238803,39.357417],[-120.238817,39.357408],[-120.238831,39.357339],[-120.238844,39.357325],[-120.238883,39.357332],[-120.238887,39.357359],[-120.238884,39.357368],[-120.238857,39.357371],[-120.23884,39.357416],[-120.238849,39.357422],[-120.238887,39.35741],[-120.238951,39.357348],[-120.23895,39.357325],[-120.238924,39.357326],[-120.238915,39.35731],[-120.238958,39.357303],[-120.238971,39.357289],[-120.238961,39.357268]]]}},{"type":"Feature","properties":{"k":"bunker"},"geometry":{"type":"Polygon","coordinates":[[[-120.239347,39.357486],[-120.239369,39.357532],[-120.239354,39.357558],[-120.239338,39.35756],[-120.239313,39.35755],[-120.239276,39.357548],[-120.239268,39.357532],[-120.239279,39.357511],[-120.239257,39.357504],[-120.239259,39.357463],[-120.239286,39.357455],[-120.239303,39.357461],[-120.239321,39.35748],[-120.239347,39.357486]]]}},{"type":"Feature","properties":{"k":"green"},"geometry":{"type":"Polygon","coordinates":[[[-120.239204,39.357478],[-120.239123,39.357403],[-120.239075,39.357385],[-120.23904,39.35738],[-120.238979,39.357389],[-120.23895,39.357405],[-120.238917,39.357433],[-120.238892,39.357473],[-120.238901,39.35752],[-120.238935,39.357548],[-120.239059,39.357587],[-120.239126,39.357595],[-120.239185,39.357591],[-120.239225,39.357563],[-120.239227,39.357522],[-120.239204,39.357478]]]}},{"type":"Feature","properties":{"k":"fairway"},"geometry":{"type":"Polygon","coordinates":[[[-120.24196,39.358658],[-120.241846,39.358606],[-120.241655,39.358556],[-120.241498,39.358525],[-120.241175,39.358486],[-120.241061,39.358491],[-120.240819,39.358559],[-120.240742,39.358568],[-120.24066,39.358563],[-120.240596,39.358538],[-120.240553,39.358497],[-120.240469,39.358365],[-120.24041,39.358298],[-120.240241,39.358184],[-120.240182,39.358127],[-120.240112,39.358073],[-120.240034,39.358049],[-120.239969,39.358055],[-120.239908,39.358091],[-120.239865,39.358146],[-120.23985,39.358189],[-120.239862,39.358236],[-120.240099,39.358403],[-120.240173,39.358472],[-120.24029,39.358637],[-120.240377,39.358698],[-120.24045,39.358734],[-120.240549,39.35876],[-120.240663,39.358782],[-120.24148,39.35887],[-120.24169,39.35888],[-120.241786,39.358875],[-120.241896,39.35888],[-120.242183,39.358908],[-120.242235,39.358889],[-120.242259,39.358849],[-120.242259,39.358807],[-120.242242,39.35877],[-120.242186,39.358734],[-120.24196,39.358658]]]}},{"type":"Feature","properties":{"k":"tee"},"geometry":{"type":"Polygon","coordinates":[[[-120.243432,39.359066],[-120.243402,39.359041],[-120.243351,39.359036],[-120.243322,39.35906],[-120.243335,39.359088],[-120.243392,39.359107],[-120.243416,39.359105],[-120.243436,39.35909],[-120.243432,39.359066]]]}},{"type":"Feature","properties":{"k":"tee"},"geometry":{"type":"Polygon","coordinates":[[[-120.243261,39.359041],[-120.243231,39.359027],[-120.243192,39.359022],[-120.24315,39.359025],[-120.243129,39.35904],[-120.243141,39.359063],[-120.243162,39.359079],[-120.243239,39.359087],[-120.243263,39.359076],[-120.243261,39.359041]]]}},{"type":"Feature","properties":{"k":"tee"},"geometry":{"type":"Polygon","coordinates":[[[-120.243034,39.358984],[-120.242983,39.358978],[-120.242954,39.358989],[-120.242946,39.359029],[-120.242969,39.359047],[-120.242997,39.359058],[-120.243072,39.359066],[-120.243091,39.359025],[-120.243077,39.358999],[-120.243034,39.358984]]]}},{"type":"Feature","properties":{"k":"tee"},"geometry":{"type":"Polygon","coordinates":[[[-120.242018,39.358956],[-120.241963,39.358933],[-120.241931,39.35894],[-120.241923,39.358962],[-120.241937,39.358984],[-120.241986,39.358996],[-120.242023,39.358988],[-120.24203,39.358973],[-120.242018,39.358956]]]}},{"type":"Feature","properties":{"k":"green"},"geometry":{"type":"Polygon","coordinates":[[[-120.234229,39.352337],[-120.234194,39.352314],[-120.234151,39.352304],[-120.233889,39.352261],[-120.233825,39.352259],[-120.233789,39.352275],[-120.233776,39.352304],[-120.23378,39.352342],[-120.233891,39.352423],[-120.233981,39.352452],[-120.234048,39.352463],[-120.234158,39.352454],[-120.234209,39.352436],[-120.234239,39.352413],[-120.234251,39.352385],[-120.234251,39.352362],[-120.234229,39.352337]]]}},{"type":"Feature","properties":{"k":"tee"},"geometry":{"type":"Polygon","coordinates":[[[-120.234099,39.351693],[-120.233982,39.351718],[-120.233918,39.351721],[-120.233904,39.351712],[-120.233892,39.351682],[-120.233899,39.351665],[-120.233966,39.351642],[-120.234087,39.351616],[-120.234125,39.351614],[-120.234149,39.351621],[-120.234163,39.351635],[-120.234165,39.351656],[-120.234153,39.351675],[-120.234099,39.351693]]]}},{"type":"Feature","properties":{"k":"tee"},"geometry":{"type":"Polygon","coordinates":[[[-120.234479,39.351504],[-120.234385,39.351524],[-120.234371,39.351539],[-120.234371,39.351556],[-120.234381,39.351567],[-120.234402,39.351571],[-120.234475,39.351558],[-120.234493,39.351549],[-120.2345,39.351535],[-120.234499,39.351517],[-120.234479,39.351504]]]}},{"type":"Feature","properties":{"k":"tee"},"geometry":{"type":"Polygon","coordinates":[[[-120.234745,39.351458],[-120.23468,39.351469],[-120.234654,39.351483],[-120.234644,39.351506],[-120.234656,39.351525],[-120.234688,39.351529],[-120.234724,39.351517],[-120.234757,39.351495],[-120.234761,39.35148],[-120.234745,39.351458]]]}},{"type":"Feature","properties":{"k":"green"},"geometry":{"type":"Polygon","coordinates":[[[-120.238133,39.350931],[-120.238029,39.35092],[-120.237956,39.350942],[-120.237911,39.350983],[-120.237886,39.351027],[-120.237886,39.351056],[-120.237912,39.351095],[-120.237947,39.351113],[-120.238152,39.351142],[-120.238222,39.351137],[-120.238247,39.351122],[-120.238261,39.351103],[-120.238263,39.351083],[-120.238249,39.351046],[-120.238198,39.351006],[-120.238165,39.350954],[-120.238133,39.350931]]]}},{"type":"Feature","properties":{"k":"fairway"},"geometry":{"type":"Polygon","coordinates":[[[-120.236559,39.35115],[-120.236585,39.351186],[-120.236593,39.351241],[-120.236565,39.351276],[-120.236506,39.351307],[-120.23645,39.351326],[-120.236347,39.351329],[-120.23613,39.351318],[-120.235864,39.351324],[-120.235568,39.351367],[-120.235112,39.351455],[-120.235035,39.351463],[-120.23497,39.351455],[-120.234927,39.351433],[-120.234913,39.351395],[-120.234915,39.351348],[-120.234964,39.351309],[-120.235041,39.351279],[-120.235293,39.351229],[-120.235523,39.351164],[-120.235718,39.351119],[-120.235885,39.351093],[-120.236127,39.351065],[-120.236387,39.351064],[-120.236436,39.351075],[-120.236499,39.351106],[-120.236559,39.35115]]]}},{"type":"Feature","properties":{"k":"tee"},"geometry":{"type":"Polygon","coordinates":[[[-120.238531,39.35129],[-120.238501,39.351289],[-120.238457,39.351311],[-120.238442,39.351336],[-120.238451,39.351353],[-120.238474,39.351359],[-120.238547,39.351324],[-120.238546,39.3513],[-120.238531,39.35129]]]}},{"type":"Feature","properties":{"k":"tee"},"geometry":{"type":"Polygon","coordinates":[[[-120.238878,39.351009],[-120.238812,39.351034],[-120.23875,39.351075],[-120.238742,39.351102],[-120.238748,39.351127],[-120.238771,39.351134],[-120.238803,39.351127],[-120.238895,39.351064],[-120.238913,39.351045],[-120.238909,39.351026],[-120.238878,39.351009]]]}},{"type":"Feature","properties":{"k":"tee"},"geometry":{"type":"Polygon","coordinates":[[[-120.23922,39.350918],[-120.239165,39.350957],[-120.239138,39.35096],[-120.23912,39.35095],[-120.239119,39.350934],[-120.239138,39.350913],[-120.239163,39.35089],[-120.239214,39.350862],[-120.239232,39.350868],[-120.239242,39.350882],[-120.239243,39.3509],[-120.23922,39.350918]]]}},{"type":"Feature","properties":{"k":"tee"},"geometry":{"type":"Polygon","coordinates":[[[-120.239407,39.350785],[-120.239401,39.35076],[-120.239376,39.35075],[-120.239331,39.350767],[-120.239303,39.350788],[-120.239292,39.350811],[-120.239306,39.350828],[-120.239336,39.350833],[-120.239363,39.350824],[-120.239407,39.350785]]]}},{"type":"Feature","properties":{"k":"tee"},"geometry":{"type":"Polygon","coordinates":[[[-120.243059,39.347932],[-120.243042,39.347906],[-120.243011,39.347888],[-120.242977,39.347882],[-120.242951,39.34789],[-120.242943,39.347913],[-120.242988,39.347949],[-120.24305,39.347953],[-120.243059,39.347932]]]}},{"type":"Feature","properties":{"k":"tee"},"geometry":{"type":"Polygon","coordinates":[[[-120.243769,39.348146],[-120.243578,39.348064],[-120.243523,39.348049],[-120.243495,39.348065],[-120.243504,39.348102],[-120.243549,39.348133],[-120.243738,39.348213],[-120.243785,39.348219],[-120.243815,39.348208],[-120.24382,39.348175],[-120.243769,39.348146]]]}},{"type":"Feature","properties":{"k":"tee"},"geometry":{"type":"Polygon","coordinates":[[[-120.244131,39.348429],[-120.244108,39.348407],[-120.24408,39.348395],[-120.24404,39.348391],[-120.244016,39.348396],[-120.244011,39.34842],[-120.244034,39.348439],[-120.24408,39.34846],[-120.244102,39.348461],[-120.244125,39.348451],[-120.244131,39.348429]]]}},{"type":"Feature","properties":{"k":"green"},"geometry":{"type":"Polygon","coordinates":[[[-120.245033,39.348608],[-120.244955,39.348586],[-120.244903,39.348561],[-120.244873,39.348555],[-120.244817,39.348563],[-120.244732,39.348613],[-120.244721,39.348662],[-120.244729,39.34869],[-120.244774,39.348737],[-120.244842,39.348775],[-120.244909,39.348794],[-120.244985,39.348788],[-120.24502,39.348776],[-120.245048,39.348756],[-120.245079,39.348712],[-120.245082,39.348649],[-120.245058,39.34862],[-120.245033,39.348608]]]}},{"type":"Feature","properties":{"k":"tee"},"geometry":{"type":"Polygon","coordinates":[[[-120.245495,39.348885],[-120.245459,39.348903],[-120.245405,39.348896],[-120.245378,39.348884],[-120.245375,39.348862],[-120.245402,39.348839],[-120.245453,39.348843],[-120.245479,39.348853],[-120.245493,39.348868],[-120.245495,39.348885]]]}},{"type":"Feature","properties":{"k":"tee"},"geometry":{"type":"Polygon","coordinates":[[[-120.245745,39.348891],[-120.245744,39.348869],[-120.245726,39.34885],[-120.245691,39.348842],[-120.245619,39.348834],[-120.245571,39.348838],[-120.245563,39.348859],[-120.245565,39.348878],[-120.245612,39.348912],[-120.245669,39.348927],[-120.245708,39.348924],[-120.245734,39.348912],[-120.245745,39.348891]]]}},{"type":"Feature","properties":{"k":"tee"},"geometry":{"type":"Polygon","coordinates":[[[-120.24596,39.348929],[-120.24592,39.348916],[-120.24587,39.348916],[-120.245854,39.348925],[-120.245849,39.348953],[-120.245877,39.348978],[-120.245933,39.348986],[-120.245964,39.348968],[-120.245969,39.348941],[-120.24596,39.348929]]]}},{"type":"Feature","properties":{"k":"tee"},"geometry":{"type":"Polygon","coordinates":[[[-120.246117,39.348972],[-120.246087,39.348969],[-120.246073,39.348978],[-120.24607,39.348993],[-120.246104,39.349008],[-120.246136,39.349003],[-120.246145,39.348979],[-120.246117,39.348972]]]}},{"type":"Feature","properties":{"k":"green"},"geometry":{"type":"Polygon","coordinates":[[[-120.248583,39.348096],[-120.248576,39.348144],[-120.248563,39.348163],[-120.248493,39.348225],[-120.248471,39.348237],[-120.248416,39.348247],[-120.248371,39.348233],[-120.248353,39.348219],[-120.248318,39.348133],[-120.248313,39.348076],[-120.248336,39.348002],[-120.248373,39.347965],[-120.248395,39.347955],[-120.248455,39.347953],[-120.248537,39.347982],[-120.248555,39.347997],[-120.248576,39.348042],[-120.248583,39.348096]]]}},{"type":"Feature","properties":{"k":"tee"},"geometry":{"type":"Polygon","coordinates":[[[-120.249087,39.348273],[-120.24906,39.348259],[-120.249028,39.348255],[-120.248994,39.348264],[-120.248985,39.348285],[-120.248991,39.348302],[-120.249014,39.348312],[-120.24906,39.348313],[-120.249093,39.34829],[-120.249087,39.348273]]]}},{"type":"Feature","properties":{"k":"tee"},"geometry":{"type":"Polygon","coordinates":[[[-120.249088,39.348111],[-120.249017,39.348096],[-120.248995,39.3481],[-120.248975,39.348116],[-120.248974,39.348136],[-120.249018,39.348158],[-120.249054,39.348156],[-120.249083,39.348148],[-120.2491,39.348131],[-120.249088,39.348111]]]}},{"type":"Feature","properties":{"k":"tee"},"geometry":{"type":"Polygon","coordinates":[[[-120.249126,39.347949],[-120.249092,39.347933],[-120.24904,39.347934],[-120.249011,39.347959],[-120.249008,39.347991],[-120.249026,39.348018],[-120.24905,39.348028],[-120.2491,39.348033],[-120.249138,39.348017],[-120.24915,39.347997],[-120.249148,39.347971],[-120.249126,39.347949]]]}},{"type":"Feature","properties":{"k":"tee"},"geometry":{"type":"Polygon","coordinates":[[[-120.249155,39.347774],[-120.249128,39.347765],[-120.249095,39.34777],[-120.249053,39.347801],[-120.249052,39.347853],[-120.249066,39.347874],[-120.249088,39.347885],[-120.249148,39.347882],[-120.249178,39.347864],[-120.249186,39.347829],[-120.249179,39.347794],[-120.249155,39.347774]]]}},{"type":"Feature","properties":{"k":"tee"},"geometry":{"type":"Polygon","coordinates":[[[-120.249324,39.347632],[-120.249301,39.347624],[-120.249268,39.347634],[-120.249254,39.347655],[-120.249277,39.347693],[-120.249304,39.347699],[-120.249333,39.347681],[-120.24934,39.347655],[-120.249324,39.347632]]]}},{"type":"Feature","properties":{"k":"tee"},"geometry":{"type":"Polygon","coordinates":[[[-120.249376,39.347526],[-120.249363,39.347507],[-120.249336,39.347498],[-120.249302,39.347511],[-120.249308,39.347559],[-120.249333,39.347571],[-120.249355,39.347569],[-120.249375,39.347555],[-120.249376,39.347526]]]}},{"type":"Feature","properties":{"k":"green"},"geometry":{"type":"Polygon","coordinates":[[[-120.249972,39.344933],[-120.249958,39.344863],[-120.249917,39.344823],[-120.249893,39.34481],[-120.249862,39.3448],[-120.249799,39.344803],[-120.249766,39.344816],[-120.249742,39.344837],[-120.249713,39.344912],[-120.249725,39.344998],[-120.249763,39.345063],[-120.249834,39.345122],[-120.249889,39.345132],[-120.249928,39.345118],[-120.249941,39.345104],[-120.249946,39.34501],[-120.249972,39.344933]]]}},{"type":"Feature","properties":{"k":"fairway"},"geometry":{"type":"Polygon","coordinates":[[[-120.249549,39.346614],[-120.24957,39.346517],[-120.249566,39.346446],[-120.249532,39.346413],[-120.249493,39.346403],[-120.249438,39.346409],[-120.249324,39.346464],[-120.249261,39.346502],[-120.249218,39.34654],[-120.249199,39.346587],[-120.24917,39.347003],[-120.249153,39.347129],[-120.249159,39.347186],[-120.249184,39.347225],[-120.249219,39.347245],[-120.249302,39.347261],[-120.249356,39.347254],[-120.249401,39.347236],[-120.249427,39.347205],[-120.249492,39.347042],[-120.249505,39.346927],[-120.249481,39.346856],[-120.249479,39.346822],[-120.249529,39.346715],[-120.249549,39.346614]]]}},{"type":"Feature","properties":{"k":"tee"},"geometry":{"type":"Polygon","coordinates":[[[-120.249517,39.344651],[-120.249358,39.344563],[-120.249324,39.344556],[-120.249296,39.344566],[-120.249286,39.344587],[-120.249298,39.344612],[-120.24948,39.344701],[-120.249515,39.344714],[-120.249545,39.344716],[-120.249567,39.344705],[-120.249565,39.344684],[-120.249517,39.344651]]]}},{"type":"Feature","properties":{"k":"tee"},"geometry":{"type":"Polygon","coordinates":[[[-120.248985,39.34435],[-120.248951,39.344335],[-120.248913,39.34433],[-120.24889,39.344345],[-120.248901,39.344371],[-120.248953,39.344395],[-120.248983,39.344397],[-120.249004,39.344387],[-120.249002,39.344364],[-120.248985,39.34435]]]}},{"type":"Feature","properties":{"k":"tee"},"geometry":{"type":"Polygon","coordinates":[[[-120.248522,39.344156],[-120.248491,39.344133],[-120.248449,39.344122],[-120.248418,39.344128],[-120.248409,39.34415],[-120.248428,39.344167],[-120.248508,39.344196],[-120.248532,39.344185],[-120.248522,39.344156]]]}},{"type":"Feature","properties":{"k":"fairway"},"geometry":{"type":"Polygon","coordinates":[[[-120.247801,39.343768],[-120.247686,39.34371],[-120.247603,39.343695],[-120.247544,39.343698],[-120.247509,39.343716],[-120.24749,39.343744],[-120.247484,39.343779],[-120.247495,39.343806],[-120.24752,39.343832],[-120.247636,39.343904],[-120.247674,39.343936],[-120.247734,39.34401],[-120.24777,39.344037],[-120.247819,39.344058],[-120.247915,39.344066],[-120.248029,39.344058],[-120.248075,39.344037],[-120.248094,39.344002],[-120.248088,39.343969],[-120.248067,39.343939],[-120.247931,39.343879],[-120.247801,39.343768]]]}},{"type":"Feature","properties":{"k":"green"},"geometry":{"type":"Polygon","coordinates":[[[-120.244581,39.343806],[-120.244538,39.343762],[-120.244503,39.343739],[-120.244461,39.343724],[-120.244345,39.343715],[-120.244264,39.343727],[-120.24422,39.343751],[-120.244191,39.343786],[-120.24418,39.343837],[-120.244201,39.343882],[-120.244252,39.343908],[-120.244334,39.34392],[-120.244481,39.343913],[-120.244545,39.343899],[-120.244569,39.343883],[-120.244589,39.343844],[-120.244581,39.343806]]]}},{"type":"Feature","properties":{"k":"tee"},"geometry":{"type":"Polygon","coordinates":[[[-120.243792,39.343853],[-120.243651,39.343909],[-120.243606,39.343937],[-120.243595,39.343964],[-120.243621,39.343979],[-120.243653,39.343975],[-120.243739,39.343937],[-120.243822,39.34388],[-120.243816,39.343861],[-120.243792,39.343853]]]}},{"type":"Feature","properties":{"k":"bunker"},"geometry":{"type":"Polygon","coordinates":[[[-120.241802,39.344859],[-120.241766,39.344873],[-120.241749,39.34487],[-120.241741,39.344855],[-120.241747,39.344839],[-120.241771,39.344826],[-120.241793,39.344825],[-120.241808,39.34483],[-120.241814,39.344847],[-120.241802,39.344859]]]}},{"type":"Feature","properties":{"k":"bunker"},"geometry":{"type":"Polygon","coordinates":[[[-120.241969,39.344706],[-120.241962,39.344685],[-120.241943,39.344678],[-120.241917,39.344682],[-120.241908,39.344699],[-120.241915,39.344725],[-120.241897,39.344732],[-120.241892,39.344744],[-120.2419,39.344759],[-120.24193,39.344766],[-120.241944,39.344759],[-120.241945,39.34472],[-120.241969,39.344706]]]}},{"type":"Feature","properties":{"k":"green"},"geometry":{"type":"Polygon","coordinates":[[[-120.240004,39.345906],[-120.239938,39.345896],[-120.239898,39.3459],[-120.239795,39.345924],[-120.239705,39.345959],[-120.239655,39.345995],[-120.23964,39.346029],[-120.239646,39.346076],[-120.239664,39.346098],[-120.239719,39.346124],[-120.239757,39.346128],[-120.239861,39.346116],[-120.239947,39.34609],[-120.239999,39.34605],[-120.240034,39.345998],[-120.240038,39.345946],[-120.240022,39.345917],[-120.240004,39.345906]]]}},{"type":"Feature","properties":{"k":"green"},"geometry":{"type":"Polygon","coordinates":[[[-120.237496,39.347407],[-120.237461,39.347427],[-120.237379,39.347455],[-120.237294,39.347466],[-120.23723,39.347452],[-120.237208,39.347439],[-120.237186,39.347406],[-120.237181,39.347366],[-120.237212,39.347317],[-120.237309,39.347248],[-120.237347,39.347229],[-120.237431,39.347218],[-120.237494,39.347232],[-120.23752,39.347245],[-120.237543,39.347282],[-120.237548,39.34733],[-120.237538,39.347359],[-120.237496,39.347407]]]}},{"type":"Feature","properties":{"k":"tee"},"geometry":{"type":"Polygon","coordinates":[[[-120.238576,39.346608],[-120.238587,39.346598],[-120.238586,39.346576],[-120.238568,39.346567],[-120.238541,39.34657],[-120.238503,39.346599],[-120.238497,39.346617],[-120.238508,39.346628],[-120.238529,39.346634],[-120.238576,39.346608]]]}},{"type":"Feature","properties":{"k":"tee"},"geometry":{"type":"Polygon","coordinates":[[[-120.238684,39.346452],[-120.238633,39.346481],[-120.238613,39.346505],[-120.238615,39.346527],[-120.238633,39.346537],[-120.238654,39.34654],[-120.238678,39.34653],[-120.23872,39.3465],[-120.238736,39.346478],[-120.238735,39.346461],[-120.238713,39.34645],[-120.238684,39.346452]]]}},{"type":"Feature","properties":{"k":"tee"},"geometry":{"type":"Polygon","coordinates":[[[-120.238854,39.346321],[-120.238822,39.346293],[-120.2388,39.346284],[-120.238767,39.346283],[-120.238728,39.346297],[-120.23871,39.34632],[-120.238715,39.346347],[-120.238731,39.346369],[-120.238783,39.346408],[-120.238815,39.346407],[-120.238873,39.346368],[-120.23887,39.346342],[-120.238854,39.346321]]]}},{"type":"Feature","properties":{"k":"tee"},"geometry":{"type":"Polygon","coordinates":[[[-120.239047,39.346162],[-120.239002,39.346144],[-120.238948,39.346165],[-120.238888,39.3462],[-120.238878,39.346223],[-120.238896,39.346264],[-120.238921,39.346279],[-120.238951,39.346282],[-120.238989,39.346274],[-120.23902,39.346253],[-120.23906,39.346215],[-120.239067,39.346196],[-120.239064,39.346177],[-120.239047,39.346162]]]}},{"type":"Feature","properties":{"k":"tee"},"geometry":{"type":"Polygon","coordinates":[[[-120.239213,39.346103],[-120.239184,39.346057],[-120.239156,39.346046],[-120.239125,39.346046],[-120.239098,39.346059],[-120.239089,39.346083],[-120.239105,39.346111],[-120.239141,39.346143],[-120.239172,39.346151],[-120.239196,39.346145],[-120.239213,39.346127],[-120.239213,39.346103]]]}},{"type":"Feature","properties":{"k":"tee"},"geometry":{"type":"Polygon","coordinates":[[[-120.237,39.349399],[-120.236929,39.349443],[-120.236888,39.34945],[-120.236851,39.349445],[-120.236834,39.349424],[-120.236837,39.349394],[-120.23686,39.349371],[-120.236931,39.349336],[-120.236961,39.349332],[-120.236996,39.349349],[-120.237016,39.349375],[-120.237,39.349399]]]}},{"type":"Feature","properties":{"k":"tee"},"geometry":{"type":"Polygon","coordinates":[[[-120.237099,39.349291],[-120.237094,39.349268],[-120.237074,39.349254],[-120.237035,39.349254],[-120.237005,39.349267],[-120.236998,39.349293],[-120.237023,39.349322],[-120.23705,39.349322],[-120.237088,39.349317],[-120.237099,39.349291]]]}},{"type":"Feature","properties":{"k":"tee"},"geometry":{"type":"Polygon","coordinates":[[[-120.23678,39.349488],[-120.236759,39.349458],[-120.236733,39.349447],[-120.236699,39.34945],[-120.236669,39.349472],[-120.236667,39.349508],[-120.23671,39.34955],[-120.23674,39.349553],[-120.236768,39.349546],[-120.236789,39.349521],[-120.23678,39.349488]]]}},{"type":"Feature","properties":{"k":"tee"},"geometry":{"type":"Polygon","coordinates":[[[-120.236035,39.349917],[-120.236002,39.34993],[-120.235977,39.349956],[-120.235977,39.349989],[-120.236005,39.350007],[-120.236037,39.350003],[-120.23609,39.349977],[-120.236103,39.349955],[-120.236101,39.349929],[-120.236076,39.349918],[-120.236035,39.349917]]]}},{"type":"Feature","properties":{"k":"fairway"},"geometry":{"type":"Polygon","coordinates":[[[-120.235344,39.350399],[-120.235271,39.350429],[-120.235206,39.35047],[-120.23508,39.350574],[-120.235006,39.350622],[-120.234915,39.350664],[-120.234715,39.35073],[-120.234624,39.350743],[-120.234532,39.350743],[-120.234461,39.350718],[-120.234436,39.350681],[-120.234443,39.350617],[-120.234492,39.350559],[-120.234655,39.350442],[-120.234758,39.350385],[-120.234901,39.350332],[-120.23546,39.350088],[-120.235601,39.350004],[-120.235678,39.349977],[-120.235745,39.349987],[-120.235803,39.350011],[-120.235834,39.350059],[-120.235824,39.350115],[-120.235799,39.350162],[-120.235753,39.350203],[-120.235633,39.350271],[-120.235344,39.350399]]]}},{"type":"Feature","properties":{"k":"green"},"geometry":{"type":"Polygon","coordinates":[[[-120.233594,39.351178],[-120.233604,39.351205],[-120.233602,39.351238],[-120.233579,39.351282],[-120.233498,39.351362],[-120.233447,39.351397],[-120.233414,39.35141],[-120.233344,39.351416],[-120.233287,39.351406],[-120.233238,39.351384],[-120.233215,39.351344],[-120.23322,39.351301],[-120.233245,39.351276],[-120.233342,39.351252],[-120.233368,39.351239],[-120.233385,39.351221],[-120.233408,39.351153],[-120.233435,39.351119],[-120.233456,39.351108],[-120.233509,39.351109],[-120.233559,39.351135],[-120.233594,39.351178]]]}}]}