{"type":"FeatureCollection","features":[{"type":"Feature","properties":{"k":"hole","ref":"1","par":3,"hcp":8},"geometry":{"type":"LineString","coordinates":[[-118.075388,34.052312],[-118.07401,34.052419]]}},{"type":"Feature","properties":{"k":"hole","ref":"1","par":5},"geometry":{"type":"LineString","coordinates":[[-118.075982,34.052889],[-118.075026,34.054631],[-118.074134,34.055646],[-118.073979,34.056133]]}},{"type":"Feature","properties":{"k":"hole","ref":"1","par":5},"geometry":{"type":"LineString","coordinates":[[-118.075614,34.052616],[-118.074402,34.054153],[-118.073414,34.05547],[-118.073101,34.055927]]}},{"type":"Feature","properties":{"k":"hole","ref":"2","par":5,"hcp":9},"geometry":{"type":"LineString","coordinates":[[-118.074146,34.051523],[-118.074871,34.050101],[-118.075334,34.049148],[-118.075783,34.047927]]}},{"type":"Feature","properties":{"k":"hole","ref":"2","par":3},"geometry":{"type":"LineString","coordinates":[[-118.073719,34.056659],[-118.073384,34.057522]]}},{"type":"Feature","properties":{"k":"hole","ref":"2","par":4},"geometry":{"type":"LineString","coordinates":[[-118.072712,34.055786],[-118.073315,34.053742],[-118.073456,34.052597]]}},{"type":"Feature","properties":{"k":"hole","ref":"3","par":4,"hcp":2},"geometry":{"type":"LineString","coordinates":[[-118.076618,34.047626],[-118.078957,34.047418],[-118.080131,34.048306]]}},{"type":"Feature","properties":{"k":"hole","ref":"3","par":4},"geometry":{"type":"LineString","coordinates":[[-118.073935,34.057783],[-118.075066,34.056824],[-118.076658,34.056122]]}},{"type":"Feature","properties":{"k":"hole","ref":"3","par":5},"geometry":{"type":"LineString","coordinates":[[-118.073372,34.051426],[-118.074254,34.049695],[-118.074668,34.048395],[-118.074925,34.047416]]}},{"type":"Feature","properties":{"k":"hole","ref":"4","par":4,"hcp":5},"geometry":{"type":"LineString","coordinates":[[-118.080667,34.047807],[-118.080192,34.046174],[-118.079652,34.045028]]}},{"type":"Feature","properties":{"k":"hole","ref":"4","par":4},"geometry":{"type":"LineString","coordinates":[[-118.076914,34.056454],[-118.075604,34.057549],[-118.074807,34.057946]]}},{"type":"Feature","properties":{"k":"hole","ref":"4","par":4},"geometry":{"type":"LineString","coordinates":[[-118.075534,34.046794],[-118.075903,34.044893],[-118.075976,34.043809]]}},{"type":"Feature","properties":{"k":"hole","ref":"5","par":5,"hcp":3},"geometry":{"type":"LineString","coordinates":[[-118.080303,34.044795],[-118.081202,34.046406],[-118.081291,34.047633],[-118.081278,34.04916]]}},{"type":"Feature","properties":{"k":"hole","ref":"5","par":3},"geometry":{"type":"LineString","coordinates":[[-118.074446,34.058163],[-118.076053,34.058379]]}},{"type":"Feature","properties":{"k":"hole","ref":"5","par":3},"geometry":{"type":"LineString","coordinates":[[-118.076452,34.043525],[-118.076946,34.044843]]}},{"type":"Feature","properties":{"k":"hole","ref":"6","par":4,"hcp":7},"geometry":{"type":"LineString","coordinates":[[-118.081347,34.049789],[-118.079379,34.0488],[-118.078154,34.048155]]}},{"type":"Feature","properties":{"k":"hole","ref":"6","par":4},"geometry":{"type":"LineString","coordinates":[[-118.075753,34.058884],[-118.074081,34.058532],[-118.072721,34.057887]]}},{"type":"Feature","properties":{"k":"hole","ref":"6","par":4},"geometry":{"type":"LineString","coordinates":[[-118.077384,34.045203],[-118.078004,34.043258],[-118.077967,34.042467]]}},{"type":"Feature","properties":{"k":"hole","ref":"7","par":3,"hcp":6},"geometry":{"type":"LineString","coordinates":[[-118.077617,34.048198],[-118.07692,34.04957]]}},{"type":"Feature","properties":{"k":"hole","ref":"7","par":3},"geometry":{"type":"LineString","coordinates":[[-118.07234,34.057733],[-118.073245,34.0566]]}},{"type":"Feature","properties":{"k":"hole","ref":"7","par":3},"geometry":{"type":"LineString","coordinates":[[-118.078406,34.042104],[-118.079097,34.043693]]}},{"type":"Feature","properties":{"k":"hole","ref":"8","par":4,"hcp":4},"geometry":{"type":"LineString","coordinates":[[-118.076424,34.05009],[-118.07874,34.050263],[-118.080281,34.050684]]}},{"type":"Feature","properties":{"k":"hole","ref":"8","par":5},"geometry":{"type":"LineString","coordinates":[[-118.073883,34.057283],[-118.074868,34.056205],[-118.076265,34.055598],[-118.077026,34.055496]]}},{"type":"Feature","properties":{"k":"hole","ref":"8","par":4},"geometry":{"type":"LineString","coordinates":[[-118.079256,34.044321],[-118.077918,34.046371],[-118.076471,34.047213]]}},{"type":"Feature","properties":{"k":"hole","ref":"9","par":4,"hcp":1},"geometry":{"type":"LineString","coordinates":[[-118.0805,34.051256],[-118.077625,34.051113],[-118.076404,34.051192]]}},{"type":"Feature","properties":{"k":"hole","ref":"9","par":4},"geometry":{"type":"LineString","coordinates":[[-118.07733,34.055738],[-118.077711,34.053921],[-118.077557,34.052962]]}},{"type":"Feature","properties":{"k":"hole","ref":"9","par":4},"geometry":{"type":"LineString","coordinates":[[-118.076508,34.048236],[-118.07597,34.050241],[-118.075633,34.051388]]}},{"type":"Feature","properties":{"k":"path"},"geometry":{"type":"LineString","coordinates":[[-118.078317,34.042874],[-118.078282,34.042675],[-118.078295,34.042564],[-118.078274,34.042441],[-118.078236,34.042344],[-118.078177,34.042254],[-118.07816,34.0422],[-118.078177,34.042123],[-118.078223,34.042087],[-118.07829,34.042103],[-118.078325,34.042173],[-118.078567,34.043063],[-118.078624,34.043322],[-118.078659,34.043398],[-118.078722,34.043465],[-118.078744,34.043693],[-118.078764,34.04375],[-118.07889,34.043895],[-118.079128,34.044078],[-118.079142,34.044151],[-118.079108,34.044235],[-118.078921,34.04452],[-118.078864,34.04458],[-118.078723,34.044676]]}},{"type":"Feature","properties":{"k":"stream"},"geometry":{"type":"LineString","coordinates":[[-118.076003,34.055245],[-118.075665,34.055527],[-118.075574,34.055584],[-118.075476,34.055618],[-118.075359,34.055635],[-118.074529,34.055504],[-118.074376,34.055472],[-118.07419,34.055407],[-118.074033,34.055325],[-118.073896,34.055224],[-118.073225,34.054565],[-118.073119,34.054423],[-118.073038,34.054264],[-118.072993,34.054109],[-118.072976,34.053982],[-118.072995,34.053845],[-118.073136,34.05334],[-118.073208,34.053047],[-118.073201,34.052839],[-118.073164,34.052676]]}},{"type":"Feature","properties":{"k":"path"},"geometry":{"type":"LineString","coordinates":[[-118.075615,34.052386],[-118.075838,34.05231],[-118.07591,34.05231],[-118.07604,34.052401]]}},{"type":"Feature","properties":{"k":"path"},"geometry":{"type":"LineString","coordinates":[[-118.07604,34.051054],[-118.075971,34.05128],[-118.075925,34.051393],[-118.075875,34.051471],[-118.075805,34.051509],[-118.075771,34.051548],[-118.075752,34.051663],[-118.075989,34.051587],[-118.076288,34.051475],[-118.076427,34.051451],[-118.076545,34.051453],[-118.076657,34.051437],[-118.076806,34.051383],[-118.076986,34.05138],[-118.077145,34.051326]]}},{"type":"Feature","properties":{"k":"path"},"geometry":{"type":"LineString","coordinates":[[-118.077267,34.055589],[-118.077235,34.055681],[-118.077196,34.055748],[-118.077148,34.055786],[-118.077108,34.055793],[-118.077007,34.055749],[-118.076809,34.055744]]}},{"type":"Feature","properties":{"k":"path"},"geometry":{"type":"LineString","coordinates":[[-118.073947,34.056422],[-118.0739,34.056362],[-118.073831,34.056332],[-118.073681,34.056325],[-118.073566,34.056356],[-118.073467,34.056399],[-118.073378,34.056419],[-118.073227,34.056421],[-118.073134,34.056441],[-118.073071,34.056478],[-118.073021,34.056532],[-118.072893,34.056745]]}},{"type":"Feature","properties":{"k":"path"},"geometry":{"type":"LineString","coordinates":[[-118.074309,34.056022],[-118.074275,34.056232],[-118.074241,34.056282],[-118.074192,34.056319],[-118.074022,34.056369],[-118.073947,34.056422],[-118.073894,34.056482],[-118.073868,34.056547],[-118.073849,34.056664],[-118.073826,34.056746],[-118.073791,34.05681],[-118.07368,34.056953],[-118.073658,34.057019],[-118.073613,34.057545],[-118.073591,34.057634],[-118.073585,34.057703],[-118.073609,34.057765],[-118.073776,34.057909],[-118.07384,34.057932],[-118.073893,34.057922],[-118.074102,34.057762],[-118.074161,34.057733],[-118.074241,34.057717]]}},{"type":"Feature","properties":{"k":"path"},"geometry":{"type":"LineString","coordinates":[[-118.073862,34.05706],[-118.073984,34.056874],[-118.074002,34.056779],[-118.073943,34.056704],[-118.073892,34.056618],[-118.073868,34.056547]]}},{"type":"Feature","properties":{"k":"path"},"geometry":{"type":"LineString","coordinates":[[-118.073696,34.055556],[-118.07362,34.055704],[-118.073515,34.055867],[-118.073406,34.056007],[-118.07335,34.056061],[-118.07328,34.056095],[-118.073169,34.056112],[-118.073046,34.056113],[-118.072899,34.056099],[-118.072777,34.056076],[-118.072676,34.056038],[-118.072604,34.055983],[-118.072574,34.055925],[-118.072565,34.055847],[-118.072634,34.055362],[-118.072729,34.054869],[-118.072753,34.054642],[-118.072873,34.054051],[-118.072926,34.053685],[-118.073004,34.053285],[-118.073066,34.052796],[-118.073125,34.052584],[-118.073184,34.052509],[-118.07326,34.052449],[-118.073288,34.052377],[-118.07329,34.052179],[-118.073374,34.051967],[-118.073382,34.051816]]}},{"type":"Feature","properties":{"k":"path"},"geometry":{"type":"LineString","coordinates":[[-118.07379,34.052894],[-118.073806,34.052776],[-118.073791,34.05269],[-118.073566,34.05227],[-118.073535,34.052093],[-118.073489,34.052002],[-118.073416,34.051886],[-118.073382,34.051816],[-118.073378,34.051774],[-118.073385,34.051717],[-118.07344,34.051554],[-118.073503,34.051405],[-118.073707,34.051319],[-118.073805,34.051227],[-118.07388,34.051141],[-118.073916,34.051069]]}},{"type":"Feature","properties":{"k":"path"},"geometry":{"type":"LineString","coordinates":[[-118.075607,34.052155],[-118.075418,34.052172],[-118.075197,34.052154],[-118.074984,34.052181],[-118.074831,34.052178],[-118.074656,34.052157],[-118.074604,34.05214],[-118.074515,34.052094],[-118.07442,34.052086],[-118.074084,34.052145],[-118.074051,34.052137],[-118.074028,34.052116],[-118.074025,34.052037],[-118.074058,34.051937],[-118.074246,34.051589],[-118.074325,34.051486],[-118.074466,34.051364],[-118.074541,34.051329],[-118.074616,34.051309],[-118.074682,34.051268],[-118.074759,34.0511],[-118.074794,34.050978],[-118.074847,34.050903],[-118.074914,34.05084]]}},{"type":"Feature","properties":{"k":"path"},"geometry":{"type":"LineString","coordinates":[[-118.075329,34.053204],[-118.075525,34.053069],[-118.075602,34.052979],[-118.075661,34.05289],[-118.075697,34.052767],[-118.075782,34.052682],[-118.075865,34.052622]]}},{"type":"Feature","properties":{"k":"path"},"geometry":{"type":"LineString","coordinates":[[-118.077136,34.05279],[-118.07708,34.052751],[-118.077018,34.052732],[-118.076516,34.052722],[-118.076486,34.052714],[-118.076455,34.05267],[-118.076349,34.052556],[-118.076294,34.052537],[-118.076209,34.052538],[-118.076123,34.052554],[-118.075954,34.052692]]}},{"type":"Feature","properties":{"k":"path"},"geometry":{"type":"LineString","coordinates":[[-118.079805,34.051049],[-118.080288,34.051165],[-118.080417,34.051179],[-118.080495,34.051175],[-118.080523,34.051157],[-118.080524,34.051133],[-118.080419,34.050996],[-118.080382,34.050987],[-118.080276,34.050993],[-118.08012,34.050967],[-118.080073,34.050949],[-118.079983,34.050886],[-118.079675,34.050738]]}},{"type":"Feature","properties":{"k":"path"},"geometry":{"type":"LineString","coordinates":[[-118.075228,34.046962],[-118.075358,34.046868],[-118.075422,34.046789],[-118.075461,34.046602],[-118.075516,34.046556],[-118.075614,34.046528],[-118.075704,34.046479],[-118.075776,34.046321],[-118.0758,34.046218]]}},{"type":"Feature","properties":{"k":"path"},"geometry":{"type":"LineString","coordinates":[[-118.075046,34.047086],[-118.075228,34.046962]]}},{"type":"Feature","properties":{"k":"path"},"geometry":{"type":"LineString","coordinates":[[-118.074544,34.047686],[-118.074544,34.047499],[-118.07457,34.047435],[-118.07463,34.047361],[-118.074706,34.047287],[-118.074801,34.047244],[-118.074912,34.04721],[-118.075046,34.047086]]}},{"type":"Feature","properties":{"k":"path"},"geometry":{"type":"LineString","coordinates":[[-118.076322,34.044104],[-118.076326,34.04397],[-118.076319,34.043872],[-118.076298,34.043791],[-118.076225,34.043645],[-118.076229,34.043575],[-118.076268,34.043541],[-118.076317,34.043534],[-118.076358,34.043579],[-118.076437,34.043778],[-118.076484,34.043939],[-118.076516,34.044173],[-118.076549,34.04462],[-118.076626,34.045003],[-118.076665,34.045061],[-118.076738,34.04508],[-118.076959,34.045106],[-118.077049,34.04515],[-118.077127,34.04521],[-118.077187,34.045222],[-118.077234,34.045218],[-118.077285,34.045102],[-118.077329,34.044955],[-118.077361,34.044919],[-118.077412,34.044887],[-118.077642,34.04479],[-118.077721,34.044734],[-118.077758,34.044664],[-118.077835,34.044435],[-118.077872,34.044393],[-118.077943,34.044361],[-118.078006,34.044319],[-118.078048,34.044255],[-118.078104,34.044125],[-118.078193,34.043836]]}},{"type":"Feature","properties":{"k":"path"},"geometry":{"type":"LineString","coordinates":[[-118.07642,34.047486],[-118.076306,34.047408],[-118.076079,34.04734],[-118.075629,34.047189]]}},{"type":"Feature","properties":{"k":"path"},"geometry":{"type":"LineString","coordinates":[[-118.076094,34.048637],[-118.076209,34.048534],[-118.076284,34.048435],[-118.076384,34.048185],[-118.076357,34.04813],[-118.076181,34.048034],[-118.076095,34.047961]]}},{"type":"Feature","properties":{"k":"path"},"geometry":{"type":"LineString","coordinates":[[-118.07616,34.047851],[-118.076278,34.047699]]}},{"type":"Feature","properties":{"k":"path"},"geometry":{"type":"LineString","coordinates":[[-118.075936,34.048361],[-118.076034,34.04821],[-118.076059,34.048142],[-118.076066,34.048055],[-118.076095,34.047961],[-118.07616,34.047851]]}},{"type":"Feature","properties":{"k":"path"},"geometry":{"type":"LineString","coordinates":[[-118.076278,34.047699],[-118.07642,34.047486],[-118.076465,34.047454],[-118.076558,34.047414],[-118.076696,34.047384],[-118.076857,34.04729],[-118.077048,34.047228]]}},{"type":"Feature","properties":{"k":"path"},"geometry":{"type":"LineString","coordinates":[[-118.080662,34.04975],[-118.080769,34.049754],[-118.080848,34.049777],[-118.080949,34.049822],[-118.081016,34.049838],[-118.081163,34.049814],[-118.081221,34.049823],[-118.081323,34.049865],[-118.081378,34.049877],[-118.081456,34.049863],[-118.081529,34.049822],[-118.081579,34.049776],[-118.081613,34.04973],[-118.081621,34.049666],[-118.081618,34.04954],[-118.081602,34.049386],[-118.081584,34.049327],[-118.081594,34.049273],[-118.081627,34.049177],[-118.081623,34.049099],[-118.0816,34.049006],[-118.081531,34.048866],[-118.081537,34.048822],[-118.081606,34.048705],[-118.081603,34.048642],[-118.081504,34.048504],[-118.081483,34.048433],[-118.081511,34.048275],[-118.081511,34.048201],[-118.081483,34.048108],[-118.081428,34.04801],[-118.081423,34.047975],[-118.081473,34.047814],[-118.081476,34.047739],[-118.081454,34.047507],[-118.081465,34.047369],[-118.08146,34.047278],[-118.081437,34.047155],[-118.081445,34.046918],[-118.081414,34.046718],[-118.08143,34.04649],[-118.081428,34.046315],[-118.081272,34.045981],[-118.081008,34.045711],[-118.08093,34.045605],[-118.080845,34.045433],[-118.080811,34.045383],[-118.080757,34.045344],[-118.080481,34.045213],[-118.080395,34.045152],[-118.080191,34.044789],[-118.08014,34.044741],[-118.079964,34.044658],[-118.079915,34.044655],[-118.079875,34.04467],[-118.07987,34.044838],[-118.079896,34.044943],[-118.079946,34.045034],[-118.080035,34.045158],[-118.080155,34.04529],[-118.080214,34.045383],[-118.080332,34.045607],[-118.080329,34.045724],[-118.080341,34.045809],[-118.080436,34.046058],[-118.080462,34.046167],[-118.080495,34.046248],[-118.080525,34.046418],[-118.080618,34.046667],[-118.080627,34.046762],[-118.080619,34.046839],[-118.080682,34.047001],[-118.080699,34.047102],[-118.080698,34.047202],[-118.080741,34.047385],[-118.080753,34.047481],[-118.080753,34.04766],[-118.080811,34.047881],[-118.080817,34.04796],[-118.080794,34.048028],[-118.080754,34.04807],[-118.080689,34.048089],[-118.080622,34.048124],[-118.080541,34.048189],[-118.080482,34.048267],[-118.0804,34.048437],[-118.080356,34.048498],[-118.080294,34.048532],[-118.080188,34.048546],[-118.080105,34.048544],[-118.079988,34.048527],[-118.079895,34.048498],[-118.079799,34.048433],[-118.079706,34.048354],[-118.079558,34.048259],[-118.07946,34.048178],[-118.079353,34.048005],[-118.07928,34.047948],[-118.079026,34.047883],[-118.078916,34.047865],[-118.078767,34.047861],[-118.078594,34.047816],[-118.078478,34.047808],[-118.07837,34.047816],[-118.078315,34.0478],[-118.078158,34.047716],[-118.078099,34.047694],[-118.078018,34.047685],[-118.07791,34.04769],[-118.07766,34.047735],[-118.077471,34.04773],[-118.077344,34.047738],[-118.077243,34.047728],[-118.077141,34.047706],[-118.077064,34.04767],[-118.07694,34.047555],[-118.076875,34.047511],[-118.076805,34.047486],[-118.076711,34.047485],[-118.076551,34.047501],[-118.076464,34.047519],[-118.076382,34.047551]]}},{"type":"Feature","properties":{"k":"path"},"geometry":{"type":"LineString","coordinates":[[-118.078456,34.048674],[-118.078328,34.048579],[-118.078148,34.048469],[-118.078024,34.04832],[-118.077943,34.048276],[-118.07781,34.048231]]}},{"type":"Feature","properties":{"k":"path"},"geometry":{"type":"LineString","coordinates":[[-118.077687,34.048448],[-118.077568,34.048603]]}},{"type":"Feature","properties":{"k":"path"},"geometry":{"type":"LineString","coordinates":[[-118.077981,34.047981],[-118.077871,34.048122],[-118.077687,34.048448]]}},{"type":"Feature","properties":{"k":"path"},"geometry":{"type":"LineString","coordinates":[[-118.077285,34.050325],[-118.077194,34.050279],[-118.077046,34.050168],[-118.076634,34.050085],[-118.076601,34.050047],[-118.07661,34.049979],[-118.076641,34.049927],[-118.076713,34.049904],[-118.0772,34.04985]]}},{"type":"Feature","properties":{"k":"path"},"geometry":{"type":"LineString","coordinates":[[-118.077568,34.048603],[-118.077469,34.04879],[-118.077435,34.04887],[-118.077423,34.048974],[-118.07736,34.049138],[-118.077335,34.049294],[-118.07729,34.049425],[-118.077246,34.049637],[-118.077219,34.049704],[-118.077215,34.049797],[-118.0772,34.04985],[-118.077111,34.050093],[-118.076991,34.050237],[-118.076861,34.050517],[-118.076766,34.050629],[-118.076638,34.050742],[-118.076335,34.05095],[-118.076215,34.05106],[-118.076039,34.05137],[-118.075894,34.051541],[-118.075752,34.051663],[-118.075693,34.051725],[-118.07562,34.051855],[-118.075599,34.051926],[-118.075603,34.052346],[-118.075615,34.052386],[-118.07567,34.052456],[-118.075865,34.052622],[-118.075954,34.052692],[-118.076064,34.052755],[-118.076129,34.052775],[-118.077255,34.052792]]}},{"type":"Feature","properties":{"k":"path"},"geometry":{"type":"LineString","coordinates":[[-118.075954,34.052692],[-118.07583,34.052929],[-118.075822,34.053029],[-118.075752,34.053127],[-118.075684,34.053259],[-118.075619,34.053448],[-118.075567,34.053539]]}},{"type":"Feature","properties":{"k":"path"},"geometry":{"type":"LineString","coordinates":[[-118.074002,34.056779],[-118.074041,34.056725],[-118.074127,34.056668],[-118.074249,34.056608],[-118.074297,34.056556],[-118.074309,34.056488],[-118.074305,34.056416],[-118.074325,34.056358]]}},{"type":"Feature","properties":{"k":"tee"},"geometry":{"type":"Polygon","coordinates":[[[-118.07553,34.052364],[-118.075278,34.052377],[-118.075268,34.052234],[-118.075519,34.052221],[-118.07553,34.052364]]]}},{"type":"Feature","properties":{"k":"green"},"geometry":{"type":"Polygon","coordinates":[[[-118.074048,34.052478],[-118.074019,34.05248],[-118.073992,34.052469],[-118.073951,34.052424],[-118.07396,34.052381],[-118.073972,34.052365],[-118.073993,34.052354],[-118.074063,34.052352],[-118.074091,34.052366],[-118.074127,34.0524],[-118.074131,34.052438],[-118.074096,34.052466],[-118.074048,34.052478]]]}},{"type":"Feature","properties":{"k":"bunker"},"geometry":{"type":"Polygon","coordinates":[[[-118.074032,34.052306],[-118.074014,34.052321],[-118.07399,34.052323],[-118.073955,34.052301],[-118.07394,34.052267],[-118.073956,34.052242],[-118.074001,34.052235],[-118.074026,34.052244],[-118.074043,34.052268],[-118.074032,34.052306]]]}},{"type":"Feature","properties":{"k":"bunker"},"geometry":{"type":"Polygon","coordinates":[[[-118.074135,34.052346],[-118.074147,34.052329],[-118.074183,34.052308],[-118.074207,34.052308],[-118.074228,34.052338],[-118.074205,34.052378],[-118.074162,34.052394],[-118.074135,34.052387],[-118.074124,34.052373],[-118.074135,34.052346]]]}},{"type":"Feature","properties":{"k":"bunker"},"geometry":{"type":"Polygon","coordinates":[[[-118.07414,34.052586],[-118.074117,34.052554],[-118.074114,34.052521],[-118.074136,34.052501],[-118.074177,34.052496],[-118.074235,34.05253],[-118.074256,34.052551],[-118.074254,34.052572],[-118.07422,34.0526],[-118.074172,34.052603],[-118.07414,34.052586]]]}},{"type":"Feature","properties":{"k":"tee"},"geometry":{"type":"Polygon","coordinates":[[[-118.074083,34.05174],[-118.073996,34.051703],[-118.074165,34.05143],[-118.074252,34.051467],[-118.074083,34.05174]]]}},{"type":"Feature","properties":{"k":"tee"},"geometry":{"type":"Polygon","coordinates":[[[-118.07457,34.05123],[-118.074506,34.051204],[-118.07458,34.051081],[-118.074644,34.051107],[-118.07457,34.05123]]]}},{"type":"Feature","properties":{"k":"green"},"geometry":{"type":"Polygon","coordinates":[[[-118.075708,34.048042],[-118.075692,34.048022],[-118.075684,34.047993],[-118.075708,34.047906],[-118.075726,34.04788],[-118.07575,34.047864],[-118.075823,34.047858],[-118.075879,34.047892],[-118.075892,34.047918],[-118.075887,34.047976],[-118.075869,34.048006],[-118.075851,34.04803],[-118.075787,34.048062],[-118.075745,34.04806],[-118.075708,34.048042]]]}},{"type":"Feature","properties":{"k":"bunker"},"geometry":{"type":"Polygon","coordinates":[[[-118.075522,34.048084],[-118.075499,34.048067],[-118.075495,34.048053],[-118.075496,34.04802],[-118.075508,34.048002],[-118.075545,34.047973],[-118.075573,34.047971],[-118.075599,34.047978],[-118.075619,34.048009],[-118.075608,34.048047],[-118.075581,34.048075],[-118.075522,34.048084]]]}},{"type":"Feature","properties":{"k":"tee"},"geometry":{"type":"Polygon","coordinates":[[[-118.076781,34.047653],[-118.076477,34.047665],[-118.076473,34.047586],[-118.076776,34.047574],[-118.076781,34.047653]]]}},{"type":"Feature","properties":{"k":"bunker"},"geometry":{"type":"Polygon","coordinates":[[[-118.078862,34.047752],[-118.078854,34.047783],[-118.078835,34.047807],[-118.078788,34.047811],[-118.078762,34.047798],[-118.078752,34.047758],[-118.078754,34.047715],[-118.078757,34.047689],[-118.078776,34.047668],[-118.078809,34.047669],[-118.078833,34.047684],[-118.078853,34.047705],[-118.078862,34.047752]]]}},{"type":"Feature","properties":{"k":"bunker"},"geometry":{"type":"Polygon","coordinates":[[[-118.078476,34.047757],[-118.078404,34.047777],[-118.078366,34.047768],[-118.078354,34.047752],[-118.078357,34.047733],[-118.078391,34.047706],[-118.078455,34.047688],[-118.078531,34.047681],[-118.078559,34.047689],[-118.078572,34.047708],[-118.078571,34.047731],[-118.078543,34.04775],[-118.078476,34.047757]]]}},{"type":"Feature","properties":{"k":"green"},"geometry":{"type":"Polygon","coordinates":[[[-118.080149,34.048394],[-118.080039,34.048375],[-118.079993,34.048355],[-118.079968,34.048323],[-118.079965,34.048286],[-118.079978,34.048258],[-118.079999,34.048242],[-118.080057,34.048232],[-118.080105,34.048249],[-118.080127,34.048267],[-118.080311,34.048278],[-118.080328,34.048298],[-118.08033,34.048331],[-118.080316,34.048383],[-118.080293,34.048398],[-118.080252,34.048402],[-118.080149,34.048394]]]}},{"type":"Feature","properties":{"k":"bunker"},"geometry":{"type":"Polygon","coordinates":[[[-118.080102,34.048228],[-118.080057,34.048204],[-118.080054,34.048169],[-118.080067,34.048155],[-118.080101,34.048158],[-118.080133,34.048172],[-118.080153,34.048195],[-118.080159,34.048217],[-118.080152,34.048231],[-118.080132,34.048235],[-118.080102,34.048228]]]}},{"type":"Feature","properties":{"k":"bunker"},"geometry":{"type":"Polygon","coordinates":[[[-118.080228,34.048242],[-118.080209,34.048249],[-118.08018,34.048242],[-118.080168,34.048225],[-118.080169,34.048195],[-118.080206,34.048161],[-118.080267,34.048169],[-118.080278,34.048191],[-118.08028,34.048215],[-118.080273,34.04823],[-118.080228,34.048242]]]}},{"type":"Feature","properties":{"k":"tee"},"geometry":{"type":"Polygon","coordinates":[[[-118.080741,34.047939],[-118.080664,34.047949],[-118.080606,34.047648],[-118.080683,34.047637],[-118.080741,34.047939]]]}},{"type":"Feature","properties":{"k":"green"},"geometry":{"type":"Polygon","coordinates":[[[-118.079653,34.045093],[-118.079626,34.045079],[-118.079589,34.04503],[-118.079585,34.044992],[-118.0796,34.044975],[-118.079663,34.044973],[-118.079729,34.044994],[-118.079745,34.04501],[-118.079757,34.045042],[-118.079744,34.045079],[-118.079704,34.045099],[-118.079653,34.045093]]]}},{"type":"Feature","properties":{"k":"bunker"},"geometry":{"type":"Polygon","coordinates":[[[-118.079554,34.045209],[-118.079498,34.045189],[-118.079485,34.04517],[-118.079506,34.045119],[-118.079554,34.045107],[-118.079624,34.045131],[-118.079648,34.04515],[-118.079661,34.045189],[-118.079644,34.04521],[-118.079619,34.045219],[-118.079596,34.045221],[-118.079554,34.045209]]]}},{"type":"Feature","properties":{"k":"tee"},"geometry":{"type":"Polygon","coordinates":[[[-118.080391,34.04491],[-118.080321,34.044929],[-118.080221,34.044674],[-118.080291,34.044655],[-118.080391,34.04491]]]}},{"type":"Feature","properties":{"k":"tee"},"geometry":{"type":"Polygon","coordinates":[[[-118.080962,34.045453],[-118.080911,34.045462],[-118.080872,34.045318],[-118.080924,34.045308],[-118.080962,34.045453]]]}},{"type":"Feature","properties":{"k":"green"},"geometry":{"type":"Polygon","coordinates":[[[-118.081179,34.049204],[-118.081206,34.049174],[-118.081243,34.049075],[-118.081262,34.049056],[-118.081296,34.04904],[-118.081331,34.049047],[-118.081352,34.049059],[-118.081377,34.049086],[-118.081388,34.049115],[-118.081391,34.049152],[-118.081382,34.049202],[-118.081365,34.049229],[-118.081302,34.049263],[-118.081237,34.04933],[-118.081203,34.049332],[-118.081171,34.049318],[-118.081151,34.049297],[-118.081145,34.04927],[-118.081179,34.049204]]]}},{"type":"Feature","properties":{"k":"bunker"},"geometry":{"type":"Polygon","coordinates":[[[-118.081432,34.049137],[-118.08141,34.049111],[-118.081401,34.049087],[-118.081401,34.04906],[-118.081413,34.049042],[-118.081446,34.049041],[-118.081477,34.049063],[-118.081487,34.049104],[-118.081487,34.049128],[-118.08147,34.049147],[-118.081443,34.049149],[-118.081432,34.049137]]]}},{"type":"Feature","properties":{"k":"bunker"},"geometry":{"type":"Polygon","coordinates":[[[-118.0811,34.049208],[-118.081082,34.04919],[-118.081078,34.049166],[-118.081102,34.049134],[-118.081134,34.049139],[-118.081159,34.049152],[-118.081168,34.049172],[-118.081158,34.049192],[-118.081128,34.049218],[-118.081112,34.049218],[-118.0811,34.049208]]]}},{"type":"Feature","properties":{"k":"bunker"},"geometry":{"type":"Polygon","coordinates":[[[-118.08114,34.049112],[-118.08113,34.04908],[-118.081147,34.049031],[-118.081159,34.049019],[-118.081186,34.049023],[-118.081205,34.049035],[-118.081218,34.049059],[-118.081199,34.049136],[-118.081174,34.049139],[-118.08114,34.049112]]]}},{"type":"Feature","properties":{"k":"tee"},"geometry":{"type":"Polygon","coordinates":[[[-118.081385,34.049764],[-118.081429,34.04978],[-118.081449,34.049804],[-118.081441,34.049825],[-118.081374,34.049847],[-118.08132,34.049831],[-118.081246,34.049796],[-118.081225,34.049773],[-118.081227,34.049751],[-118.081268,34.049713],[-118.081385,34.049764]]]}},{"type":"Feature","properties":{"k":"green"},"geometry":{"type":"Polygon","coordinates":[[[-118.078197,34.048312],[-118.078134,34.048289],[-118.078107,34.048247],[-118.078092,34.048159],[-118.078064,34.048071],[-118.078084,34.048033],[-118.078131,34.048018],[-118.078165,34.048015],[-118.078216,34.048048],[-118.078224,34.048133],[-118.078249,34.04817],[-118.078301,34.048222],[-118.078306,34.048261],[-118.078287,34.04829],[-118.078259,34.048308],[-118.078197,34.048312]]]}},{"type":"Feature","properties":{"k":"bunker"},"geometry":{"type":"Polygon","coordinates":[[[-118.078322,34.048203],[-118.078314,34.048187],[-118.078272,34.048155],[-118.078264,34.048129],[-118.078271,34.0481],[-118.078292,34.048086],[-118.078376,34.048107],[-118.078405,34.048157],[-118.078411,34.048185],[-118.078375,34.048216],[-118.078349,34.048217],[-118.078322,34.048203]]]}},{"type":"Feature","properties":{"k":"bunker"},"geometry":{"type":"Polygon","coordinates":[[[-118.078019,34.048199],[-118.078019,34.048177],[-118.078003,34.048154],[-118.078007,34.048131],[-118.078033,34.048131],[-118.078066,34.048148],[-118.078079,34.048197],[-118.07807,34.048216],[-118.078044,34.04822],[-118.078019,34.048199]]]}},{"type":"Feature","properties":{"k":"tee"},"geometry":{"type":"Polygon","coordinates":[[[-118.077696,34.048266],[-118.077505,34.04818],[-118.077546,34.048118],[-118.077737,34.048204],[-118.077696,34.048266]]]}},{"type":"Feature","properties":{"k":"tee"},"geometry":{"type":"Polygon","coordinates":[[[-118.077254,34.048735],[-118.077181,34.048703],[-118.077282,34.048546],[-118.077354,34.048578],[-118.077254,34.048735]]]}},{"type":"Feature","properties":{"k":"green"},"geometry":{"type":"Polygon","coordinates":[[[-118.076866,34.049634],[-118.076844,34.049607],[-118.076835,34.049548],[-118.076871,34.049512],[-118.076944,34.049493],[-118.077012,34.049512],[-118.077041,34.049536],[-118.077049,34.049563],[-118.077045,34.049594],[-118.077031,34.049624],[-118.076999,34.049646],[-118.076929,34.049657],[-118.0769,34.049652],[-118.076866,34.049634]]]}},{"type":"Feature","properties":{"k":"bunker"},"geometry":{"type":"Polygon","coordinates":[[[-118.076818,34.049639],[-118.076836,34.049651],[-118.076845,34.049678],[-118.076816,34.049702],[-118.076797,34.049708],[-118.076762,34.049705],[-118.076748,34.049685],[-118.07676,34.049659],[-118.076787,34.04964],[-118.076818,34.049639]]]}},{"type":"Feature","properties":{"k":"bunker"},"geometry":{"type":"Polygon","coordinates":[[[-118.076857,34.049496],[-118.07682,34.049491],[-118.076799,34.049459],[-118.076794,34.049408],[-118.076808,34.049379],[-118.076819,34.049374],[-118.076851,34.049379],[-118.076892,34.049424],[-118.076894,34.04946],[-118.076885,34.04948],[-118.076857,34.049496]]]}},{"type":"Feature","properties":{"k":"bunker"},"geometry":{"type":"Polygon","coordinates":[[[-118.077103,34.049514],[-118.077077,34.04952],[-118.077054,34.049517],[-118.077041,34.049506],[-118.077032,34.049493],[-118.077038,34.049451],[-118.077047,34.04943],[-118.077065,34.049422],[-118.077122,34.049414],[-118.077134,34.049459],[-118.077127,34.04949],[-118.077103,34.049514]]]}},{"type":"Feature","properties":{"k":"tee"},"geometry":{"type":"Polygon","coordinates":[[[-118.076487,34.05008],[-118.076476,34.050124],[-118.076381,34.050108],[-118.076392,34.050063],[-118.076487,34.05008]]]}},{"type":"Feature","properties":{"k":"tee"},"geometry":{"type":"Polygon","coordinates":[[[-118.076853,34.050162],[-118.076835,34.050216],[-118.076571,34.050156],[-118.076589,34.050101],[-118.076853,34.050162]]]}},{"type":"Feature","properties":{"k":"tee"},"geometry":{"type":"Polygon","coordinates":[[[-118.076973,34.050039],[-118.076959,34.050103],[-118.076646,34.050055],[-118.07666,34.049992],[-118.076973,34.050039]]]}},{"type":"Feature","properties":{"k":"green"},"geometry":{"type":"Polygon","coordinates":[[[-118.08031,34.050781],[-118.080257,34.050795],[-118.08018,34.050778],[-118.080153,34.050731],[-118.080155,34.050701],[-118.08016,34.050675],[-118.080229,34.050622],[-118.080297,34.050601],[-118.080328,34.0506],[-118.080369,34.050608],[-118.080393,34.050639],[-118.080397,34.05067],[-118.080369,34.050736],[-118.080342,34.050763],[-118.08031,34.050781]]]}},{"type":"Feature","properties":{"k":"bunker"},"geometry":{"type":"Polygon","coordinates":[[[-118.080218,34.050583],[-118.080156,34.050612],[-118.080126,34.050612],[-118.080089,34.050585],[-118.080095,34.050561],[-118.080136,34.050521],[-118.080185,34.050499],[-118.080214,34.050497],[-118.080236,34.050507],[-118.080245,34.050551],[-118.080218,34.050583]]]}},{"type":"Feature","properties":{"k":"tee"},"geometry":{"type":"Polygon","coordinates":[[[-118.080654,34.051236],[-118.080646,34.051306],[-118.080363,34.051283],[-118.080371,34.051213],[-118.080654,34.051236]]]}},{"type":"Feature","properties":{"k":"green"},"geometry":{"type":"Polygon","coordinates":[[[-118.076394,34.051292],[-118.07637,34.051291],[-118.076332,34.05126],[-118.076316,34.051193],[-118.076326,34.051167],[-118.076348,34.051147],[-118.07641,34.051135],[-118.076462,34.051145],[-118.076486,34.05116],[-118.076499,34.051175],[-118.076504,34.051205],[-118.076492,34.051246],[-118.076472,34.051264],[-118.076414,34.05129],[-118.076394,34.051292]]]}},{"type":"Feature","properties":{"k":"bunker"},"geometry":{"type":"Polygon","coordinates":[[[-118.076436,34.051068],[-118.076441,34.051034],[-118.076505,34.051007],[-118.076555,34.051008],[-118.076582,34.051023],[-118.076591,34.051042],[-118.076584,34.051062],[-118.076537,34.051095],[-118.076468,34.051096],[-118.076451,34.051089],[-118.076436,34.051068]]]}},{"type":"Feature","properties":{"k":"bunker"},"geometry":{"type":"Polygon","coordinates":[[[-118.076532,34.051376],[-118.076506,34.051377],[-118.076485,34.051368],[-118.076472,34.051347],[-118.076481,34.051303],[-118.076524,34.051283],[-118.076567,34.051284],[-118.076592,34.051304],[-118.076586,34.051338],[-118.076548,34.051374],[-118.076532,34.051376]]]}},{"type":"Feature","properties":{"k":"tee"},"geometry":{"type":"Polygon","coordinates":[[[-118.075588,34.052737],[-118.075501,34.052684],[-118.07565,34.052517],[-118.075737,34.05257],[-118.075588,34.052737]]]}},{"type":"Feature","properties":{"k":"fairway"},"geometry":{"type":"Polygon","coordinates":[[[-118.074495,34.053467],[-118.074565,34.053374],[-118.074633,34.053319],[-118.074709,34.053292],[-118.074795,34.053284],[-118.074896,34.053298],[-118.074986,34.053348],[-118.075061,34.053399],[-118.075084,34.053452],[-118.075052,34.053514],[-118.074912,34.053661],[-118.074771,34.053789],[-118.074712,34.05387],[-118.074685,34.054018],[-118.074648,34.054142],[-118.074594,34.054232],[-118.074523,34.054278],[-118.074439,34.054321],[-118.074378,34.054329],[-118.074266,34.054298],[-118.074198,34.054306],[-118.074149,34.054358],[-118.074088,34.05449],[-118.074059,34.054654],[-118.074024,34.05473],[-118.073949,34.054826],[-118.073911,34.054924],[-118.073869,34.05498],[-118.073809,34.054995],[-118.073736,34.054939],[-118.0737,34.054878],[-118.073686,34.054812],[-118.073755,34.054585],[-118.073797,34.054495],[-118.073856,34.054447],[-118.07394,34.054404],[-118.074075,34.054148],[-118.074155,34.054056],[-118.074369,34.053748],[-118.074438,34.053624],[-118.074495,34.053467]]]}},{"type":"Feature","properties":{"k":"bunker"},"geometry":{"type":"Polygon","coordinates":[[[-118.074461,34.054482],[-118.074427,34.054495],[-118.074384,34.054485],[-118.074383,34.054447],[-118.074528,34.054375],[-118.074572,34.054409],[-118.074566,34.054437],[-118.074487,34.054451],[-118.074461,34.054482]]]}},{"type":"Feature","properties":{"k":"green"},"geometry":{"type":"Polygon","coordinates":[[[-118.073064,34.055993],[-118.073022,34.055971],[-118.073001,34.055946],[-118.073007,34.055897],[-118.073043,34.055858],[-118.073071,34.055847],[-118.073134,34.055841],[-118.073174,34.055852],[-118.073198,34.055867],[-118.073198,34.055915],[-118.073159,34.055972],[-118.073102,34.055994],[-118.073064,34.055993]]]}},{"type":"Feature","properties":{"k":"bunker"},"geometry":{"type":"Polygon","coordinates":[[[-118.072947,34.055884],[-118.072908,34.055869],[-118.072894,34.055848],[-118.072895,34.05581],[-118.072913,34.055797],[-118.072939,34.055797],[-118.072963,34.055807],[-118.072996,34.055824],[-118.073007,34.055845],[-118.073008,34.055869],[-118.072994,34.055881],[-118.072973,34.055887],[-118.072947,34.055884]]]}},{"type":"Feature","properties":{"k":"bunker"},"geometry":{"type":"Polygon","coordinates":[[[-118.073314,34.056004],[-118.073282,34.056024],[-118.073257,34.056025],[-118.073232,34.056017],[-118.073218,34.055983],[-118.073282,34.055929],[-118.07331,34.055917],[-118.073333,34.05592],[-118.073364,34.055949],[-118.073361,34.055968],[-118.073345,34.055988],[-118.073314,34.056004]]]}},{"type":"Feature","properties":{"k":"tee"},"geometry":{"type":"Polygon","coordinates":[[[-118.07271,34.055933],[-118.072592,34.055908],[-118.072676,34.055639],[-118.072793,34.055664],[-118.07271,34.055933]]]}},{"type":"Feature","properties":{"k":"tee"},"geometry":{"type":"Polygon","coordinates":[[[-118.072979,34.055006],[-118.072857,34.054988],[-118.07288,34.054883],[-118.073001,34.054901],[-118.072979,34.055006]]]}},{"type":"Feature","properties":{"k":"green"},"geometry":{"type":"Polygon","coordinates":[[[-118.07351,34.05266],[-118.073483,34.052664],[-118.073425,34.05265],[-118.073356,34.052598],[-118.073336,34.05256],[-118.07334,34.052526],[-118.073358,34.05249],[-118.073381,34.052469],[-118.073441,34.052452],[-118.073498,34.052463],[-118.073529,34.052486],[-118.073564,34.052529],[-118.073577,34.052577],[-118.073571,34.052616],[-118.073556,34.052638],[-118.07351,34.05266]]]}},{"type":"Feature","properties":{"k":"tee"},"geometry":{"type":"Polygon","coordinates":[[[-118.073391,34.051525],[-118.073273,34.051487],[-118.073363,34.051295],[-118.073482,34.051333],[-118.073391,34.051525]]]}},{"type":"Feature","properties":{"k":"tee"},"geometry":{"type":"Polygon","coordinates":[[[-118.073537,34.051644],[-118.073468,34.051629],[-118.073522,34.051459],[-118.073591,34.051474],[-118.073537,34.051644]]]}},{"type":"Feature","properties":{"k":"green"},"geometry":{"type":"Polygon","coordinates":[[[-118.07485,34.047474],[-118.074833,34.04744],[-118.074828,34.047401],[-118.074848,34.047343],[-118.074882,34.047312],[-118.074918,34.047297],[-118.074963,34.047293],[-118.075036,34.04733],[-118.075058,34.047374],[-118.075059,34.047419],[-118.075032,34.047464],[-118.075007,34.047483],[-118.074966,34.047499],[-118.074887,34.047498],[-118.07485,34.047474]]]}},{"type":"Feature","properties":{"k":"bunker"},"geometry":{"type":"Polygon","coordinates":[[[-118.075035,34.047635],[-118.074998,34.047627],[-118.074982,34.047614],[-118.074974,34.047586],[-118.074989,34.047543],[-118.075017,34.047522],[-118.075062,34.047525],[-118.075085,34.047542],[-118.075102,34.04757],[-118.075103,34.047605],[-118.075075,34.047627],[-118.075035,34.047635]]]}},{"type":"Feature","properties":{"k":"tee"},"geometry":{"type":"Polygon","coordinates":[[[-118.075576,34.046888],[-118.07544,34.046871],[-118.075469,34.046719],[-118.075605,34.046737],[-118.075576,34.046888]]]}},{"type":"Feature","properties":{"k":"tee"},"geometry":{"type":"Polygon","coordinates":[[[-118.075314,34.046783],[-118.075204,34.046757],[-118.075254,34.04661],[-118.075364,34.046636],[-118.075314,34.046783]]]}},{"type":"Feature","properties":{"k":"bunker"},"geometry":{"type":"Polygon","coordinates":[[[-118.075806,34.043929],[-118.075767,34.04391],[-118.075763,34.043888],[-118.075769,34.043868],[-118.075797,34.04385],[-118.075829,34.043849],[-118.075878,34.043875],[-118.075895,34.0439],[-118.075894,34.043932],[-118.075884,34.043945],[-118.075858,34.043955],[-118.075806,34.043929]]]}},{"type":"Feature","properties":{"k":"green"},"geometry":{"type":"Polygon","coordinates":[[[-118.075998,34.043899],[-118.075952,34.043888],[-118.075896,34.043818],[-118.075893,34.043764],[-118.0759,34.043737],[-118.075925,34.043715],[-118.075949,34.043708],[-118.075986,34.043706],[-118.076032,34.043718],[-118.076063,34.043737],[-118.076077,34.043765],[-118.076085,34.043809],[-118.076066,34.04387],[-118.076053,34.043887],[-118.07603,34.043898],[-118.075998,34.043899]]]}},{"type":"Feature","properties":{"k":"tee"},"geometry":{"type":"Polygon","coordinates":[[[-118.07659,34.043713],[-118.076458,34.043746],[-118.076333,34.043411],[-118.076465,34.043377],[-118.07659,34.043713]]]}},{"type":"Feature","properties":{"k":"tee"},"geometry":{"type":"Polygon","coordinates":[[[-118.076721,34.043416],[-118.076636,34.043436],[-118.076608,34.04335],[-118.076692,34.043331],[-118.076721,34.043416]]]}},{"type":"Feature","properties":{"k":"bunker"},"geometry":{"type":"Polygon","coordinates":[[[-118.076752,34.044772],[-118.076729,34.044753],[-118.076718,34.044719],[-118.076728,34.044692],[-118.076744,34.04467],[-118.076766,34.04466],[-118.076796,34.044666],[-118.076831,34.044684],[-118.076845,34.044708],[-118.076841,34.04473],[-118.07681,34.044761],[-118.076782,34.044774],[-118.076752,34.044772]]]}},{"type":"Feature","properties":{"k":"green"},"geometry":{"type":"Polygon","coordinates":[[[-118.076868,34.044916],[-118.076832,34.044873],[-118.076824,34.044851],[-118.076825,34.044815],[-118.076837,34.044787],[-118.076864,34.044765],[-118.076924,34.044743],[-118.076979,34.044748],[-118.077011,34.044758],[-118.077044,34.04478],[-118.07706,34.044809],[-118.077065,34.044865],[-118.077049,34.044898],[-118.077025,34.044918],[-118.07699,34.04494],[-118.076924,34.044942],[-118.076868,34.044916]]]}},{"type":"Feature","properties":{"k":"tee"},"geometry":{"type":"Polygon","coordinates":[[[-118.077393,34.045378],[-118.077249,34.045346],[-118.07736,34.045007],[-118.077504,34.045039],[-118.077393,34.045378]]]}},{"type":"Feature","properties":{"k":"green"},"geometry":{"type":"Polygon","coordinates":[[[-118.077925,34.042544],[-118.077891,34.042519],[-118.077869,34.042491],[-118.077865,34.04243],[-118.077885,34.042391],[-118.077944,34.042372],[-118.078043,34.042388],[-118.078077,34.042404],[-118.078104,34.042434],[-118.07811,34.042466],[-118.078091,34.042501],[-118.078023,34.042547],[-118.077951,34.042551],[-118.077925,34.042544]]]}},{"type":"Feature","properties":{"k":"bunker"},"geometry":{"type":"Polygon","coordinates":[[[-118.077746,34.042556],[-118.077705,34.042529],[-118.077698,34.042513],[-118.077701,34.042496],[-118.077719,34.042483],[-118.07777,34.042475],[-118.077797,34.042487],[-118.077815,34.042507],[-118.077824,34.042548],[-118.077812,34.042561],[-118.077795,34.042564],[-118.077746,34.042556]]]}},{"type":"Feature","properties":{"k":"bunker"},"geometry":{"type":"Polygon","coordinates":[[[-118.078158,34.042623],[-118.078119,34.042602],[-118.078123,34.042567],[-118.078142,34.042558],[-118.07818,34.042558],[-118.078201,34.04257],[-118.078206,34.042585],[-118.078188,34.042616],[-118.078158,34.042623]]]}},{"type":"Feature","properties":{"k":"tee"},"geometry":{"type":"Polygon","coordinates":[[[-118.078555,34.04225],[-118.078426,34.042285],[-118.078298,34.041965],[-118.078426,34.04193],[-118.078555,34.04225]]]}},{"type":"Feature","properties":{"k":"green"},"geometry":{"type":"Polygon","coordinates":[[[-118.079062,34.043764],[-118.079013,34.043716],[-118.079006,34.043663],[-118.079016,34.043638],[-118.079035,34.043619],[-118.079076,34.043611],[-118.079148,34.043637],[-118.079179,34.043678],[-118.07918,34.043737],[-118.079164,34.043759],[-118.079134,34.043778],[-118.079106,34.04378],[-118.079062,34.043764]]]}},{"type":"Feature","properties":{"k":"bunker"},"geometry":{"type":"Polygon","coordinates":[[[-118.079166,34.04354],[-118.079129,34.043534],[-118.07911,34.043493],[-118.079114,34.043473],[-118.079131,34.043458],[-118.079158,34.04345],[-118.079187,34.043453],[-118.079205,34.043464],[-118.079215,34.043486],[-118.079213,34.043506],[-118.0792,34.043525],[-118.079186,34.043537],[-118.079166,34.04354]]]}},{"type":"Feature","properties":{"k":"bunker"},"geometry":{"type":"Polygon","coordinates":[[[-118.079226,34.043637],[-118.079206,34.043631],[-118.079191,34.043611],[-118.079196,34.043589],[-118.079231,34.043566],[-118.079264,34.043571],[-118.079281,34.043587],[-118.079286,34.043605],[-118.07928,34.043619],[-118.079267,34.043634],[-118.079226,34.043637]]]}},{"type":"Feature","properties":{"k":"tee"},"geometry":{"type":"Polygon","coordinates":[[[-118.079243,34.044461],[-118.079109,34.044407],[-118.079234,34.044191],[-118.079368,34.044244],[-118.079243,34.044461]]]}},{"type":"Feature","properties":{"k":"bunker"},"geometry":{"type":"Polygon","coordinates":[[[-118.076508,34.047079],[-118.076452,34.047031],[-118.076456,34.046991],[-118.076484,34.046983],[-118.076568,34.047019],[-118.076582,34.04704],[-118.076578,34.047067],[-118.076565,34.04708],[-118.076539,34.047087],[-118.076508,34.047079]]]}},{"type":"Feature","properties":{"k":"green"},"geometry":{"type":"Polygon","coordinates":[[[-118.076575,34.047236],[-118.076548,34.047268],[-118.076524,34.047283],[-118.076496,34.047292],[-118.076435,34.047292],[-118.076403,34.047273],[-118.076386,34.047248],[-118.076379,34.047218],[-118.07639,34.047173],[-118.076409,34.047153],[-118.076462,34.047128],[-118.076516,34.04713],[-118.07656,34.047148],[-118.076577,34.047165],[-118.076581,34.047214],[-118.076575,34.047236]]]}},{"type":"Feature","properties":{"k":"tee"},"geometry":{"type":"Polygon","coordinates":[[[-118.076506,34.048388],[-118.076375,34.048347],[-118.076509,34.048059],[-118.076639,34.0481],[-118.076506,34.048388]]]}},{"type":"Feature","properties":{"k":"bunker"},"geometry":{"type":"Polygon","coordinates":[[[-118.075457,34.051316],[-118.075429,34.051311],[-118.075409,34.051298],[-118.07541,34.051257],[-118.075447,34.051221],[-118.075501,34.051212],[-118.075518,34.051221],[-118.075532,34.051258],[-118.075508,34.051294],[-118.075457,34.051316]]]}},{"type":"Feature","properties":{"k":"bunker"},"geometry":{"type":"Polygon","coordinates":[[[-118.075808,34.051334],[-118.075775,34.051342],[-118.075744,34.051329],[-118.075736,34.051311],[-118.075747,34.051263],[-118.075772,34.051253],[-118.0758,34.051255],[-118.075828,34.05127],[-118.075834,34.051296],[-118.075829,34.051313],[-118.075808,34.051334]]]}},{"type":"Feature","properties":{"k":"green"},"geometry":{"type":"Polygon","coordinates":[[[-118.07556,34.051463],[-118.075513,34.05144],[-118.075494,34.051403],[-118.075493,34.051375],[-118.07553,34.051322],[-118.075567,34.051296],[-118.075607,34.051285],[-118.075647,34.051283],[-118.075672,34.051295],[-118.075723,34.051364],[-118.075718,34.051435],[-118.075696,34.051462],[-118.07566,34.051475],[-118.075592,34.051474],[-118.07556,34.051463]]]}},{"type":"Feature","properties":{"k":"tee"},"geometry":{"type":"Polygon","coordinates":[[[-118.075973,34.05297],[-118.075896,34.052939],[-118.075985,34.052789],[-118.076062,34.052821],[-118.075973,34.05297]]]}},{"type":"Feature","properties":{"k":"fairway"},"geometry":{"type":"Polygon","coordinates":[[[-118.075073,34.054244],[-118.075122,34.054149],[-118.075178,34.054075],[-118.075222,34.054056],[-118.075293,34.054067],[-118.075362,34.054157],[-118.075457,34.054322],[-118.07546,34.054434],[-118.075199,34.054895],[-118.07502,34.055104],[-118.074952,34.05513],[-118.074767,34.055127],[-118.074726,34.05516],[-118.074541,34.055374],[-118.074498,34.055406],[-118.074381,34.055397],[-118.074339,34.055364],[-118.074339,34.055319],[-118.074771,34.054758],[-118.074809,34.054661],[-118.074855,34.054594],[-118.074954,34.054518],[-118.074991,34.054451],[-118.075073,34.054244]]]}},{"type":"Feature","properties":{"k":"green"},"geometry":{"type":"Polygon","coordinates":[[[-118.073925,34.056208],[-118.073886,34.05618],[-118.073884,34.056112],[-118.073929,34.056084],[-118.07396,34.056084],[-118.074007,34.056103],[-118.074037,34.05613],[-118.074048,34.056157],[-118.074039,34.056186],[-118.07402,34.056207],[-118.073967,34.056221],[-118.073925,34.056208]]]}},{"type":"Feature","properties":{"k":"bunker"},"geometry":{"type":"Polygon","coordinates":[[[-118.073873,34.056032],[-118.073834,34.05602],[-118.073818,34.056002],[-118.073814,34.055973],[-118.073836,34.05595],[-118.073871,34.055942],[-118.073906,34.055952],[-118.073927,34.055971],[-118.073931,34.055995],[-118.073929,34.056017],[-118.073911,34.056029],[-118.073892,34.056035],[-118.073873,34.056032]]]}},{"type":"Feature","properties":{"k":"bunker"},"geometry":{"type":"Polygon","coordinates":[[[-118.074127,34.056241],[-118.074092,34.056231],[-118.074089,34.056179],[-118.074107,34.056154],[-118.074135,34.056139],[-118.074166,34.056143],[-118.074189,34.056163],[-118.074189,34.056198],[-118.074152,34.056235],[-118.074127,34.056241]]]}},{"type":"Feature","properties":{"k":"tee"},"geometry":{"type":"Polygon","coordinates":[[[-118.073716,34.05681],[-118.073607,34.056774],[-118.073714,34.056549],[-118.073823,34.056584],[-118.073716,34.05681]]]}},{"type":"Feature","properties":{"k":"green"},"geometry":{"type":"Polygon","coordinates":[[[-118.07336,34.057592],[-118.073322,34.057565],[-118.073313,34.057516],[-118.073324,34.05749],[-118.073352,34.057463],[-118.073399,34.057456],[-118.073418,34.057462],[-118.073459,34.057497],[-118.073473,34.057522],[-118.073469,34.057553],[-118.073426,34.057588],[-118.073403,34.057594],[-118.07336,34.057592]]]}},{"type":"Feature","properties":{"k":"bunker"},"geometry":{"type":"Polygon","coordinates":[[[-118.073238,34.057472],[-118.073223,34.057452],[-118.073217,34.057428],[-118.073253,34.057414],[-118.073273,34.057383],[-118.073291,34.057379],[-118.073342,34.057392],[-118.073357,34.057409],[-118.073348,34.057442],[-118.0733,34.057458],[-118.073273,34.057482],[-118.073243,34.057481],[-118.073238,34.057472]]]}},{"type":"Feature","properties":{"k":"bunker"},"geometry":{"type":"Polygon","coordinates":[[[-118.07342,34.05768],[-118.073401,34.057684],[-118.073375,34.057666],[-118.073377,34.057634],[-118.073402,34.057624],[-118.073445,34.05762],[-118.073465,34.057609],[-118.073484,34.057607],[-118.073503,34.057619],[-118.073503,34.057638],[-118.073478,34.057676],[-118.07345,34.057671],[-118.07342,34.05768]]]}},{"type":"Feature","properties":{"k":"bunker"},"geometry":{"type":"Polygon","coordinates":[[[-118.073484,34.057475],[-118.07347,34.057457],[-118.073468,34.057433],[-118.073488,34.057401],[-118.073507,34.057398],[-118.073529,34.057407],[-118.073547,34.057429],[-118.073553,34.057453],[-118.073532,34.057485],[-118.073506,34.057491],[-118.073484,34.057475]]]}},{"type":"Feature","properties":{"k":"tee"},"geometry":{"type":"Polygon","coordinates":[[[-118.074043,34.057749],[-118.073985,34.057693],[-118.0738,34.057822],[-118.073858,34.057879],[-118.074043,34.057749]]]}},{"type":"Feature","properties":{"k":"green"},"geometry":{"type":"Polygon","coordinates":[[[-118.076554,34.056128],[-118.07656,34.056088],[-118.07659,34.05606],[-118.076636,34.056052],[-118.076669,34.056056],[-118.0767,34.056078],[-118.076719,34.056111],[-118.076725,34.056137],[-118.076719,34.056169],[-118.076702,34.056196],[-118.076671,34.05621],[-118.076633,34.056211],[-118.076592,34.056197],[-118.07657,34.05617],[-118.076554,34.056128]]]}},{"type":"Feature","properties":{"k":"bunker"},"geometry":{"type":"Polygon","coordinates":[[[-118.076439,34.056042],[-118.076413,34.05603],[-118.076418,34.055998],[-118.076499,34.055985],[-118.07652,34.05599],[-118.07653,34.056001],[-118.076532,34.056011],[-118.076504,34.05605],[-118.076487,34.056057],[-118.076439,34.056042]]]}},{"type":"Feature","properties":{"k":"bunker"},"geometry":{"type":"Polygon","coordinates":[[[-118.076534,34.056359],[-118.07652,34.056317],[-118.076545,34.056291],[-118.076571,34.056287],[-118.076616,34.056311],[-118.076622,34.056332],[-118.076603,34.05637],[-118.076569,34.056378],[-118.076534,34.056359]]]}},{"type":"Feature","properties":{"k":"tee"},"geometry":{"type":"Polygon","coordinates":[[[-118.076842,34.056559],[-118.076787,34.05651],[-118.076967,34.05637],[-118.077022,34.056418],[-118.076842,34.056559]]]}},{"type":"Feature","properties":{"k":"green"},"geometry":{"type":"Polygon","coordinates":[[[-118.074754,34.058004],[-118.074733,34.057971],[-118.074726,34.057929],[-118.074739,34.057899],[-118.074757,34.057877],[-118.074797,34.05787],[-118.074832,34.057879],[-118.074856,34.0579],[-118.07487,34.057928],[-118.074866,34.057968],[-118.074854,34.057994],[-118.074825,34.058016],[-118.074797,34.058022],[-118.074754,34.058004]]]}},{"type":"Feature","properties":{"k":"bunker"},"geometry":{"type":"Polygon","coordinates":[[[-118.074816,34.057816],[-118.074795,34.05779],[-118.074792,34.057765],[-118.074813,34.057732],[-118.074862,34.057731],[-118.07489,34.057741],[-118.074913,34.057788],[-118.074902,34.057809],[-118.074866,34.057831],[-118.074834,34.057828],[-118.074816,34.057816]]]}},{"type":"Feature","properties":{"k":"bunker"},"geometry":{"type":"Polygon","coordinates":[[[-118.074881,34.058044],[-118.074882,34.058029],[-118.074925,34.058004],[-118.074954,34.057958],[-118.074988,34.05795],[-118.075005,34.057957],[-118.075015,34.05797],[-118.075007,34.05801],[-118.074959,34.058053],[-118.07494,34.058064],[-118.074915,34.058066],[-118.074883,34.058056],[-118.074881,34.058044]]]}},{"type":"Feature","properties":{"k":"tee"},"geometry":{"type":"Polygon","coordinates":[[[-118.074491,34.058223],[-118.074371,34.058161],[-118.07442,34.058096],[-118.07454,34.058158],[-118.074491,34.058223]]]}},{"type":"Feature","properties":{"k":"tee"},"geometry":{"type":"Polygon","coordinates":[[[-118.07481,34.058321],[-118.07483,34.058258],[-118.074562,34.058197],[-118.074541,34.05826],[-118.07481,34.058321]]]}},{"type":"Feature","properties":{"k":"green"},"geometry":{"type":"Polygon","coordinates":[[[-118.076051,34.058459],[-118.075982,34.058437],[-118.075955,34.058417],[-118.075942,34.058389],[-118.075945,34.058374],[-118.075963,34.058351],[-118.075995,34.058337],[-118.076045,34.058323],[-118.076085,34.058325],[-118.076113,34.058337],[-118.076144,34.058369],[-118.076146,34.0584],[-118.076136,34.058424],[-118.076116,34.058442],[-118.076051,34.058459]]]}},{"type":"Feature","properties":{"k":"bunker"},"geometry":{"type":"Polygon","coordinates":[[[-118.075947,34.058518],[-118.07593,34.058538],[-118.075893,34.058544],[-118.075864,34.058466],[-118.075889,34.058437],[-118.075907,34.058433],[-118.075942,34.058445],[-118.075947,34.058518]]]}},{"type":"Feature","properties":{"k":"bunker"},"geometry":{"type":"Polygon","coordinates":[[[-118.075947,34.058292],[-118.075931,34.058275],[-118.075935,34.058223],[-118.075964,34.058219],[-118.076011,34.058234],[-118.07602,34.058268],[-118.076012,34.058285],[-118.075998,34.058298],[-118.075977,34.058301],[-118.075947,34.058292]]]}},{"type":"Feature","properties":{"k":"tee"},"geometry":{"type":"Polygon","coordinates":[[[-118.075867,34.058874],[-118.075638,34.058835],[-118.07562,34.058909],[-118.075848,34.058948],[-118.075867,34.058874]]]}},{"type":"Feature","properties":{"k":"green"},"geometry":{"type":"Polygon","coordinates":[[[-118.072675,34.057922],[-118.072656,34.057898],[-118.072645,34.05784],[-118.072687,34.057804],[-118.072717,34.057805],[-118.072756,34.057825],[-118.072782,34.057855],[-118.07281,34.057913],[-118.072806,34.057947],[-118.072793,34.057972],[-118.072777,34.05798],[-118.072749,34.057978],[-118.072693,34.05795],[-118.072675,34.057922]]]}},{"type":"Feature","properties":{"k":"bunker"},"geometry":{"type":"Polygon","coordinates":[[[-118.072647,34.058027],[-118.072593,34.05801],[-118.072563,34.057986],[-118.072564,34.057966],[-118.072581,34.057951],[-118.0726,34.057943],[-118.072648,34.057946],[-118.072719,34.057991],[-118.072817,34.058008],[-118.072829,34.05802],[-118.07283,34.058037],[-118.072807,34.058053],[-118.072729,34.058049],[-118.072689,34.058055],[-118.07267,34.058049],[-118.072647,34.058027]]]}},{"type":"Feature","properties":{"k":"bunker"},"geometry":{"type":"Polygon","coordinates":[[[-118.072819,34.05786],[-118.072818,34.057819],[-118.07283,34.057804],[-118.072845,34.057793],[-118.072886,34.057807],[-118.072905,34.057853],[-118.072903,34.057871],[-118.072887,34.057888],[-118.072864,34.057894],[-118.072842,34.057889],[-118.072819,34.05786]]]}},{"type":"Feature","properties":{"k":"tee"},"geometry":{"type":"Polygon","coordinates":[[[-118.072302,34.05782],[-118.072239,34.057779],[-118.072394,34.057613],[-118.072457,34.057654],[-118.072302,34.05782]]]}},{"type":"Feature","properties":{"k":"bunker"},"geometry":{"type":"Polygon","coordinates":[[[-118.073055,34.056653],[-118.073031,34.056625],[-118.073039,34.05659],[-118.073052,34.056575],[-118.073075,34.05657],[-118.073115,34.056577],[-118.073127,34.056592],[-118.073124,34.056624],[-118.073087,34.05665],[-118.073055,34.056653]]]}},{"type":"Feature","properties":{"k":"green"},"geometry":{"type":"Polygon","coordinates":[[[-118.073232,34.056693],[-118.073202,34.056685],[-118.073171,34.056657],[-118.073162,34.056604],[-118.073195,34.056546],[-118.073217,34.05653],[-118.073248,34.056523],[-118.073319,34.056543],[-118.07336,34.05657],[-118.073372,34.056599],[-118.073366,34.05663],[-118.073336,34.05666],[-118.073299,34.056683],[-118.073268,34.056693],[-118.073232,34.056693]]]}},{"type":"Feature","properties":{"k":"tee"},"geometry":{"type":"Polygon","coordinates":[[[-118.073902,34.057324],[-118.073877,34.057361],[-118.073857,34.057367],[-118.073837,34.057363],[-118.073832,34.057351],[-118.073839,34.057327],[-118.073903,34.057215],[-118.073883,34.057172],[-118.073902,34.057144],[-118.073958,34.057151],[-118.073971,34.057162],[-118.073979,34.057186],[-118.073902,34.057324]]]}},{"type":"Feature","properties":{"k":"tee"},"geometry":{"type":"Polygon","coordinates":[[[-118.073988,34.057087],[-118.073937,34.057064],[-118.074005,34.05696],[-118.074056,34.056983],[-118.073988,34.057087]]]}},{"type":"Feature","properties":{"k":"green"},"geometry":{"type":"Polygon","coordinates":[[[-118.076988,34.05556],[-118.076954,34.055534],[-118.076944,34.055513],[-118.076952,34.055479],[-118.076968,34.05546],[-118.077019,34.055441],[-118.077074,34.055455],[-118.077098,34.055476],[-118.077109,34.055501],[-118.077102,34.055558],[-118.077047,34.055578],[-118.077023,34.055576],[-118.076988,34.05556]]]}},{"type":"Feature","properties":{"k":"bunker"},"geometry":{"type":"Polygon","coordinates":[[[-118.076935,34.055632],[-118.076911,34.055618],[-118.076902,34.055601],[-118.076909,34.055581],[-118.076938,34.055569],[-118.076963,34.055574],[-118.076986,34.055589],[-118.077002,34.055619],[-118.076998,34.055633],[-118.076984,34.055642],[-118.076935,34.055632]]]}},{"type":"Feature","properties":{"k":"bunker"},"geometry":{"type":"Polygon","coordinates":[[[-118.076949,34.055447],[-118.076921,34.055453],[-118.076895,34.055441],[-118.076883,34.055422],[-118.076885,34.055394],[-118.076906,34.055385],[-118.076943,34.055387],[-118.07697,34.055371],[-118.076985,34.055346],[-118.077015,34.055346],[-118.077032,34.055378],[-118.077023,34.055409],[-118.07701,34.055424],[-118.076949,34.055447]]]}},{"type":"Feature","properties":{"k":"tee"},"geometry":{"type":"Polygon","coordinates":[[[-118.077311,34.055885],[-118.077243,34.055867],[-118.077335,34.055625],[-118.077403,34.055643],[-118.077311,34.055885]]]}},{"type":"Feature","properties":{"k":"bunker"},"geometry":{"type":"Polygon","coordinates":[[[-118.077927,34.054168],[-118.077913,34.054116],[-118.07795,34.054096],[-118.077972,34.054107],[-118.07798,34.054131],[-118.077974,34.054154],[-118.077952,34.054171],[-118.077935,34.054174],[-118.077927,34.054168]]]}},{"type":"Feature","properties":{"k":"bunker"},"geometry":{"type":"Polygon","coordinates":[[[-118.077812,34.053304],[-118.077792,34.053283],[-118.077783,34.053246],[-118.077786,34.053226],[-118.077808,34.05322],[-118.077849,34.05324],[-118.077871,34.0533],[-118.077856,34.053319],[-118.077833,34.053326],[-118.077812,34.053304]]]}},{"type":"Feature","properties":{"k":"bunker"},"geometry":{"type":"Polygon","coordinates":[[[-118.077499,34.053535],[-118.077462,34.053551],[-118.077436,34.053544],[-118.077423,34.053524],[-118.077426,34.053501],[-118.077437,34.053475],[-118.077494,34.053408],[-118.077542,34.053392],[-118.077552,34.053414],[-118.077533,34.053487],[-118.077499,34.053535]]]}},{"type":"Feature","properties":{"k":"green"},"geometry":{"type":"Polygon","coordinates":[[[-118.077521,34.053043],[-118.077486,34.053027],[-118.077463,34.053005],[-118.077451,34.052981],[-118.077452,34.052952],[-118.077462,34.052924],[-118.077483,34.052906],[-118.077509,34.052892],[-118.077543,34.052891],[-118.077621,34.052916],[-118.077642,34.052937],[-118.077651,34.052989],[-118.077634,34.05302],[-118.077594,34.053047],[-118.077521,34.053043]]]}},{"type":"Feature","properties":{"k":"range"},"geometry":{"type":"Polygon","coordinates":[[[-118.07735,34.055266],[-118.07552,34.055222],[-118.076155,34.052831],[-118.077251,34.052842],[-118.07735,34.055266]]]}}]}