{"type":"FeatureCollection","features":[{"type":"Feature","properties":{"k":"path"},"geometry":{"type":"LineString","coordinates":[[-122.662453,38.420753],[-122.662449,38.420808],[-122.662627,38.421433],[-122.662664,38.42147],[-122.662731,38.421491],[-122.662922,38.421531],[-122.662984,38.421559],[-122.663025,38.4216],[-122.663121,38.421789],[-122.663246,38.422185],[-122.66327,38.42238],[-122.663391,38.422588],[-122.663421,38.422815],[-122.663372,38.422998],[-122.663388,38.423238],[-122.663442,38.423456],[-122.663437,38.42371],[-122.663477,38.423807],[-122.663571,38.423971],[-122.6637,38.424229],[-122.663893,38.424467],[-122.663944,38.424549],[-122.663938,38.424767],[-122.663968,38.424879],[-122.664035,38.424982],[-122.66404,38.425047],[-122.663984,38.425112],[-122.66315,38.425345],[-122.663045,38.425324],[-122.662852,38.425265],[-122.662664,38.425232],[-122.66224,38.425305]]}},{"type":"Feature","properties":{"k":"path"},"geometry":{"type":"LineString","coordinates":[[-122.66224,38.425305],[-122.66211,38.425298],[-122.661878,38.425209],[-122.661774,38.425127],[-122.661736,38.425059],[-122.661717,38.424818],[-122.661656,38.424625],[-122.661581,38.424572],[-122.661393,38.424574],[-122.66131,38.424555],[-122.661229,38.424496],[-122.661181,38.424421],[-122.661028,38.423637],[-122.660881,38.422939],[-122.660797,38.422296],[-122.660741,38.422164],[-122.660725,38.421964],[-122.66065,38.421809],[-122.66054,38.421685],[-122.660465,38.421626],[-122.660266,38.421607],[-122.660092,38.421636],[-122.660068,38.421681],[-122.660205,38.42188],[-122.660156,38.421968],[-122.660162,38.422048],[-122.660237,38.42226],[-122.660376,38.422485],[-122.660446,38.422632],[-122.660489,38.422782],[-122.66061,38.423002],[-122.660578,38.423338],[-122.66065,38.423536],[-122.660932,38.424467],[-122.661034,38.42458],[-122.661141,38.424725],[-122.66117,38.424862],[-122.661154,38.425005],[-122.661439,38.425192],[-122.661755,38.425301],[-122.661862,38.425303],[-122.661984,38.425246]]}},{"type":"Feature","properties":{"k":"path"},"geometry":{"type":"LineString","coordinates":[[-122.661931,38.420352],[-122.661781,38.42025],[-122.661663,38.420203],[-122.661577,38.420157],[-122.661548,38.420109],[-122.661534,38.420019],[-122.661515,38.419983],[-122.66147,38.419948],[-122.661394,38.419926],[-122.661027,38.419927],[-122.660603,38.419894],[-122.660434,38.419921],[-122.660268,38.419935],[-122.65992,38.419915],[-122.659574,38.419923],[-122.65941,38.419936],[-122.659213,38.419907],[-122.659149,38.419917],[-122.658994,38.419984],[-122.658907,38.419976],[-122.658819,38.419949],[-122.658583,38.419978],[-122.658034,38.419984],[-122.657548,38.420032],[-122.657451,38.420024],[-122.657382,38.419987],[-122.657339,38.419921],[-122.657352,38.419893],[-122.657384,38.419865],[-122.657698,38.419764],[-122.658066,38.419384],[-122.658736,38.419127],[-122.658766,38.419107],[-122.658771,38.419072],[-122.658727,38.418912],[-122.658809,38.418829],[-122.659096,38.418753],[-122.659183,38.418692],[-122.659215,38.418653],[-122.659232,38.418597],[-122.659225,38.418568],[-122.659202,38.418545],[-122.659155,38.418518],[-122.658935,38.418528],[-122.658189,38.418789],[-122.65758,38.41907],[-122.656971,38.419404],[-122.656542,38.41981]]}},{"type":"Feature","properties":{"k":"path"},"geometry":{"type":"LineString","coordinates":[[-122.656444,38.419881],[-122.656381,38.419989],[-122.656298,38.42022],[-122.656233,38.420299],[-122.656075,38.420361],[-122.655858,38.420573],[-122.655831,38.420643],[-122.655821,38.420714],[-122.65588,38.420896],[-122.655979,38.421113],[-122.656156,38.421413],[-122.656212,38.421672],[-122.656215,38.421701],[-122.656177,38.421874],[-122.656086,38.422021],[-122.656022,38.422078],[-122.656011,38.422231],[-122.656035,38.422389],[-122.656105,38.422529],[-122.656196,38.422626],[-122.656161,38.422798],[-122.656196,38.422945],[-122.656306,38.423151],[-122.656365,38.423212],[-122.656451,38.423544],[-122.6567,38.424133],[-122.656859,38.424406],[-122.65688,38.424536],[-122.656958,38.424616],[-122.657073,38.424885],[-122.657213,38.425078],[-122.657282,38.425194],[-122.657403,38.42545],[-122.657753,38.42582],[-122.657851,38.425981],[-122.657963,38.425996],[-122.65812,38.426001],[-122.658275,38.42603],[-122.658645,38.42615],[-122.658862,38.426377],[-122.65894,38.426478],[-122.659128,38.426543],[-122.65942,38.426755],[-122.659855,38.426957],[-122.660174,38.427041],[-122.660399,38.427068],[-122.660587,38.427011],[-122.66074,38.4269],[-122.661086,38.426976],[-122.661325,38.427014],[-122.661468,38.426995],[-122.661532,38.426956],[-122.661576,38.426901],[-122.661598,38.426835],[-122.661611,38.426751],[-122.661601,38.426668],[-122.661567,38.426598],[-122.661526,38.426556],[-122.661394,38.426504],[-122.661258,38.426416],[-122.66096,38.426259],[-122.660895,38.42619]]}},{"type":"Feature","properties":{"k":"path"},"geometry":{"type":"LineString","coordinates":[[-122.656542,38.41981],[-122.656444,38.419881]]}},{"type":"Feature","properties":{"k":"path"},"geometry":{"type":"LineString","coordinates":[[-122.660895,38.42619],[-122.661123,38.425933],[-122.661256,38.4258],[-122.661595,38.425673]]}},{"type":"Feature","properties":{"k":"path"},"geometry":{"type":"LineString","coordinates":[[-122.660895,38.42619],[-122.660812,38.426175],[-122.659868,38.425744],[-122.659431,38.425362],[-122.659259,38.425255],[-122.65879,38.425261],[-122.658594,38.425227],[-122.658256,38.424927],[-122.658149,38.424797],[-122.658076,38.424416],[-122.657956,38.424061],[-122.657738,38.423317],[-122.657336,38.422681],[-122.657156,38.422288],[-122.656907,38.421897],[-122.65688,38.421788],[-122.656904,38.421706],[-122.656993,38.421684],[-122.657062,38.42163],[-122.657234,38.421338],[-122.657296,38.421293],[-122.657381,38.421275]]}},{"type":"Feature","properties":{"k":"path"},"geometry":{"type":"LineString","coordinates":[[-122.657579,38.421584],[-122.657433,38.421657],[-122.657242,38.421607],[-122.657062,38.42163],[-122.656923,38.421636],[-122.656714,38.421563],[-122.656475,38.421613],[-122.656211,38.421718]]}},{"type":"Feature","properties":{"k":"path"},"geometry":{"type":"LineString","coordinates":[[-122.657528,38.421239],[-122.657631,38.421209],[-122.657654,38.421103],[-122.657692,38.421016],[-122.657749,38.420941],[-122.657921,38.420852],[-122.658081,38.420814],[-122.658253,38.420802],[-122.658489,38.420825],[-122.658993,38.420794],[-122.659485,38.420825],[-122.659836,38.420861],[-122.660423,38.42079],[-122.660573,38.420735],[-122.660767,38.420686],[-122.661268,38.420695]]}},{"type":"Feature","properties":{"k":"path"},"geometry":{"type":"LineString","coordinates":[[-122.657381,38.421275],[-122.657528,38.421239]]}},{"type":"Feature","properties":{"k":"path"},"geometry":{"type":"LineString","coordinates":[[-122.661969,38.420543],[-122.661749,38.42055],[-122.661558,38.420449],[-122.661405,38.420474],[-122.661319,38.420556],[-122.661268,38.420695]]}},{"type":"Feature","properties":{"k":"path"},"geometry":{"type":"LineString","coordinates":[[-122.662247,38.420821],[-122.662266,38.420904],[-122.662266,38.420989],[-122.661971,38.421157],[-122.661819,38.421339],[-122.661837,38.421516],[-122.661936,38.421788],[-122.662027,38.421916],[-122.662034,38.422096],[-122.662089,38.422191],[-122.662076,38.422416],[-122.6621,38.42263],[-122.662068,38.42272],[-122.662085,38.422807],[-122.662196,38.423191],[-122.662287,38.423422],[-122.662274,38.423735],[-122.662502,38.424341],[-122.662706,38.424515],[-122.662773,38.424755],[-122.662835,38.424921],[-122.662851,38.425001],[-122.662829,38.425066],[-122.662684,38.425068],[-122.662577,38.425021],[-122.662524,38.424988],[-122.662424,38.425154],[-122.662225,38.425303]]}},{"type":"Feature","properties":{"k":"path"},"geometry":{"type":"LineString","coordinates":[[-122.662524,38.424988],[-122.66244,38.424782],[-122.662287,38.424515],[-122.662206,38.424255],[-122.662148,38.424156],[-122.662101,38.42378],[-122.662057,38.423556],[-122.662043,38.423305],[-122.661971,38.423189],[-122.661976,38.422985],[-122.661917,38.422861],[-122.661818,38.422126],[-122.661703,38.422002],[-122.661563,38.421947],[-122.661472,38.421849],[-122.661346,38.42139],[-122.66119,38.42122],[-122.661249,38.420928],[-122.661268,38.420695]]}},{"type":"Feature","properties":{"k":"path"},"geometry":{"type":"LineString","coordinates":[[-122.66119,38.42122],[-122.661121,38.421218],[-122.660968,38.421252],[-122.660783,38.421357],[-122.660627,38.421516],[-122.660479,38.421637]]}},{"type":"Feature","properties":{"k":"path"},"geometry":{"type":"LineString","coordinates":[[-122.660203,38.421618],[-122.660032,38.421559],[-122.659439,38.421559],[-122.658897,38.421605],[-122.658487,38.421718],[-122.658442,38.421712],[-122.658407,38.421687],[-122.658277,38.42155],[-122.658173,38.421458],[-122.657993,38.421447],[-122.657798,38.421508]]}},{"type":"Feature","properties":{"k":"path"},"geometry":{"type":"LineString","coordinates":[[-122.657798,38.421508],[-122.657579,38.421584]]}},{"type":"Feature","properties":{"k":"path"},"geometry":{"type":"LineString","coordinates":[[-122.657433,38.421657],[-122.657347,38.421764],[-122.657154,38.421813],[-122.657108,38.421878],[-122.65714,38.421977],[-122.657258,38.422025],[-122.65769,38.421979],[-122.658025,38.421922],[-122.658181,38.421951],[-122.65835,38.422048],[-122.658444,38.422151],[-122.658504,38.422145],[-122.658548,38.422127],[-122.65879,38.421985],[-122.658723,38.421865],[-122.658562,38.421756],[-122.658487,38.421718]]}},{"type":"Feature","properties":{"k":"path"},"geometry":{"type":"LineString","coordinates":[[-122.65879,38.421985],[-122.658841,38.422019],[-122.659281,38.422105],[-122.65923,38.422185],[-122.6592,38.422288],[-122.659345,38.422737],[-122.659356,38.423116],[-122.659401,38.423288],[-122.659396,38.423492],[-122.659762,38.424383],[-122.659903,38.424572],[-122.659943,38.424735],[-122.660037,38.424879],[-122.660316,38.424956],[-122.660582,38.425234],[-122.660893,38.425227],[-122.661182,38.425154],[-122.66141,38.425173]]}},{"type":"Feature","properties":{"k":"stream"},"geometry":{"type":"LineString","coordinates":[[-122.658682,38.42213],[-122.658759,38.422319],[-122.658717,38.422906],[-122.658905,38.423188],[-122.658595,38.424144],[-122.658661,38.424414],[-122.658888,38.424662],[-122.659101,38.424866],[-122.659604,38.424857],[-122.660058,38.425435],[-122.660471,38.425671],[-122.660716,38.425738],[-122.660852,38.425732],[-122.660902,38.425631],[-122.661063,38.425442],[-122.661399,38.425405],[-122.66167,38.425517],[-122.661896,38.42582],[-122.661994,38.426586],[-122.662419,38.427478],[-122.662422,38.428269],[-122.662856,38.428791]]}},{"type":"Feature","properties":{"k":"stream"},"geometry":{"type":"LineString","coordinates":[[-122.658528,38.422019],[-122.658682,38.42213]]}},{"type":"Feature","properties":{"k":"path"},"geometry":{"type":"LineString","coordinates":[[-122.659281,38.422105],[-122.659582,38.422007]]}},{"type":"Feature","properties":{"k":"path"},"geometry":{"type":"LineString","coordinates":[[-122.657631,38.421209],[-122.657828,38.421358],[-122.65793,38.421467]]}},{"type":"Feature","properties":{"k":"water"},"geometry":{"type":"Polygon","coordinates":[[[-122.658339,38.422534],[-122.658302,38.42266],[-122.658248,38.422689],[-122.658264,38.422818],[-122.658353,38.422837],[-122.658382,38.422721],[-122.658388,38.42261],[-122.658339,38.422534]]]}},{"type":"Feature","properties":{"k":"water"},"geometry":{"type":"Polygon","coordinates":[[[-122.660943,38.425584],[-122.660902,38.425515],[-122.660964,38.425414],[-122.661153,38.425368],[-122.6613,38.425362],[-122.661338,38.425412],[-122.661284,38.425442],[-122.661151,38.425484],[-122.660943,38.425584]]]}},{"type":"Feature","properties":{"k":"stream"},"geometry":{"type":"LineString","coordinates":[[-122.659636,38.421528],[-122.659646,38.4215],[-122.660355,38.421369],[-122.660593,38.421343],[-122.660724,38.421368]]}},{"type":"Feature","properties":{"k":"stream"},"geometry":{"type":"LineString","coordinates":[[-122.661186,38.421267],[-122.661264,38.421247]]}},{"type":"Feature","properties":{"k":"stream"},"geometry":{"type":"LineString","coordinates":[[-122.661264,38.421247],[-122.662227,38.420996]]}},{"type":"Feature","properties":{"k":"stream"},"geometry":{"type":"LineString","coordinates":[[-122.662227,38.420996],[-122.662305,38.420976]]}},{"type":"Feature","properties":{"k":"stream"},"geometry":{"type":"LineString","coordinates":[[-122.662305,38.420976],[-122.662444,38.420932]]}},{"type":"Feature","properties":{"k":"stream"},"geometry":{"type":"LineString","coordinates":[[-122.662444,38.420932],[-122.662518,38.420906]]}},{"type":"Feature","properties":{"k":"stream"},"geometry":{"type":"LineString","coordinates":[[-122.659555,38.421747],[-122.659613,38.421589]]}},{"type":"Feature","properties":{"k":"stream"},"geometry":{"type":"LineString","coordinates":[[-122.659613,38.421589],[-122.659636,38.421528]]}},{"type":"Feature","properties":{"k":"stream"},"geometry":{"type":"LineString","coordinates":[[-122.660795,38.421382],[-122.660852,38.42137],[-122.660991,38.421318],[-122.661186,38.421267]]}},{"type":"Feature","properties":{"k":"stream"},"geometry":{"type":"LineString","coordinates":[[-122.660724,38.421368],[-122.660795,38.421382]]}}]}