{"type":"FeatureCollection","features":[{"type":"Feature","properties":{"k":"hole","ref":"1","par":4},"geometry":{"type":"LineString","coordinates":[[-79.092065,43.944677],[-79.091977,43.946739],[-79.092706,43.947803]]}},{"type":"Feature","properties":{"k":"hole","ref":"2","par":5},"geometry":{"type":"LineString","coordinates":[[-79.093405,43.947502],[-79.09508,43.949432],[-79.095896,43.951289]]}},{"type":"Feature","properties":{"k":"hole","ref":"3","par":4},"geometry":{"type":"LineString","coordinates":[[-79.096454,43.951754],[-79.093676,43.952005],[-79.092066,43.952642]]}},{"type":"Feature","properties":{"k":"hole","ref":"4","par":3},"geometry":{"type":"LineString","coordinates":[[-79.091215,43.952295],[-79.092268,43.951165]]}},{"type":"Feature","properties":{"k":"hole","ref":"5","par":5},"geometry":{"type":"LineString","coordinates":[[-79.092047,43.950637],[-79.087958,43.950735],[-79.087012,43.950095]]}},{"type":"Feature","properties":{"k":"hole","ref":"6","par":3},"geometry":{"type":"LineString","coordinates":[[-79.086535,43.949809],[-79.087917,43.949143],[-79.088117,43.949055]]}},{"type":"Feature","properties":{"k":"hole","ref":"7","par":5},"geometry":{"type":"LineString","coordinates":[[-79.087767,43.948633],[-79.090062,43.948961],[-79.092845,43.949961]]}},{"type":"Feature","properties":{"k":"hole","ref":"8","par":4},"geometry":{"type":"LineString","coordinates":[[-79.093205,43.949695],[-79.091073,43.948652],[-79.089329,43.947455]]}},{"type":"Feature","properties":{"k":"hole","ref":"9","par":3},"geometry":{"type":"LineString","coordinates":[[-79.090038,43.947364],[-79.09028,43.945613],[-79.090314,43.945298]]}},{"type":"Feature","properties":{"k":"hole","ref":"10","par":4},"geometry":{"type":"LineString","coordinates":[[-79.089949,43.944961],[-79.088714,43.946506],[-79.088743,43.948234]]}},{"type":"Feature","properties":{"k":"hole","ref":"11","par":3},"geometry":{"type":"LineString","coordinates":[[-79.087568,43.94841],[-79.086335,43.949517]]}},{"type":"Feature","properties":{"k":"hole","ref":"12","par":4},"geometry":{"type":"LineString","coordinates":[[-79.085284,43.949753],[-79.085225,43.947918],[-79.084204,43.947116]]}},{"type":"Feature","properties":{"k":"hole","ref":"13","par":3},"geometry":{"type":"LineString","coordinates":[[-79.083759,43.946654],[-79.08499,43.945748],[-79.085183,43.945588]]}},{"type":"Feature","properties":{"k":"hole","ref":"14","par":5},"geometry":{"type":"LineString","coordinates":[[-79.085812,43.945113],[-79.085853,43.945988],[-79.085888,43.947269],[-79.086143,43.9485],[-79.085804,43.949348]]}},{"type":"Feature","properties":{"k":"hole","ref":"15","par":3},"geometry":{"type":"LineString","coordinates":[[-79.08684,43.949813],[-79.088372,43.949448],[-79.08869,43.949333]]}},{"type":"Feature","properties":{"k":"hole","ref":"16","par":5},"geometry":{"type":"LineString","coordinates":[[-79.089198,43.949411],[-79.091892,43.950169],[-79.094572,43.951229]]}},{"type":"Feature","properties":{"k":"hole","ref":"17","par":4},"geometry":{"type":"LineString","coordinates":[[-79.0954,43.951434],[-79.09375,43.949763],[-79.092886,43.948335]]}},{"type":"Feature","properties":{"k":"hole","ref":"18","par":4},"geometry":{"type":"LineString","coordinates":[[-79.091671,43.947828],[-79.091297,43.946105],[-79.091455,43.944636]]}},{"type":"Feature","properties":{"k":"wood"},"geometry":{"type":"Polygon","coordinates":[[[-79.088212,43.952321],[-79.087969,43.95244],[-79.087936,43.952534],[-79.087956,43.952656],[-79.088032,43.952797],[-79.088129,43.952878],[-79.08859,43.952854],[-79.088825,43.95258],[-79.088849,43.952475],[-79.088806,43.952422],[-79.088599,43.952366],[-79.088212,43.952321]]]}},{"type":"Feature","properties":{"k":"path"},"geometry":{"type":"LineString","coordinates":[[-79.087776,43.950497],[-79.087733,43.950371]]}},{"type":"Feature","properties":{"k":"water"},"geometry":{"type":"Polygon","coordinates":[[[-79.093631,43.952519],[-79.093798,43.952542],[-79.093945,43.952498],[-79.094095,43.952472],[-79.094152,43.952495],[-79.094212,43.952535],[-79.094234,43.952569],[-79.094177,43.952608],[-79.094169,43.952674],[-79.094214,43.952755],[-79.094293,43.952831],[-79.094444,43.952909],[-79.094518,43.95297],[-79.094781,43.95308],[-79.09482,43.95312],[-79.094887,43.953145],[-79.094916,43.953187],[-79.094834,43.953187],[-79.094721,43.953115],[-79.094487,43.952999],[-79.094242,43.952848],[-79.094143,43.952744],[-79.094087,43.952621],[-79.094153,43.952574],[-79.094135,43.952531],[-79.094045,43.952521],[-79.093941,43.952543],[-79.093893,43.952573],[-79.093812,43.95259],[-79.093625,43.952568],[-79.093631,43.952519]]]}},{"type":"Feature","properties":{"k":"stream"},"geometry":{"type":"LineString","coordinates":[[-79.096102,43.95038],[-79.095936,43.950395]]}},{"type":"Feature","properties":{"k":"stream"},"geometry":{"type":"LineString","coordinates":[[-79.095936,43.950395],[-79.095871,43.950399],[-79.095807,43.95038],[-79.095765,43.950307],[-79.09577,43.950278],[-79.095799,43.950255],[-79.095794,43.950237],[-79.095715,43.950184],[-79.095627,43.950056],[-79.095434,43.94994],[-79.095309,43.9499],[-79.095179,43.949884],[-79.094884,43.949912],[-79.0947,43.949947],[-79.09461,43.949933],[-79.094459,43.949854],[-79.094239,43.949792],[-79.09419,43.949739],[-79.094099,43.949728],[-79.094071,43.949662],[-79.093962,43.949627],[-79.093949,43.949565],[-79.093892,43.949502],[-79.093857,43.949434],[-79.09366,43.949328],[-79.093623,43.949325]]}},{"type":"Feature","properties":{"k":"stream"},"geometry":{"type":"LineString","coordinates":[[-79.093623,43.949325],[-79.093584,43.949327],[-79.093548,43.94934],[-79.093504,43.949334]]}},{"type":"Feature","properties":{"k":"stream"},"geometry":{"type":"LineString","coordinates":[[-79.089891,43.946049],[-79.089746,43.945724],[-79.089685,43.945664],[-79.089634,43.945545],[-79.08963,43.94548],[-79.089539,43.9454],[-79.089513,43.945402],[-79.089479,43.945387],[-79.089428,43.945343],[-79.089356,43.945246],[-79.089287,43.945188],[-79.089202,43.945158],[-79.089168,43.945119],[-79.089164,43.945072],[-79.089083,43.944921],[-79.089,43.9449],[-79.088914,43.944828],[-79.088868,43.944813]]}},{"type":"Feature","properties":{"k":"stream"},"geometry":{"type":"LineString","coordinates":[[-79.093144,43.949114],[-79.093054,43.949132],[-79.092763,43.949106],[-79.092697,43.948999]]}},{"type":"Feature","properties":{"k":"stream"},"geometry":{"type":"LineString","coordinates":[[-79.090254,43.946589],[-79.090214,43.946468]]}},{"type":"Feature","properties":{"k":"stream"},"geometry":{"type":"LineString","coordinates":[[-79.084283,43.946183],[-79.084253,43.94617],[-79.08422,43.946091],[-79.084234,43.945895],[-79.08418,43.945777],[-79.084076,43.945722],[-79.083786,43.945645],[-79.083658,43.945583],[-79.083576,43.945569],[-79.083483,43.945573],[-79.083465,43.945551]]}},{"type":"Feature","properties":{"k":"stream"},"geometry":{"type":"LineString","coordinates":[[-79.088461,43.944475],[-79.088419,43.944412],[-79.088423,43.944352]]}},{"type":"Feature","properties":{"k":"water"},"geometry":{"type":"Polygon","coordinates":[[[-79.093504,43.949334],[-79.093412,43.949333],[-79.093297,43.949286],[-79.093171,43.949168],[-79.093144,43.949114],[-79.093135,43.949074],[-79.093171,43.94898],[-79.093284,43.948949],[-79.093348,43.948963],[-79.093338,43.949],[-79.093369,43.949112],[-79.09341,43.949158],[-79.09341,43.949186],[-79.09346,43.949267],[-79.09352,43.949306],[-79.093528,43.949324],[-79.093504,43.949334]]]}},{"type":"Feature","properties":{"k":"water"},"geometry":{"type":"Polygon","coordinates":[[[-79.088868,43.944813],[-79.088812,43.94486],[-79.088738,43.94488],[-79.088673,43.94488],[-79.088616,43.944859],[-79.088515,43.944714],[-79.088385,43.944573],[-79.08838,43.944536],[-79.088402,43.944502],[-79.088461,43.944475],[-79.088494,43.944469],[-79.088544,43.94448],[-79.088593,43.944514],[-79.088677,43.944538],[-79.088755,43.944624],[-79.088868,43.944813]]]}},{"type":"Feature","properties":{"k":"water"},"geometry":{"type":"Polygon","coordinates":[[[-79.084649,43.946143],[-79.084587,43.946194],[-79.084501,43.94624],[-79.084423,43.946264],[-79.084347,43.946275],[-79.08427,43.946266],[-79.08426,43.946217],[-79.084283,43.946183],[-79.084395,43.946139],[-79.084435,43.946113],[-79.084524,43.946013],[-79.084601,43.945877],[-79.084659,43.945827],[-79.084716,43.945803],[-79.084769,43.945803],[-79.084801,43.94582],[-79.08483,43.945852],[-79.084847,43.945901],[-79.084838,43.945952],[-79.084724,43.946083],[-79.084649,43.946143]]]}},{"type":"Feature","properties":{"k":"water"},"geometry":{"type":"Polygon","coordinates":[[[-79.090214,43.946468],[-79.090094,43.946393],[-79.090018,43.946374],[-79.089939,43.946306],[-79.089863,43.94622],[-79.089837,43.94615],[-79.089865,43.94608],[-79.089891,43.946049],[-79.08994,43.946035],[-79.090063,43.946053],[-79.090249,43.946007],[-79.090343,43.945994],[-79.090405,43.946019],[-79.090458,43.946055],[-79.090473,43.946112],[-79.090432,43.946157],[-79.090344,43.946181],[-79.090289,43.946316],[-79.09027,43.94641],[-79.090214,43.946468]]]}},{"type":"Feature","properties":{"k":"water"},"geometry":{"type":"Polygon","coordinates":[[[-79.086041,43.950019],[-79.086025,43.949993],[-79.08603,43.949959],[-79.08607,43.949922],[-79.086185,43.949906],[-79.086227,43.949978],[-79.086224,43.950011],[-79.086205,43.95002],[-79.086041,43.950019]]]}},{"type":"Feature","properties":{"k":"water"},"geometry":{"type":"Polygon","coordinates":[[[-79.085948,43.949944],[-79.085946,43.950002],[-79.085858,43.950038],[-79.085754,43.950141],[-79.085716,43.950165],[-79.08568,43.95017],[-79.08547,43.950152],[-79.085443,43.950136],[-79.08543,43.950071],[-79.085393,43.950027],[-79.085426,43.949984],[-79.085482,43.949971],[-79.08554,43.94998],[-79.085569,43.950004],[-79.085633,43.950017],[-79.085682,43.950014],[-79.085795,43.949974],[-79.085948,43.949944]]]}},{"type":"Feature","properties":{"k":"stream"},"geometry":{"type":"LineString","coordinates":[[-79.092665,43.94896],[-79.092609,43.948916],[-79.092506,43.948872],[-79.092458,43.948829],[-79.092432,43.948776],[-79.092326,43.948669],[-79.092293,43.948607],[-79.092231,43.948572],[-79.092152,43.948473],[-79.092089,43.948458],[-79.091984,43.948402],[-79.091934,43.948338],[-79.09191,43.948332],[-79.091845,43.948343],[-79.091811,43.948332],[-79.091798,43.948297],[-79.091809,43.948279],[-79.091758,43.94824],[-79.091788,43.948208],[-79.091771,43.948172],[-79.09171,43.948153],[-79.091624,43.948172],[-79.091597,43.94814],[-79.091607,43.948095],[-79.091598,43.948078],[-79.091511,43.948059],[-79.091356,43.94806],[-79.091327,43.947997],[-79.091373,43.947906],[-79.091367,43.947836],[-79.09129,43.947716],[-79.091137,43.947651]]}},{"type":"Feature","properties":{"k":"stream"},"geometry":{"type":"LineString","coordinates":[[-79.092697,43.948999],[-79.092665,43.94896]]}},{"type":"Feature","properties":{"k":"water"},"geometry":{"type":"Polygon","coordinates":[[[-79.091198,43.947613],[-79.09123,43.94756],[-79.091214,43.947489],[-79.09114,43.947392],[-79.091007,43.947305],[-79.090881,43.947237],[-79.090832,43.947185],[-79.090824,43.947101],[-79.090769,43.947026],[-79.090672,43.946956],[-79.090604,43.946765],[-79.090623,43.946664],[-79.090586,43.94659],[-79.090509,43.946544],[-79.090428,43.946546],[-79.090254,43.946589],[-79.090096,43.946652],[-79.089917,43.946774],[-79.089937,43.94686],[-79.090152,43.947033],[-79.090266,43.947107],[-79.090395,43.947152],[-79.090443,43.9472],[-79.090583,43.947418],[-79.090646,43.947498],[-79.090849,43.947621],[-79.090934,43.947652],[-79.091064,43.947674],[-79.091137,43.947651],[-79.091198,43.947613]]]}},{"type":"Feature","properties":{"k":"water"},"geometry":{"type":"Polygon","coordinates":[[[-79.089454,43.948611],[-79.089499,43.94861],[-79.089526,43.948591],[-79.089578,43.948518],[-79.08959,43.948482],[-79.089579,43.948447],[-79.089546,43.948415],[-79.089461,43.948373],[-79.089399,43.948354],[-79.08931,43.948362],[-79.089203,43.948393],[-79.089156,43.948417],[-79.089152,43.948433],[-79.089197,43.948451],[-79.089214,43.948476],[-79.089213,43.948499],[-79.089245,43.94852],[-79.089291,43.948524],[-79.089335,43.94854],[-79.089356,43.948562],[-79.089362,43.948593],[-79.089406,43.94861],[-79.089454,43.948611]]]}},{"type":"Feature","properties":{"k":"bunker"},"geometry":{"type":"Polygon","coordinates":[[[-79.092304,43.952638],[-79.092266,43.952655],[-79.092238,43.952637],[-79.09227,43.952596],[-79.092294,43.952585],[-79.092326,43.952607],[-79.092304,43.952638]]]}},{"type":"Feature","properties":{"k":"bunker"},"geometry":{"type":"Polygon","coordinates":[[[-79.091872,43.95255],[-79.091846,43.952594],[-79.091828,43.952597],[-79.091805,43.952586],[-79.091782,43.952557],[-79.091811,43.952529],[-79.091832,43.95252],[-79.091854,43.952523],[-79.091875,43.952536],[-79.091872,43.95255]]]}},{"type":"Feature","properties":{"k":"tee"},"geometry":{"type":"Polygon","coordinates":[[[-79.092129,43.944818],[-79.092112,43.944829],[-79.092083,43.944829],[-79.092042,43.944814],[-79.092007,43.944767],[-79.091996,43.944725],[-79.092007,43.94469],[-79.092033,43.944665],[-79.092067,43.944655],[-79.092112,43.944669],[-79.092133,43.944703],[-79.092147,43.944787],[-79.092129,43.944818]]]}},{"type":"Feature","properties":{"k":"tee"},"geometry":{"type":"Polygon","coordinates":[[[-79.092142,43.945025],[-79.092115,43.945049],[-79.092083,43.945053],[-79.092031,43.945048],[-79.092003,43.945028],[-79.091986,43.944989],[-79.092009,43.944906],[-79.092029,43.944897],[-79.092119,43.944911],[-79.092148,43.944938],[-79.092152,43.944978],[-79.092142,43.945025]]]}},{"type":"Feature","properties":{"k":"tee"},"geometry":{"type":"Polygon","coordinates":[[[-79.092076,43.945123],[-79.092096,43.945131],[-79.092104,43.945155],[-79.092082,43.945173],[-79.092057,43.945174],[-79.092038,43.945162],[-79.092033,43.945145],[-79.092044,43.94513],[-79.092076,43.945123]]]}},{"type":"Feature","properties":{"k":"bunker"},"geometry":{"type":"Polygon","coordinates":[[[-79.092313,43.946744],[-79.092297,43.946752],[-79.092253,43.946751],[-79.092221,43.946727],[-79.0922,43.946691],[-79.092162,43.946662],[-79.092168,43.946592],[-79.092179,43.946573],[-79.09222,43.946556],[-79.092267,43.946566],[-79.092282,43.946579],[-79.09228,43.946647],[-79.092334,43.946703],[-79.092328,43.946733],[-79.092313,43.946744]]]}},{"type":"Feature","properties":{"k":"bunker"},"geometry":{"type":"Polygon","coordinates":[[[-79.092943,43.947738],[-79.092948,43.947763],[-79.092937,43.947777],[-79.09292,43.947783],[-79.092888,43.947782],[-79.092858,43.947754],[-79.092874,43.947685],[-79.092854,43.94766],[-79.09281,43.947633],[-79.092816,43.947614],[-79.092834,43.947601],[-79.092893,43.947597],[-79.092925,43.947608],[-79.092946,43.947624],[-79.09296,43.947662],[-79.092928,43.947679],[-79.092921,43.947696],[-79.092943,43.947738]]]}},{"type":"Feature","properties":{"k":"bunker"},"geometry":{"type":"Polygon","coordinates":[[[-79.092554,43.947744],[-79.092569,43.947769],[-79.092545,43.947794],[-79.092503,43.947796],[-79.092484,43.947789],[-79.092468,43.94778],[-79.092428,43.947725],[-79.092373,43.9477],[-79.092366,43.947669],[-79.092387,43.94765],[-79.092437,43.947628],[-79.092492,43.947629],[-79.09252,43.947652],[-79.092499,43.947685],[-79.092501,43.947705],[-79.092511,43.947719],[-79.092554,43.947744]]]}},{"type":"Feature","properties":{"k":"path"},"geometry":{"type":"LineString","coordinates":[[-79.092195,43.944848],[-79.092225,43.945139],[-79.092183,43.945222],[-79.091839,43.945402],[-79.091728,43.9455],[-79.091706,43.94545],[-79.091678,43.9451],[-79.091846,43.944973],[-79.091831,43.944839],[-79.091837,43.944727],[-79.091867,43.944616],[-79.091606,43.94437],[-79.091507,43.944296]]}},{"type":"Feature","properties":{"k":"path"},"geometry":{"type":"LineString","coordinates":[[-79.091728,43.9455],[-79.091644,43.946032],[-79.091698,43.946126],[-79.09164,43.946743],[-79.09168,43.946966],[-79.091789,43.947126],[-79.091877,43.947294],[-79.091957,43.947355],[-79.092121,43.947436],[-79.092201,43.947583],[-79.092234,43.947814],[-79.092347,43.947877],[-79.09246,43.947982],[-79.092599,43.948066],[-79.093054,43.9481],[-79.093138,43.948089],[-79.093182,43.948032],[-79.093138,43.94794],[-79.093073,43.947851],[-79.093116,43.947767],[-79.093189,43.947717],[-79.093204,43.947617],[-79.0932,43.947517],[-79.093229,43.947412],[-79.093339,43.947402],[-79.093514,43.947454],[-79.093649,43.94753],[-79.093769,43.94753],[-79.093896,43.947501],[-79.094006,43.947525],[-79.094079,43.947604],[-79.094166,43.947785],[-79.094108,43.947879],[-79.093925,43.948011],[-79.093853,43.948113],[-79.093889,43.948197],[-79.094104,43.948575],[-79.094264,43.948756],[-79.094374,43.948969],[-79.094582,43.949239],[-79.094786,43.949472],[-79.094884,43.949677],[-79.094968,43.949811],[-79.095158,43.950543],[-79.095398,43.951087],[-79.095431,43.951207],[-79.095591,43.951504],[-79.095752,43.951559],[-79.096302,43.951572],[-79.09635,43.951617],[-79.096284,43.951667],[-79.096124,43.951727],[-79.095909,43.951766],[-79.095559,43.951625],[-79.095515,43.951593],[-79.095591,43.951504]]}},{"type":"Feature","properties":{"k":"path"},"geometry":{"type":"LineString","coordinates":[[-79.093925,43.948011],[-79.093685,43.947981],[-79.093485,43.948071],[-79.093226,43.948092],[-79.093138,43.948089]]}},{"type":"Feature","properties":{"k":"path"},"geometry":{"type":"LineString","coordinates":[[-79.095515,43.951593],[-79.09533,43.951603],[-79.095004,43.951608],[-79.094592,43.951568],[-79.094312,43.951571],[-79.094069,43.951653],[-79.093877,43.951657],[-79.093591,43.95168],[-79.093459,43.951774],[-79.093325,43.951892],[-79.093036,43.952025],[-79.092807,43.952149],[-79.092499,43.952246],[-79.092235,43.952299],[-79.091932,43.952283],[-79.091801,43.952341],[-79.091735,43.952427],[-79.091646,43.952516],[-79.091454,43.95247],[-79.091352,43.952363],[-79.091405,43.952269],[-79.091628,43.952001],[-79.091612,43.951965],[-79.091426,43.951865],[-79.091365,43.951768],[-79.091929,43.951179],[-79.092015,43.951074],[-79.092006,43.950994],[-79.092129,43.950848],[-79.09221,43.950726],[-79.092218,43.950654],[-79.092172,43.950574],[-79.092075,43.950518],[-79.091969,43.950496],[-79.091881,43.950559],[-79.091815,43.950681],[-79.091669,43.950901],[-79.091452,43.950953],[-79.091183,43.950936],[-79.090831,43.950893],[-79.090236,43.950866],[-79.089704,43.950934],[-79.089361,43.950928],[-79.089072,43.950955],[-79.088566,43.951033],[-79.088177,43.950994],[-79.087948,43.950994],[-79.087699,43.950957],[-79.086876,43.950903],[-79.086833,43.950794],[-79.086818,43.950557],[-79.086827,43.950351],[-79.086807,43.949913],[-79.086755,43.949822],[-79.086655,43.949684],[-79.086612,43.949668],[-79.086492,43.949742],[-79.086369,43.949791]]}},{"type":"Feature","properties":{"k":"path"},"geometry":{"type":"LineString","coordinates":[[-79.086612,43.949668],[-79.086956,43.949361],[-79.087087,43.94926],[-79.087356,43.949178],[-79.087754,43.948966],[-79.087871,43.948836],[-79.087891,43.94878],[-79.088208,43.948793],[-79.088569,43.948826]]}},{"type":"Feature","properties":{"k":"path"},"geometry":{"type":"LineString","coordinates":[[-79.092044,43.949794],[-79.092179,43.949978],[-79.092525,43.950143],[-79.092938,43.950269],[-79.093072,43.950214],[-79.093204,43.950128],[-79.093215,43.949941],[-79.093142,43.949789],[-79.092438,43.949401],[-79.092125,43.949296]]}},{"type":"Feature","properties":{"k":"path"},"geometry":{"type":"LineString","coordinates":[[-79.092938,43.950269],[-79.093393,43.950403],[-79.093721,43.950524],[-79.094439,43.95086],[-79.094804,43.951096],[-79.09503,43.951327],[-79.095179,43.951464],[-79.09526,43.951464],[-79.09527,43.951414],[-79.095088,43.951222],[-79.094684,43.950852],[-79.094509,43.950807],[-79.094407,43.950758],[-79.094086,43.950555],[-79.093914,43.950435],[-79.093809,43.950332],[-79.093677,43.950128],[-79.093528,43.949936],[-79.093382,43.949773],[-79.093349,43.949658],[-79.093146,43.949438],[-79.092926,43.949301],[-79.092846,43.949264],[-79.092686,43.949272],[-79.092591,43.949214],[-79.09262,43.949094],[-79.092748,43.948926],[-79.092708,43.948865],[-79.092518,43.948721],[-79.092456,43.948632],[-79.092489,43.948535],[-79.092515,43.948406],[-79.0925,43.948301],[-79.092453,43.948154],[-79.092325,43.948017],[-79.092132,43.947947],[-79.091888,43.947873],[-79.091804,43.947734],[-79.091749,43.947456],[-79.091673,43.947304],[-79.091589,43.947178],[-79.091487,43.94675],[-79.091644,43.946032]]}},{"type":"Feature","properties":{"k":"path"},"geometry":{"type":"LineString","coordinates":[[-79.090699,43.948156],[-79.090593,43.948016],[-79.090568,43.947861],[-79.090455,43.947667],[-79.090298,43.947562],[-79.090199,43.947475],[-79.090103,43.947448],[-79.089992,43.947431],[-79.089911,43.947407],[-79.089777,43.947381],[-79.089693,43.947307],[-79.089605,43.947187],[-79.08958,43.947076],[-79.089573,43.946979],[-79.089591,43.946914],[-79.089642,43.946856],[-79.089769,43.946769],[-79.08998,43.946652],[-79.089998,43.946591],[-79.089981,43.946533],[-79.089922,43.946441],[-79.089758,43.946252],[-79.089755,43.946116],[-79.089791,43.946024],[-79.08995,43.945944],[-79.090073,43.945964],[-79.090168,43.945962],[-79.090308,43.945923],[-79.090442,43.945905],[-79.090571,43.945849],[-79.090677,43.945769],[-79.090708,43.945678],[-79.090717,43.945592],[-79.090685,43.945493],[-79.090691,43.945404],[-79.09076,43.945184],[-79.090728,43.944933],[-79.090744,43.944732],[-79.090823,43.944616],[-79.091095,43.944436],[-79.091199,43.944384],[-79.091507,43.944296]]}},{"type":"Feature","properties":{"k":"path"},"geometry":{"type":"LineString","coordinates":[[-79.090823,43.944616],[-79.090737,43.944638],[-79.090589,43.944703],[-79.090405,43.944767],[-79.090214,43.944887],[-79.090064,43.944992],[-79.089978,43.945087],[-79.089893,43.945163],[-79.08972,43.945239],[-79.089496,43.945286],[-79.089359,43.945338],[-79.089193,43.94549],[-79.088901,43.94567],[-79.088758,43.945792],[-79.088605,43.945961],[-79.088504,43.946286],[-79.088419,43.946478],[-79.088338,43.946696],[-79.088289,43.946921],[-79.08828,43.94716],[-79.088307,43.947622],[-79.088302,43.947824],[-79.088374,43.947949],[-79.088446,43.948007],[-79.08847,43.948212],[-79.088464,43.948284],[-79.088378,43.94833],[-79.08819,43.948404],[-79.087992,43.948449],[-79.087607,43.948566],[-79.087503,43.948648],[-79.087389,43.948764],[-79.087097,43.94897],[-79.08707,43.949073],[-79.087061,43.949186],[-79.087087,43.94926]]}},{"type":"Feature","properties":{"k":"path"},"geometry":{"type":"LineString","coordinates":[[-79.086369,43.949791],[-79.086305,43.949811],[-79.086168,43.949777],[-79.086054,43.949722],[-79.085843,43.949682],[-79.085661,43.949689],[-79.085535,43.949719],[-79.085437,43.949729],[-79.085388,43.949702],[-79.085377,43.949626],[-79.085407,43.94944],[-79.08545,43.949259],[-79.085502,43.949128],[-79.085497,43.948868],[-79.085513,43.948783]]}},{"type":"Feature","properties":{"k":"path"},"geometry":{"type":"LineString","coordinates":[[-79.085086,43.947514],[-79.084722,43.947128],[-79.084517,43.947023],[-79.084244,43.946915],[-79.083952,43.946821],[-79.083828,43.946773],[-79.083854,43.946705],[-79.084124,43.946558],[-79.084743,43.946154],[-79.084926,43.945981],[-79.085031,43.945962],[-79.085148,43.945983],[-79.08525,43.945947],[-79.085425,43.945718],[-79.085549,43.945605],[-79.08564,43.945566]]}},{"type":"Feature","properties":{"k":"path"},"geometry":{"type":"LineString","coordinates":[[-79.085684,43.945312],[-79.085709,43.945479],[-79.08564,43.945566],[-79.085611,43.945781],[-79.085709,43.945897],[-79.085791,43.945962],[-79.085921,43.946117],[-79.085972,43.946233],[-79.086059,43.946642],[-79.086227,43.947002],[-79.0863,43.947348],[-79.086395,43.947527],[-79.086486,43.947744],[-79.086442,43.94807],[-79.08645,43.948267],[-79.086377,43.948582],[-79.086213,43.948936],[-79.0861,43.949317],[-79.086052,43.949406],[-79.085961,43.949532],[-79.085996,43.94971]]}},{"type":"Feature","properties":{"k":"path"},"geometry":{"type":"LineString","coordinates":[[-79.086807,43.949913],[-79.087528,43.949754],[-79.088855,43.94954],[-79.089428,43.949592],[-79.089701,43.949637],[-79.090175,43.949757]]}},{"type":"Feature","properties":{"k":"bunker"},"geometry":{"type":"Polygon","coordinates":[[[-79.09205,43.947164],[-79.091995,43.947183],[-79.091954,43.947181],[-79.091938,43.947167],[-79.091941,43.947148],[-79.091929,43.947135],[-79.091888,43.947125],[-79.091877,43.947108],[-79.091877,43.947088],[-79.09189,43.947071],[-79.091939,43.947052],[-79.091988,43.947062],[-79.091992,43.947098],[-79.092054,43.947124],[-79.092064,43.947144],[-79.09205,43.947164]]]}},{"type":"Feature","properties":{"k":"green"},"geometry":{"type":"Polygon","coordinates":[[[-79.092796,43.947917],[-79.092759,43.947921],[-79.092709,43.947913],[-79.092671,43.947898],[-79.092652,43.947878],[-79.092626,43.947831],[-79.092622,43.947774],[-79.092633,43.947733],[-79.092662,43.947711],[-79.092708,43.947711],[-79.092742,43.947723],[-79.092777,43.947747],[-79.092832,43.947819],[-79.092852,43.94787],[-79.092843,43.9479],[-79.092796,43.947917]]]}},{"type":"Feature","properties":{"k":"fairway"},"geometry":{"type":"Polygon","coordinates":[[[-79.092742,43.947451],[-79.092773,43.9475],[-79.092773,43.947543],[-79.092747,43.947604],[-79.092744,43.947661],[-79.092772,43.947714],[-79.092776,43.947773],[-79.092646,43.947778],[-79.092605,43.94775],[-79.092601,43.947701],[-79.092534,43.947598],[-79.092491,43.947554],[-79.09241,43.947519],[-79.092359,43.947467],[-79.092351,43.947413],[-79.09232,43.947369],[-79.092195,43.947262],[-79.092159,43.947221],[-79.092142,43.947169],[-79.092109,43.947122],[-79.092062,43.947073],[-79.091951,43.947005],[-79.091869,43.946936],[-79.091813,43.946869],[-79.091784,43.94678],[-79.091773,43.946697],[-79.091804,43.946551],[-79.091871,43.946398],[-79.091853,43.946175],[-79.091831,43.946041],[-79.091842,43.945982],[-79.09186,43.945944],[-79.091898,43.945908],[-79.091967,43.945881],[-79.092045,43.945881],[-79.092105,43.945895],[-79.092165,43.945927],[-79.092204,43.945966],[-79.092207,43.946129],[-79.092266,43.946242],[-79.092283,43.946299],[-79.092284,43.946413],[-79.092257,43.94645],[-79.092161,43.946503],[-79.09211,43.946553],[-79.09209,43.946694],[-79.092116,43.946777],[-79.092165,43.946843],[-79.092228,43.94689],[-79.092347,43.946937],[-79.092491,43.94715],[-79.092742,43.947451]]]}},{"type":"Feature","properties":{"k":"tee"},"geometry":{"type":"Polygon","coordinates":[[[-79.09349,43.947493],[-79.093517,43.947517],[-79.093529,43.947551],[-79.093512,43.947573],[-79.093463,43.947585],[-79.093424,43.947576],[-79.093379,43.947542],[-79.093365,43.94752],[-79.093368,43.947493],[-79.093383,43.947471],[-79.093411,43.947462],[-79.093446,43.947468],[-79.09349,43.947493]]]}},{"type":"Feature","properties":{"k":"tee"},"geometry":{"type":"Polygon","coordinates":[[[-79.093977,43.947725],[-79.093931,43.947735],[-79.093864,43.947716],[-79.093827,43.947675],[-79.093804,43.947622],[-79.093813,43.947581],[-79.093847,43.947546],[-79.093905,43.947532],[-79.093964,43.947549],[-79.094005,43.947585],[-79.094039,43.94764],[-79.094037,43.947679],[-79.094019,43.947707],[-79.093977,43.947725]]]}},{"type":"Feature","properties":{"k":"tee"},"geometry":{"type":"Polygon","coordinates":[[[-79.094343,43.947855],[-79.094368,43.947881],[-79.094364,43.947912],[-79.094334,43.947935],[-79.094275,43.947934],[-79.094247,43.947913],[-79.094242,43.947885],[-79.094249,43.947871],[-79.094279,43.947851],[-79.094301,43.947847],[-79.094343,43.947855]]]}},{"type":"Feature","properties":{"k":"bunker"},"geometry":{"type":"Polygon","coordinates":[[[-79.096011,43.951162],[-79.096041,43.951207],[-79.096039,43.951225],[-79.096028,43.951237],[-79.095993,43.95124],[-79.095978,43.951232],[-79.095963,43.951205],[-79.095961,43.951173],[-79.095899,43.95115],[-79.095894,43.951122],[-79.095943,43.95109],[-79.095996,43.951084],[-79.096021,43.951094],[-79.096025,43.951109],[-79.096007,43.951147],[-79.096011,43.951162]]]}},{"type":"Feature","properties":{"k":"bunker"},"geometry":{"type":"Polygon","coordinates":[[[-79.095722,43.95136],[-79.095743,43.951384],[-79.095735,43.951408],[-79.095718,43.951414],[-79.09568,43.95141],[-79.095652,43.951358],[-79.095594,43.951323],[-79.095595,43.951295],[-79.095608,43.951284],[-79.095653,43.951271],[-79.095687,43.951281],[-79.095683,43.951321],[-79.095722,43.95136]]]}},{"type":"Feature","properties":{"k":"green"},"geometry":{"type":"Polygon","coordinates":[[[-79.095986,43.951399],[-79.095954,43.951426],[-79.095922,43.951433],[-79.09587,43.951428],[-79.095837,43.951416],[-79.095812,43.951391],[-79.095788,43.951365],[-79.095749,43.95125],[-79.095763,43.951201],[-79.095786,43.951185],[-79.095835,43.951181],[-79.095868,43.951188],[-79.09593,43.951236],[-79.095988,43.951346],[-79.095986,43.951399]]]}},{"type":"Feature","properties":{"k":"bunker"},"geometry":{"type":"Polygon","coordinates":[[[-79.095916,43.95074],[-79.095926,43.950785],[-79.095913,43.950798],[-79.095889,43.950802],[-79.095868,43.950795],[-79.095838,43.950739],[-79.095844,43.950718],[-79.095836,43.950693],[-79.095858,43.950653],[-79.09588,43.950645],[-79.095903,43.950644],[-79.095932,43.950664],[-79.095895,43.950705],[-79.095896,43.95072],[-79.095916,43.95074]]]}},{"type":"Feature","properties":{"k":"bunker"},"geometry":{"type":"Polygon","coordinates":[[[-79.09548,43.950815],[-79.095513,43.950853],[-79.095494,43.950881],[-79.095448,43.95089],[-79.095412,43.950864],[-79.095411,43.950811],[-79.095363,43.95077],[-79.095353,43.950755],[-79.095363,43.95074],[-79.095382,43.950729],[-79.095433,43.950735],[-79.095461,43.950763],[-79.095463,43.950797],[-79.09548,43.950815]]]}},{"type":"Feature","properties":{"k":"fairway"},"geometry":{"type":"Polygon","coordinates":[[[-79.095296,43.949429],[-79.095311,43.949515],[-79.09527,43.949551],[-79.095173,43.949589],[-79.095111,43.949589],[-79.095064,43.949579],[-79.095049,43.949531],[-79.095049,43.949434],[-79.094969,43.949347],[-79.094854,43.949246],[-79.094753,43.949126],[-79.094629,43.948955],[-79.094583,43.948874],[-79.094549,43.948778],[-79.094368,43.948563],[-79.094359,43.948517],[-79.094364,43.94848],[-79.094379,43.948445],[-79.094405,43.948414],[-79.094436,43.948399],[-79.094531,43.948392],[-79.094642,43.948438],[-79.094697,43.948483],[-79.094905,43.948789],[-79.094954,43.948828],[-79.094965,43.948882],[-79.095011,43.94898],[-79.095161,43.949158],[-79.095178,43.949218],[-79.095279,43.949386],[-79.095296,43.949429]]]}},{"type":"Feature","properties":{"k":"fairway"},"geometry":{"type":"Polygon","coordinates":[[[-79.095672,43.950398],[-79.09569,43.950366],[-79.095694,43.950319],[-79.09568,43.950264],[-79.09565,43.950205],[-79.095604,43.950164],[-79.095539,43.950142],[-79.095461,43.95013],[-79.095419,43.95013],[-79.095371,43.950154],[-79.095338,43.950211],[-79.095335,43.950291],[-79.095375,43.950372],[-79.095388,43.950438],[-79.095483,43.950648],[-79.09548,43.950709],[-79.095604,43.950887],[-79.095622,43.950994],[-79.095618,43.951028],[-79.095597,43.951054],[-79.0956,43.951088],[-79.095615,43.951122],[-79.095665,43.951167],[-79.09572,43.95125],[-79.095777,43.951282],[-79.095888,43.951219],[-79.095861,43.95113],[-79.095889,43.950956],[-79.095809,43.950828],[-79.095745,43.950565],[-79.095666,43.950429],[-79.095672,43.950398]]]}},{"type":"Feature","properties":{"k":"fairway"},"geometry":{"type":"Polygon","coordinates":[[[-79.094493,43.952145],[-79.094565,43.952121],[-79.094569,43.952067],[-79.094531,43.952017],[-79.094435,43.951992],[-79.094239,43.952001],[-79.094199,43.951982],[-79.094159,43.951938],[-79.094091,43.951887],[-79.093977,43.951835],[-79.093894,43.951816],[-79.093701,43.951812],[-79.093589,43.951825],[-79.093537,43.951851],[-79.093517,43.951909],[-79.093517,43.951971],[-79.093584,43.952064],[-79.093681,43.952089],[-79.093797,43.952163],[-79.093871,43.952197],[-79.093972,43.952203],[-79.094318,43.952182],[-79.094493,43.952145]]]}},{"type":"Feature","properties":{"k":"tee"},"geometry":{"type":"Polygon","coordinates":[[[-79.096481,43.951804],[-79.096436,43.951824],[-79.096367,43.951816],[-79.096304,43.951793],[-79.096299,43.951748],[-79.096342,43.951707],[-79.096394,43.951696],[-79.096454,43.951706],[-79.096504,43.951728],[-79.096515,43.95177],[-79.096481,43.951804]]]}},{"type":"Feature","properties":{"k":"tee"},"geometry":{"type":"Polygon","coordinates":[[[-79.096202,43.951896],[-79.09617,43.951915],[-79.09612,43.951922],[-79.096061,43.951919],[-79.096033,43.951896],[-79.096025,43.951863],[-79.096037,43.95183],[-79.096099,43.951801],[-79.096142,43.951798],[-79.096181,43.951806],[-79.09621,43.951822],[-79.096225,43.951845],[-79.096224,43.95187],[-79.096202,43.951896]]]}},{"type":"Feature","properties":{"k":"tee"},"geometry":{"type":"Polygon","coordinates":[[[-79.095521,43.951657],[-79.095505,43.951689],[-79.095475,43.951698],[-79.09543,43.951684],[-79.09542,43.951661],[-79.095432,43.951638],[-79.095461,43.951626],[-79.095493,43.95163],[-79.095521,43.951657]]]}},{"type":"Feature","properties":{"k":"green"},"geometry":{"type":"Polygon","coordinates":[[[-79.092186,43.952614],[-79.09212,43.952677],[-79.092063,43.952697],[-79.091985,43.952696],[-79.091921,43.952676],[-79.091899,43.952649],[-79.091899,43.952616],[-79.091935,43.95254],[-79.091986,43.952512],[-79.092072,43.952492],[-79.092143,43.9525],[-79.092195,43.952529],[-79.092207,43.952573],[-79.092186,43.952614]]]}},{"type":"Feature","properties":{"k":"fairway"},"geometry":{"type":"Polygon","coordinates":[[[-79.09233,43.952502],[-79.092223,43.952585],[-79.092181,43.952601],[-79.09192,43.95253],[-79.091879,43.952498],[-79.091855,43.952467],[-79.091862,43.952434],[-79.09189,43.952406],[-79.091961,43.952382],[-79.09202,43.952389],[-79.092073,43.952433],[-79.092121,43.95244],[-79.092161,43.952435],[-79.092242,43.95241],[-79.092304,43.952405],[-79.092349,43.952419],[-79.092371,43.952445],[-79.092359,43.952477],[-79.09233,43.952502]]]}},{"type":"Feature","properties":{"k":"tee"},"geometry":{"type":"Polygon","coordinates":[[[-79.091352,43.952284],[-79.091322,43.952326],[-79.091279,43.952356],[-79.091221,43.952357],[-79.091173,43.952343],[-79.091146,43.952322],[-79.091144,43.952281],[-79.091175,43.952235],[-79.091225,43.952175],[-79.091275,43.952141],[-79.091343,43.95214],[-79.091386,43.952166],[-79.091392,43.952201],[-79.091381,43.952237],[-79.091352,43.952284]]]}},{"type":"Feature","properties":{"k":"tee"},"geometry":{"type":"Polygon","coordinates":[[[-79.091492,43.952055],[-79.091446,43.952093],[-79.091417,43.9521],[-79.091384,43.952094],[-79.091367,43.952077],[-79.091362,43.952057],[-79.091395,43.952004],[-79.091421,43.951976],[-79.091455,43.951961],[-79.091498,43.951962],[-79.091525,43.951983],[-79.091526,43.95201],[-79.091492,43.952055]]]}},{"type":"Feature","properties":{"k":"bunker"},"geometry":{"type":"Polygon","coordinates":[[[-79.092096,43.951176],[-79.092103,43.951197],[-79.092094,43.951204],[-79.092063,43.951197],[-79.092071,43.951184],[-79.092057,43.951162],[-79.092074,43.951144],[-79.092103,43.95115],[-79.092096,43.951176]]]}},{"type":"Feature","properties":{"k":"bunker"},"geometry":{"type":"Polygon","coordinates":[[[-79.092282,43.95132],[-79.092247,43.951326],[-79.092229,43.951299],[-79.092253,43.951283],[-79.092278,43.95128],[-79.092298,43.951293],[-79.092298,43.951304],[-79.092282,43.95132]]]}},{"type":"Feature","properties":{"k":"green"},"geometry":{"type":"Polygon","coordinates":[[[-79.092345,43.95123],[-79.092212,43.95124],[-79.092187,43.951235],[-79.092171,43.951217],[-79.092157,43.951168],[-79.092167,43.951073],[-79.092181,43.951052],[-79.092207,43.95104],[-79.092244,43.951037],[-79.092322,43.951054],[-79.092381,43.951115],[-79.092392,43.951178],[-79.092377,43.951209],[-79.092345,43.95123]]]}},{"type":"Feature","properties":{"k":"fairway"},"geometry":{"type":"Polygon","coordinates":[[[-79.092278,43.951209],[-79.092256,43.951251],[-79.092204,43.951276],[-79.092173,43.951304],[-79.092149,43.951311],[-79.092111,43.951306],[-79.092077,43.951283],[-79.092068,43.951258],[-79.092081,43.951238],[-79.092137,43.951208],[-79.092179,43.951156],[-79.092278,43.951209]]]}},{"type":"Feature","properties":{"k":"tee"},"geometry":{"type":"Polygon","coordinates":[[[-79.092106,43.950666],[-79.09207,43.950683],[-79.092007,43.950685],[-79.091958,43.950667],[-79.091941,43.95065],[-79.091939,43.950625],[-79.091991,43.950596],[-79.092027,43.95059],[-79.092063,43.950596],[-79.092096,43.950608],[-79.092115,43.950624],[-79.09212,43.950646],[-79.092106,43.950666]]]}},{"type":"Feature","properties":{"k":"tee"},"geometry":{"type":"Polygon","coordinates":[[[-79.091778,43.950619],[-79.091762,43.950631],[-79.091724,43.950636],[-79.091679,43.950633],[-79.091639,43.950622],[-79.091624,43.950598],[-79.091634,43.950574],[-79.091656,43.950553],[-79.091699,43.950547],[-79.091745,43.950554],[-79.091778,43.950568],[-79.091793,43.950597],[-79.091778,43.950619]]]}},{"type":"Feature","properties":{"k":"tee"},"geometry":{"type":"Polygon","coordinates":[[[-79.091401,43.950634],[-79.091421,43.950658],[-79.091421,43.950672],[-79.091404,43.950696],[-79.091371,43.950707],[-79.09132,43.950693],[-79.091308,43.950655],[-79.091329,43.950632],[-79.091366,43.950624],[-79.091401,43.950634]]]}},{"type":"Feature","properties":{"k":"fairway"},"geometry":{"type":"Polygon","coordinates":[[[-79.089315,43.950531],[-79.089402,43.950517],[-79.089502,43.950534],[-79.089761,43.950525],[-79.089866,43.95054],[-79.08993,43.950587],[-79.089949,43.950648],[-79.089944,43.950714],[-79.089842,43.950728],[-79.089692,43.950734],[-79.089523,43.950788],[-79.089396,43.950857],[-79.089321,43.950856],[-79.089162,43.950837],[-79.089058,43.950857],[-79.088951,43.9509],[-79.088879,43.950901],[-79.088775,43.950901],[-79.088648,43.950887],[-79.088523,43.95082],[-79.088465,43.950797],[-79.088412,43.950787],[-79.088203,43.950837],[-79.08813,43.950863],[-79.088005,43.95088],[-79.087801,43.950885],[-79.08772,43.950865],[-79.087655,43.950833],[-79.087606,43.950791],[-79.087581,43.95074],[-79.087579,43.950681],[-79.087608,43.95062],[-79.087646,43.950573],[-79.08772,43.950542],[-79.087801,43.950577],[-79.087849,43.950612],[-79.087884,43.950625],[-79.087986,43.950622],[-79.08812,43.950607],[-79.088231,43.950606],[-79.088435,43.950624],[-79.088645,43.950625],[-79.088722,43.950636],[-79.088868,43.950678],[-79.089034,43.950669],[-79.089097,43.950657],[-79.089167,43.95062],[-79.089263,43.950551],[-79.089315,43.950531]]]}},{"type":"Feature","properties":{"k":"bunker"},"geometry":{"type":"Polygon","coordinates":[[[-79.087105,43.950295],[-79.087076,43.950301],[-79.087068,43.950313],[-79.087089,43.950341],[-79.087152,43.950356],[-79.087195,43.950356],[-79.087212,43.950333],[-79.087206,43.950307],[-79.08719,43.950302],[-79.087137,43.950312],[-79.087105,43.950295]]]}},{"type":"Feature","properties":{"k":"bunker"},"geometry":{"type":"Polygon","coordinates":[[[-79.087141,43.950249],[-79.087107,43.950246],[-79.08708,43.95026],[-79.087059,43.950255],[-79.087049,43.950227],[-79.087054,43.950214],[-79.087092,43.95021],[-79.087159,43.950223],[-79.087159,43.950242],[-79.087141,43.950249]]]}},{"type":"Feature","properties":{"k":"bunker"},"geometry":{"type":"Polygon","coordinates":[[[-79.087354,43.950135],[-79.087352,43.950149],[-79.087369,43.950168],[-79.087405,43.950166],[-79.087417,43.950158],[-79.087417,43.950137],[-79.087395,43.950126],[-79.087389,43.950089],[-79.087379,43.950077],[-79.087348,43.950071],[-79.087324,43.950093],[-79.087333,43.950112],[-79.087357,43.950127],[-79.087354,43.950135]]]}},{"type":"Feature","properties":{"k":"green"},"geometry":{"type":"Polygon","coordinates":[[[-79.087239,43.950136],[-79.087218,43.950157],[-79.087158,43.950179],[-79.087065,43.950173],[-79.086937,43.950139],[-79.086895,43.950071],[-79.086889,43.950043],[-79.086899,43.950012],[-79.086917,43.94999],[-79.086984,43.949965],[-79.087038,43.949954],[-79.087086,43.949948],[-79.087192,43.949971],[-79.087238,43.949989],[-79.087267,43.950014],[-79.087275,43.950041],[-79.087267,43.950099],[-79.087239,43.950136]]]}},{"type":"Feature","properties":{"k":"tee"},"geometry":{"type":"Polygon","coordinates":[[[-79.086653,43.949799],[-79.086544,43.949836],[-79.086516,43.949832],[-79.086488,43.949801],[-79.086493,43.949785],[-79.08651,43.949775],[-79.086597,43.949753],[-79.086628,43.949752],[-79.086655,43.94977],[-79.086653,43.949799]]]}},{"type":"Feature","properties":{"k":"tee"},"geometry":{"type":"Polygon","coordinates":[[[-79.086765,43.949797],[-79.086789,43.949819],[-79.086821,43.949834],[-79.086865,43.949842],[-79.086915,43.949834],[-79.086948,43.949816],[-79.086951,43.949795],[-79.086935,43.949742],[-79.086886,43.949685],[-79.08684,43.94964],[-79.086791,43.949626],[-79.086722,43.949646],[-79.086703,43.949662],[-79.086697,43.949694],[-79.086705,43.94972],[-79.086765,43.949797]]]}},{"type":"Feature","properties":{"k":"tee"},"geometry":{"type":"Polygon","coordinates":[[[-79.086974,43.949522],[-79.086942,43.949527],[-79.086916,43.949556],[-79.086924,43.94958],[-79.086952,43.949595],[-79.086987,43.949594],[-79.087018,43.949565],[-79.087003,43.949532],[-79.086974,43.949522]]]}},{"type":"Feature","properties":{"k":"green"},"geometry":{"type":"Polygon","coordinates":[[[-79.087978,43.94907],[-79.088039,43.9491],[-79.088101,43.94911],[-79.088148,43.949102],[-79.088184,43.949085],[-79.088211,43.949061],[-79.088218,43.949027],[-79.088217,43.948989],[-79.088193,43.948957],[-79.088167,43.948941],[-79.0881,43.948926],[-79.088001,43.948934],[-79.087956,43.948982],[-79.087948,43.949026],[-79.087957,43.949055],[-79.087978,43.94907]]]}},{"type":"Feature","properties":{"k":"fairway"},"geometry":{"type":"Polygon","coordinates":[[[-79.088062,43.949029],[-79.088043,43.94907],[-79.087991,43.949086],[-79.087938,43.949083],[-79.087891,43.949092],[-79.087837,43.949123],[-79.087768,43.949193],[-79.087744,43.949239],[-79.087701,43.949284],[-79.087654,43.949309],[-79.087612,43.94932],[-79.087583,43.949318],[-79.087547,43.949297],[-79.087506,43.949258],[-79.087454,43.949179],[-79.087485,43.949126],[-79.087765,43.949005],[-79.087892,43.948966],[-79.087942,43.948959],[-79.088,43.948966],[-79.088062,43.949029]]]}},{"type":"Feature","properties":{"k":"bunker"},"geometry":{"type":"Polygon","coordinates":[[[-79.087998,43.949123],[-79.088009,43.949156],[-79.087991,43.949175],[-79.08796,43.949182],[-79.08792,43.949165],[-79.087913,43.949143],[-79.087927,43.949122],[-79.087955,43.949112],[-79.087998,43.949123]]]}},{"type":"Feature","properties":{"k":"tee"},"geometry":{"type":"Polygon","coordinates":[[[-79.087901,43.948686],[-79.087846,43.948696],[-79.087762,43.948686],[-79.087691,43.948661],[-79.087658,43.948634],[-79.087668,43.948593],[-79.087716,43.948578],[-79.087796,43.94858],[-79.08787,43.948598],[-79.087935,43.948625],[-79.087944,43.948645],[-79.087934,43.948672],[-79.087901,43.948686]]]}},{"type":"Feature","properties":{"k":"tee"},"geometry":{"type":"Polygon","coordinates":[[[-79.088221,43.948723],[-79.088152,43.948714],[-79.088124,43.948694],[-79.088128,43.948665],[-79.088163,43.948648],[-79.088224,43.948661],[-79.088263,43.948681],[-79.088253,43.948712],[-79.088221,43.948723]]]}},{"type":"Feature","properties":{"k":"green"},"geometry":{"type":"Polygon","coordinates":[[[-79.092871,43.949906],[-79.092969,43.94993],[-79.093001,43.949955],[-79.093007,43.949994],[-79.092996,43.950025],[-79.092968,43.950051],[-79.092899,43.950075],[-79.092859,43.950077],[-79.09282,43.950071],[-79.092792,43.950058],[-79.092662,43.949911],[-79.092653,43.949885],[-79.092675,43.949856],[-79.092707,43.949846],[-79.092755,43.949848],[-79.092824,43.949867],[-79.092852,43.949899],[-79.092871,43.949906]]]}},{"type":"Feature","properties":{"k":"bunker"},"geometry":{"type":"Polygon","coordinates":[[[-79.092883,43.949853],[-79.092889,43.949867],[-79.092935,43.949883],[-79.092966,43.949867],[-79.092947,43.949833],[-79.092905,43.949801],[-79.092903,43.949771],[-79.092889,43.949759],[-79.09284,43.949749],[-79.092799,43.949754],[-79.092778,43.949769],[-79.092785,43.949801],[-79.0928,43.949809],[-79.092866,43.949815],[-79.092883,43.949853]]]}},{"type":"Feature","properties":{"k":"bunker"},"geometry":{"type":"Polygon","coordinates":[[[-79.092558,43.949952],[-79.092608,43.949963],[-79.092654,43.949987],[-79.092651,43.950014],[-79.092638,43.950023],[-79.092593,43.950023],[-79.092527,43.949996],[-79.092507,43.949972],[-79.092454,43.949968],[-79.092438,43.94996],[-79.092417,43.949935],[-79.092429,43.949905],[-79.092467,43.949891],[-79.09251,43.94989],[-79.092542,43.949906],[-79.092547,43.949943],[-79.092558,43.949952]]]}},{"type":"Feature","properties":{"k":"bunker"},"geometry":{"type":"Polygon","coordinates":[[[-79.092391,43.949556],[-79.09241,43.949566],[-79.092478,43.949569],[-79.092558,43.949599],[-79.092581,43.949615],[-79.092587,43.949632],[-79.092576,43.949659],[-79.092504,43.94967],[-79.092474,43.949662],[-79.092435,43.949621],[-79.092354,43.949613],[-79.092336,43.949606],[-79.092297,43.949578],[-79.092276,43.949533],[-79.092283,43.949517],[-79.092319,43.949495],[-79.092359,43.949496],[-79.092373,43.949509],[-79.09237,43.949539],[-79.092391,43.949556]]]}},{"type":"Feature","properties":{"k":"bunker"},"geometry":{"type":"Polygon","coordinates":[[[-79.09088,43.949043],[-79.090894,43.949069],[-79.090932,43.949093],[-79.090962,43.949102],[-79.091014,43.949101],[-79.09104,43.949083],[-79.091046,43.949058],[-79.09099,43.949036],[-79.090968,43.949001],[-79.090921,43.948991],[-79.090893,43.948933],[-79.090853,43.94892],[-79.090814,43.94892],[-79.090789,43.948938],[-79.090794,43.948984],[-79.09081,43.949003],[-79.090878,43.949033],[-79.09088,43.949043]]]}},{"type":"Feature","properties":{"k":"bunker"},"geometry":{"type":"Polygon","coordinates":[[[-79.090316,43.949242],[-79.090372,43.94927],[-79.090395,43.949274],[-79.090433,43.949265],[-79.090452,43.94924],[-79.09044,43.949214],[-79.090366,43.949195],[-79.090306,43.949201],[-79.090247,43.949193],[-79.090216,43.949217],[-79.090214,43.949234],[-79.090225,43.949251],[-79.090244,43.949258],[-79.090267,43.949258],[-79.090316,43.949242]]]}},{"type":"Feature","properties":{"k":"fairway"},"geometry":{"type":"Polygon","coordinates":[[[-79.09264,43.949754],[-79.092747,43.949819],[-79.092788,43.949837],[-79.092824,43.949867],[-79.092676,43.94992],[-79.092644,43.949916],[-79.092596,43.94989],[-79.092509,43.949861],[-79.092442,43.949858],[-79.092381,43.949847],[-79.092155,43.949759],[-79.091935,43.949706],[-79.091865,43.949699],[-79.091793,43.949674],[-79.091741,43.949634],[-79.091654,43.949593],[-79.091565,43.949561],[-79.091367,43.949519],[-79.091284,43.949488],[-79.091194,43.949472],[-79.09102,43.949406],[-79.090928,43.949383],[-79.090817,43.949375],[-79.090725,43.949339],[-79.09062,43.949233],[-79.090544,43.94918],[-79.090415,43.949147],[-79.090284,43.949133],[-79.090166,43.949134],[-79.089889,43.949153],[-79.089689,43.949133],[-79.089564,43.949098],[-79.089401,43.949006],[-79.089251,43.948977],[-79.089223,43.948939],[-79.089242,43.948883],[-79.089285,43.948829],[-79.089345,43.948794],[-79.089416,43.948777],[-79.089498,43.948786],[-79.089595,43.948821],[-79.089694,43.948843],[-79.089914,43.948868],[-79.090186,43.948877],[-79.090415,43.948925],[-79.09068,43.948996],[-79.090831,43.949073],[-79.090933,43.949149],[-79.091015,43.949171],[-79.091136,43.949184],[-79.091317,43.949219],[-79.091715,43.949328],[-79.091812,43.949379],[-79.091888,43.949408],[-79.091955,43.949423],[-79.092006,43.949425],[-79.092131,43.949486],[-79.09228,43.949607],[-79.092338,43.949637],[-79.09264,43.949754]]]}},{"type":"Feature","properties":{"k":"tee"},"geometry":{"type":"Polygon","coordinates":[[[-79.093138,43.949709],[-79.09312,43.949688],[-79.093118,43.949671],[-79.093131,43.949643],[-79.093178,43.949637],[-79.093218,43.949653],[-79.093238,43.949678],[-79.093238,43.949699],[-79.093214,43.949719],[-79.093168,43.949723],[-79.093138,43.949709]]]}},{"type":"Feature","properties":{"k":"tee"},"geometry":{"type":"Polygon","coordinates":[[[-79.093075,43.94959],[-79.09308,43.949631],[-79.093054,43.949652],[-79.093014,43.949657],[-79.092995,43.949652],[-79.092969,43.949631],[-79.092966,43.949602],[-79.092989,43.949578],[-79.093026,43.94957],[-79.093075,43.94959]]]}},{"type":"Feature","properties":{"k":"tee"},"geometry":{"type":"Polygon","coordinates":[[[-79.09286,43.949567],[-79.092822,43.949565],[-79.092784,43.949551],[-79.092709,43.949517],[-79.092675,43.949492],[-79.092659,43.949469],[-79.092664,43.94945],[-79.092687,43.94943],[-79.092773,43.949432],[-79.092824,43.949449],[-79.092873,43.94948],[-79.092902,43.949507],[-79.092913,43.949542],[-79.092892,43.949559],[-79.09286,43.949567]]]}},{"type":"Feature","properties":{"k":"tee"},"geometry":{"type":"Polygon","coordinates":[[[-79.09245,43.949256],[-79.092493,43.949261],[-79.09251,43.949272],[-79.092527,43.949301],[-79.092515,43.949331],[-79.0925,43.949342],[-79.092459,43.949351],[-79.092418,43.949341],[-79.092404,43.949329],[-79.092394,43.949299],[-79.092412,43.94927],[-79.09245,43.949256]]]}},{"type":"Feature","properties":{"k":"bunker"},"geometry":{"type":"Polygon","coordinates":[[[-79.090787,43.948654],[-79.09079,43.94871],[-79.090782,43.948729],[-79.090746,43.948737],[-79.090727,43.948731],[-79.0907,43.94871],[-79.090708,43.948667],[-79.090659,43.948628],[-79.090655,43.948598],[-79.090675,43.948574],[-79.090725,43.948568],[-79.090762,43.948583],[-79.090789,43.948621],[-79.090787,43.948654]]]}},{"type":"Feature","properties":{"k":"bunker"},"geometry":{"type":"Polygon","coordinates":[[[-79.089618,43.947439],[-79.089615,43.947464],[-79.089627,43.947487],[-79.089658,43.947497],[-79.089701,43.947484],[-79.0897,43.947464],[-79.089665,43.947447],[-79.089662,43.947418],[-79.089652,43.947407],[-79.089611,43.947373],[-79.089574,43.947367],[-79.089562,43.947373],[-79.089558,43.9474],[-79.089574,43.947418],[-79.089606,43.947426],[-79.089618,43.947439]]]}},{"type":"Feature","properties":{"k":"bunker"},"geometry":{"type":"Polygon","coordinates":[[[-79.089414,43.947681],[-79.089383,43.947679],[-79.08935,43.947695],[-79.089304,43.947685],[-79.089293,43.947674],[-79.089313,43.947631],[-79.089271,43.947595],[-79.089265,43.947575],[-79.089272,43.947566],[-79.089301,43.947562],[-79.089335,43.94757],[-79.089355,43.947585],[-79.089355,43.947602],[-79.089365,43.947608],[-79.089443,43.947627],[-79.089455,43.947648],[-79.089447,43.947672],[-79.089414,43.947681]]]}},{"type":"Feature","properties":{"k":"green"},"geometry":{"type":"Polygon","coordinates":[[[-79.089489,43.947364],[-79.089525,43.947467],[-79.089509,43.94751],[-79.089468,43.947537],[-79.089444,43.947543],[-79.089393,43.94754],[-79.08932,43.947517],[-79.089252,43.947476],[-79.089232,43.947453],[-79.089213,43.947402],[-79.089221,43.947333],[-79.089254,43.947278],[-79.089278,43.947265],[-79.089349,43.947258],[-79.089413,43.947277],[-79.08947,43.947312],[-79.089489,43.947364]]]}},{"type":"Feature","properties":{"k":"fairway"},"geometry":{"type":"Polygon","coordinates":[[[-79.089429,43.947436],[-79.089506,43.947406],[-79.089541,43.947431],[-79.089602,43.947522],[-79.089633,43.94755],[-79.089688,43.947582],[-79.089741,43.947601],[-79.089852,43.947725],[-79.089913,43.947774],[-79.090135,43.947852],[-79.090203,43.947885],[-79.090524,43.948071],[-79.090674,43.948195],[-79.090834,43.948284],[-79.090888,43.948321],[-79.091038,43.948485],[-79.091128,43.948518],[-79.091211,43.948528],[-79.091387,43.948571],[-79.091439,43.948614],[-79.091625,43.948734],[-79.091681,43.948783],[-79.091689,43.948823],[-79.091653,43.948893],[-79.09161,43.948935],[-79.091555,43.948963],[-79.091497,43.948969],[-79.091437,43.948969],[-79.091378,43.948956],[-79.09126,43.948856],[-79.091124,43.9488],[-79.091026,43.948772],[-79.090924,43.948728],[-79.09086,43.948669],[-79.09078,43.948539],[-79.090661,43.94844],[-79.090496,43.948383],[-79.090337,43.948269],[-79.090209,43.948192],[-79.090144,43.948164],[-79.089936,43.948027],[-79.089822,43.947969],[-79.089706,43.947869],[-79.089658,43.947844],[-79.089589,43.947821],[-79.089553,43.947792],[-79.089511,43.947704],[-79.089495,43.947646],[-79.089466,43.947604],[-79.089429,43.947575],[-79.089326,43.947534],[-79.089304,43.947507],[-79.089429,43.947436]]]}},{"type":"Feature","properties":{"k":"tee"},"geometry":{"type":"Polygon","coordinates":[[[-79.090101,43.947329],[-79.090106,43.947344],[-79.090097,43.947373],[-79.090064,43.947393],[-79.09002,43.947394],[-79.09,43.947387],[-79.089976,43.94736],[-79.08998,43.947329],[-79.090011,43.947306],[-79.090031,43.947302],[-79.090072,43.947307],[-79.090101,43.947329]]]}},{"type":"Feature","properties":{"k":"tee"},"geometry":{"type":"Polygon","coordinates":[[[-79.089953,43.947188],[-79.089933,43.947227],[-79.08991,43.94724],[-79.08988,43.947243],[-79.089853,43.947236],[-79.089832,43.947217],[-79.089827,43.947162],[-79.089844,43.947138],[-79.089866,43.947125],[-79.089899,43.947125],[-79.089944,43.947146],[-79.089955,43.947166],[-79.089953,43.947188]]]}},{"type":"Feature","properties":{"k":"tee"},"geometry":{"type":"Polygon","coordinates":[[[-79.089735,43.94691],[-79.089745,43.946975],[-79.089764,43.947004],[-79.089791,43.947022],[-79.089828,43.947032],[-79.089869,43.94703],[-79.089893,43.947021],[-79.089911,43.947004],[-79.08991,43.946963],[-79.089856,43.946892],[-79.089811,43.946869],[-79.089784,43.946865],[-79.089761,43.946869],[-79.089742,43.946885],[-79.089735,43.94691]]]}},{"type":"Feature","properties":{"k":"tee"},"geometry":{"type":"Polygon","coordinates":[[[-79.089817,43.946596],[-79.089775,43.946601],[-79.089746,43.946624],[-79.089743,43.946655],[-79.089752,43.946669],[-79.089786,43.946688],[-79.089807,43.94669],[-79.089847,43.94668],[-79.089871,43.946655],[-79.089867,43.946624],[-79.089855,43.94661],[-79.089817,43.946596]]]}},{"type":"Feature","properties":{"k":"bunker"},"geometry":{"type":"Polygon","coordinates":[[[-79.090123,43.945391],[-79.090132,43.945419],[-79.090122,43.94543],[-79.090081,43.945433],[-79.090054,43.945416],[-79.090051,43.945379],[-79.090081,43.945358],[-79.090115,43.945369],[-79.090123,43.945391]]]}},{"type":"Feature","properties":{"k":"green"},"geometry":{"type":"Polygon","coordinates":[[[-79.090183,43.945349],[-79.090202,43.945399],[-79.090227,43.945422],[-79.090276,43.945436],[-79.090314,43.945438],[-79.090397,43.945401],[-79.090414,43.945372],[-79.090417,43.945287],[-79.09038,43.945226],[-79.090303,43.945189],[-79.090217,43.945197],[-79.090178,43.945241],[-79.090171,43.94527],[-79.090183,43.945349]]]}},{"type":"Feature","properties":{"k":"fairway"},"geometry":{"type":"Polygon","coordinates":[[[-79.090202,43.945548],[-79.090193,43.945574],[-79.0902,43.9456],[-79.090233,43.945608],[-79.090292,43.945601],[-79.090364,43.945548],[-79.090425,43.945521],[-79.090473,43.945485],[-79.090528,43.945396],[-79.090544,43.945324],[-79.09053,43.945269],[-79.090483,43.945199],[-79.090447,43.945172],[-79.090411,43.94516],[-79.090292,43.945159],[-79.090253,43.945171],[-79.090237,43.945186],[-79.090228,43.945206],[-79.090221,43.945372],[-79.090189,43.945407],[-79.090218,43.94548],[-79.090202,43.945548]]]}},{"type":"Feature","properties":{"k":"tee"},"geometry":{"type":"Polygon","coordinates":[[[-79.089971,43.94502],[-79.089905,43.945086],[-79.08986,43.945093],[-79.089834,43.945082],[-79.08982,43.945064],[-79.089817,43.945042],[-79.089877,43.944958],[-79.089935,43.944916],[-79.089963,43.944912],[-79.089991,43.944922],[-79.090016,43.944956],[-79.089971,43.94502]]]}},{"type":"Feature","properties":{"k":"tee"},"geometry":{"type":"Polygon","coordinates":[[[-79.089197,43.945622],[-79.089229,43.945605],[-79.089249,43.945603],[-79.089287,43.945613],[-79.089309,43.945637],[-79.089311,43.945653],[-79.089293,43.94568],[-79.089255,43.945693],[-79.089215,43.945687],[-79.089189,43.945664],[-79.089185,43.945649],[-79.089197,43.945622]]]}},{"type":"Feature","properties":{"k":"tee"},"geometry":{"type":"Polygon","coordinates":[[[-79.087647,43.94849],[-79.087599,43.948517],[-79.087557,43.948519],[-79.087467,43.948464],[-79.087439,43.94843],[-79.08743,43.948396],[-79.087499,43.948343],[-79.087551,43.948353],[-79.087593,43.948372],[-79.087667,43.948442],[-79.087668,43.948468],[-79.087647,43.94849]]]}},{"type":"Feature","properties":{"k":"tee"},"geometry":{"type":"Polygon","coordinates":[[[-79.087475,43.948496],[-79.087497,43.948525],[-79.087497,43.948541],[-79.087475,43.948568],[-79.087457,43.948576],[-79.087416,43.948579],[-79.087381,43.948564],[-79.087365,43.948536],[-79.087367,43.948521],[-79.08739,43.948495],[-79.087433,43.948484],[-79.087475,43.948496]]]}},{"type":"Feature","properties":{"k":"green"},"geometry":{"type":"Polygon","coordinates":[[[-79.086459,43.949516],[-79.086458,43.949546],[-79.086441,43.949582],[-79.086409,43.949603],[-79.086329,43.949618],[-79.086241,43.9496],[-79.086205,43.949572],[-79.086191,43.949541],[-79.086223,43.949464],[-79.086292,43.949431],[-79.086365,43.949429],[-79.086437,43.949442],[-79.086455,43.949458],[-79.086463,43.949481],[-79.086459,43.949516]]]}},{"type":"Feature","properties":{"k":"bunker"},"geometry":{"type":"Polygon","coordinates":[[[-79.08653,43.949462],[-79.086514,43.949481],[-79.086515,43.949493],[-79.086545,43.949506],[-79.086567,43.949503],[-79.086608,43.949452],[-79.086669,43.949441],[-79.086676,43.949422],[-79.086614,43.949399],[-79.086584,43.949399],[-79.08653,43.949462]]]}},{"type":"Feature","properties":{"k":"bunker"},"geometry":{"type":"Polygon","coordinates":[[[-79.086407,43.949345],[-79.086381,43.949346],[-79.086363,43.949373],[-79.08633,43.949389],[-79.0863,43.949385],[-79.08629,43.949374],[-79.086299,43.949354],[-79.086337,43.949339],[-79.086361,43.94932],[-79.086362,43.949298],[-79.086345,43.949266],[-79.086359,43.949249],[-79.08639,43.949249],[-79.086412,43.949287],[-79.086455,43.949311],[-79.086442,43.949342],[-79.086407,43.949345]]]}},{"type":"Feature","properties":{"k":"tee"},"geometry":{"type":"Polygon","coordinates":[[[-79.085254,43.949785],[-79.085327,43.949785],[-79.085344,43.949764],[-79.085327,43.949575],[-79.085313,43.949555],[-79.085283,43.949544],[-79.085253,43.949544],[-79.085212,43.94958],[-79.085212,43.949666],[-79.08524,43.949776],[-79.085254,43.949785]]]}},{"type":"Feature","properties":{"k":"green"},"geometry":{"type":"Polygon","coordinates":[[[-79.084405,43.947175],[-79.084412,43.947205],[-79.084397,43.947235],[-79.084363,43.94726],[-79.084322,43.947251],[-79.08418,43.947189],[-79.084149,43.947167],[-79.084112,43.947115],[-79.084153,43.947044],[-79.084193,43.947027],[-79.084246,43.947021],[-79.084287,43.947033],[-79.084375,43.947082],[-79.084389,43.947098],[-79.084405,43.947175]]]}},{"type":"Feature","properties":{"k":"bunker"},"geometry":{"type":"Polygon","coordinates":[[[-79.084508,43.947164],[-79.084519,43.947224],[-79.084552,43.947228],[-79.084564,43.947207],[-79.084564,43.947132],[-79.084504,43.9471],[-79.084469,43.947092],[-79.084449,43.947105],[-79.084451,43.947133],[-79.084508,43.947164]]]}},{"type":"Feature","properties":{"k":"bunker"},"geometry":{"type":"Polygon","coordinates":[[[-79.084208,43.947339],[-79.084271,43.947325],[-79.084282,43.947317],[-79.084277,43.947296],[-79.084252,43.947287],[-79.08417,43.947279],[-79.084147,43.947265],[-79.084126,43.947218],[-79.084079,43.947213],[-79.084062,43.94723],[-79.084062,43.947247],[-79.084069,43.947262],[-79.084122,43.947302],[-79.084126,43.947315],[-79.084112,43.947342],[-79.08413,43.947373],[-79.084175,43.947379],[-79.084208,43.947339]]]}},{"type":"Feature","properties":{"k":"fairway"},"geometry":{"type":"Polygon","coordinates":[[[-79.084521,43.947279],[-79.084455,43.947227],[-79.084447,43.947199],[-79.084402,43.947139],[-79.084275,43.947231],[-79.084417,43.947428],[-79.084519,43.947474],[-79.084628,43.947545],[-79.084696,43.94761],[-79.084728,43.94767],[-79.084774,43.947716],[-79.084993,43.947882],[-79.085029,43.947929],[-79.085078,43.948046],[-79.085125,43.948127],[-79.085133,43.948205],[-79.085133,43.948284],[-79.085085,43.948355],[-79.08506,43.948422],[-79.085056,43.948493],[-79.085088,43.948554],[-79.085136,43.948619],[-79.085147,43.94867],[-79.085133,43.948711],[-79.08516,43.94877],[-79.08522,43.948803],[-79.085278,43.948816],[-79.08534,43.948808],[-79.085397,43.948774],[-79.085447,43.948727],[-79.085476,43.948685],[-79.085477,43.948583],[-79.085508,43.94829],[-79.085486,43.94822],[-79.085316,43.947886],[-79.085278,43.947832],[-79.085039,43.947594],[-79.084976,43.94755],[-79.084838,43.947527],[-79.084774,43.947497],[-79.084757,43.947462],[-79.084646,43.947358],[-79.084583,43.947311],[-79.084521,43.947279]]]}},{"type":"Feature","properties":{"k":"tee"},"geometry":{"type":"Polygon","coordinates":[[[-79.083789,43.946613],[-79.083813,43.94663],[-79.083812,43.946664],[-79.083788,43.94668],[-79.083741,43.946677],[-79.083718,43.946647],[-79.083728,43.946625],[-79.083756,43.946611],[-79.083789,43.946613]]]}},{"type":"Feature","properties":{"k":"tee"},"geometry":{"type":"Polygon","coordinates":[[[-79.084029,43.94654],[-79.08399,43.946577],[-79.083922,43.946608],[-79.083866,43.946604],[-79.083833,43.946582],[-79.083833,43.94655],[-79.083853,43.94652],[-79.083892,43.946492],[-79.083987,43.946457],[-79.084024,43.946471],[-79.084044,43.946488],[-79.084044,43.946514],[-79.084029,43.94654]]]}},{"type":"Feature","properties":{"k":"tee"},"geometry":{"type":"Polygon","coordinates":[[[-79.084206,43.946365],[-79.084225,43.946394],[-79.084223,43.946411],[-79.084198,43.946437],[-79.084158,43.946447],[-79.084117,43.946438],[-79.084102,43.946426],[-79.08409,43.946397],[-79.084093,43.946382],[-79.084121,43.946357],[-79.084165,43.94635],[-79.084206,43.946365]]]}},{"type":"Feature","properties":{"k":"green"},"geometry":{"type":"Polygon","coordinates":[[[-79.085277,43.945643],[-79.085165,43.94569],[-79.08512,43.945695],[-79.085091,43.945687],[-79.085066,43.945669],[-79.085065,43.945639],[-79.085097,43.945586],[-79.085186,43.945541],[-79.085241,43.945531],[-79.085283,43.945532],[-79.085323,43.945552],[-79.085332,43.94558],[-79.085325,43.945606],[-79.085277,43.945643]]]}},{"type":"Feature","properties":{"k":"bunker"},"geometry":{"type":"Polygon","coordinates":[[[-79.085107,43.945788],[-79.085068,43.945806],[-79.085062,43.945828],[-79.085074,43.945839],[-79.085136,43.945842],[-79.085149,43.94583],[-79.085157,43.945789],[-79.085191,43.945745],[-79.085159,43.945731],[-79.085136,43.945736],[-79.085124,43.945745],[-79.085122,43.945781],[-79.085107,43.945788]]]}},{"type":"Feature","properties":{"k":"bunker"},"geometry":{"type":"Polygon","coordinates":[[[-79.084965,43.945661],[-79.084953,43.945689],[-79.084929,43.945698],[-79.084892,43.945695],[-79.084875,43.945666],[-79.08491,43.945618],[-79.084941,43.9456],[-79.08497,43.9456],[-79.085003,43.945613],[-79.085002,43.945639],[-79.084965,43.945661]]]}},{"type":"Feature","properties":{"k":"fairway"},"geometry":{"type":"Polygon","coordinates":[[[-79.084992,43.945809],[-79.085024,43.945796],[-79.085105,43.945714],[-79.085165,43.94569],[-79.085078,43.945613],[-79.085042,43.94563],[-79.085029,43.945653],[-79.084964,43.945717],[-79.084936,43.945735],[-79.084897,43.945787],[-79.084919,43.94581],[-79.084969,43.945816],[-79.084992,43.945809]]]}},{"type":"Feature","properties":{"k":"tee"},"geometry":{"type":"Polygon","coordinates":[[[-79.08583,43.945081],[-79.085869,43.945097],[-79.085886,43.945128],[-79.085871,43.94516],[-79.085835,43.945177],[-79.085813,43.945179],[-79.085772,43.945168],[-79.085757,43.945156],[-79.085747,43.945125],[-79.085766,43.945095],[-79.085784,43.945085],[-79.08583,43.945081]]]}},{"type":"Feature","properties":{"k":"tee"},"geometry":{"type":"Polygon","coordinates":[[[-79.085948,43.945364],[-79.085928,43.945394],[-79.085858,43.94542],[-79.085812,43.945419],[-79.085776,43.945404],[-79.085751,43.94538],[-79.085742,43.945345],[-79.085741,43.945296],[-79.085764,43.945256],[-79.085839,43.945237],[-79.085881,43.945239],[-79.085925,43.945255],[-79.085947,43.945285],[-79.085957,43.945326],[-79.085948,43.945364]]]}},{"type":"Feature","properties":{"k":"tee"},"geometry":{"type":"Polygon","coordinates":[[[-79.085903,43.945515],[-79.085956,43.945537],[-79.085981,43.945577],[-79.085978,43.9456],[-79.085944,43.945637],[-79.085916,43.945648],[-79.085853,43.945647],[-79.085804,43.945619],[-79.085791,43.945575],[-79.085817,43.945535],[-79.085872,43.945515],[-79.085903,43.945515]]]}},{"type":"Feature","properties":{"k":"green"},"geometry":{"type":"Polygon","coordinates":[[[-79.0859,43.949294],[-79.085909,43.949357],[-79.085904,43.949392],[-79.085885,43.94942],[-79.085804,43.949443],[-79.085756,43.949439],[-79.085703,43.949408],[-79.08569,43.949386],[-79.08569,43.949329],[-79.085727,43.949277],[-79.085772,43.949242],[-79.085831,43.949233],[-79.085858,43.949237],[-79.085893,43.94926],[-79.0859,43.949294]]]}},{"type":"Feature","properties":{"k":"bunker"},"geometry":{"type":"Polygon","coordinates":[[[-79.085971,43.949238],[-79.085939,43.949281],[-79.085945,43.949296],[-79.08598,43.949308],[-79.086007,43.949297],[-79.086003,43.94926],[-79.086036,43.949234],[-79.086044,43.949212],[-79.086011,43.949175],[-79.085987,43.949164],[-79.085955,43.949171],[-79.085958,43.949196],[-79.085979,43.949227],[-79.085971,43.949238]]]}},{"type":"Feature","properties":{"k":"bunker"},"geometry":{"type":"Polygon","coordinates":[[[-79.085744,43.949154],[-79.085748,43.94919],[-79.085739,43.949206],[-79.085719,43.949214],[-79.085678,43.949207],[-79.085661,43.94918],[-79.085678,43.949149],[-79.0857,43.949144],[-79.08571,43.949132],[-79.085716,43.949088],[-79.085761,43.949083],[-79.085794,43.949093],[-79.085811,43.949107],[-79.085811,43.949118],[-79.085803,43.949128],[-79.085764,43.949135],[-79.085744,43.949154]]]}},{"type":"Feature","properties":{"k":"fairway"},"geometry":{"type":"Polygon","coordinates":[[[-79.085972,43.949112],[-79.085932,43.949132],[-79.085917,43.949157],[-79.085906,43.949187],[-79.085912,43.949261],[-79.0859,43.949294],[-79.085751,43.949255],[-79.085762,43.949229],[-79.085807,43.9492],[-79.085845,43.949155],[-79.085856,43.949129],[-79.085857,43.949104],[-79.085823,43.949037],[-79.085806,43.948971],[-79.085851,43.948881],[-79.08592,43.948802],[-79.085967,43.948699],[-79.086005,43.948493],[-79.086,43.948348],[-79.086014,43.948273],[-79.086002,43.948197],[-79.085967,43.948077],[-79.086001,43.948],[-79.086001,43.947949],[-79.085955,43.94782],[-79.085947,43.947674],[-79.085887,43.947554],[-79.08573,43.947328],[-79.085647,43.947232],[-79.085614,43.947109],[-79.08562,43.946753],[-79.085661,43.946574],[-79.085665,43.946509],[-79.085688,43.946461],[-79.085717,43.946427],[-79.085761,43.946406],[-79.085841,43.946414],[-79.08589,43.94643],[-79.085934,43.946454],[-79.085963,43.946488],[-79.085977,43.946606],[-79.086013,43.946723],[-79.086018,43.946778],[-79.085998,43.946807],[-79.085931,43.946861],[-79.085916,43.946899],[-79.085906,43.946958],[-79.085923,43.947092],[-79.08601,43.947261],[-79.08615,43.94745],[-79.086248,43.947562],[-79.086265,43.94762],[-79.086291,43.947855],[-79.086291,43.947984],[-79.086324,43.94816],[-79.086267,43.94828],[-79.086243,43.948416],[-79.086264,43.948482],[-79.086266,43.948542],[-79.086148,43.94861],[-79.086049,43.948837],[-79.086033,43.948896],[-79.086034,43.948986],[-79.086009,43.949057],[-79.085972,43.949112]]]}},{"type":"Feature","properties":{"k":"tee"},"geometry":{"type":"Polygon","coordinates":[[[-79.087318,43.949755],[-79.087254,43.949778],[-79.087147,43.949793],[-79.087065,43.949786],[-79.087032,43.949753],[-79.087039,43.949731],[-79.087065,43.949708],[-79.087109,43.949692],[-79.087158,43.94968],[-79.087278,43.949678],[-79.087321,43.949681],[-79.087348,43.949698],[-79.08734,43.94974],[-79.087318,43.949755]]]}},{"type":"Feature","properties":{"k":"green"},"geometry":{"type":"Polygon","coordinates":[[[-79.088812,43.949416],[-79.088786,43.949442],[-79.088745,43.949458],[-79.088709,43.949465],[-79.088651,43.949457],[-79.088603,43.949448],[-79.088577,43.949433],[-79.088556,43.949409],[-79.088545,43.949371],[-79.088585,43.949314],[-79.088631,43.949295],[-79.088776,43.949291],[-79.088811,43.949302],[-79.088839,43.949327],[-79.088845,43.949362],[-79.088837,43.949392],[-79.088812,43.949416]]]}},{"type":"Feature","properties":{"k":"fairway"},"geometry":{"type":"Polygon","coordinates":[[[-79.088418,43.949517],[-79.088548,43.949459],[-79.088586,43.949461],[-79.088654,43.949445],[-79.088585,43.949314],[-79.088545,43.949371],[-79.088494,43.949387],[-79.08831,43.949378],[-79.088249,43.949388],[-79.088216,43.949404],[-79.088202,43.949438],[-79.088214,43.949474],[-79.088237,43.949494],[-79.088329,43.949519],[-79.088376,43.949524],[-79.088418,43.949517]]]}},{"type":"Feature","properties":{"k":"bunker"},"geometry":{"type":"Polygon","coordinates":[[[-79.088475,43.949327],[-79.08845,43.949353],[-79.088424,43.949354],[-79.088392,43.949327],[-79.088392,43.94931],[-79.088409,43.949299],[-79.088432,43.949298],[-79.088458,43.949275],[-79.088476,43.949277],[-79.08851,43.949298],[-79.088502,43.949313],[-79.088475,43.949327]]]}},{"type":"Feature","properties":{"k":"tee"},"geometry":{"type":"Polygon","coordinates":[[[-79.089162,43.949455],[-79.089121,43.949413],[-79.089131,43.949389],[-79.089153,43.949369],[-79.089209,43.949366],[-79.089269,43.949376],[-79.089415,43.949424],[-79.089461,43.949447],[-79.089468,43.949471],[-79.08946,43.949497],[-79.08944,43.949509],[-79.089369,43.949514],[-79.089258,43.949491],[-79.089162,43.949455]]]}},{"type":"Feature","properties":{"k":"tee"},"geometry":{"type":"Polygon","coordinates":[[[-79.089906,43.949504],[-79.089948,43.949518],[-79.089969,43.949548],[-79.089958,43.949581],[-79.089943,43.949592],[-79.089903,43.949603],[-79.089861,43.949595],[-79.089835,43.94957],[-79.089831,43.949555],[-79.089844,43.949524],[-79.089861,43.949512],[-79.089906,43.949504]]]}},{"type":"Feature","properties":{"k":"green"},"geometry":{"type":"Polygon","coordinates":[[[-79.094444,43.951157],[-79.094435,43.951197],[-79.094453,43.951248],[-79.094537,43.951352],[-79.094599,43.951372],[-79.094664,43.951357],[-79.094697,43.951316],[-79.094703,43.951267],[-79.094673,43.951219],[-79.094537,43.95115],[-79.094484,43.951149],[-79.094444,43.951157]]]}},{"type":"Feature","properties":{"k":"bunker"},"geometry":{"type":"Polygon","coordinates":[[[-79.094606,43.95113],[-79.094616,43.95115],[-79.094639,43.951167],[-79.094689,43.951164],[-79.094698,43.951155],[-79.094659,43.951091],[-79.094612,43.951073],[-79.094599,43.951037],[-79.094561,43.951018],[-79.094517,43.951017],[-79.094499,43.951027],[-79.09448,43.951057],[-79.094486,43.951084],[-79.094511,43.951105],[-79.094594,43.951111],[-79.094606,43.95113]]]}},{"type":"Feature","properties":{"k":"fairway"},"geometry":{"type":"Polygon","coordinates":[[[-79.094408,43.951051],[-79.094426,43.951083],[-79.09446,43.951114],[-79.094533,43.951129],[-79.094576,43.951149],[-79.0946,43.951171],[-79.094605,43.951338],[-79.094599,43.951372],[-79.094559,43.951376],[-79.094498,43.951349],[-79.094446,43.951341],[-79.094348,43.951358],[-79.094292,43.95135],[-79.094245,43.95132],[-79.094137,43.951167],[-79.094093,43.951133],[-79.09404,43.951113],[-79.094008,43.95107],[-79.09396,43.951024],[-79.093909,43.950997],[-79.09362,43.950923],[-79.093417,43.950817],[-79.093275,43.950764],[-79.093204,43.950746],[-79.09312,43.950738],[-79.092979,43.950673],[-79.092441,43.950503],[-79.092269,43.950434],[-79.091598,43.950219],[-79.091189,43.950063],[-79.091052,43.949994],[-79.090864,43.949924],[-79.090734,43.949859],[-79.090734,43.949825],[-79.090773,43.949779],[-79.090859,43.949721],[-79.090923,43.949707],[-79.090998,43.949704],[-79.091076,43.949723],[-79.091122,43.949746],[-79.091156,43.94978],[-79.091327,43.949872],[-79.091492,43.949884],[-79.091575,43.949907],[-79.091639,43.949935],[-79.091685,43.949978],[-79.091909,43.950124],[-79.091978,43.950148],[-79.09222,43.950173],[-79.092344,43.950229],[-79.092457,43.950297],[-79.09258,43.950319],[-79.092706,43.950315],[-79.092829,43.950329],[-79.092986,43.950386],[-79.0931,43.950448],[-79.093382,43.950581],[-79.093735,43.950675],[-79.094194,43.950879],[-79.094218,43.950951],[-79.094274,43.950989],[-79.094332,43.950993],[-79.094379,43.951018],[-79.094408,43.951051]]]}},{"type":"Feature","properties":{"k":"bunker"},"geometry":{"type":"Polygon","coordinates":[[[-79.091988,43.949998],[-79.092007,43.95001],[-79.092001,43.950031],[-79.091986,43.950043],[-79.091924,43.950049],[-79.091848,43.950027],[-79.091818,43.949985],[-79.091797,43.949935],[-79.091807,43.94991],[-79.091829,43.949898],[-79.091898,43.949899],[-79.091923,43.949911],[-79.091941,43.949966],[-79.091988,43.949998]]]}},{"type":"Feature","properties":{"k":"tee"},"geometry":{"type":"Polygon","coordinates":[[[-79.09537,43.95145],[-79.09539,43.95146],[-79.095417,43.95146],[-79.095435,43.951448],[-79.095438,43.951429],[-79.095433,43.951408],[-79.095412,43.951389],[-79.095392,43.951375],[-79.095367,43.951371],[-79.095336,43.951381],[-79.095332,43.951389],[-79.095344,43.951429],[-79.09537,43.95145]]]}},{"type":"Feature","properties":{"k":"tee"},"geometry":{"type":"Polygon","coordinates":[[[-79.095307,43.951236],[-79.095319,43.951262],[-79.095318,43.951287],[-79.095304,43.951303],[-79.095268,43.951316],[-79.095237,43.951309],[-79.095191,43.951279],[-79.0951,43.951197],[-79.095064,43.951144],[-79.095072,43.951126],[-79.095092,43.951108],[-79.095116,43.951104],[-79.095186,43.951122],[-79.095258,43.951177],[-79.095307,43.951236]]]}},{"type":"Feature","properties":{"k":"tee"},"geometry":{"type":"Polygon","coordinates":[[[-79.094935,43.950894],[-79.094951,43.950921],[-79.094945,43.950956],[-79.09493,43.95097],[-79.094899,43.950975],[-79.094868,43.950971],[-79.094817,43.95095],[-79.094793,43.95091],[-79.094821,43.950872],[-79.094851,43.950867],[-79.094912,43.950878],[-79.094935,43.950894]]]}},{"type":"Feature","properties":{"k":"fairway"},"geometry":{"type":"Polygon","coordinates":[[[-79.093396,43.949418],[-79.093318,43.949381],[-79.093192,43.949271],[-79.093127,43.949229],[-79.093075,43.949226],[-79.093035,43.949235],[-79.093024,43.949272],[-79.093044,43.949306],[-79.093096,43.949352],[-79.09317,43.949394],[-79.093295,43.94951],[-79.093336,43.949565],[-79.09341,43.949625],[-79.093497,43.949759],[-79.093724,43.94997],[-79.093955,43.950226],[-79.094052,43.950247],[-79.094141,43.950234],[-79.094233,43.950195],[-79.094292,43.950145],[-79.094292,43.950083],[-79.094236,43.950004],[-79.093883,43.949673],[-79.093852,43.949626],[-79.093852,43.949583],[-79.0938,43.949549],[-79.093616,43.949471],[-79.093441,43.949436],[-79.093396,43.949418]]]}},{"type":"Feature","properties":{"k":"green"},"geometry":{"type":"Polygon","coordinates":[[[-79.092968,43.948358],[-79.092965,43.948419],[-79.092948,43.948462],[-79.092923,43.948487],[-79.092881,43.948502],[-79.092834,43.948497],[-79.092761,43.948439],[-79.09271,43.948378],[-79.09271,43.948335],[-79.092744,43.948278],[-79.092819,43.948248],[-79.092865,43.948251],[-79.092918,43.948263],[-79.092957,43.948281],[-79.092976,43.948317],[-79.092968,43.948358]]]}},{"type":"Feature","properties":{"k":"bunker"},"geometry":{"type":"Polygon","coordinates":[[[-79.093106,43.948455],[-79.093073,43.948461],[-79.093039,43.94845],[-79.09304,43.94842],[-79.093054,43.948408],[-79.093084,43.948404],[-79.093117,43.948422],[-79.09312,43.948441],[-79.093106,43.948455]]]}},{"type":"Feature","properties":{"k":"bunker"},"geometry":{"type":"Polygon","coordinates":[[[-79.093129,43.94855],[-79.093173,43.948572],[-79.093176,43.948602],[-79.093165,43.94861],[-79.093125,43.948608],[-79.093072,43.948582],[-79.093036,43.948556],[-79.093033,43.948532],[-79.093063,43.948515],[-79.093122,43.948504],[-79.093135,43.948523],[-79.093121,43.94854],[-79.093129,43.94855]]]}},{"type":"Feature","properties":{"k":"fairway"},"geometry":{"type":"Polygon","coordinates":[[[-79.092985,43.94857],[-79.092966,43.948496],[-79.092976,43.948446],[-79.092965,43.948419],[-79.092801,43.948474],[-79.092806,43.948498],[-79.092839,43.948516],[-79.09285,43.948546],[-79.092864,43.948716],[-79.092905,43.948805],[-79.09295,43.948852],[-79.092986,43.948876],[-79.093021,43.94889],[-79.093052,43.948889],[-79.093108,43.948856],[-79.09314,43.948816],[-79.093158,43.948759],[-79.093147,43.948723],[-79.0931,43.948654],[-79.093047,43.948622],[-79.092985,43.94857]]]}},{"type":"Feature","properties":{"k":"tee"},"geometry":{"type":"Polygon","coordinates":[[[-79.091686,43.947759],[-79.09172,43.947778],[-79.09173,43.947807],[-79.091725,43.947823],[-79.091696,43.947845],[-79.091653,43.94785],[-79.091633,43.947845],[-79.091604,43.947822],[-79.091601,43.947791],[-79.091625,43.947766],[-79.091644,43.947759],[-79.091686,43.947759]]]}},{"type":"Feature","properties":{"k":"tee"},"geometry":{"type":"Polygon","coordinates":[[[-79.091692,43.947637],[-79.091667,43.947679],[-79.091648,43.947686],[-79.091606,43.947688],[-79.091574,43.94767],[-79.091557,43.947608],[-79.09156,43.947578],[-79.091594,43.947537],[-79.091635,43.947535],[-79.091658,43.947544],[-79.091693,43.947593],[-79.091692,43.947637]]]}},{"type":"Feature","properties":{"k":"bunker"},"geometry":{"type":"Polygon","coordinates":[[[-79.090992,43.945938],[-79.091001,43.945959],[-79.090992,43.945979],[-79.090958,43.945992],[-79.090923,43.945993],[-79.090884,43.945959],[-79.090881,43.945948],[-79.090891,43.945938],[-79.09094,43.945909],[-79.090941,43.945865],[-79.090958,43.945845],[-79.091008,43.945848],[-79.091028,43.945868],[-79.091017,43.945915],[-79.09099,43.945931],[-79.090992,43.945938]]]}},{"type":"Feature","properties":{"k":"bunker"},"geometry":{"type":"Polygon","coordinates":[[[-79.091323,43.944719],[-79.091305,43.94474],[-79.091327,43.944763],[-79.091327,43.944775],[-79.091315,43.944787],[-79.091278,43.944787],[-79.091238,43.944757],[-79.091225,43.944722],[-79.091262,43.944689],[-79.091262,43.944624],[-79.091284,43.944595],[-79.091302,43.944585],[-79.091335,43.944597],[-79.091352,43.944625],[-79.091328,43.944665],[-79.091347,43.944701],[-79.091323,43.944719]]]}},{"type":"Feature","properties":{"k":"green"},"geometry":{"type":"Polygon","coordinates":[[[-79.091617,43.944623],[-79.091588,43.94476],[-79.091554,43.944777],[-79.09152,43.94478],[-79.09148,43.944778],[-79.091427,43.94476],[-79.091408,43.944706],[-79.091411,43.944602],[-79.091436,43.944522],[-79.091461,43.944501],[-79.091506,43.944496],[-79.091547,43.944508],[-79.091596,43.944528],[-79.091628,43.944551],[-79.091617,43.944623]]]}},{"type":"Feature","properties":{"k":"fairway"},"geometry":{"type":"Polygon","coordinates":[[[-79.091578,43.94455],[-79.091657,43.944556],[-79.091716,43.944587],[-79.091731,43.944635],[-79.091699,43.944743],[-79.091679,43.944868],[-79.091616,43.945002],[-79.091544,43.945123],[-79.091506,43.945225],[-79.091478,43.945448],[-79.091461,43.945705],[-79.091489,43.94577],[-79.091491,43.945972],[-79.091469,43.946082],[-79.091446,43.946146],[-79.091439,43.946225],[-79.091461,43.946291],[-79.09145,43.94635],[-79.091396,43.94641],[-79.091337,43.946418],[-79.091225,43.946414],[-79.091125,43.9464],[-79.09106,43.946375],[-79.091013,43.946336],[-79.090989,43.946289],[-79.090984,43.94623],[-79.09098,43.946095],[-79.091,43.946044],[-79.091065,43.945942],[-79.091088,43.945882],[-79.091078,43.945768],[-79.091099,43.9457],[-79.091088,43.945652],[-79.091081,43.945518],[-79.091135,43.945317],[-79.091181,43.945247],[-79.091193,43.945211],[-79.091182,43.945147],[-79.091149,43.945092],[-79.091163,43.945048],[-79.091243,43.944957],[-79.091268,43.944914],[-79.091316,43.94486],[-79.091392,43.944806],[-79.091399,43.944771],[-79.091392,43.944739],[-79.091408,43.944706],[-79.091578,43.94455]]]}},{"type":"Feature","properties":{"k":"green"},"geometry":{"type":"Polygon","coordinates":[[[-79.088648,43.948298],[-79.088672,43.948322],[-79.088729,43.94834],[-79.088782,43.948337],[-79.088827,43.948329],[-79.088875,43.948274],[-79.088887,43.948251],[-79.088874,43.94818],[-79.088811,43.948074],[-79.088787,43.948057],[-79.088728,43.948053],[-79.088701,43.948058],[-79.088683,43.94807],[-79.088665,43.948189],[-79.088637,43.948262],[-79.088648,43.948298]]]}},{"type":"Feature","properties":{"k":"bunker"},"geometry":{"type":"Polygon","coordinates":[[[-79.088881,43.948107],[-79.088893,43.948141],[-79.088908,43.948151],[-79.088945,43.948149],[-79.088963,43.948101],[-79.088946,43.948067],[-79.08896,43.948028],[-79.088955,43.948008],[-79.088943,43.947991],[-79.088901,43.947979],[-79.088877,43.947979],[-79.088857,43.947988],[-79.088839,43.948017],[-79.088844,43.948046],[-79.088889,43.948079],[-79.088881,43.948107]]]}},{"type":"Feature","properties":{"k":"bunker"},"geometry":{"type":"Polygon","coordinates":[[[-79.088603,43.948123],[-79.088618,43.948153],[-79.08862,43.948185],[-79.088617,43.948199],[-79.08859,43.948209],[-79.088567,43.948204],[-79.088538,43.948178],[-79.08854,43.948117],[-79.088519,43.948089],[-79.088533,43.948057],[-79.088549,43.948045],[-79.088605,43.948042],[-79.088636,43.948065],[-79.088633,43.948079],[-79.088601,43.948107],[-79.088603,43.948123]]]}},{"type":"Feature","properties":{"k":"bunker"},"geometry":{"type":"Polygon","coordinates":[[[-79.08899,43.946779],[-79.088964,43.946832],[-79.088923,43.946844],[-79.088886,43.94683],[-79.088878,43.9468],[-79.088921,43.94676],[-79.088936,43.946712],[-79.088952,43.946699],[-79.088978,43.946693],[-79.089002,43.946697],[-79.089037,43.946719],[-79.089036,43.946745],[-79.08899,43.946779]]]}},{"type":"Feature","properties":{"k":"fairway"},"geometry":{"type":"Polygon","coordinates":[[[-79.08883,43.947882],[-79.088801,43.947982],[-79.088797,43.948028],[-79.088811,43.948074],[-79.088677,43.948085],[-79.088653,43.948019],[-79.088624,43.947974],[-79.088573,43.947932],[-79.088507,43.947851],[-79.08853,43.947693],[-79.088516,43.947587],[-79.088472,43.94748],[-79.08847,43.947275],[-79.088487,43.947222],[-79.088487,43.947101],[-79.088449,43.947],[-79.088457,43.946955],[-79.088504,43.946862],[-79.088481,43.946759],[-79.088477,43.946677],[-79.088523,43.946557],[-79.088663,43.946397],[-79.08868,43.946346],[-79.088688,43.946231],[-79.088717,43.946067],[-79.088752,43.945998],[-79.088826,43.945939],[-79.088957,43.945895],[-79.089045,43.945877],[-79.089132,43.945897],[-79.089158,43.945916],[-79.089189,43.945955],[-79.089195,43.946021],[-79.089098,43.94612],[-79.089063,43.946185],[-79.089063,43.946245],[-79.088953,43.94649],[-79.088954,43.94654],[-79.088868,43.94672],[-79.088792,43.946853],[-79.088783,43.94701],[-79.088764,43.947094],[-79.088772,43.947214],[-79.088795,43.947451],[-79.088825,43.94762],[-79.088874,43.947716],[-79.08887,43.94779],[-79.08883,43.947882]]]}},{"type":"Feature","properties":{"k":"water"},"geometry":{"type":"Polygon","coordinates":[[[-79.093631,43.952519],[-79.093497,43.952482],[-79.093244,43.952314],[-79.093057,43.952229],[-79.092911,43.952192],[-79.092715,43.95216],[-79.092411,43.952077],[-79.092258,43.952044],[-79.092105,43.95199],[-79.091941,43.951899],[-79.091904,43.951848],[-79.091786,43.951766],[-79.091615,43.951687],[-79.091483,43.951616],[-79.091289,43.951486],[-79.091199,43.951366],[-79.091159,43.951285],[-79.091108,43.951122],[-79.091066,43.950854],[-79.091039,43.95079],[-79.090978,43.950714],[-79.090838,43.950648],[-79.090738,43.950615],[-79.090426,43.950474],[-79.090193,43.950406],[-79.089998,43.950377],[-79.089785,43.950333],[-79.089329,43.950296],[-79.088954,43.950307],[-79.088532,43.950351],[-79.088154,43.950403],[-79.088049,43.950406],[-79.087864,43.950387],[-79.087628,43.950387],[-79.087435,43.950419],[-79.086664,43.950669],[-79.086585,43.950687],[-79.086504,43.950693],[-79.086436,43.950669],[-79.08633,43.950603],[-79.086194,43.950573],[-79.085593,43.950519],[-79.085499,43.95058],[-79.086245,43.950644],[-79.086423,43.950733],[-79.086499,43.950751],[-79.086614,43.950752],[-79.087393,43.950493],[-79.087616,43.950446],[-79.087769,43.950436],[-79.088021,43.950458],[-79.088291,43.950452],[-79.088871,43.950367],[-79.089241,43.95035],[-79.08979,43.950394],[-79.090325,43.950501],[-79.090711,43.95066],[-79.090855,43.950697],[-79.090918,43.950735],[-79.090995,43.950826],[-79.091049,43.951141],[-79.09109,43.951289],[-79.091149,43.951417],[-79.091214,43.951491],[-79.091395,43.951625],[-79.091486,43.951676],[-79.091679,43.951756],[-79.091847,43.951901],[-79.09208,43.952021],[-79.092365,43.952115],[-79.092714,43.952201],[-79.093001,43.952248],[-79.093068,43.952273],[-79.093273,43.952387],[-79.093399,43.952482],[-79.093487,43.952525],[-79.093625,43.952568],[-79.093631,43.952519]]]}}]}