{"type":"FeatureCollection","features":[{"type":"Feature","properties":{"k":"hole","ref":"1","par":4,"hcp":13},"geometry":{"type":"LineString","coordinates":[[-122.639053,45.474018],[-122.638096,45.472353],[-122.638048,45.47159]]}},{"type":"Feature","properties":{"k":"hole","ref":"2","par":4,"hcp":3},"geometry":{"type":"LineString","coordinates":[[-122.638535,45.471563],[-122.637791,45.469361],[-122.637503,45.467962]]}},{"type":"Feature","properties":{"k":"hole","ref":"3","par":4,"hcp":11},"geometry":{"type":"LineString","coordinates":[[-122.636855,45.467887],[-122.6368,45.466391],[-122.635516,45.465455]]}},{"type":"Feature","properties":{"k":"hole","ref":"4","par":4,"hcp":9},"geometry":{"type":"LineString","coordinates":[[-122.635115,45.465626],[-122.632715,45.464683],[-122.63137,45.464936]]}},{"type":"Feature","properties":{"k":"hole","ref":"5","par":3,"hcp":17},"geometry":{"type":"LineString","coordinates":[[-122.631391,45.46541],[-122.633708,45.465776]]}},{"type":"Feature","properties":{"k":"hole","ref":"6","par":5,"hcp":1},"geometry":{"type":"LineString","coordinates":[[-122.634238,45.465601],[-122.636071,45.466881],[-122.636148,45.469163]]}},{"type":"Feature","properties":{"k":"hole","ref":"7","par":4,"hcp":5},"geometry":{"type":"LineString","coordinates":[[-122.636817,45.468164],[-122.637154,45.470428],[-122.637506,45.471482]]}},{"type":"Feature","properties":{"k":"hole","ref":"8","par":3,"hcp":15},"geometry":{"type":"LineString","coordinates":[[-122.637064,45.471657],[-122.63636,45.470102]]}},{"type":"Feature","properties":{"k":"hole","ref":"9","par":5,"hcp":7},"geometry":{"type":"LineString","coordinates":[[-122.635787,45.469896],[-122.636371,45.472024],[-122.637275,45.473792]]}},{"type":"Feature","properties":{"k":"hole","ref":"10","par":4},"geometry":{"type":"LineString","coordinates":[[-122.638772,45.47507],[-122.636388,45.474771],[-122.635125,45.474713]]}},{"type":"Feature","properties":{"k":"hole","ref":"11","par":5},"geometry":{"type":"LineString","coordinates":[[-122.63466,45.475199],[-122.635229,45.475197],[-122.636929,45.475286],[-122.637508,45.475648],[-122.637986,45.477357]]}},{"type":"Feature","properties":{"k":"hole","ref":"12","par":3},"geometry":{"type":"LineString","coordinates":[[-122.637566,45.477501],[-122.636359,45.476436]]}},{"type":"Feature","properties":{"k":"hole","ref":"13","par":5},"geometry":{"type":"LineString","coordinates":[[-122.636145,45.475693],[-122.635006,45.477346],[-122.635236,45.479159]]}},{"type":"Feature","properties":{"k":"hole","ref":"14","par":4},"geometry":{"type":"LineString","coordinates":[[-122.635827,45.480902],[-122.63693,45.481133],[-122.640107,45.481378]]}},{"type":"Feature","properties":{"k":"hole","ref":"15","par":4},"geometry":{"type":"LineString","coordinates":[[-122.640743,45.4815],[-122.640123,45.478388]]}},{"type":"Feature","properties":{"k":"hole","ref":"16","par":4},"geometry":{"type":"LineString","coordinates":[[-122.639753,45.478213],[-122.639541,45.480137],[-122.637514,45.480543]]}},{"type":"Feature","properties":{"k":"hole","ref":"17","par":3},"geometry":{"type":"LineString","coordinates":[[-122.636828,45.480756],[-122.637519,45.47949]]}},{"type":"Feature","properties":{"k":"hole","ref":"18","par":4},"geometry":{"type":"LineString","coordinates":[[-122.638592,45.478788],[-122.638635,45.477679],[-122.638458,45.475585]]}},{"type":"Feature","properties":{"k":"water"},"geometry":{"type":"Polygon","coordinates":[[[-122.639349,45.479567],[-122.639155,45.479728],[-122.639112,45.47978],[-122.638976,45.479904],[-122.638947,45.479946],[-122.638805,45.480007],[-122.638761,45.480015],[-122.638662,45.479973],[-122.63861,45.479987],[-122.638555,45.479992],[-122.638514,45.479965],[-122.638492,45.479931],[-122.638468,45.479858],[-122.638417,45.479845],[-122.638381,45.479825],[-122.638364,45.479789],[-122.638372,45.479746],[-122.638435,45.479689],[-122.638499,45.47959],[-122.638553,45.479546],[-122.638821,45.479428],[-122.638968,45.479247],[-122.639057,45.479089],[-122.639089,45.479069],[-122.639126,45.479058],[-122.63918,45.479061],[-122.639228,45.479076],[-122.639282,45.479123],[-122.639368,45.479166],[-122.639432,45.479188],[-122.639461,45.479215],[-122.639467,45.47925],[-122.639407,45.479481],[-122.639349,45.479567]]]}},{"type":"Feature","properties":{"k":"stream"},"geometry":{"type":"LineString","coordinates":[[-122.639228,45.479076],[-122.639204,45.479014],[-122.639196,45.478951],[-122.639256,45.478777],[-122.639248,45.478671],[-122.639312,45.478424],[-122.639357,45.478345],[-122.639443,45.478134],[-122.639515,45.478019],[-122.639577,45.477948],[-122.63972,45.477807],[-122.639764,45.47773],[-122.639792,45.47765],[-122.6399,45.477474],[-122.64009,45.477316]]}},{"type":"Feature","properties":{"k":"stream"},"geometry":{"type":"LineString","coordinates":[[-122.638364,45.479789],[-122.638145,45.479909],[-122.63808,45.479975],[-122.638048,45.479987],[-122.637952,45.479987],[-122.637786,45.479968]]}},{"type":"Feature","properties":{"k":"path"},"geometry":{"type":"LineString","coordinates":[[-122.638868,45.474554],[-122.638862,45.474462]]}},{"type":"Feature","properties":{"k":"path"},"geometry":{"type":"LineString","coordinates":[[-122.636973,45.467607],[-122.637018,45.467901],[-122.637031,45.46792],[-122.637144,45.467985],[-122.637203,45.468036],[-122.637297,45.468202],[-122.6373,45.468268],[-122.637278,45.468505],[-122.637321,45.468708],[-122.637372,45.468856],[-122.637375,45.469137],[-122.637394,45.469187],[-122.637503,45.469347],[-122.637565,45.469468],[-122.637605,45.469601],[-122.637664,45.469859],[-122.637667,45.469908],[-122.637646,45.469994],[-122.637659,45.470179],[-122.637672,45.470235],[-122.637911,45.470611],[-122.638021,45.470734],[-122.638171,45.470856],[-122.638214,45.470907],[-122.638249,45.471002],[-122.638279,45.471134],[-122.638287,45.471272],[-122.63834,45.471444],[-122.638375,45.471618],[-122.638303,45.471836],[-122.638415,45.472267],[-122.638501,45.472688],[-122.638571,45.472814],[-122.638694,45.473077],[-122.638716,45.473158],[-122.638694,45.473331],[-122.638692,45.473436],[-122.638727,45.473619],[-122.638823,45.473865],[-122.638858,45.473999],[-122.638839,45.474036],[-122.638702,45.474098],[-122.638097,45.474185],[-122.637934,45.474198],[-122.637817,45.474198],[-122.637731,45.474179],[-122.637681,45.474157],[-122.637624,45.474095],[-122.637514,45.473809],[-122.637517,45.473679],[-122.637495,45.473649],[-122.637359,45.473559],[-122.63731,45.473504],[-122.637241,45.473384],[-122.637216,45.473209],[-122.637179,45.473107],[-122.637117,45.473019],[-122.63697,45.472709],[-122.636916,45.472423],[-122.636862,45.47233],[-122.636806,45.47227],[-122.63675,45.472186],[-122.636712,45.47195],[-122.636669,45.471858],[-122.636573,45.471774],[-122.636452,45.471599],[-122.636358,45.471405],[-122.636326,45.471256],[-122.636243,45.471127],[-122.63616,45.471051],[-122.636071,45.470939],[-122.636012,45.470799],[-122.636004,45.470668],[-122.635956,45.470389],[-122.635854,45.470066],[-122.635851,45.470026],[-122.635883,45.469975],[-122.635953,45.469975],[-122.636055,45.469959],[-122.636095,45.469945],[-122.636176,45.4699],[-122.636248,45.469881],[-122.636369,45.469874],[-122.636498,45.469908],[-122.636645,45.469977],[-122.636699,45.470041],[-122.636787,45.470186],[-122.636836,45.470318],[-122.636841,45.470416],[-122.636822,45.470598],[-122.636857,45.470651],[-122.636913,45.470703],[-122.636945,45.470764],[-122.636978,45.470931],[-122.637037,45.471358],[-122.637157,45.471618],[-122.637211,45.471706],[-122.637581,45.472054],[-122.637605,45.472092],[-122.638083,45.47344],[-122.638198,45.473619],[-122.638271,45.473773],[-122.638279,45.473837],[-122.638308,45.473914],[-122.638324,45.474019],[-122.63836,45.47415]]}},{"type":"Feature","properties":{"k":"path"},"geometry":{"type":"LineString","coordinates":[[-122.636567,45.46994],[-122.636583,45.469774],[-122.636559,45.469705],[-122.636533,45.469533],[-122.636522,45.468967],[-122.636535,45.468858],[-122.636527,45.468608],[-122.636492,45.468418],[-122.636608,45.4682],[-122.636581,45.468173],[-122.636549,45.468168],[-122.636514,45.468134],[-122.636495,45.467835],[-122.636503,45.467788],[-122.636524,45.467743],[-122.636567,45.467688],[-122.636634,45.467637],[-122.636685,45.467619],[-122.636758,45.467609],[-122.636973,45.467607]]}},{"type":"Feature","properties":{"k":"path"},"geometry":{"type":"LineString","coordinates":[[-122.63877,45.47407],[-122.638833,45.474175]]}},{"type":"Feature","properties":{"k":"path"},"geometry":{"type":"LineString","coordinates":[[-122.636973,45.467607],[-122.63712,45.467604],[-122.637176,45.467594],[-122.637273,45.467555],[-122.637305,45.467528],[-122.63738,45.46743],[-122.637394,45.467382],[-122.637482,45.466838],[-122.63749,45.466719],[-122.637394,45.466313],[-122.637321,45.465869],[-122.637281,45.465775]]}},{"type":"Feature","properties":{"k":"path"},"geometry":{"type":"LineString","coordinates":[[-122.637412,45.480862],[-122.637337,45.480867],[-122.63723,45.480892]]}},{"type":"Feature","properties":{"k":"path"},"geometry":{"type":"LineString","coordinates":[[-122.637297,45.480807],[-122.637412,45.480862],[-122.637635,45.480897],[-122.637871,45.480916],[-122.638061,45.480922],[-122.63822,45.480894],[-122.638362,45.480815],[-122.638469,45.480786],[-122.638643,45.48076],[-122.638836,45.480717],[-122.638976,45.480709],[-122.639241,45.480728]]}},{"type":"Feature","properties":{"k":"path"},"geometry":{"type":"LineString","coordinates":[[-122.639773,45.478594],[-122.639781,45.478434],[-122.639795,45.478414],[-122.639818,45.478401],[-122.639859,45.478409],[-122.639875,45.478432],[-122.639857,45.478484],[-122.639783,45.478571],[-122.639764,45.478614],[-122.639762,45.478836],[-122.639829,45.479041],[-122.639877,45.479131],[-122.639958,45.47934],[-122.639968,45.479412],[-122.639968,45.479714],[-122.640011,45.47998],[-122.640015,45.480149],[-122.639906,45.48026],[-122.639815,45.480326],[-122.639579,45.480421],[-122.639521,45.480472],[-122.639507,45.480506]]}},{"type":"Feature","properties":{"k":"path"},"geometry":{"type":"LineString","coordinates":[[-122.636172,45.47498],[-122.636135,45.475131],[-122.636084,45.475492],[-122.636038,45.475543],[-122.635897,45.475588],[-122.635634,45.475652]]}},{"type":"Feature","properties":{"k":"path"},"geometry":{"type":"LineString","coordinates":[[-122.640078,45.480715],[-122.640097,45.480837],[-122.640164,45.480952],[-122.640554,45.481306],[-122.640578,45.481347],[-122.640585,45.481389],[-122.640579,45.48142],[-122.640544,45.481445]]}},{"type":"Feature","properties":{"k":"path"},"geometry":{"type":"LineString","coordinates":[[-122.637949,45.475354],[-122.637919,45.475133],[-122.637852,45.474926],[-122.637766,45.474821],[-122.637777,45.474761],[-122.637852,45.474699]]}},{"type":"Feature","properties":{"k":"path"},"geometry":{"type":"LineString","coordinates":[[-122.638305,45.475385],[-122.638209,45.4754],[-122.638155,45.475419],[-122.638104,45.475456],[-122.638038,45.475553],[-122.637992,45.475638],[-122.637988,45.475662],[-122.638169,45.476206],[-122.638179,45.476457],[-122.638259,45.476956],[-122.638277,45.477017],[-122.638325,45.477115],[-122.63833,45.477221],[-122.638368,45.477303],[-122.638379,45.477348],[-122.638397,45.477624],[-122.638448,45.477773],[-122.638422,45.477925],[-122.638437,45.478274],[-122.638464,45.478563],[-122.638461,45.478665],[-122.638442,45.478761],[-122.638383,45.478829],[-122.638182,45.478957],[-122.637978,45.479216],[-122.637962,45.479299],[-122.637989,45.479442],[-122.638053,45.479686],[-122.638037,45.479761],[-122.638025,45.479934]]}},{"type":"Feature","properties":{"k":"path"},"geometry":{"type":"LineString","coordinates":[[-122.638158,45.478986],[-122.638209,45.478972],[-122.638273,45.478964],[-122.638445,45.478994],[-122.638544,45.478992],[-122.638651,45.47896],[-122.638692,45.47894],[-122.638823,45.478778],[-122.63903,45.478424],[-122.639123,45.478294],[-122.639496,45.477828],[-122.639609,45.477711],[-122.63977,45.477476],[-122.639875,45.477345],[-122.640029,45.477176],[-122.640056,45.477118],[-122.640065,45.47704],[-122.639701,45.475469],[-122.639633,45.475316],[-122.639524,45.475255]]}},{"type":"Feature","properties":{"k":"path"},"geometry":{"type":"LineString","coordinates":[[-122.638868,45.474554],[-122.638875,45.474738],[-122.63889,45.474847],[-122.63892,45.474904],[-122.639014,45.474994],[-122.639056,45.475065],[-122.639075,45.475159],[-122.639072,45.475191],[-122.639048,45.47521],[-122.639011,45.475219],[-122.638952,45.475219],[-122.63859,45.475167],[-122.638491,45.475167],[-122.638434,45.475184],[-122.638233,45.475276],[-122.638088,45.475371],[-122.637949,45.475354],[-122.637525,45.475244],[-122.637281,45.475135],[-122.637136,45.475088],[-122.636967,45.475046],[-122.636664,45.474988],[-122.636503,45.474971],[-122.636353,45.474969],[-122.635889,45.47499],[-122.635647,45.475026],[-122.635478,45.475062],[-122.635076,45.475082]]}},{"type":"Feature","properties":{"k":"clubhouse","name":"Eastmoreland Golf Course"},"geometry":{"type":"Polygon","coordinates":[[[-122.639349,45.474997],[-122.639126,45.475028],[-122.639172,45.475214],[-122.639137,45.475248],[-122.638941,45.475276],[-122.638963,45.475415],[-122.639244,45.475394],[-122.639298,45.47534],[-122.639429,45.475323],[-122.639349,45.474997]]]}},{"type":"Feature","properties":{"k":"path"},"geometry":{"type":"LineString","coordinates":[[-122.638088,45.475371],[-122.638367,45.475385],[-122.638609,45.475368],[-122.638716,45.475351]]}},{"type":"Feature","properties":{"k":"path"},"geometry":{"type":"LineString","coordinates":[[-122.638383,45.477441],[-122.638286,45.477536],[-122.638143,45.477615],[-122.638069,45.477623],[-122.638001,45.477613],[-122.637828,45.477578],[-122.637737,45.477546],[-122.637624,45.477343],[-122.63763,45.477262],[-122.637551,45.477017],[-122.63734,45.47658],[-122.637249,45.47647],[-122.637187,45.476423],[-122.637104,45.476406]]}},{"type":"Feature","properties":{"k":"path"},"geometry":{"type":"LineString","coordinates":[[-122.637652,45.474125],[-122.637614,45.474137],[-122.637409,45.474087],[-122.637289,45.474085],[-122.637228,45.474098],[-122.637186,45.47412],[-122.637073,45.474269],[-122.637071,45.474368]]}},{"type":"Feature","properties":{"k":"stream"},"geometry":{"type":"LineString","coordinates":[[-122.639377,45.480688],[-122.639346,45.480578],[-122.639309,45.480494],[-122.639156,45.480329],[-122.639046,45.480173],[-122.639,45.480101],[-122.638947,45.479946]]}},{"type":"Feature","properties":{"k":"stream"},"geometry":{"type":"LineString","coordinates":[[-122.637539,45.482003],[-122.638024,45.481969],[-122.638169,45.481971],[-122.638327,45.481961],[-122.638531,45.481942],[-122.638657,45.48191],[-122.638713,45.481878],[-122.638727,45.481828],[-122.638727,45.481773],[-122.638831,45.481599],[-122.639072,45.481362],[-122.639098,45.48132],[-122.639092,45.481248],[-122.639102,45.481169],[-122.639218,45.480925],[-122.639296,45.480849],[-122.639355,45.480771]]}},{"type":"Feature","properties":{"k":"stream"},"geometry":{"type":"LineString","coordinates":[[-122.639355,45.480771],[-122.639372,45.480733],[-122.639377,45.480688]]}},{"type":"Feature","properties":{"k":"bunker"},"geometry":{"type":"Polygon","coordinates":[[[-122.63534,45.474829],[-122.635321,45.474849],[-122.635289,45.474857],[-122.635272,45.474851],[-122.63526,45.474834],[-122.635273,45.474809],[-122.635306,45.474798],[-122.635335,45.47481],[-122.63534,45.474829]]]}},{"type":"Feature","properties":{"k":"bunker"},"geometry":{"type":"Polygon","coordinates":[[[-122.638685,45.475671],[-122.638661,45.475704],[-122.63865,45.475758],[-122.638606,45.475769],[-122.638567,45.475762],[-122.638559,45.475742],[-122.6386,45.475685],[-122.638634,45.475662],[-122.638616,45.475626],[-122.638612,45.475591],[-122.638628,45.47557],[-122.638655,45.475558],[-122.638679,45.475561],[-122.638698,45.475584],[-122.638678,45.475622],[-122.638685,45.475671]]]}},{"type":"Feature","properties":{"k":"bunker"},"geometry":{"type":"Polygon","coordinates":[[[-122.636478,45.476572],[-122.636503,45.476579],[-122.636523,45.476602],[-122.636521,45.476622],[-122.636509,45.476629],[-122.63649,45.476633],[-122.636436,45.476624],[-122.636385,45.476654],[-122.636364,45.476657],[-122.636305,45.47664],[-122.636293,45.47663],[-122.636289,45.476611],[-122.636309,45.476592],[-122.636365,45.476595],[-122.636392,45.476586],[-122.636431,45.476587],[-122.636478,45.476572]]]}},{"type":"Feature","properties":{"k":"bunker"},"geometry":{"type":"Polygon","coordinates":[[[-122.63785,45.477262],[-122.637818,45.477311],[-122.637787,45.477319],[-122.63777,45.477315],[-122.637756,45.477302],[-122.637733,45.477263],[-122.637731,45.477237],[-122.637757,45.477219],[-122.637804,45.477213],[-122.637848,45.477237],[-122.637855,45.477248],[-122.63785,45.477262]]]}},{"type":"Feature","properties":{"k":"bunker"},"geometry":{"type":"Polygon","coordinates":[[[-122.637846,45.473703],[-122.637853,45.473682],[-122.637813,45.473668],[-122.637781,45.473681],[-122.637714,45.473681],[-122.637704,45.473684],[-122.637698,45.473706],[-122.637721,45.47372],[-122.637748,45.473715],[-122.637818,45.473717],[-122.637846,45.473703]]]}},{"type":"Feature","properties":{"k":"bunker"},"geometry":{"type":"Polygon","coordinates":[[[-122.637183,45.473737],[-122.637168,45.473752],[-122.63713,45.473762],[-122.637109,45.473808],[-122.637074,45.473814],[-122.637067,45.47375],[-122.63701,45.473729],[-122.636984,45.473698],[-122.636995,45.473659],[-122.637015,45.473655],[-122.637029,45.473662],[-122.637062,45.473702],[-122.637081,45.473712],[-122.637129,45.473706],[-122.637169,45.473711],[-122.637183,45.473737]]]}},{"type":"Feature","properties":{"k":"bunker"},"geometry":{"type":"Polygon","coordinates":[[[-122.636922,45.473628],[-122.636904,45.47366],[-122.63687,45.473666],[-122.636839,45.473645],[-122.636833,45.473615],[-122.636867,45.473598],[-122.6369,45.473596],[-122.636914,45.473604],[-122.636922,45.473628]]]}},{"type":"Feature","properties":{"k":"bunker"},"geometry":{"type":"Polygon","coordinates":[[[-122.637388,45.473643],[-122.637361,45.473659],[-122.637324,45.473654],[-122.637304,45.473637],[-122.637309,45.473609],[-122.637328,45.473596],[-122.637343,45.473596],[-122.637377,45.473609],[-122.637392,45.47363],[-122.637388,45.473643]]]}},{"type":"Feature","properties":{"k":"bunker"},"geometry":{"type":"Polygon","coordinates":[[[-122.636994,45.473784],[-122.636993,45.473804],[-122.636976,45.473819],[-122.636938,45.473813],[-122.636927,45.473788],[-122.636937,45.473749],[-122.636953,45.473744],[-122.636967,45.473748],[-122.636994,45.473784]]]}},{"type":"Feature","properties":{"k":"bunker"},"geometry":{"type":"Polygon","coordinates":[[[-122.636199,45.470305],[-122.636178,45.470328],[-122.636153,45.47034],[-122.636127,45.470338],[-122.636097,45.470317],[-122.636091,45.470288],[-122.636123,45.47027],[-122.636095,45.47024],[-122.636111,45.470211],[-122.636149,45.470205],[-122.636188,45.470221],[-122.636214,45.470275],[-122.636199,45.470305]]]}},{"type":"Feature","properties":{"k":"bunker"},"geometry":{"type":"Polygon","coordinates":[[[-122.636362,45.469264],[-122.636341,45.469302],[-122.63631,45.469314],[-122.636276,45.469314],[-122.636242,45.469291],[-122.63625,45.469268],[-122.636292,45.469239],[-122.636325,45.469175],[-122.636371,45.46915],[-122.636428,45.469171],[-122.636436,45.469191],[-122.636362,45.469264]]]}},{"type":"Feature","properties":{"k":"bunker"},"geometry":{"type":"Polygon","coordinates":[[[-122.635999,45.468999],[-122.635977,45.469021],[-122.635943,45.469019],[-122.63592,45.469003],[-122.635926,45.46897],[-122.635948,45.468955],[-122.635983,45.468957],[-122.635993,45.468964],[-122.635999,45.468999]]]}},{"type":"Feature","properties":{"k":"bunker"},"geometry":{"type":"Polygon","coordinates":[[[-122.635985,45.468857],[-122.635981,45.46888],[-122.635959,45.468896],[-122.635932,45.468895],[-122.635908,45.468868],[-122.63592,45.468836],[-122.635944,45.468829],[-122.635967,45.468835],[-122.635985,45.468857]]]}},{"type":"Feature","properties":{"k":"bunker"},"geometry":{"type":"Polygon","coordinates":[[[-122.63599,45.468682],[-122.635969,45.468724],[-122.635945,45.468727],[-122.635933,45.468721],[-122.635916,45.468686],[-122.63593,45.468651],[-122.635966,45.468648],[-122.63599,45.468682]]]}},{"type":"Feature","properties":{"k":"bunker"},"geometry":{"type":"Polygon","coordinates":[[[-122.637761,45.468009],[-122.637782,45.468073],[-122.637757,45.468104],[-122.637704,45.468087],[-122.637687,45.468057],[-122.637694,45.468038],[-122.637721,45.468017],[-122.637738,45.467949],[-122.637729,45.46792],[-122.637689,45.467879],[-122.637688,45.467856],[-122.637715,45.467845],[-122.63774,45.467851],[-122.637756,45.467869],[-122.637758,45.467916],[-122.63777,45.467942],[-122.637761,45.468009]]]}},{"type":"Feature","properties":{"k":"bunker"},"geometry":{"type":"Polygon","coordinates":[[[-122.635998,45.465463],[-122.635996,45.465488],[-122.635984,45.465498],[-122.635951,45.465497],[-122.635939,45.465486],[-122.635932,45.465463],[-122.635949,45.46544],[-122.635981,45.465446],[-122.635998,45.465463]]]}},{"type":"Feature","properties":{"k":"bunker"},"geometry":{"type":"Polygon","coordinates":[[[-122.635899,45.46544],[-122.635903,45.465461],[-122.635889,45.465498],[-122.635863,45.465506],[-122.635843,45.465502],[-122.635826,45.465488],[-122.635824,45.465467],[-122.635871,45.465433],[-122.635899,45.46544]]]}},{"type":"Feature","properties":{"k":"bunker"},"geometry":{"type":"Polygon","coordinates":[[[-122.63546,45.465612],[-122.635473,45.465629],[-122.635466,45.465645],[-122.635445,45.465652],[-122.635415,45.465648],[-122.63537,45.465598],[-122.635306,45.465576],[-122.635297,45.465559],[-122.635301,45.465542],[-122.635322,45.465531],[-122.635347,45.465532],[-122.63546,45.465612]]]}},{"type":"Feature","properties":{"k":"bunker"},"geometry":{"type":"Polygon","coordinates":[[[-122.633703,45.465558],[-122.633764,45.465568],[-122.633807,45.465587],[-122.633815,45.465599],[-122.633802,45.465622],[-122.633772,45.465626],[-122.633703,45.465609],[-122.63365,45.465627],[-122.633606,45.465628],[-122.633584,45.465625],[-122.633562,45.465607],[-122.633563,45.465573],[-122.633601,45.465547],[-122.63365,45.465547],[-122.633703,45.465558]]]}},{"type":"Feature","properties":{"k":"bunker"},"geometry":{"type":"Polygon","coordinates":[[[-122.637803,45.471328],[-122.637811,45.47135],[-122.637805,45.471359],[-122.637791,45.471367],[-122.637759,45.471356],[-122.637747,45.471336],[-122.637752,45.471318],[-122.637764,45.471314],[-122.637803,45.471328]]]}},{"type":"Feature","properties":{"k":"bunker"},"geometry":{"type":"Polygon","coordinates":[[[-122.637704,45.471384],[-122.637704,45.471398],[-122.637685,45.471416],[-122.637653,45.471413],[-122.637637,45.47139],[-122.637644,45.471367],[-122.637665,45.471355],[-122.637692,45.471364],[-122.637704,45.471384]]]}},{"type":"Feature","properties":{"k":"bunker"},"geometry":{"type":"Polygon","coordinates":[[[-122.637692,45.471309],[-122.637654,45.47132],[-122.637618,45.471301],[-122.637615,45.471273],[-122.63764,45.471226],[-122.63768,45.471226],[-122.637701,45.471232],[-122.637711,45.471243],[-122.637719,45.47127],[-122.637692,45.471309]]]}},{"type":"Feature","properties":{"k":"bunker"},"geometry":{"type":"Polygon","coordinates":[[[-122.637319,45.47134],[-122.637296,45.471365],[-122.637255,45.471367],[-122.637231,45.471341],[-122.637233,45.471317],[-122.63726,45.471302],[-122.6373,45.471305],[-122.637319,45.47132],[-122.637319,45.47134]]]}},{"type":"Feature","properties":{"k":"green"},"geometry":{"type":"Polygon","coordinates":[[[-122.636533,45.476516],[-122.63656,45.476481],[-122.636565,45.47645],[-122.63656,45.47642],[-122.636541,45.476392],[-122.636382,45.476298],[-122.636342,45.476287],[-122.636294,45.476294],[-122.636235,45.476319],[-122.636165,45.476368],[-122.636141,45.476422],[-122.636152,45.476477],[-122.636179,45.476501],[-122.63624,45.476533],[-122.636348,45.476555],[-122.636425,45.476558],[-122.636495,45.476541],[-122.636533,45.476516]]]}},{"type":"Feature","properties":{"k":"bunker"},"geometry":{"type":"Polygon","coordinates":[[[-122.640132,45.481247],[-122.640168,45.481262],[-122.640203,45.481263],[-122.640225,45.481249],[-122.640226,45.481228],[-122.640202,45.481209],[-122.640165,45.481196],[-122.640139,45.481194],[-122.640082,45.481207],[-122.640026,45.481184],[-122.639959,45.481192],[-122.639923,45.481211],[-122.639925,45.48124],[-122.639952,45.481259],[-122.639998,45.481254],[-122.640039,45.48126],[-122.640094,45.481243],[-122.640132,45.481247]]]}},{"type":"Feature","properties":{"k":"bunker"},"geometry":{"type":"Polygon","coordinates":[[[-122.638295,45.47202],[-122.638291,45.471967],[-122.638251,45.471941],[-122.638216,45.47194],[-122.638182,45.471977],[-122.638181,45.472013],[-122.638201,45.472053],[-122.638173,45.47209],[-122.638184,45.472119],[-122.638219,45.472146],[-122.638261,45.472147],[-122.638283,45.472125],[-122.638278,45.472102],[-122.638253,45.472075],[-122.638295,45.47202]]]}},{"type":"Feature","properties":{"k":"range"},"geometry":{"type":"Polygon","coordinates":[[[-122.63949,45.475437],[-122.638867,45.475503],[-122.639203,45.476869],[-122.639313,45.477267],[-122.639428,45.477331],[-122.639567,45.477376],[-122.639761,45.477356],[-122.640023,45.477153],[-122.639677,45.475881],[-122.639562,45.475832],[-122.63949,45.475437]]]}},{"type":"Feature","properties":{"k":"bunker"},"geometry":{"type":"Polygon","coordinates":[[[-122.640131,45.481488],[-122.640185,45.481498],[-122.640197,45.48151],[-122.640197,45.481524],[-122.640163,45.481544],[-122.640143,45.481546],[-122.64011,45.481537],[-122.640057,45.481544],[-122.64002,45.481534],[-122.639959,45.481543],[-122.639922,45.481528],[-122.639896,45.481491],[-122.639893,45.48147],[-122.639905,45.48145],[-122.639945,45.481437],[-122.639967,45.481442],[-122.639991,45.481475],[-122.640052,45.481496],[-122.640131,45.481488]]]}},{"type":"Feature","properties":{"k":"bunker"},"geometry":{"type":"Polygon","coordinates":[[[-122.637755,45.480417],[-122.637788,45.480426],[-122.637792,45.480459],[-122.637768,45.480477],[-122.637717,45.480479],[-122.637682,45.480459],[-122.637613,45.480444],[-122.637589,45.4804],[-122.637608,45.480368],[-122.637645,45.480361],[-122.637666,45.480364],[-122.637705,45.480409],[-122.637755,45.480417]]]}},{"type":"Feature","properties":{"k":"green"},"geometry":{"type":"Polygon","coordinates":[[[-122.637625,45.471455],[-122.63765,45.471477],[-122.637662,45.471513],[-122.637644,45.471557],[-122.637604,45.471587],[-122.637557,45.4716],[-122.637511,45.471603],[-122.637452,45.471595],[-122.637421,45.471579],[-122.637392,45.471542],[-122.637378,45.471465],[-122.637397,45.47141],[-122.63744,45.471368],[-122.637499,45.471354],[-122.637533,45.47136],[-122.637561,45.471384],[-122.63758,45.471427],[-122.637625,45.471455]]]}},{"type":"Feature","properties":{"k":"green"},"geometry":{"type":"Polygon","coordinates":[[[-122.636089,45.46929],[-122.636137,45.469285],[-122.63618,45.469269],[-122.63621,45.469248],[-122.636279,45.469173],[-122.636285,45.469136],[-122.636265,45.469089],[-122.636235,45.469064],[-122.636191,45.469048],[-122.636154,45.469047],[-122.636027,45.469083],[-122.635999,45.469097],[-122.63598,45.469118],[-122.635993,45.469171],[-122.635991,45.469214],[-122.636007,45.469256],[-122.636043,45.469283],[-122.636089,45.46929]]]}},{"type":"Feature","properties":{"k":"green"},"geometry":{"type":"Polygon","coordinates":[[[-122.637634,45.468019],[-122.63766,45.46798],[-122.637663,45.467944],[-122.637615,45.467888],[-122.63758,45.467862],[-122.637512,45.467848],[-122.63744,45.467855],[-122.637361,45.467897],[-122.637342,45.46792],[-122.637353,45.467979],[-122.637384,45.468015],[-122.637397,45.468047],[-122.637432,45.46807],[-122.637496,45.468083],[-122.637572,45.468077],[-122.637608,45.468058],[-122.637634,45.468019]]]}},{"type":"Feature","properties":{"k":"green"},"geometry":{"type":"Polygon","coordinates":[[[-122.635708,45.465454],[-122.635704,45.465426],[-122.63569,45.46541],[-122.63566,45.465397],[-122.635492,45.465365],[-122.635414,45.465373],[-122.635384,45.465385],[-122.635317,45.465429],[-122.635304,45.465461],[-122.63532,45.465492],[-122.635339,45.465502],[-122.635413,45.465522],[-122.63549,45.465567],[-122.635541,45.465572],[-122.635592,45.465565],[-122.635663,45.465534],[-122.635693,45.4655],[-122.635708,45.465454]]]}},{"type":"Feature","properties":{"k":"green"},"geometry":{"type":"Polygon","coordinates":[[[-122.63381,45.465864],[-122.633838,45.465856],[-122.633855,45.465842],[-122.633882,45.465795],[-122.633881,45.465756],[-122.633841,45.465708],[-122.633657,45.465691],[-122.63359,45.465705],[-122.633545,45.465737],[-122.633528,45.465771],[-122.633528,45.465798],[-122.633541,45.46583],[-122.633574,45.465857],[-122.633598,45.465864],[-122.633674,45.465858],[-122.633769,45.465868],[-122.63381,45.465864]]]}},{"type":"Feature","properties":{"k":"green"},"geometry":{"type":"Polygon","coordinates":[[[-122.631215,45.464909],[-122.631133,45.464926],[-122.631109,45.464956],[-122.631111,45.464982],[-122.63113,45.465011],[-122.631177,45.46504],[-122.631209,45.465046],[-122.63125,45.46504],[-122.63129,45.46502],[-122.631588,45.464931],[-122.631622,45.464908],[-122.631634,45.46488],[-122.631611,45.46484],[-122.631569,45.464826],[-122.63154,45.464824],[-122.63147,45.464838],[-122.631356,45.464888],[-122.631215,45.464909]]]}},{"type":"Feature","properties":{"k":"bunker"},"geometry":{"type":"Polygon","coordinates":[[[-122.631506,45.464795],[-122.631547,45.464795],[-122.631569,45.464786],[-122.631576,45.464771],[-122.631556,45.464741],[-122.631561,45.464712],[-122.63154,45.464698],[-122.631511,45.464701],[-122.631449,45.464738],[-122.631388,45.464733],[-122.631357,45.464752],[-122.631362,45.464779],[-122.63138,45.464789],[-122.631406,45.464794],[-122.631447,45.464787],[-122.631506,45.464795]]]}},{"type":"Feature","properties":{"k":"green"},"geometry":{"type":"Polygon","coordinates":[[[-122.637384,45.473766],[-122.637439,45.473803],[-122.637447,45.473835],[-122.637434,45.473867],[-122.637385,45.473908],[-122.637343,45.473918],[-122.637289,45.473914],[-122.637163,45.473855],[-122.637152,45.473839],[-122.637153,45.473814],[-122.637208,45.473769],[-122.637216,45.473719],[-122.637239,45.4737],[-122.637288,45.473699],[-122.637322,45.473709],[-122.637384,45.473766]]]}},{"type":"Feature","properties":{"k":"green"},"geometry":{"type":"Polygon","coordinates":[[[-122.638048,45.473894],[-122.638109,45.473912],[-122.638126,45.47393],[-122.638145,45.47398],[-122.638191,45.474039],[-122.638199,45.47406],[-122.638191,45.474086],[-122.638136,45.474118],[-122.638006,45.47415],[-122.637941,45.474157],[-122.637882,45.474159],[-122.63782,45.474151],[-122.637772,45.474132],[-122.637736,45.474107],[-122.637708,45.474064],[-122.637706,45.474015],[-122.637714,45.473988],[-122.637731,45.473971],[-122.637769,45.473955],[-122.63792,45.473935],[-122.637989,45.473902],[-122.638048,45.473894]]]}},{"type":"Feature","properties":{"k":"green"},"geometry":{"type":"Polygon","coordinates":[[[-122.6385,45.473795],[-122.638533,45.4738],[-122.638579,45.473831],[-122.638587,45.473853],[-122.638567,45.473917],[-122.638597,45.473999],[-122.638591,45.474017],[-122.638565,45.474032],[-122.638506,45.474041],[-122.638454,45.474036],[-122.638414,45.474007],[-122.638407,45.47398],[-122.638422,45.473912],[-122.638382,45.473846],[-122.638384,45.473833],[-122.638406,45.47381],[-122.638464,45.473796],[-122.6385,45.473795]]]}},{"type":"Feature","properties":{"k":"stream"},"geometry":{"type":"LineString","coordinates":[[-122.62941,45.465088],[-122.629675,45.465104],[-122.63004,45.465104],[-122.630394,45.465078],[-122.630641,45.465006],[-122.631082,45.464771],[-122.631371,45.464594],[-122.631542,45.464472],[-122.631881,45.464277],[-122.632199,45.464186],[-122.632568,45.464199],[-122.632963,45.464295]]}},{"type":"Feature","properties":{"k":"tee"},"geometry":{"type":"Polygon","coordinates":[[[-122.639151,45.474055],[-122.639113,45.473953],[-122.638978,45.473977],[-122.639016,45.47408],[-122.639151,45.474055]]]}},{"type":"Feature","properties":{"k":"tee"},"geometry":{"type":"Polygon","coordinates":[[[-122.639122,45.473929],[-122.638949,45.473958],[-122.63889,45.47379],[-122.639063,45.473761],[-122.639122,45.473929]]]}},{"type":"Feature","properties":{"k":"tee"},"geometry":{"type":"Polygon","coordinates":[[[-122.639019,45.47373],[-122.638852,45.473758],[-122.638829,45.47369],[-122.638996,45.473662],[-122.639019,45.47373]]]}},{"type":"Feature","properties":{"k":"tee"},"geometry":{"type":"Polygon","coordinates":[[[-122.638624,45.471602],[-122.638603,45.471507],[-122.638441,45.471525],[-122.638462,45.47162],[-122.638624,45.471602]]]}},{"type":"Feature","properties":{"k":"tee"},"geometry":{"type":"Polygon","coordinates":[[[-122.638583,45.471466],[-122.638426,45.471484],[-122.638373,45.471256],[-122.63853,45.471238],[-122.638583,45.471466]]]}},{"type":"Feature","properties":{"k":"tee"},"geometry":{"type":"Polygon","coordinates":[[[-122.63821,45.471303],[-122.638022,45.471303],[-122.638022,45.471187],[-122.63821,45.471187],[-122.63821,45.471303]]]}},{"type":"Feature","properties":{"k":"tee"},"geometry":{"type":"Polygon","coordinates":[[[-122.636961,45.467764],[-122.636724,45.467767],[-122.636721,45.467652],[-122.636959,45.467649],[-122.636961,45.467764]]]}},{"type":"Feature","properties":{"k":"tee"},"geometry":{"type":"Polygon","coordinates":[[[-122.636966,45.46795],[-122.636966,45.467803],[-122.636739,45.467802],[-122.636738,45.467949],[-122.636966,45.46795]]]}},{"type":"Feature","properties":{"k":"tee"},"geometry":{"type":"Polygon","coordinates":[[[-122.636956,45.46807],[-122.636833,45.468069],[-122.636834,45.468001],[-122.636957,45.468002],[-122.636956,45.46807]]]}},{"type":"Feature","properties":{"k":"tee"},"geometry":{"type":"Polygon","coordinates":[[[-122.636955,45.468217],[-122.636673,45.468212],[-122.636678,45.468096],[-122.63696,45.468101],[-122.636955,45.468217]]]}},{"type":"Feature","properties":{"k":"tee"},"geometry":{"type":"Polygon","coordinates":[[[-122.636959,45.468359],[-122.636714,45.468358],[-122.636715,45.468261],[-122.63696,45.468261],[-122.636959,45.468359]]]}},{"type":"Feature","properties":{"k":"tee"},"geometry":{"type":"Polygon","coordinates":[[[-122.637676,45.467505],[-122.637565,45.46753],[-122.63752,45.467431],[-122.63763,45.467406],[-122.637676,45.467505]]]}},{"type":"Feature","properties":{"k":"tee"},"geometry":{"type":"Polygon","coordinates":[[[-122.63511,45.465682],[-122.635176,45.465619],[-122.635095,45.465577],[-122.635029,45.46564],[-122.63511,45.465682]]]}},{"type":"Feature","properties":{"k":"tee"},"geometry":{"type":"Polygon","coordinates":[[[-122.63499,45.465596],[-122.635086,45.465512],[-122.634905,45.46541],[-122.634808,45.465493],[-122.63499,45.465596]]]}},{"type":"Feature","properties":{"k":"tee"},"geometry":{"type":"Polygon","coordinates":[[[-122.634714,45.465465],[-122.634813,45.465348],[-122.634676,45.465291],[-122.634577,45.465409],[-122.634714,45.465465]]]}},{"type":"Feature","properties":{"k":"path"},"geometry":{"type":"LineString","coordinates":[[-122.636067,45.466332],[-122.636078,45.466223],[-122.636064,45.466164],[-122.636016,45.466064],[-122.635915,45.465951],[-122.63582,45.465883],[-122.635505,45.46572],[-122.635349,45.46566],[-122.63524,45.465631],[-122.635183,45.4656],[-122.635136,45.465545],[-122.634991,45.465408],[-122.634743,45.465283],[-122.634546,45.465217],[-122.634413,45.465153],[-122.634274,45.465105],[-122.634132,45.465097],[-122.633859,45.465165],[-122.633749,45.465184],[-122.633535,45.465191],[-122.633442,45.465179],[-122.633218,45.465087],[-122.632937,45.464992],[-122.632773,45.464954],[-122.632595,45.464933],[-122.632494,45.464947],[-122.632316,45.464954],[-122.632077,45.464923],[-122.631947,45.464919],[-122.631858,45.464925],[-122.631697,45.464963],[-122.631496,45.465035],[-122.631313,45.465148],[-122.631312,45.465161],[-122.631763,45.465272],[-122.631882,45.465316],[-122.631993,45.465341],[-122.632406,45.465464],[-122.632585,45.465444],[-122.632651,45.465427],[-122.632917,45.465387],[-122.633187,45.465364],[-122.633355,45.465387],[-122.633555,45.465444],[-122.633666,45.465489],[-122.633766,45.465514],[-122.633832,45.465541],[-122.634176,45.465711],[-122.634378,45.465869],[-122.634533,45.465963],[-122.634743,45.466027],[-122.635017,45.466062],[-122.635336,45.46614],[-122.635559,45.466227],[-122.635659,45.466278],[-122.635833,45.466322],[-122.635923,45.466332],[-122.636054,45.466323]]}},{"type":"Feature","properties":{"k":"tee"},"geometry":{"type":"Polygon","coordinates":[[[-122.631432,45.465446],[-122.631442,45.465367],[-122.631339,45.465361],[-122.631329,45.465439],[-122.631432,45.465446]]]}},{"type":"Feature","properties":{"k":"tee"},"geometry":{"type":"Polygon","coordinates":[[[-122.631809,45.465493],[-122.631873,45.46539],[-122.631653,45.465322],[-122.631589,45.465425],[-122.631809,45.465493]]]}},{"type":"Feature","properties":{"k":"tee"},"geometry":{"type":"Polygon","coordinates":[[[-122.632063,45.465553],[-122.632115,45.465463],[-122.632025,45.465437],[-122.631973,45.465527],[-122.632063,45.465553]]]}},{"type":"Feature","properties":{"k":"path"},"geometry":{"type":"LineString","coordinates":[[-122.633766,45.465514],[-122.633858,45.46549],[-122.634073,45.465459],[-122.634159,45.465457],[-122.634318,45.465495],[-122.63463,45.46564],[-122.634752,45.465686],[-122.634855,45.465716],[-122.635304,45.465912],[-122.635464,45.46595],[-122.635579,45.465998],[-122.635711,45.466066],[-122.635895,45.46619],[-122.635996,45.466267],[-122.636054,45.466323],[-122.63615,45.466388],[-122.636318,45.466479],[-122.636369,45.466534],[-122.636398,45.466589],[-122.636478,45.466685],[-122.636552,45.466873],[-122.636554,45.467002],[-122.636506,45.467329],[-122.636494,45.467705],[-122.636503,45.467788]]}},{"type":"Feature","properties":{"k":"tee"},"geometry":{"type":"Polygon","coordinates":[[[-122.63435,45.465606],[-122.634207,45.465697],[-122.634099,45.465614],[-122.634242,45.465523],[-122.63435,45.465606]]]}},{"type":"Feature","properties":{"k":"tee"},"geometry":{"type":"Polygon","coordinates":[[[-122.634398,45.465824],[-122.634532,45.465732],[-122.634409,45.465644],[-122.634275,45.465735],[-122.634398,45.465824]]]}},{"type":"Feature","properties":{"k":"tee"},"geometry":{"type":"Polygon","coordinates":[[[-122.637271,45.471925],[-122.637113,45.471956],[-122.637076,45.471861],[-122.637233,45.471831],[-122.637271,45.471925]]]}},{"type":"Feature","properties":{"k":"tee"},"geometry":{"type":"Polygon","coordinates":[[[-122.637192,45.471768],[-122.637044,45.471799],[-122.636919,45.47151],[-122.637066,45.471478],[-122.637192,45.471768]]]}},{"type":"Feature","properties":{"k":"tee"},"geometry":{"type":"Polygon","coordinates":[[[-122.637021,45.471416],[-122.636883,45.471443],[-122.636863,45.471394],[-122.637001,45.471367],[-122.637021,45.471416]]]}},{"type":"Feature","properties":{"k":"tee"},"geometry":{"type":"Polygon","coordinates":[[[-122.635886,45.470317],[-122.635752,45.470314],[-122.635755,45.470253],[-122.635888,45.470256],[-122.635886,45.470317]]]}},{"type":"Feature","properties":{"k":"tee"},"geometry":{"type":"Polygon","coordinates":[[[-122.635846,45.470175],[-122.635739,45.470182],[-122.635716,45.470013],[-122.635824,45.470006],[-122.635846,45.470175]]]}},{"type":"Feature","properties":{"k":"tee"},"geometry":{"type":"Polygon","coordinates":[[[-122.635842,45.469957],[-122.635731,45.469958],[-122.635729,45.469829],[-122.63584,45.469828],[-122.635842,45.469957]]]}},{"type":"Feature","properties":{"k":"path"},"geometry":{"type":"LineString","coordinates":[[-122.636534,45.469279],[-122.63638,45.469396],[-122.636233,45.469467],[-122.635972,45.469543],[-122.635925,45.469565],[-122.635908,45.469581],[-122.635901,45.469603],[-122.635917,45.469765],[-122.635905,45.469975]]}},{"type":"Feature","properties":{"k":"path"},"geometry":{"type":"LineString","coordinates":[[-122.632406,45.465464],[-122.632675,45.465566]]}},{"type":"Feature","properties":{"k":"tee"},"geometry":{"type":"Polygon","coordinates":[[[-122.638412,45.473314],[-122.638345,45.473323],[-122.638324,45.473239],[-122.638391,45.473231],[-122.638412,45.473314]]]}},{"type":"Feature","properties":{"k":"wood"},"geometry":{"type":"Polygon","coordinates":[[[-122.639156,45.473578],[-122.639036,45.473613],[-122.638979,45.473605],[-122.638961,45.473588],[-122.638905,45.473478],[-122.638833,45.47337],[-122.638839,45.473288],[-122.638883,45.473206],[-122.638885,45.473132],[-122.638642,45.472799],[-122.638641,45.472717],[-122.638655,45.47261],[-122.638578,45.472501],[-122.638513,45.472335],[-122.638514,45.472126],[-122.638433,45.471979],[-122.6384,45.471882],[-122.638419,45.471789],[-122.638539,45.471764],[-122.638658,45.471792],[-122.63871,45.471879],[-122.639156,45.473578]]]}},{"type":"Feature","properties":{"k":"path"},"geometry":{"type":"LineString","coordinates":[[-122.636897,45.476379],[-122.636652,45.476338],[-122.636521,45.476287],[-122.63639,45.476224],[-122.636358,45.476192],[-122.636331,45.476145],[-122.636337,45.476058],[-122.636358,45.476015],[-122.636361,45.475979],[-122.636339,45.475881],[-122.636307,45.475855],[-122.636272,45.47584],[-122.636219,45.475834],[-122.636154,45.47584],[-122.636074,45.475883],[-122.636004,45.475891],[-122.635851,45.47585],[-122.635763,45.475848],[-122.635441,45.475864],[-122.635377,45.475872],[-122.63534,45.475885]]}},{"type":"Feature","properties":{"k":"path"},"geometry":{"type":"LineString","coordinates":[[-122.637104,45.476406],[-122.636897,45.476379]]}},{"type":"Feature","properties":{"k":"green"},"geometry":{"type":"Polygon","coordinates":[[[-122.636457,45.470177],[-122.636482,45.470145],[-122.636487,45.470119],[-122.636488,45.47005],[-122.636461,45.470005],[-122.636437,45.46999],[-122.63639,45.469976],[-122.636299,45.469982],[-122.636203,45.470072],[-122.636191,45.470098],[-122.636196,45.470126],[-122.63623,45.470182],[-122.636267,45.470207],[-122.636337,45.470218],[-122.636398,45.47021],[-122.636457,45.470177]]]}},{"type":"Feature","properties":{"k":"tee"},"geometry":{"type":"Polygon","coordinates":[[[-122.638856,45.475154],[-122.638679,45.47513],[-122.638631,45.475112],[-122.638625,45.47506],[-122.638653,45.475],[-122.63867,45.474992],[-122.638705,45.474993],[-122.638956,45.475024],[-122.638987,45.475037],[-122.639023,45.475096],[-122.639031,45.47513],[-122.639025,45.475156],[-122.639012,45.475167],[-122.638974,45.475172],[-122.638856,45.475154]]]}},{"type":"Feature","properties":{"k":"bunker"},"geometry":{"type":"Polygon","coordinates":[[[-122.636439,45.474656],[-122.636584,45.474653],[-122.636607,45.474644],[-122.636611,45.474616],[-122.63659,45.474599],[-122.636573,45.474599],[-122.636512,45.474623],[-122.636412,45.474617],[-122.636399,45.474628],[-122.6364,45.474639],[-122.636407,45.474649],[-122.636439,45.474656]]]}},{"type":"Feature","properties":{"k":"bunker"},"geometry":{"type":"Polygon","coordinates":[[[-122.636266,45.47466],[-122.636345,45.474669],[-122.636357,45.474664],[-122.636365,45.47464],[-122.636358,45.474629],[-122.636326,45.474621],[-122.636233,45.474621],[-122.636206,45.474627],[-122.636196,45.474637],[-122.636202,45.474657],[-122.636228,45.474663],[-122.636266,45.47466]]]}},{"type":"Feature","properties":{"k":"bunker"},"geometry":{"type":"Polygon","coordinates":[[[-122.635181,45.474926],[-122.635195,45.474924],[-122.635214,45.474907],[-122.635217,45.474891],[-122.635208,45.474882],[-122.635189,45.474885],[-122.635163,45.474903],[-122.635164,45.474918],[-122.635181,45.474926]]]}},{"type":"Feature","properties":{"k":"green"},"geometry":{"type":"Polygon","coordinates":[[[-122.635114,45.47487],[-122.635172,45.474822],[-122.635299,45.474774],[-122.635365,45.474726],[-122.635371,45.4747],[-122.635359,45.474663],[-122.63533,45.474626],[-122.635303,45.474612],[-122.635235,45.474605],[-122.635167,45.474621],[-122.635088,45.474681],[-122.634982,45.474742],[-122.634938,45.474777],[-122.63492,45.474836],[-122.634947,45.474872],[-122.63501,45.474896],[-122.635066,45.474892],[-122.635114,45.47487]]]}},{"type":"Feature","properties":{"k":"tee"},"geometry":{"type":"Polygon","coordinates":[[[-122.6347,45.475256],[-122.634791,45.475248],[-122.634803,45.475205],[-122.634793,45.475163],[-122.634776,45.475151],[-122.634655,45.475144],[-122.63462,45.475148],[-122.634599,45.475159],[-122.634593,45.475172],[-122.634609,45.475243],[-122.634627,45.475254],[-122.6347,45.475256]]]}},{"type":"Feature","properties":{"k":"tee"},"geometry":{"type":"Polygon","coordinates":[[[-122.635005,45.475245],[-122.63516,45.475237],[-122.635177,45.475201],[-122.635171,45.475151],[-122.635156,45.475139],[-122.634913,45.475136],[-122.634893,45.47515],[-122.634889,45.475183],[-122.634909,45.475237],[-122.634931,45.475245],[-122.635005,45.475245]]]}},{"type":"Feature","properties":{"k":"tee"},"geometry":{"type":"Polygon","coordinates":[[[-122.635307,45.475231],[-122.635381,45.475232],[-122.635414,45.47522],[-122.635418,45.475135],[-122.635397,45.475118],[-122.635283,45.475114],[-122.635257,45.475125],[-122.635262,45.475223],[-122.635307,45.475231]]]}},{"type":"Feature","properties":{"k":"green"},"geometry":{"type":"Polygon","coordinates":[[[-122.637943,45.477463],[-122.638011,45.477487],[-122.63805,45.47749],[-122.638075,45.477484],[-122.638102,45.477464],[-122.638152,45.477399],[-122.638168,45.477358],[-122.638157,45.47732],[-122.638075,45.477259],[-122.637978,45.477246],[-122.637924,45.477261],[-122.637893,45.477289],[-122.637873,45.477337],[-122.637834,45.477379],[-122.637829,45.477416],[-122.637847,45.477445],[-122.637863,45.477453],[-122.637943,45.477463]]]}},{"type":"Feature","properties":{"k":"path"},"geometry":{"type":"LineString","coordinates":[[-122.639496,45.477828],[-122.639428,45.477824],[-122.639256,45.477791],[-122.639117,45.477786],[-122.639063,45.477793]]}},{"type":"Feature","properties":{"k":"tee"},"geometry":{"type":"Polygon","coordinates":[[[-122.637572,45.477543],[-122.637642,45.477531],[-122.637667,45.477511],[-122.637673,45.477482],[-122.637661,45.477452],[-122.637599,45.477367],[-122.63758,45.477313],[-122.637568,45.477199],[-122.637484,45.476944],[-122.637474,45.476926],[-122.637454,45.476915],[-122.637422,45.476909],[-122.637391,45.476913],[-122.637354,45.476935],[-122.637353,45.476995],[-122.637391,45.477125],[-122.637421,45.47733],[-122.637457,45.47739],[-122.637472,45.477473],[-122.637488,45.4775],[-122.637535,45.477537],[-122.637572,45.477543]]]}},{"type":"Feature","properties":{"k":"fairway"},"geometry":{"type":"Polygon","coordinates":[[[-122.634984,45.477438],[-122.63503,45.47744],[-122.635139,45.477421],[-122.635175,45.477402],[-122.6352,45.477378],[-122.635217,45.477329],[-122.635253,45.477136],[-122.635276,45.477068],[-122.635291,45.47696],[-122.635294,45.476706],[-122.635344,45.476455],[-122.635347,45.476348],[-122.635321,45.476312],[-122.635259,45.476294],[-122.6352,45.476287],[-122.635132,45.476302],[-122.635105,45.476325],[-122.635091,45.476352],[-122.635035,45.476755],[-122.634967,45.476985],[-122.634884,45.477181],[-122.634837,45.477241],[-122.634796,45.477274],[-122.634784,45.477318],[-122.63479,45.477358],[-122.634813,45.477396],[-122.634865,45.477427],[-122.634925,45.477442],[-122.634984,45.477438]]]}},{"type":"Feature","properties":{"k":"tee"},"geometry":{"type":"Polygon","coordinates":[[[-122.636034,45.475797],[-122.636081,45.475815],[-122.636118,45.475812],[-122.636137,45.4758],[-122.636229,45.475713],[-122.636244,45.47569],[-122.636242,45.475671],[-122.636229,45.475657],[-122.636153,45.475633],[-122.636115,45.475642],[-122.636007,45.475757],[-122.636011,45.475789],[-122.636034,45.475797]]]}},{"type":"Feature","properties":{"k":"path"},"geometry":{"type":"LineString","coordinates":[[-122.635173,45.476272],[-122.635222,45.476164],[-122.635241,45.476073],[-122.635272,45.475996],[-122.63534,45.475885]]}},{"type":"Feature","properties":{"k":"green"},"geometry":{"type":"Polygon","coordinates":[[[-122.635238,45.47926],[-122.635301,45.479247],[-122.635362,45.479215],[-122.635397,45.479174],[-122.635403,45.479138],[-122.635372,45.47908],[-122.635335,45.479049],[-122.635313,45.479037],[-122.635248,45.479022],[-122.63519,45.479027],[-122.635126,45.479059],[-122.635094,45.479116],[-122.635086,45.479182],[-122.635095,45.479204],[-122.635132,45.479237],[-122.635188,45.479258],[-122.635238,45.47926]]]}},{"type":"Feature","properties":{"k":"tee"},"geometry":{"type":"Polygon","coordinates":[[[-122.635468,45.476295],[-122.635495,45.476287],[-122.635617,45.476182],[-122.635637,45.476147],[-122.635633,45.47613],[-122.635618,45.47612],[-122.635584,45.476109],[-122.635523,45.476118],[-122.635407,45.476228],[-122.635397,45.476246],[-122.635409,45.476279],[-122.635435,45.476292],[-122.635468,45.476295]]]}},{"type":"Feature","properties":{"k":"path"},"geometry":{"type":"LineString","coordinates":[[-122.635173,45.476272],[-122.635158,45.47631],[-122.635091,45.476352],[-122.635008,45.476445],[-122.634983,45.476503],[-122.634958,45.476756],[-122.634914,45.476943],[-122.634856,45.477033],[-122.634785,45.477174],[-122.634649,45.477336],[-122.634515,45.47748],[-122.634442,45.47754],[-122.634375,45.477612],[-122.63433,45.477763],[-122.634335,45.477819],[-122.634358,45.477876],[-122.634413,45.477961],[-122.634431,45.478019]]}},{"type":"Feature","properties":{"k":"bunker"},"geometry":{"type":"Polygon","coordinates":[[[-122.635006,45.479195],[-122.635026,45.479183],[-122.635047,45.479152],[-122.635045,45.479118],[-122.634999,45.479098],[-122.634967,45.479101],[-122.634942,45.479129],[-122.634952,45.479183],[-122.634982,45.479198],[-122.635006,45.479195]]]}},{"type":"Feature","properties":{"k":"bunker"},"geometry":{"type":"Polygon","coordinates":[[[-122.634968,45.479039],[-122.634988,45.479032],[-122.635015,45.478993],[-122.635041,45.478975],[-122.63503,45.478928],[-122.635009,45.47891],[-122.634969,45.478925],[-122.634959,45.478973],[-122.634923,45.479005],[-122.634925,45.479028],[-122.634937,45.479037],[-122.634968,45.479039]]]}},{"type":"Feature","properties":{"k":"tee"},"geometry":{"type":"Polygon","coordinates":[[[-122.635931,45.480963],[-122.636002,45.480969],[-122.636017,45.480962],[-122.636042,45.480914],[-122.636023,45.480889],[-122.635876,45.480863],[-122.635778,45.480859],[-122.635762,45.480901],[-122.635766,45.480929],[-122.635778,45.480941],[-122.635931,45.480963]]]}},{"type":"Feature","properties":{"k":"tee"},"geometry":{"type":"Polygon","coordinates":[[[-122.636203,45.481001],[-122.636233,45.481007],[-122.636266,45.481002],[-122.636283,45.480971],[-122.636275,45.48096],[-122.636191,45.480944],[-122.636156,45.480944],[-122.636144,45.480963],[-122.63615,45.480984],[-122.636203,45.481001]]]}},{"type":"Feature","properties":{"k":"path"},"geometry":{"type":"LineString","coordinates":[[-122.640421,45.481277],[-122.64036,45.481237],[-122.640247,45.481215],[-122.640134,45.481159],[-122.639982,45.481148],[-122.639871,45.481146],[-122.639765,45.481156],[-122.639687,45.481176],[-122.639472,45.481203],[-122.639334,45.481233],[-122.639272,45.481235],[-122.639133,45.481216]]}},{"type":"Feature","properties":{"k":"green"},"geometry":{"type":"Polygon","coordinates":[[[-122.64014,45.481455],[-122.640226,45.481457],[-122.640265,45.481447],[-122.640279,45.481435],[-122.640286,45.481406],[-122.640264,45.481314],[-122.640234,45.481293],[-122.640069,45.481269],[-122.640045,45.481273],[-122.640017,45.481286],[-122.639989,45.481323],[-122.63998,45.481384],[-122.639987,45.481403],[-122.640002,45.481423],[-122.640044,45.481446],[-122.64014,45.481455]]]}},{"type":"Feature","properties":{"k":"fairway"},"geometry":{"type":"Polygon","coordinates":[[[-122.638596,45.48137],[-122.638829,45.481372],[-122.638888,45.481369],[-122.638943,45.481354],[-122.638977,45.48133],[-122.638983,45.481306],[-122.638991,45.481279],[-122.638973,45.481246],[-122.638946,45.481224],[-122.638917,45.481213],[-122.638689,45.481183],[-122.638117,45.481137],[-122.637806,45.481123],[-122.637434,45.481066],[-122.63692,45.481011],[-122.63688,45.481017],[-122.636842,45.481034],[-122.636794,45.481089],[-122.636784,45.481126],[-122.636794,45.481183],[-122.636816,45.481204],[-122.63686,45.481226],[-122.63716,45.481269],[-122.63795,45.481338],[-122.638596,45.48137]]]}},{"type":"Feature","properties":{"k":"tee"},"geometry":{"type":"Polygon","coordinates":[[[-122.640766,45.48155],[-122.640836,45.481549],[-122.640853,45.481539],[-122.640858,45.481521],[-122.640847,45.48146],[-122.640836,45.481453],[-122.640783,45.481448],[-122.640657,45.481454],[-122.640637,45.481504],[-122.640645,45.481542],[-122.640661,45.48155],[-122.640766,45.48155]]]}},{"type":"Feature","properties":{"k":"tee"},"geometry":{"type":"Polygon","coordinates":[[[-122.640744,45.481409],[-122.640821,45.481394],[-122.640837,45.481372],[-122.640844,45.48134],[-122.640815,45.481292],[-122.640715,45.48128],[-122.640627,45.481288],[-122.640605,45.481304],[-122.6406,45.481351],[-122.640633,45.4814],[-122.64068,45.481411],[-122.640744,45.481409]]]}},{"type":"Feature","properties":{"k":"path"},"geometry":{"type":"LineString","coordinates":[[-122.640421,45.481277],[-122.640463,45.481332],[-122.64048,45.481428],[-122.6405,45.481449],[-122.640544,45.481445]]}},{"type":"Feature","properties":{"k":"green"},"geometry":{"type":"Polygon","coordinates":[[[-122.64011,45.478529],[-122.640179,45.478519],[-122.640226,45.47849],[-122.640264,45.478378],[-122.640263,45.478354],[-122.640247,45.478326],[-122.640203,45.478275],[-122.640187,45.478264],[-122.640127,45.478256],[-122.640071,45.478263],[-122.640022,45.478294],[-122.640011,45.478336],[-122.640017,45.478387],[-122.639981,45.478456],[-122.63999,45.478486],[-122.640018,45.478511],[-122.640045,45.478523],[-122.64011,45.478529]]]}},{"type":"Feature","properties":{"k":"tee"},"geometry":{"type":"Polygon","coordinates":[[[-122.639719,45.478288],[-122.63977,45.478291],[-122.639788,45.478285],[-122.639817,45.478251],[-122.63984,45.478158],[-122.639827,45.478119],[-122.639803,45.478107],[-122.639742,45.478103],[-122.639707,45.478123],[-122.639698,45.478202],[-122.63968,45.478254],[-122.639694,45.478278],[-122.639719,45.478288]]]}},{"type":"Feature","properties":{"k":"tee"},"geometry":{"type":"Polygon","coordinates":[[[-122.639691,45.478488],[-122.639738,45.478485],[-122.639749,45.478476],[-122.639767,45.478397],[-122.639758,45.478384],[-122.639726,45.478375],[-122.639655,45.478371],[-122.639633,45.478399],[-122.639627,45.478467],[-122.63964,45.478479],[-122.639691,45.478488]]]}},{"type":"Feature","properties":{"k":"tee"},"geometry":{"type":"Polygon","coordinates":[[[-122.639684,45.479015],[-122.639711,45.478999],[-122.639724,45.478971],[-122.639721,45.478952],[-122.639705,45.478927],[-122.63966,45.478919],[-122.639627,45.478937],[-122.639621,45.478988],[-122.639642,45.479011],[-122.639684,45.479015]]]}},{"type":"Feature","properties":{"k":"path"},"geometry":{"type":"LineString","coordinates":[[-122.639247,45.48015],[-122.639104,45.480192]]}},{"type":"Feature","properties":{"k":"fairway"},"geometry":{"type":"Polygon","coordinates":[[[-122.63933,45.480215],[-122.639388,45.480269],[-122.639437,45.480284],[-122.639473,45.480281],[-122.63956,45.480257],[-122.639781,45.480173],[-122.639826,45.480145],[-122.639846,45.480109],[-122.639855,45.480057],[-122.63984,45.479281],[-122.639822,45.479214],[-122.639781,45.479189],[-122.639732,45.479173],[-122.639681,45.479172],[-122.639618,45.479183],[-122.63958,45.47921],[-122.639558,45.479253],[-122.639531,45.479357],[-122.639522,45.479466],[-122.63954,45.479599],[-122.639536,45.479656],[-122.639511,45.479731],[-122.639462,45.479791],[-122.639247,45.479973],[-122.639203,45.480023],[-122.639197,45.480045],[-122.639205,45.480079],[-122.639224,45.48011],[-122.63933,45.480215]]]}},{"type":"Feature","properties":{"k":"green"},"geometry":{"type":"Polygon","coordinates":[[[-122.637579,45.480624],[-122.637678,45.480611],[-122.637734,45.480594],[-122.63776,45.480563],[-122.63775,45.48053],[-122.63765,45.480502],[-122.637601,45.48046],[-122.637533,45.480425],[-122.63748,45.480416],[-122.637402,45.480431],[-122.637369,45.480478],[-122.637361,45.480521],[-122.637384,45.480582],[-122.637422,45.48061],[-122.637475,45.480625],[-122.637542,45.480629],[-122.637579,45.480624]]]}},{"type":"Feature","properties":{"k":"tee"},"geometry":{"type":"Polygon","coordinates":[[[-122.636818,45.480832],[-122.636888,45.480824],[-122.636913,45.480806],[-122.636933,45.480764],[-122.636933,45.480725],[-122.636921,45.480707],[-122.636899,45.480697],[-122.636734,45.480692],[-122.636698,45.480709],[-122.636684,45.480786],[-122.636697,45.480805],[-122.636725,45.48082],[-122.636818,45.480832]]]}},{"type":"Feature","properties":{"k":"green"},"geometry":{"type":"Polygon","coordinates":[[[-122.637512,45.479612],[-122.637621,45.479639],[-122.637665,45.479625],[-122.63768,45.479584],[-122.637668,45.479515],[-122.637695,45.479438],[-122.637674,45.47938],[-122.637639,45.479347],[-122.637561,45.479323],[-122.637496,45.479321],[-122.637417,45.479331],[-122.63736,45.479356],[-122.637338,45.479382],[-122.637322,45.479432],[-122.637341,45.479511],[-122.637376,45.479585],[-122.637429,45.479606],[-122.637512,45.479612]]]}},{"type":"Feature","properties":{"k":"tee"},"geometry":{"type":"Polygon","coordinates":[[[-122.63856,45.478902],[-122.638612,45.478893],[-122.63863,45.478879],[-122.638644,45.478818],[-122.638643,45.478652],[-122.63862,45.478632],[-122.638572,45.478621],[-122.638545,45.478624],[-122.638528,45.478634],[-122.638522,45.47865],[-122.638515,45.478734],[-122.63852,45.478795],[-122.638506,45.47886],[-122.638519,45.478892],[-122.63856,45.478902]]]}},{"type":"Feature","properties":{"k":"path"},"geometry":{"type":"LineString","coordinates":[[-122.638413,45.478987],[-122.638379,45.478966],[-122.638349,45.478912],[-122.638365,45.47884]]}},{"type":"Feature","properties":{"k":"tee"},"geometry":{"type":"Polygon","coordinates":[[[-122.63855,45.478304],[-122.638573,45.478302],[-122.638593,45.478284],[-122.638594,45.478239],[-122.638564,45.478222],[-122.638521,45.478221],[-122.638497,45.478235],[-122.6385,45.478284],[-122.638511,45.478295],[-122.63855,45.478304]]]}},{"type":"Feature","properties":{"k":"green"},"geometry":{"type":"Polygon","coordinates":[[[-122.638446,45.475697],[-122.638476,45.475698],[-122.63854,45.475682],[-122.638568,45.475658],[-122.638572,45.475642],[-122.638574,45.475533],[-122.638561,45.475515],[-122.638513,45.475492],[-122.638452,45.475484],[-122.638389,45.47549],[-122.638361,45.475499],[-122.63833,45.475526],[-122.638314,45.475574],[-122.638315,45.475603],[-122.638347,45.475655],[-122.638387,45.475679],[-122.638446,45.475697]]]}},{"type":"Feature","properties":{"k":"path"},"geometry":{"type":"LineString","coordinates":[[-122.639016,45.480217],[-122.638805,45.480264]]}},{"type":"Feature","properties":{"k":"path"},"geometry":{"type":"LineString","coordinates":[[-122.639104,45.480192],[-122.639016,45.480217]]}},{"type":"Feature","properties":{"k":"path"},"geometry":{"type":"LineString","coordinates":[[-122.63797,45.480015],[-122.637927,45.480035],[-122.637871,45.480089],[-122.637812,45.480123],[-122.63778,45.480171],[-122.637705,45.480239],[-122.637646,45.480277],[-122.63757,45.480311],[-122.637495,45.480333],[-122.63741,45.480375],[-122.637334,45.480435],[-122.637292,45.480521],[-122.637265,45.480626],[-122.637259,45.480728],[-122.637297,45.480807],[-122.637292,45.480841],[-122.637265,45.480871],[-122.63723,45.480892],[-122.637179,45.480907],[-122.637114,45.480912],[-122.637034,45.480914],[-122.636876,45.480903],[-122.636667,45.480914],[-122.636549,45.48095],[-122.636415,45.48104],[-122.636369,45.481061],[-122.636315,45.481072],[-122.636162,45.481076],[-122.636063,45.48107],[-122.635977,45.481055],[-122.635894,45.481021],[-122.635838,45.481015],[-122.635679,45.481049]]}},{"type":"Feature","properties":{"k":"path"},"geometry":{"type":"LineString","coordinates":[[-122.638025,45.479934],[-122.637997,45.480002],[-122.63797,45.480015]]}},{"type":"Feature","properties":{"k":"path"},"geometry":{"type":"LineString","coordinates":[[-122.639064,45.481207],[-122.638701,45.481144],[-122.638488,45.481092],[-122.638339,45.481028],[-122.638271,45.48099],[-122.638151,45.480906]]}},{"type":"Feature","properties":{"k":"path"},"geometry":{"type":"LineString","coordinates":[[-122.639133,45.481216],[-122.639064,45.481207]]}},{"type":"Feature","properties":{"k":"path"},"geometry":{"type":"LineString","coordinates":[[-122.639496,45.480759],[-122.639837,45.480807],[-122.639907,45.480811],[-122.639976,45.480803],[-122.640054,45.480758],[-122.640078,45.480715],[-122.640092,45.480658],[-122.640084,45.480596],[-122.640086,45.48044],[-122.640076,45.480294],[-122.640015,45.480149]]}},{"type":"Feature","properties":{"k":"path"},"geometry":{"type":"LineString","coordinates":[[-122.639241,45.480728],[-122.639496,45.480759]]}},{"type":"Feature","properties":{"k":"green"},"geometry":{"type":"Polygon","coordinates":[[[-122.638105,45.471711],[-122.638155,45.471699],[-122.638182,45.471678],[-122.638201,45.471648],[-122.638196,45.47161],[-122.638161,45.47154],[-122.638127,45.471506],[-122.638102,45.471495],[-122.638049,45.471486],[-122.637993,45.471492],[-122.637934,45.471517],[-122.637894,45.471564],[-122.637901,45.471626],[-122.637918,45.471664],[-122.637936,45.471681],[-122.637982,45.471701],[-122.638043,45.471712],[-122.638105,45.471711]]]}}]}