{"type":"FeatureCollection","features":[{"type":"Feature","properties":{"k":"hole"},"geometry":{"type":"LineString","coordinates":[[-74.887875,39.881748],[-74.890403,39.882202],[-74.891758,39.882955]]}},{"type":"Feature","properties":{"k":"hole"},"geometry":{"type":"LineString","coordinates":[[-74.891512,39.881875],[-74.88955,39.881383]]}},{"type":"Feature","properties":{"k":"hole"},"geometry":{"type":"LineString","coordinates":[[-74.889564,39.877539],[-74.892542,39.877382],[-74.893528,39.877417]]}},{"type":"Feature","properties":{"k":"hole"},"geometry":{"type":"LineString","coordinates":[[-74.887792,39.88254],[-74.887679,39.882907],[-74.887157,39.884357]]}},{"type":"Feature","properties":{"k":"hole"},"geometry":{"type":"LineString","coordinates":[[-74.886617,39.884662],[-74.886673,39.883992],[-74.886896,39.882845],[-74.887344,39.881661]]}},{"type":"Feature","properties":{"k":"hole"},"geometry":{"type":"LineString","coordinates":[[-74.892126,39.883695],[-74.892311,39.882768],[-74.892264,39.882134],[-74.892335,39.881661],[-74.893198,39.880895],[-74.893605,39.880651]]}},{"type":"Feature","properties":{"k":"hole"},"geometry":{"type":"LineString","coordinates":[[-74.893651,39.878473],[-74.892795,39.880492],[-74.891638,39.881366]]}},{"type":"Feature","properties":{"k":"hole"},"geometry":{"type":"LineString","coordinates":[[-74.892024,39.883666],[-74.889761,39.882821],[-74.887939,39.882197]]}},{"type":"Feature","properties":{"k":"hole"},"geometry":{"type":"LineString","coordinates":[[-74.889488,39.880962],[-74.891226,39.880438],[-74.891849,39.880102],[-74.892309,39.879726],[-74.892539,39.879448]]}},{"type":"Feature","properties":{"k":"hole"},"geometry":{"type":"LineString","coordinates":[[-74.894079,39.87771],[-74.892381,39.877918],[-74.89156,39.878138],[-74.890567,39.878027],[-74.89031,39.877965]]}},{"type":"Feature","properties":{"k":"hole"},"geometry":{"type":"LineString","coordinates":[[-74.889851,39.879463],[-74.89202,39.878571],[-74.8929,39.878349],[-74.89371,39.878048]]}},{"type":"Feature","properties":{"k":"hole"},"geometry":{"type":"LineString","coordinates":[[-74.88667,39.88055],[-74.888222,39.879731],[-74.888712,39.879344],[-74.888942,39.879072],[-74.88944,39.878115]]}},{"type":"Feature","properties":{"k":"hole"},"geometry":{"type":"LineString","coordinates":[[-74.889864,39.877738],[-74.88997,39.878933]]}},{"type":"Feature","properties":{"k":"hole"},"geometry":{"type":"LineString","coordinates":[[-74.893144,39.878712],[-74.891091,39.879529],[-74.889111,39.880276],[-74.887631,39.880724]]}},{"type":"Feature","properties":{"k":"hole"},"geometry":{"type":"LineString","coordinates":[[-74.894735,39.8779],[-74.894652,39.879394],[-74.894507,39.880143]]}},{"type":"Feature","properties":{"k":"hole"},"geometry":{"type":"LineString","coordinates":[[-74.893867,39.88082],[-74.893982,39.88025],[-74.893956,39.879535],[-74.894334,39.877885]]}},{"type":"Feature","properties":{"k":"hole"},"geometry":{"type":"LineString","coordinates":[[-74.894445,39.880524],[-74.893187,39.882074],[-74.89314,39.88241],[-74.893337,39.883469],[-74.893955,39.884395]]}},{"type":"Feature","properties":{"k":"hole"},"geometry":{"type":"LineString","coordinates":[[-74.89362,39.884974],[-74.892565,39.883776]]}},{"type":"Feature","properties":{"k":"water"},"geometry":{"type":"Polygon","coordinates":[[[-74.887532,39.884498],[-74.887529,39.884693],[-74.887509,39.884774],[-74.887453,39.884862],[-74.887406,39.884899],[-74.887352,39.884925],[-74.887234,39.884946],[-74.887168,39.884944],[-74.887091,39.884937],[-74.886996,39.884915],[-74.8869,39.884879],[-74.886852,39.884824],[-74.886833,39.884776],[-74.886828,39.884725],[-74.886846,39.884647],[-74.886896,39.884606],[-74.886983,39.884574],[-74.887204,39.884532],[-74.887283,39.884505],[-74.887379,39.88444],[-74.887422,39.884421],[-74.887489,39.884421],[-74.887527,39.884461],[-74.887532,39.884498]]]}},{"type":"Feature","properties":{"k":"water"},"geometry":{"type":"Polygon","coordinates":[[[-74.88702,39.881924],[-74.887018,39.882008],[-74.886996,39.882101],[-74.88696,39.882155],[-74.886901,39.88219],[-74.886862,39.882183],[-74.886828,39.882166],[-74.8868,39.882127],[-74.886753,39.881727],[-74.886755,39.881543],[-74.886783,39.881507],[-74.88683,39.881485],[-74.886878,39.881485],[-74.886925,39.881508],[-74.886962,39.881549],[-74.887005,39.881676],[-74.88702,39.881924]]]}},{"type":"Feature","properties":{"k":"water"},"geometry":{"type":"Polygon","coordinates":[[[-74.89278,39.87853],[-74.892828,39.878541],[-74.892935,39.878539],[-74.893012,39.878529],[-74.893025,39.878548],[-74.892974,39.878605],[-74.892913,39.878649],[-74.892779,39.87868],[-74.892727,39.87871],[-74.892692,39.878754],[-74.892629,39.878792],[-74.892595,39.878806],[-74.892548,39.878813],[-74.892378,39.878818],[-74.892313,39.878845],[-74.892274,39.878881],[-74.892252,39.878916],[-74.892123,39.87904],[-74.892081,39.879161],[-74.892062,39.879179],[-74.892046,39.879212],[-74.892048,39.879303],[-74.892029,39.879369],[-74.892014,39.879385],[-74.891932,39.879429],[-74.891896,39.879438],[-74.891843,39.879435],[-74.891728,39.879344],[-74.891603,39.879298],[-74.891571,39.879303],[-74.891535,39.879256],[-74.891399,39.879164],[-74.891383,39.879141],[-74.891383,39.879122],[-74.891397,39.879109],[-74.891483,39.879099],[-74.891663,39.879093],[-74.891749,39.87907],[-74.891774,39.879058],[-74.891918,39.878924],[-74.892049,39.878822],[-74.892086,39.87882],[-74.892115,39.878832],[-74.892183,39.878814],[-74.892261,39.878757],[-74.892626,39.878576],[-74.892701,39.878544],[-74.89278,39.87853]]]}},{"type":"Feature","properties":{"k":"water"},"geometry":{"type":"Polygon","coordinates":[[[-74.893253,39.883972],[-74.893316,39.883984],[-74.893325,39.884016],[-74.893289,39.884054],[-74.89325,39.884056],[-74.893053,39.884125],[-74.892955,39.884149],[-74.892893,39.884239],[-74.892868,39.884251],[-74.892837,39.884258],[-74.892757,39.884253],[-74.892729,39.884227],[-74.892676,39.884224],[-74.89263,39.8842],[-74.892657,39.884152],[-74.892699,39.884103],[-74.892771,39.884061],[-74.892911,39.884023],[-74.893084,39.883994],[-74.893171,39.883992],[-74.893253,39.883972]]]}},{"type":"Feature","properties":{"k":"water"},"geometry":{"type":"Polygon","coordinates":[[[-74.890035,39.878487],[-74.890057,39.878646],[-74.890146,39.878694],[-74.890143,39.878704],[-74.890056,39.87868],[-74.890008,39.878656],[-74.889975,39.878673],[-74.889932,39.878717],[-74.889808,39.878775],[-74.889783,39.878781],[-74.889663,39.878781],[-74.889648,39.878789],[-74.889615,39.878777],[-74.889619,39.878767],[-74.889611,39.878756],[-74.88956,39.878722],[-74.889499,39.878664],[-74.889479,39.878656],[-74.889347,39.878649],[-74.889349,39.878631],[-74.88956,39.878604],[-74.889746,39.878638],[-74.889784,39.878638],[-74.889815,39.878615],[-74.889849,39.878575],[-74.889849,39.87851],[-74.889888,39.878467],[-74.889922,39.878456],[-74.88995,39.878456],[-74.890023,39.878476],[-74.890035,39.878487]]]}},{"type":"Feature","properties":{"k":"water"},"geometry":{"type":"Polygon","coordinates":[[[-74.893085,39.877935],[-74.892976,39.878062],[-74.892883,39.878135],[-74.892874,39.878159],[-74.892844,39.878175],[-74.892813,39.878213],[-74.892757,39.878246],[-74.892733,39.878248],[-74.892717,39.878241],[-74.892684,39.878203],[-74.892684,39.878187],[-74.892732,39.878101],[-74.892821,39.878055],[-74.892906,39.878037],[-74.892935,39.878018],[-74.892949,39.878],[-74.892978,39.877921],[-74.893007,39.87791],[-74.893039,39.877908],[-74.893085,39.877935]]]}},{"type":"Feature","properties":{"k":"stream"},"geometry":{"type":"LineString","coordinates":[[-74.890148,39.8787],[-74.890069,39.878666],[-74.88999,39.878611],[-74.88996,39.878599],[-74.889909,39.878604],[-74.889839,39.878672],[-74.889794,39.878693],[-74.889741,39.878702],[-74.889681,39.878699]]}},{"type":"Feature","properties":{"k":"stream"},"geometry":{"type":"LineString","coordinates":[[-74.893018,39.878533],[-74.892931,39.878583],[-74.892739,39.878629],[-74.892631,39.878664],[-74.892299,39.878797],[-74.892201,39.878856],[-74.892078,39.878945],[-74.891959,39.879054],[-74.891855,39.879176],[-74.891819,39.879198],[-74.891791,39.879208],[-74.891678,39.87921],[-74.891633,39.879202],[-74.891383,39.879122]]}},{"type":"Feature","properties":{"k":"stream"},"geometry":{"type":"LineString","coordinates":[[-74.889511,39.87772],[-74.889398,39.877725]]}},{"type":"Feature","properties":{"k":"stream"},"geometry":{"type":"LineString","coordinates":[[-74.890566,39.880571],[-74.890415,39.88048]]}},{"type":"Feature","properties":{"k":"stream"},"geometry":{"type":"LineString","coordinates":[[-74.889621,39.878779],[-74.889681,39.878699]]}},{"type":"Feature","properties":{"k":"stream"},"geometry":{"type":"LineString","coordinates":[[-74.890081,39.880062],[-74.889959,39.879994]]}},{"type":"Feature","properties":{"k":"stream"},"geometry":{"type":"LineString","coordinates":[[-74.890246,39.880679],[-74.89024,39.880543]]}},{"type":"Feature","properties":{"k":"stream"},"geometry":{"type":"LineString","coordinates":[[-74.889681,39.878699],[-74.889501,39.878637],[-74.889459,39.878629],[-74.889349,39.878634]]}},{"type":"Feature","properties":{"k":"stream"},"geometry":{"type":"LineString","coordinates":[[-74.893318,39.88399],[-74.892966,39.884075],[-74.892812,39.884131],[-74.892729,39.884168],[-74.892656,39.884213]]}},{"type":"Feature","properties":{"k":"stream"},"geometry":{"type":"LineString","coordinates":[[-74.891106,39.879019],[-74.890818,39.878933]]}},{"type":"Feature","properties":{"k":"stream"},"geometry":{"type":"LineString","coordinates":[[-74.889349,39.878634],[-74.88889,39.878624]]}},{"type":"Feature","properties":{"k":"path"},"geometry":{"type":"LineString","coordinates":[[-74.887874,39.882487],[-74.887674,39.883242],[-74.887672,39.883409],[-74.887617,39.8836],[-74.887525,39.883819],[-74.887488,39.883982],[-74.887438,39.884136],[-74.887429,39.884302],[-74.8874,39.884362],[-74.887349,39.884419],[-74.887269,39.88446],[-74.887179,39.88449],[-74.886878,39.884525],[-74.886779,39.884524],[-74.886742,39.884508],[-74.886728,39.884474],[-74.886769,39.884085],[-74.886784,39.884034],[-74.886908,39.88382],[-74.887093,39.883327],[-74.887123,39.883276],[-74.887177,39.883218],[-74.887335,39.883108],[-74.887373,39.883052],[-74.887381,39.883025],[-74.887377,39.882996],[-74.887264,39.882759],[-74.887246,39.882634],[-74.887298,39.882448],[-74.887405,39.882296],[-74.887478,39.88224],[-74.887565,39.882188]]}},{"type":"Feature","properties":{"k":"green"},"geometry":{"type":"Polygon","coordinates":[[[-74.887904,39.882285],[-74.888026,39.882273],[-74.88805,39.882267],[-74.888067,39.882252],[-74.888091,39.882206],[-74.888085,39.882171],[-74.888038,39.882133],[-74.887931,39.882105],[-74.887838,39.882128],[-74.887809,39.88215],[-74.887797,39.882173],[-74.887803,39.882227],[-74.88783,39.882261],[-74.887866,39.88228],[-74.887904,39.882285]]]}},{"type":"Feature","properties":{"k":"bunker"},"geometry":{"type":"Polygon","coordinates":[[[-74.88719,39.882926],[-74.887281,39.88297],[-74.887317,39.883062],[-74.887308,39.883079],[-74.88728,39.883099],[-74.887217,39.883073],[-74.887176,39.883032],[-74.88713,39.883014],[-74.887117,39.882983],[-74.88712,39.882952],[-74.887143,39.882932],[-74.887168,39.882924],[-74.88719,39.882926]]]}},{"type":"Feature","properties":{"k":"tee"},"geometry":{"type":"Polygon","coordinates":[[[-74.890829,39.881668],[-74.890915,39.881698],[-74.890924,39.881714],[-74.890918,39.881742],[-74.890905,39.881758],[-74.890862,39.881763],[-74.890781,39.881742],[-74.890771,39.881732],[-74.890765,39.881714],[-74.890783,39.881675],[-74.890829,39.881668]]]}},{"type":"Feature","properties":{"k":"tee"},"geometry":{"type":"Polygon","coordinates":[[[-74.891205,39.881835],[-74.891475,39.881914],[-74.891505,39.881916],[-74.891524,39.881903],[-74.891535,39.881879],[-74.89153,39.881851],[-74.891502,39.881834],[-74.891223,39.881758],[-74.891197,39.88176],[-74.891176,39.881779],[-74.891179,39.88182],[-74.891205,39.881835]]]}},{"type":"Feature","properties":{"k":"green"},"geometry":{"type":"Polygon","coordinates":[[[-74.889532,39.881321],[-74.889678,39.881345],[-74.889714,39.881377],[-74.889709,39.881443],[-74.889685,39.881473],[-74.889619,39.881498],[-74.889479,39.881495],[-74.889437,39.881474],[-74.889405,39.881436],[-74.889393,39.881406],[-74.889399,39.881377],[-74.889448,39.88133],[-74.889481,39.881315],[-74.889532,39.881321]]]}},{"type":"Feature","properties":{"k":"bunker"},"geometry":{"type":"Polygon","coordinates":[[[-74.889679,39.881232],[-74.889767,39.881278],[-74.889768,39.881289],[-74.889729,39.881299],[-74.889679,39.881296],[-74.889617,39.881309],[-74.889549,39.881298],[-74.889534,39.881287],[-74.889533,39.881256],[-74.889558,39.881225],[-74.889582,39.881217],[-74.889615,39.881231],[-74.889637,39.881233],[-74.889668,39.881224],[-74.889679,39.881232]]]}},{"type":"Feature","properties":{"k":"path"},"geometry":{"type":"LineString","coordinates":[[-74.887908,39.881446],[-74.887728,39.881554],[-74.887694,39.881614],[-74.887661,39.881861],[-74.887565,39.882188]]}},{"type":"Feature","properties":{"k":"path"},"geometry":{"type":"LineString","coordinates":[[-74.887565,39.882188],[-74.887574,39.882283],[-74.887636,39.882345],[-74.887874,39.882487]]}},{"type":"Feature","properties":{"k":"path"},"geometry":{"type":"LineString","coordinates":[[-74.891305,39.883882],[-74.890911,39.883482],[-74.889856,39.883202],[-74.888484,39.882803],[-74.888302,39.882759],[-74.888223,39.882727],[-74.887874,39.882487]]}},{"type":"Feature","properties":{"k":"bunker"},"geometry":{"type":"Polygon","coordinates":[[[-74.887408,39.881799],[-74.887477,39.881787],[-74.887495,39.881775],[-74.887504,39.881724],[-74.887535,39.8817],[-74.887542,39.88168],[-74.887533,39.881665],[-74.887512,39.881655],[-74.887496,39.881656],[-74.887473,39.88167],[-74.887438,39.881721],[-74.887407,39.881739],[-74.887396,39.88176],[-74.887408,39.881799]]]}},{"type":"Feature","properties":{"k":"bunker"},"geometry":{"type":"Polygon","coordinates":[[[-74.887186,39.881644],[-74.887167,39.881721],[-74.887113,39.881729],[-74.887094,39.881722],[-74.887096,39.8817],[-74.88713,39.881624],[-74.887147,39.881613],[-74.887174,39.881615],[-74.887189,39.881632],[-74.887186,39.881644]]]}},{"type":"Feature","properties":{"k":"bunker"},"geometry":{"type":"Polygon","coordinates":[[[-74.887175,39.881544],[-74.887228,39.881556],[-74.887263,39.881543],[-74.88728,39.881521],[-74.887268,39.881504],[-74.887242,39.881495],[-74.887197,39.881495],[-74.887154,39.881518],[-74.887157,39.88153],[-74.887175,39.881544]]]}},{"type":"Feature","properties":{"k":"tee"},"geometry":{"type":"Polygon","coordinates":[[[-74.887749,39.882544],[-74.887638,39.882877],[-74.887652,39.882903],[-74.887686,39.882915],[-74.887711,39.882909],[-74.887725,39.882884],[-74.887823,39.88256],[-74.887823,39.88254],[-74.887805,39.882523],[-74.887776,39.882522],[-74.887757,39.88253],[-74.887749,39.882544]]]}},{"type":"Feature","properties":{"k":"green"},"geometry":{"type":"Polygon","coordinates":[[[-74.887225,39.881621],[-74.887217,39.881739],[-74.887263,39.881768],[-74.887289,39.881772],[-74.887319,39.881767],[-74.887349,39.881749],[-74.887412,39.881694],[-74.887462,39.881629],[-74.887463,39.881599],[-74.887455,39.881577],[-74.887433,39.881554],[-74.887371,39.881536],[-74.887338,39.881538],[-74.887237,39.881588],[-74.887226,39.881599],[-74.887225,39.881621]]]}},{"type":"Feature","properties":{"k":"bunker"},"geometry":{"type":"Polygon","coordinates":[[[-74.886683,39.882532],[-74.886712,39.882601],[-74.886739,39.882639],[-74.886758,39.882635],[-74.886762,39.882525],[-74.886788,39.882479],[-74.886794,39.882458],[-74.886787,39.882442],[-74.886763,39.882432],[-74.886732,39.882439],[-74.886679,39.882472],[-74.886662,39.882491],[-74.88666,39.882509],[-74.886683,39.882532]]]}},{"type":"Feature","properties":{"k":"bunker"},"geometry":{"type":"Polygon","coordinates":[[[-74.886601,39.882558],[-74.886545,39.882678],[-74.886546,39.882699],[-74.88657,39.882717],[-74.886695,39.882723],[-74.886714,39.882712],[-74.886713,39.882681],[-74.886704,39.882648],[-74.886667,39.882581],[-74.886661,39.882549],[-74.886649,39.882534],[-74.886627,39.882531],[-74.886601,39.882558]]]}},{"type":"Feature","properties":{"k":"tee"},"geometry":{"type":"Polygon","coordinates":[[[-74.888756,39.881757],[-74.88884,39.881774],[-74.888853,39.881791],[-74.888843,39.881824],[-74.888806,39.881833],[-74.888735,39.881818],[-74.888721,39.881808],[-74.888723,39.881768],[-74.888738,39.881757],[-74.888756,39.881757]]]}},{"type":"Feature","properties":{"k":"tee"},"geometry":{"type":"Polygon","coordinates":[[[-74.88787,39.881784],[-74.888255,39.881848],[-74.888281,39.881844],[-74.888296,39.881818],[-74.888272,39.881791],[-74.887897,39.881721],[-74.88785,39.881734],[-74.887847,39.881766],[-74.88787,39.881784]]]}},{"type":"Feature","properties":{"k":"bunker"},"geometry":{"type":"Polygon","coordinates":[[[-74.890188,39.882364],[-74.890321,39.882419],[-74.890331,39.882432],[-74.890327,39.882446],[-74.890253,39.882467],[-74.890169,39.882437],[-74.890127,39.882406],[-74.890123,39.882384],[-74.890159,39.882363],[-74.890188,39.882364]]]}},{"type":"Feature","properties":{"k":"green"},"geometry":{"type":"Polygon","coordinates":[[[-74.892666,39.883741],[-74.89268,39.883842],[-74.892676,39.883862],[-74.892658,39.883878],[-74.892628,39.88389],[-74.892587,39.883879],[-74.892539,39.883854],[-74.892468,39.883802],[-74.89245,39.883773],[-74.892457,39.883723],[-74.892514,39.883673],[-74.892544,39.883666],[-74.892581,39.883669],[-74.892616,39.883684],[-74.892648,39.883706],[-74.892666,39.883741]]]}},{"type":"Feature","properties":{"k":"bunker"},"geometry":{"type":"Polygon","coordinates":[[[-74.889689,39.881606],[-74.889671,39.881639],[-74.889671,39.881659],[-74.889658,39.881671],[-74.889644,39.881668],[-74.889634,39.881652],[-74.889586,39.88162],[-74.889584,39.881584],[-74.889559,39.881561],[-74.889555,39.881546],[-74.889563,39.881531],[-74.889592,39.88152],[-74.889624,39.881523],[-74.889655,39.88157],[-74.88969,39.881595],[-74.889689,39.881606]]]}}]}