{"type":"FeatureCollection","features":[{"type":"Feature","properties":{"k":"hole","ref":"1"},"geometry":{"type":"LineString","coordinates":[[-87.581126,41.779063],[-87.581971,41.778478],[-87.582732,41.777922],[-87.584049,41.776713]]}},{"type":"Feature","properties":{"k":"hole","ref":"2"},"geometry":{"type":"LineString","coordinates":[[-87.583517,41.776469],[-87.581924,41.777664],[-87.580663,41.778461]]}},{"type":"Feature","properties":{"k":"hole","ref":"3"},"geometry":{"type":"LineString","coordinates":[[-87.580747,41.777984],[-87.581714,41.777016],[-87.582601,41.776145]]}},{"type":"Feature","properties":{"k":"hole","ref":"4"},"geometry":{"type":"LineString","coordinates":[[-87.582066,41.775265],[-87.583239,41.775001],[-87.584126,41.774462],[-87.584733,41.773924]]}},{"type":"Feature","properties":{"k":"hole","ref":"5"},"geometry":{"type":"LineString","coordinates":[[-87.584544,41.773677],[-87.582463,41.773892],[-87.580563,41.773911],[-87.579689,41.774035]]}},{"type":"Feature","properties":{"k":"hole","ref":"6"},"geometry":{"type":"LineString","coordinates":[[-87.579454,41.773819],[-87.577985,41.774032],[-87.577565,41.774053]]}},{"type":"Feature","properties":{"k":"hole","ref":"7"},"geometry":{"type":"LineString","coordinates":[[-87.575763,41.774182],[-87.573209,41.774057],[-87.572303,41.773998]]}},{"type":"Feature","properties":{"k":"hole","ref":"8"},"geometry":{"type":"LineString","coordinates":[[-87.572136,41.77422],[-87.571144,41.774119],[-87.57075,41.774018]]}},{"type":"Feature","properties":{"k":"hole","ref":"9"},"geometry":{"type":"LineString","coordinates":[[-87.571384,41.774468],[-87.569425,41.774094],[-87.568257,41.773949]]}},{"type":"Feature","properties":{"k":"hole","ref":"10"},"geometry":{"type":"LineString","coordinates":[[-87.568519,41.774239],[-87.570173,41.774678],[-87.571332,41.774735]]}},{"type":"Feature","properties":{"k":"hole","ref":"11"},"geometry":{"type":"LineString","coordinates":[[-87.570857,41.775093],[-87.572342,41.774907],[-87.573978,41.774827]]}},{"type":"Feature","properties":{"k":"hole","ref":"12"},"geometry":{"type":"LineString","coordinates":[[-87.573611,41.774415],[-87.574915,41.774744]]}},{"type":"Feature","properties":{"k":"hole","ref":"13"},"geometry":{"type":"LineString","coordinates":[[-87.575594,41.775157],[-87.577261,41.774395]]}},{"type":"Feature","properties":{"k":"hole","ref":"14"},"geometry":{"type":"LineString","coordinates":[[-87.577667,41.774586],[-87.579615,41.774461],[-87.582249,41.774374],[-87.58372,41.774248]]}},{"type":"Feature","properties":{"k":"hole","ref":"15"},"geometry":{"type":"LineString","coordinates":[[-87.582846,41.774611],[-87.580932,41.774799],[-87.578755,41.774938],[-87.577896,41.774976]]}},{"type":"Feature","properties":{"k":"hole","ref":"16"},"geometry":{"type":"LineString","coordinates":[[-87.577611,41.775304],[-87.579993,41.775265],[-87.581642,41.775203]]}},{"type":"Feature","properties":{"k":"hole","ref":"17"},"geometry":{"type":"LineString","coordinates":[[-87.582287,41.775935],[-87.579925,41.776364]]}},{"type":"Feature","properties":{"k":"hole","ref":"18"},"geometry":{"type":"LineString","coordinates":[[-87.579588,41.776341],[-87.580027,41.777655],[-87.580308,41.778367]]}},{"type":"Feature","properties":{"k":"water"},"geometry":{"type":"Polygon","coordinates":[[[-87.573315,41.77487],[-87.573173,41.774962],[-87.573106,41.775026],[-87.573111,41.775051],[-87.573147,41.775114],[-87.573187,41.775126],[-87.57325,41.775124],[-87.573331,41.77511],[-87.573356,41.775092],[-87.573362,41.775021],[-87.573369,41.774996],[-87.573386,41.774984],[-87.573458,41.774971],[-87.573584,41.774987],[-87.573689,41.77499],[-87.573742,41.774972],[-87.573802,41.774932],[-87.573806,41.774905],[-87.57379,41.774862],[-87.573752,41.774821],[-87.573728,41.774736],[-87.573677,41.774681],[-87.573638,41.774601],[-87.573578,41.774567],[-87.573512,41.774549],[-87.573388,41.774537],[-87.573239,41.774539],[-87.573101,41.774553],[-87.57296,41.774483],[-87.572721,41.774418],[-87.572482,41.774395],[-87.572406,41.774375],[-87.572081,41.774365],[-87.57203,41.77435],[-87.571971,41.774347],[-87.571865,41.774353],[-87.571847,41.77434],[-87.571808,41.774338],[-87.571796,41.774314],[-87.57188,41.774292],[-87.571927,41.774248],[-87.571958,41.774198],[-87.571977,41.774158],[-87.571978,41.774119],[-87.57194,41.774056],[-87.5719,41.774023],[-87.571726,41.773962],[-87.571526,41.773924],[-87.571368,41.773855],[-87.571258,41.773847],[-87.571234,41.773859],[-87.571226,41.77389],[-87.571283,41.773937],[-87.571395,41.774004],[-87.571417,41.774029],[-87.571538,41.774065],[-87.571651,41.774113],[-87.571667,41.774144],[-87.571667,41.774187],[-87.571616,41.774292],[-87.571635,41.774351],[-87.571692,41.77447],[-87.571764,41.774522],[-87.571924,41.774561],[-87.572046,41.774563],[-87.572169,41.774537],[-87.572296,41.774586],[-87.572653,41.774637],[-87.572897,41.774658],[-87.572977,41.774657],[-87.573028,41.774646],[-87.573106,41.774662],[-87.573306,41.774785],[-87.573337,41.774831],[-87.573315,41.77487]]]}},{"type":"Feature","properties":{"k":"path"},"geometry":{"type":"LineString","coordinates":[[-87.573008,41.774731],[-87.573062,41.774661]]}},{"type":"Feature","properties":{"k":"path"},"geometry":{"type":"LineString","coordinates":[[-87.571593,41.774325],[-87.571821,41.774316]]}},{"type":"Feature","properties":{"k":"path"},"geometry":{"type":"LineString","coordinates":[[-87.573152,41.774528],[-87.573221,41.774485],[-87.573321,41.774459],[-87.573404,41.774463],[-87.573601,41.774526],[-87.57372,41.774606]]}},{"type":"Feature","properties":{"k":"path"},"geometry":{"type":"LineString","coordinates":[[-87.571821,41.774316],[-87.572064,41.774304],[-87.572139,41.77431],[-87.57223,41.774295],[-87.572269,41.774265],[-87.5723,41.774185]]}},{"type":"Feature","properties":{"k":"path"},"geometry":{"type":"LineString","coordinates":[[-87.573062,41.774661],[-87.573152,41.774528]]}},{"type":"Feature","properties":{"k":"path"},"geometry":{"type":"LineString","coordinates":[[-87.571268,41.77437],[-87.571424,41.774336],[-87.571593,41.774325]]}},{"type":"Feature","properties":{"k":"path"},"geometry":{"type":"LineString","coordinates":[[-87.579926,41.778371],[-87.579534,41.777844],[-87.57938,41.777564],[-87.579299,41.777393],[-87.579238,41.777223],[-87.579209,41.777046],[-87.579199,41.776912],[-87.579223,41.776692]]}},{"type":"Feature","properties":{"k":"green"},"geometry":{"type":"Polygon","coordinates":[[[-87.584142,41.776641],[-87.584172,41.776663],[-87.584191,41.776713],[-87.584175,41.776751],[-87.584137,41.776777],[-87.584073,41.776805],[-87.584007,41.77682],[-87.583952,41.776819],[-87.583917,41.776805],[-87.583893,41.776783],[-87.583893,41.776751],[-87.583914,41.776713],[-87.583965,41.776675],[-87.584024,41.776641],[-87.584067,41.776629],[-87.584142,41.776641]]]}},{"type":"Feature","properties":{"k":"bunker"},"geometry":{"type":"Polygon","coordinates":[[[-87.581016,41.778624],[-87.580961,41.778631],[-87.580929,41.778628],[-87.580884,41.77861],[-87.580869,41.778594],[-87.580852,41.778563],[-87.580855,41.778545],[-87.580877,41.778506],[-87.580914,41.778482],[-87.580994,41.77848],[-87.581018,41.778487],[-87.581056,41.778517],[-87.581072,41.778578],[-87.581052,41.77861],[-87.581016,41.778624]]]}},{"type":"Feature","properties":{"k":"tee"},"geometry":{"type":"Polygon","coordinates":[[[-87.580801,41.777758],[-87.580837,41.777778],[-87.580847,41.777808],[-87.580826,41.777835],[-87.580782,41.77784],[-87.580749,41.777818],[-87.580745,41.777783],[-87.580769,41.777758],[-87.580801,41.777758]]]}},{"type":"Feature","properties":{"k":"tee"},"geometry":{"type":"Polygon","coordinates":[[[-87.581344,41.778986],[-87.581341,41.779011],[-87.581317,41.77903],[-87.58129,41.779036],[-87.581271,41.779031],[-87.581252,41.77902],[-87.58119,41.778942],[-87.581184,41.77892],[-87.581191,41.77891],[-87.581218,41.7789],[-87.58125,41.778904],[-87.58133,41.778966],[-87.581344,41.778986]]]}},{"type":"Feature","properties":{"k":"bunker"},"geometry":{"type":"Polygon","coordinates":[[[-87.58393,41.776658],[-87.583888,41.776687],[-87.583861,41.776691],[-87.583791,41.776684],[-87.583761,41.776675],[-87.583743,41.77666],[-87.583733,41.776622],[-87.583737,41.776604],[-87.583749,41.776589],[-87.583782,41.776577],[-87.583831,41.77659],[-87.583907,41.776599],[-87.583933,41.776614],[-87.583939,41.776629],[-87.58393,41.776658]]]}},{"type":"Feature","properties":{"k":"fairway"},"geometry":{"type":"Polygon","coordinates":[[[-87.58238,41.777119],[-87.582407,41.777099],[-87.582444,41.777085],[-87.582485,41.777081],[-87.582525,41.777087],[-87.582573,41.777107],[-87.582649,41.777172],[-87.58267,41.777215],[-87.58266,41.777265],[-87.582603,41.777309],[-87.58249,41.777375],[-87.582233,41.777505],[-87.582153,41.777602],[-87.582134,41.777652],[-87.582077,41.777711],[-87.58198,41.777783],[-87.581844,41.777931],[-87.581614,41.778094],[-87.581483,41.778158],[-87.58126,41.778252],[-87.581055,41.778369],[-87.580985,41.778389],[-87.580937,41.778383],[-87.580889,41.778367],[-87.580859,41.778333],[-87.580851,41.778289],[-87.580908,41.778205],[-87.581002,41.778117],[-87.581214,41.777953],[-87.581447,41.777847],[-87.581576,41.777737],[-87.581704,41.777673],[-87.581881,41.777503],[-87.581948,41.777481],[-87.58201,41.777447],[-87.582072,41.777399],[-87.582136,41.777331],[-87.58238,41.777119]]]}},{"type":"Feature","properties":{"k":"green"},"geometry":{"type":"Polygon","coordinates":[[[-87.580676,41.778383],[-87.580741,41.778366],[-87.580785,41.778371],[-87.580802,41.778382],[-87.580835,41.778442],[-87.580819,41.778474],[-87.580774,41.778504],[-87.580672,41.778547],[-87.580605,41.778587],[-87.580552,41.778595],[-87.580503,41.778585],[-87.580456,41.778533],[-87.580453,41.778513],[-87.580468,41.778485],[-87.580676,41.778383]]]}},{"type":"Feature","properties":{"k":"bunker"},"geometry":{"type":"Polygon","coordinates":[[[-87.582518,41.777785],[-87.582517,41.777831],[-87.582501,41.777847],[-87.582473,41.777851],[-87.582378,41.77782],[-87.582348,41.777776],[-87.582351,41.777763],[-87.582382,41.777739],[-87.582435,41.777729],[-87.582483,41.777743],[-87.582518,41.777785]]]}},{"type":"Feature","properties":{"k":"bunker"},"geometry":{"type":"Polygon","coordinates":[[[-87.58086,41.77863],[-87.580849,41.77866],[-87.580807,41.77868],[-87.580765,41.778686],[-87.580713,41.778674],[-87.580691,41.778661],[-87.580676,41.778642],[-87.580669,41.778606],[-87.580674,41.77859],[-87.580701,41.778565],[-87.580777,41.778556],[-87.580802,41.77856],[-87.580837,41.778581],[-87.58086,41.77863]]]}},{"type":"Feature","properties":{"k":"bunker"},"geometry":{"type":"Polygon","coordinates":[[[-87.580127,41.776215],[-87.580131,41.776232],[-87.580093,41.776278],[-87.580053,41.776286],[-87.579993,41.776268],[-87.579943,41.776232],[-87.57989,41.776167],[-87.57989,41.776137],[-87.5799,41.776119],[-87.579943,41.776105],[-87.579985,41.776111],[-87.580088,41.776179],[-87.580127,41.776215]]]}},{"type":"Feature","properties":{"k":"bunker"},"geometry":{"type":"Polygon","coordinates":[[[-87.580116,41.778142],[-87.580136,41.778151],[-87.580148,41.778178],[-87.580142,41.778189],[-87.58011,41.778202],[-87.580076,41.77819],[-87.580059,41.778163],[-87.580072,41.778141],[-87.580088,41.778137],[-87.580116,41.778142]]]}},{"type":"Feature","properties":{"k":"bunker"},"geometry":{"type":"Polygon","coordinates":[[[-87.582445,41.777612],[-87.582445,41.777637],[-87.582435,41.777646],[-87.582393,41.777658],[-87.582356,41.777656],[-87.582324,41.777637],[-87.582311,41.777616],[-87.582299,41.777578],[-87.582311,41.777545],[-87.582356,41.77753],[-87.582396,41.777542],[-87.582428,41.777576],[-87.582445,41.777612]]]}},{"type":"Feature","properties":{"k":"bunker"},"geometry":{"type":"Polygon","coordinates":[[[-87.580202,41.77646],[-87.580224,41.776481],[-87.580222,41.77651],[-87.580157,41.776539],[-87.580086,41.776533],[-87.580051,41.776495],[-87.580048,41.776471],[-87.580073,41.776446],[-87.580099,41.77644],[-87.58016,41.776443],[-87.580202,41.77646]]]}},{"type":"Feature","properties":{"k":"tee"},"geometry":{"type":"Polygon","coordinates":[[[-87.580689,41.777919],[-87.580704,41.777913],[-87.580754,41.777919],[-87.580803,41.777947],[-87.580828,41.778002],[-87.580818,41.778015],[-87.580793,41.778027],[-87.580764,41.778029],[-87.580733,41.778026],[-87.580695,41.778005],[-87.580661,41.777965],[-87.580658,41.777947],[-87.580669,41.77793],[-87.580689,41.777919]]]}},{"type":"Feature","properties":{"k":"bunker"},"geometry":{"type":"Polygon","coordinates":[[[-87.584185,41.776819],[-87.584191,41.776845],[-87.584183,41.776859],[-87.584092,41.77693],[-87.584011,41.776941],[-87.583971,41.776928],[-87.58396,41.776915],[-87.583961,41.776882],[-87.583993,41.776849],[-87.58414,41.776793],[-87.584185,41.776819]]]}},{"type":"Feature","properties":{"k":"green"},"geometry":{"type":"Polygon","coordinates":[[[-87.580039,41.776308],[-87.580062,41.776347],[-87.580053,41.776394],[-87.580011,41.776433],[-87.579985,41.776442],[-87.579952,41.776447],[-87.579884,41.776436],[-87.579827,41.776405],[-87.579812,41.776387],[-87.579801,41.776362],[-87.579811,41.776313],[-87.579862,41.776269],[-87.579921,41.776265],[-87.580039,41.776308]]]}},{"type":"Feature","properties":{"k":"bunker"},"geometry":{"type":"Polygon","coordinates":[[[-87.582894,41.778143],[-87.58287,41.778189],[-87.582875,41.778258],[-87.58286,41.778302],[-87.582817,41.778334],[-87.582767,41.778334],[-87.582746,41.77832],[-87.582739,41.778295],[-87.582763,41.778058],[-87.582842,41.778052],[-87.582882,41.778069],[-87.582901,41.778102],[-87.582894,41.778143]]]}},{"type":"Feature","properties":{"k":"bunker"},"geometry":{"type":"Polygon","coordinates":[[[-87.582476,41.776047],[-87.582463,41.776087],[-87.582412,41.776123],[-87.58236,41.776132],[-87.582335,41.776129],[-87.582315,41.776121],[-87.582295,41.776099],[-87.5823,41.776067],[-87.582416,41.77601],[-87.582449,41.77601],[-87.582463,41.776017],[-87.582476,41.776047]]]}},{"type":"Feature","properties":{"k":"green"},"geometry":{"type":"Polygon","coordinates":[[[-87.582711,41.776057],[-87.58272,41.776104],[-87.582671,41.77616],[-87.582659,41.776189],[-87.582623,41.776223],[-87.582604,41.776233],[-87.582536,41.776239],[-87.582475,41.776212],[-87.582468,41.776171],[-87.5825,41.776091],[-87.582564,41.776036],[-87.582589,41.776024],[-87.582673,41.776023],[-87.582699,41.776038],[-87.582711,41.776057]]]}},{"type":"Feature","properties":{"k":"tee"},"geometry":{"type":"Polygon","coordinates":[[[-87.581148,41.779009],[-87.581171,41.77902],[-87.581185,41.779038],[-87.581184,41.779074],[-87.58117,41.779088],[-87.581142,41.779098],[-87.581087,41.779095],[-87.581067,41.779068],[-87.581072,41.779034],[-87.581097,41.779014],[-87.581148,41.779009]]]}},{"type":"Feature","properties":{"k":"tee"},"geometry":{"type":"Polygon","coordinates":[[[-87.579606,41.776451],[-87.579643,41.776463],[-87.579662,41.776479],[-87.579665,41.776518],[-87.57959,41.776534],[-87.579563,41.776529],[-87.579536,41.776513],[-87.579517,41.776473],[-87.579536,41.776457],[-87.579606,41.776451]]]}},{"type":"Feature","properties":{"k":"tee"},"geometry":{"type":"Polygon","coordinates":[[[-87.581678,41.776013],[-87.581659,41.776042],[-87.581614,41.776049],[-87.581559,41.776026],[-87.581547,41.775982],[-87.581571,41.77596],[-87.581616,41.77596],[-87.581659,41.775982],[-87.581678,41.776013]]]}},{"type":"Feature","properties":{"k":"green"},"geometry":{"type":"Polygon","coordinates":[[[-87.580432,41.778378],[-87.580444,41.778423],[-87.580422,41.778464],[-87.580365,41.778493],[-87.580309,41.778494],[-87.580283,41.778485],[-87.580238,41.778448],[-87.580181,41.778331],[-87.580178,41.778311],[-87.580196,41.778276],[-87.580214,41.778259],[-87.580261,41.778243],[-87.580312,41.778244],[-87.580337,41.778254],[-87.580375,41.778294],[-87.580432,41.778378]]]}},{"type":"Feature","properties":{"k":"fairway"},"geometry":{"type":"Polygon","coordinates":[[[-87.583823,41.777061],[-87.583764,41.777141],[-87.583646,41.777253],[-87.583533,41.777329],[-87.583217,41.777697],[-87.58311,41.777793],[-87.582713,41.778085],[-87.582104,41.778565],[-87.581865,41.778713],[-87.581763,41.778739],[-87.581691,41.778737],[-87.581611,41.778722],[-87.58155,41.77867],[-87.581519,41.778603],[-87.581525,41.778539],[-87.581606,41.778474],[-87.581935,41.778257],[-87.582287,41.778066],[-87.582641,41.777854],[-87.582761,41.777753],[-87.582938,41.777573],[-87.583237,41.77731],[-87.583356,41.777185],[-87.583732,41.776853],[-87.583791,41.776849],[-87.58385,41.776873],[-87.583891,41.776934],[-87.583871,41.776997],[-87.583823,41.777061]]]}},{"type":"Feature","properties":{"k":"bunker"},"geometry":{"type":"Polygon","coordinates":[[[-87.582609,41.776305],[-87.582639,41.776327],[-87.582645,41.776361],[-87.58262,41.776406],[-87.582597,41.776423],[-87.582566,41.776441],[-87.582481,41.776466],[-87.582425,41.776463],[-87.582388,41.77644],[-87.582379,41.776427],[-87.58238,41.776392],[-87.582407,41.776349],[-87.582469,41.776322],[-87.582507,41.776313],[-87.582609,41.776305]]]}},{"type":"Feature","properties":{"k":"tee"},"geometry":{"type":"Polygon","coordinates":[[[-87.58197,41.775984],[-87.581973,41.77602],[-87.581945,41.776036],[-87.581902,41.776033],[-87.581881,41.776024],[-87.581861,41.775995],[-87.581866,41.775968],[-87.581886,41.775953],[-87.581907,41.775951],[-87.581944,41.775961],[-87.58197,41.775984]]]}},{"type":"Feature","properties":{"k":"bunker"},"geometry":{"type":"Polygon","coordinates":[[[-87.580511,41.778297],[-87.580479,41.778297],[-87.580442,41.778285],[-87.580427,41.77824],[-87.580376,41.778223],[-87.580355,41.778202],[-87.580358,41.778179],[-87.580367,41.778171],[-87.580427,41.778152],[-87.58048,41.778174],[-87.580503,41.778211],[-87.580541,41.778238],[-87.580553,41.778256],[-87.58055,41.778273],[-87.580511,41.778297]]]}},{"type":"Feature","properties":{"k":"bunker"},"geometry":{"type":"Polygon","coordinates":[[[-87.58281,41.776153],[-87.582811,41.776184],[-87.582789,41.776234],[-87.582768,41.776257],[-87.582747,41.776259],[-87.582701,41.77622],[-87.582693,41.776185],[-87.582701,41.776169],[-87.582742,41.776135],[-87.582779,41.776136],[-87.58281,41.776153]]]}},{"type":"Feature","properties":{"k":"bunker"},"geometry":{"type":"Polygon","coordinates":[[[-87.584786,41.774136],[-87.584781,41.774159],[-87.584748,41.774196],[-87.58464,41.774275],[-87.58461,41.774279],[-87.584537,41.774272],[-87.584507,41.774248],[-87.584511,41.774219],[-87.584526,41.774201],[-87.584597,41.774169],[-87.584699,41.774101],[-87.584739,41.77409],[-87.584758,41.774093],[-87.58478,41.774111],[-87.584786,41.774136]]]}},{"type":"Feature","properties":{"k":"bunker"},"geometry":{"type":"Polygon","coordinates":[[[-87.5833,41.774625],[-87.583334,41.774686],[-87.583313,41.774708],[-87.583285,41.774721],[-87.583224,41.774727],[-87.583187,41.774721],[-87.583141,41.774694],[-87.583127,41.774673],[-87.583128,41.774608],[-87.583175,41.77458],[-87.583224,41.774571],[-87.583247,41.774577],[-87.583286,41.7746],[-87.5833,41.774625]]]}},{"type":"Feature","properties":{"k":"bunker"},"geometry":{"type":"Polygon","coordinates":[[[-87.580187,41.774584],[-87.580208,41.774586],[-87.580237,41.774604],[-87.580242,41.774633],[-87.580221,41.774653],[-87.580182,41.774657],[-87.580158,41.774649],[-87.580116,41.774656],[-87.580079,41.774646],[-87.580072,41.774628],[-87.580078,41.774598],[-87.580098,41.774583],[-87.580147,41.774592],[-87.580187,41.774584]]]}},{"type":"Feature","properties":{"k":"bunker"},"geometry":{"type":"Polygon","coordinates":[[[-87.577211,41.774588],[-87.577214,41.774627],[-87.577164,41.77466],[-87.577064,41.774674],[-87.577018,41.774663],[-87.57699,41.774646],[-87.576984,41.774613],[-87.577009,41.774587],[-87.577123,41.774549],[-87.577154,41.774545],[-87.577182,41.774552],[-87.577206,41.774571],[-87.577211,41.774588]]]}},{"type":"Feature","properties":{"k":"bunker"},"geometry":{"type":"Polygon","coordinates":[[[-87.583622,41.775047],[-87.583602,41.775043],[-87.583579,41.775026],[-87.583574,41.775012],[-87.583583,41.774987],[-87.583614,41.774973],[-87.583666,41.774968],[-87.58369,41.774954],[-87.583723,41.774917],[-87.583751,41.774908],[-87.583807,41.774916],[-87.583825,41.77493],[-87.583827,41.774965],[-87.583802,41.774996],[-87.583781,41.775008],[-87.583707,41.775026],[-87.583686,41.775039],[-87.583622,41.775047]]]}},{"type":"Feature","properties":{"k":"bunker"},"geometry":{"type":"Polygon","coordinates":[[[-87.581971,41.774014],[-87.58202,41.77401],[-87.582065,41.774019],[-87.582077,41.774046],[-87.582071,41.774059],[-87.582044,41.774074],[-87.581984,41.774057],[-87.58191,41.774072],[-87.58189,41.77407],[-87.581864,41.774049],[-87.581861,41.774025],[-87.581891,41.774007],[-87.581971,41.774014]]]}},{"type":"Feature","properties":{"k":"bunker"},"geometry":{"type":"Polygon","coordinates":[[[-87.581358,41.775175],[-87.581332,41.7752],[-87.581209,41.775217],[-87.581168,41.775198],[-87.581164,41.775184],[-87.581184,41.775139],[-87.581243,41.775104],[-87.581299,41.775109],[-87.581328,41.77512],[-87.581349,41.775136],[-87.581358,41.775175]]]}},{"type":"Feature","properties":{"k":"bunker"},"geometry":{"type":"Polygon","coordinates":[[[-87.580572,41.77504],[-87.580602,41.77504],[-87.580626,41.775062],[-87.580631,41.775096],[-87.580609,41.775122],[-87.580576,41.775127],[-87.580508,41.775105],[-87.580472,41.775109],[-87.580446,41.775102],[-87.580433,41.775076],[-87.580434,41.775059],[-87.580453,41.775032],[-87.580488,41.775026],[-87.580528,41.775047],[-87.580572,41.77504]]]}},{"type":"Feature","properties":{"k":"bunker"},"geometry":{"type":"Polygon","coordinates":[[[-87.579894,41.77416],[-87.579869,41.774192],[-87.57982,41.774224],[-87.579799,41.774227],[-87.579754,41.774219],[-87.57973,41.77421],[-87.579711,41.774192],[-87.57971,41.774168],[-87.579719,41.774155],[-87.579824,41.774107],[-87.57988,41.774119],[-87.579894,41.77413],[-87.579894,41.77416]]]}},{"type":"Feature","properties":{"k":"bunker"},"geometry":{"type":"Polygon","coordinates":[[[-87.577717,41.774204],[-87.577722,41.774226],[-87.577702,41.774273],[-87.577664,41.7743],[-87.577583,41.7743],[-87.577543,41.774275],[-87.577529,41.774232],[-87.577535,41.774214],[-87.57756,41.774179],[-87.577589,41.774165],[-87.577647,41.77416],[-87.577678,41.774166],[-87.577703,41.774182],[-87.577717,41.774204]]]}},{"type":"Feature","properties":{"k":"bunker"},"geometry":{"type":"Polygon","coordinates":[[[-87.581522,41.775266],[-87.581553,41.775283],[-87.581562,41.77531],[-87.581551,41.775329],[-87.581507,41.775355],[-87.581381,41.775373],[-87.581328,41.77536],[-87.581313,41.775346],[-87.581314,41.775318],[-87.581329,41.775302],[-87.581362,41.775288],[-87.581457,41.775269],[-87.581522,41.775266]]]}},{"type":"Feature","properties":{"k":"bunker"},"geometry":{"type":"Polygon","coordinates":[[[-87.580417,41.774623],[-87.580437,41.774629],[-87.580449,41.774654],[-87.580429,41.774677],[-87.580395,41.774681],[-87.580375,41.774675],[-87.580316,41.774691],[-87.580288,41.774681],[-87.580288,41.774649],[-87.580386,41.774623],[-87.580417,41.774623]]]}},{"type":"Feature","properties":{"k":"bunker"},"geometry":{"type":"Polygon","coordinates":[[[-87.58044,41.774298],[-87.580409,41.77431],[-87.580354,41.774304],[-87.580275,41.774326],[-87.580259,41.774323],[-87.580245,41.774301],[-87.580259,41.774268],[-87.580284,41.774251],[-87.580403,41.77424],[-87.580442,41.774246],[-87.580453,41.774276],[-87.58044,41.774298]]]}},{"type":"Feature","properties":{"k":"bunker"},"geometry":{"type":"Polygon","coordinates":[[[-87.583958,41.774361],[-87.583938,41.774386],[-87.583901,41.774403],[-87.583827,41.774403],[-87.583804,41.7744],[-87.583783,41.774386],[-87.583789,41.774361],[-87.583814,41.774343],[-87.583878,41.774326],[-87.583926,41.774326],[-87.583945,41.774332],[-87.583958,41.774361]]]}},{"type":"Feature","properties":{"k":"bunker"},"geometry":{"type":"Polygon","coordinates":[[[-87.579849,41.773903],[-87.57985,41.773917],[-87.579828,41.773931],[-87.57977,41.77392],[-87.579745,41.773889],[-87.579746,41.773859],[-87.579773,41.773845],[-87.579816,41.773854],[-87.579849,41.773903]]]}},{"type":"Feature","properties":{"k":"bunker"},"geometry":{"type":"Polygon","coordinates":[[[-87.577659,41.773896],[-87.577661,41.773926],[-87.577645,41.773936],[-87.577532,41.773943],[-87.577521,41.773935],[-87.577517,41.773904],[-87.577531,41.773896],[-87.577595,41.773882],[-87.577649,41.773885],[-87.577659,41.773896]]]}},{"type":"Feature","properties":{"k":"bunker"},"geometry":{"type":"Polygon","coordinates":[[[-87.578094,41.775133],[-87.578109,41.775139],[-87.578114,41.775165],[-87.578082,41.775191],[-87.578054,41.775201],[-87.577871,41.775197],[-87.577845,41.77519],[-87.577822,41.775172],[-87.577825,41.775138],[-87.577841,41.775116],[-87.5779,41.775089],[-87.577939,41.775086],[-87.577976,41.775094],[-87.578094,41.775133]]]}},{"type":"Feature","properties":{"k":"bunker"},"geometry":{"type":"Polygon","coordinates":[[[-87.580367,41.774947],[-87.580374,41.774982],[-87.58033,41.775003],[-87.580193,41.774996],[-87.580175,41.774978],[-87.580178,41.774951],[-87.580226,41.774929],[-87.580298,41.774949],[-87.580336,41.77494],[-87.580367,41.774947]]]}},{"type":"Feature","properties":{"k":"green"},"geometry":{"type":"Polygon","coordinates":[[[-87.578016,41.774958],[-87.578022,41.774997],[-87.577987,41.775026],[-87.577957,41.77504],[-87.577863,41.775051],[-87.577816,41.775047],[-87.577753,41.775023],[-87.57774,41.775008],[-87.577729,41.774965],[-87.577737,41.774946],[-87.577763,41.774926],[-87.577796,41.774909],[-87.577843,41.774901],[-87.577937,41.774907],[-87.577972,41.77492],[-87.578016,41.774958]]]}},{"type":"Feature","properties":{"k":"green"},"geometry":{"type":"Polygon","coordinates":[[[-87.577384,41.774445],[-87.577345,41.774488],[-87.577313,41.774504],[-87.577245,41.774515],[-87.57718,41.774504],[-87.577156,41.77449],[-87.577124,41.774439],[-87.577121,41.774398],[-87.577135,41.774366],[-87.577155,41.774341],[-87.577187,41.774324],[-87.577259,41.774316],[-87.577332,41.774357],[-87.577388,41.774404],[-87.577384,41.774445]]]}},{"type":"Feature","properties":{"k":"green"},"geometry":{"type":"Polygon","coordinates":[[[-87.579849,41.774022],[-87.579838,41.774063],[-87.579814,41.774083],[-87.579775,41.774104],[-87.579676,41.774121],[-87.57964,41.774115],[-87.579565,41.774082],[-87.579531,41.774022],[-87.579559,41.773987],[-87.579597,41.773967],[-87.579718,41.773953],[-87.579799,41.773972],[-87.579829,41.773989],[-87.579849,41.774022]]]}},{"type":"Feature","properties":{"k":"bunker"},"geometry":{"type":"Polygon","coordinates":[[[-87.574875,41.774648],[-87.574866,41.774675],[-87.57483,41.774696],[-87.574776,41.774676],[-87.574761,41.774661],[-87.574757,41.774631],[-87.574796,41.774606],[-87.574812,41.774606],[-87.574837,41.774612],[-87.574875,41.774648]]]}},{"type":"Feature","properties":{"k":"green"},"geometry":{"type":"Polygon","coordinates":[[[-87.568366,41.773921],[-87.568387,41.77394],[-87.568399,41.773973],[-87.568382,41.774002],[-87.56835,41.774016],[-87.568228,41.774026],[-87.568173,41.774023],[-87.568133,41.774013],[-87.56809,41.773977],[-87.568084,41.773915],[-87.568094,41.773889],[-87.568114,41.773868],[-87.568144,41.773856],[-87.568187,41.773851],[-87.568232,41.773856],[-87.568366,41.773921]]]}},{"type":"Feature","properties":{"k":"bunker"},"geometry":{"type":"Polygon","coordinates":[[[-87.571185,41.774654],[-87.571181,41.774667],[-87.571145,41.774681],[-87.571084,41.774681],[-87.57106,41.774664],[-87.571065,41.774652],[-87.5711,41.774633],[-87.571145,41.774622],[-87.571179,41.774636],[-87.571185,41.774654]]]}},{"type":"Feature","properties":{"k":"green"},"geometry":{"type":"Polygon","coordinates":[[[-87.575055,41.774729],[-87.575071,41.774747],[-87.575068,41.774775],[-87.575051,41.774801],[-87.574985,41.774833],[-87.574942,41.774839],[-87.574875,41.774825],[-87.574846,41.774811],[-87.574811,41.77477],[-87.574808,41.774744],[-87.574822,41.774722],[-87.574853,41.774702],[-87.574926,41.774679],[-87.574967,41.774679],[-87.575006,41.774691],[-87.575055,41.774729]]]}},{"type":"Feature","properties":{"k":"bunker"},"geometry":{"type":"Polygon","coordinates":[[[-87.574304,41.774931],[-87.574274,41.77497],[-87.574217,41.775],[-87.57418,41.775002],[-87.574156,41.774996],[-87.574123,41.774966],[-87.574113,41.774932],[-87.574152,41.77483],[-87.574178,41.774791],[-87.57421,41.774771],[-87.574246,41.77478],[-87.574275,41.774805],[-87.574307,41.774913],[-87.574304,41.774931]]]}},{"type":"Feature","properties":{"k":"green"},"geometry":{"type":"Polygon","coordinates":[[[-87.574104,41.774799],[-87.574114,41.774827],[-87.574104,41.77487],[-87.574082,41.77489],[-87.574049,41.774904],[-87.573969,41.774909],[-87.573919,41.774899],[-87.573882,41.774883],[-87.573862,41.774865],[-87.57386,41.774819],[-87.573875,41.774797],[-87.573902,41.774776],[-87.573931,41.774765],[-87.574021,41.774767],[-87.574065,41.774776],[-87.574104,41.774799]]]}},{"type":"Feature","properties":{"k":"bunker"},"geometry":{"type":"Polygon","coordinates":[[[-87.571078,41.774762],[-87.571092,41.774774],[-87.571094,41.77479],[-87.571035,41.774847],[-87.571003,41.774857],[-87.570975,41.774845],[-87.570964,41.774822],[-87.57102,41.774756],[-87.57104,41.774752],[-87.571078,41.774762]]]}},{"type":"Feature","properties":{"k":"bunker"},"geometry":{"type":"Polygon","coordinates":[[[-87.570986,41.774201],[-87.57096,41.774236],[-87.570921,41.774256],[-87.570897,41.774259],[-87.570842,41.774248],[-87.570807,41.774228],[-87.570789,41.774187],[-87.570807,41.774142],[-87.570829,41.774126],[-87.570868,41.774117],[-87.570928,41.774131],[-87.57096,41.774147],[-87.570976,41.774162],[-87.570986,41.774201]]]}},{"type":"Feature","properties":{"k":"green"},"geometry":{"type":"Polygon","coordinates":[[[-87.57092,41.774],[-87.570935,41.774031],[-87.570933,41.774053],[-87.570919,41.774064],[-87.5709,41.774071],[-87.570706,41.774085],[-87.570676,41.774085],[-87.570647,41.774074],[-87.570627,41.774057],[-87.570608,41.774012],[-87.570619,41.773962],[-87.570637,41.773939],[-87.570657,41.773922],[-87.570698,41.773912],[-87.5708,41.77392],[-87.570859,41.773942],[-87.570895,41.773967],[-87.57092,41.774]]]}},{"type":"Feature","properties":{"k":"bunker"},"geometry":{"type":"Polygon","coordinates":[[[-87.571154,41.773975],[-87.571154,41.774006],[-87.571139,41.774024],[-87.571093,41.77404],[-87.571037,41.774038],[-87.570998,41.774024],[-87.570959,41.77399],[-87.570942,41.773945],[-87.570977,41.773905],[-87.57104,41.773893],[-87.571081,41.773902],[-87.571117,41.773921],[-87.571154,41.773975]]]}},{"type":"Feature","properties":{"k":"green"},"geometry":{"type":"Polygon","coordinates":[[[-87.577693,41.774103],[-87.577659,41.774117],[-87.577584,41.774129],[-87.577491,41.774122],[-87.577464,41.774112],[-87.577427,41.774078],[-87.577421,41.774036],[-87.577431,41.774014],[-87.57747,41.773987],[-87.5775,41.773981],[-87.57754,41.773981],[-87.577708,41.774011],[-87.577737,41.77404],[-87.577719,41.774086],[-87.577693,41.774103]]]}},{"type":"Feature","properties":{"k":"green"},"geometry":{"type":"Polygon","coordinates":[[[-87.584903,41.773935],[-87.584886,41.773962],[-87.584856,41.773984],[-87.584798,41.774001],[-87.584688,41.774012],[-87.584633,41.774004],[-87.584594,41.773989],[-87.584574,41.773939],[-87.584589,41.773907],[-87.584637,41.773868],[-87.584768,41.773846],[-87.584818,41.773852],[-87.584891,41.773886],[-87.584905,41.773904],[-87.584903,41.773935]]]}},{"type":"Feature","properties":{"k":"green"},"geometry":{"type":"Polygon","coordinates":[[[-87.572455,41.773976],[-87.572465,41.77401],[-87.57245,41.774043],[-87.572389,41.774066],[-87.572214,41.774062],[-87.57218,41.774044],[-87.572153,41.773997],[-87.572161,41.773964],[-87.572191,41.773936],[-87.572238,41.77392],[-87.572269,41.773917],[-87.572353,41.773921],[-87.572393,41.773933],[-87.572423,41.773947],[-87.572455,41.773976]]]}},{"type":"Feature","properties":{"k":"green"},"geometry":{"type":"Polygon","coordinates":[[[-87.581793,41.775172],[-87.581792,41.775194],[-87.581765,41.775232],[-87.581715,41.775269],[-87.581673,41.775278],[-87.581592,41.775262],[-87.581537,41.775239],[-87.581507,41.775224],[-87.581487,41.775199],[-87.581492,41.775169],[-87.581541,41.775136],[-87.581664,41.775115],[-87.581741,41.775121],[-87.58177,41.775136],[-87.581793,41.775172]]]}},{"type":"Feature","properties":{"k":"bunker"},"geometry":{"type":"Polygon","coordinates":[[[-87.57511,41.774654],[-87.57509,41.774685],[-87.575056,41.774692],[-87.575036,41.774687],[-87.575017,41.77467],[-87.575006,41.774652],[-87.575007,41.774631],[-87.57503,41.774616],[-87.575063,41.77462],[-87.575082,41.774627],[-87.57511,41.774654]]]}},{"type":"Feature","properties":{"k":"green"},"geometry":{"type":"Polygon","coordinates":[[[-87.571474,41.774723],[-87.571479,41.774745],[-87.57145,41.774784],[-87.57142,41.774801],[-87.57134,41.774823],[-87.571252,41.774815],[-87.571196,41.774782],[-87.571166,41.774734],[-87.571167,41.774712],[-87.571182,41.77469],[-87.571202,41.774674],[-87.571256,41.774659],[-87.57134,41.774663],[-87.571416,41.774676],[-87.571474,41.774723]]]}},{"type":"Feature","properties":{"k":"green"},"geometry":{"type":"Polygon","coordinates":[[[-87.583897,41.774214],[-87.583896,41.774238],[-87.583862,41.774278],[-87.583795,41.77431],[-87.583746,41.774319],[-87.583674,41.774324],[-87.58359,41.774308],[-87.583563,41.774293],[-87.583544,41.774243],[-87.583564,41.774197],[-87.58359,41.774183],[-87.583791,41.774158],[-87.583827,41.77416],[-87.583872,41.774178],[-87.583897,41.774214]]]}},{"type":"Feature","properties":{"k":"tee"},"geometry":{"type":"Polygon","coordinates":[[[-87.57774,41.77456],[-87.577744,41.774614],[-87.577721,41.774646],[-87.577678,41.774659],[-87.577641,41.774653],[-87.577615,41.77463],[-87.577599,41.774588],[-87.577621,41.774541],[-87.577661,41.774521],[-87.577688,41.774519],[-87.577708,41.774524],[-87.57774,41.77456]]]}},{"type":"Feature","properties":{"k":"tee"},"geometry":{"type":"Polygon","coordinates":[[[-87.582135,41.77525],[-87.582127,41.775283],[-87.58208,41.775308],[-87.58203,41.775313],[-87.58201,41.775308],[-87.581986,41.775278],[-87.581985,41.775259],[-87.582009,41.775219],[-87.582049,41.775202],[-87.582104,41.77521],[-87.582135,41.77525]]]}},{"type":"Feature","properties":{"k":"tee"},"geometry":{"type":"Polygon","coordinates":[[[-87.584316,41.773731],[-87.584292,41.773744],[-87.584224,41.773752],[-87.584202,41.773748],[-87.584175,41.773725],[-87.584164,41.773681],[-87.584179,41.773665],[-87.584231,41.773648],[-87.584286,41.773657],[-87.584308,41.773672],[-87.584321,41.773695],[-87.584316,41.773731]]]}},{"type":"Feature","properties":{"k":"tee"},"geometry":{"type":"Polygon","coordinates":[[[-87.575645,41.775134],[-87.575656,41.775156],[-87.575651,41.775176],[-87.575626,41.775196],[-87.575592,41.775206],[-87.575557,41.775202],[-87.575517,41.775169],[-87.575517,41.77512],[-87.575537,41.775103],[-87.575561,41.775098],[-87.575614,41.775109],[-87.575645,41.775134]]]}},{"type":"Feature","properties":{"k":"tee"},"geometry":{"type":"Polygon","coordinates":[[[-87.583674,41.773718],[-87.583663,41.77376],[-87.583631,41.773779],[-87.583594,41.773779],[-87.583571,41.773755],[-87.583571,41.773734],[-87.583597,41.773702],[-87.583618,41.773692],[-87.583648,41.773691],[-87.583674,41.773718]]]}},{"type":"Feature","properties":{"k":"tee"},"geometry":{"type":"Polygon","coordinates":[[[-87.582879,41.774648],[-87.582823,41.77466],[-87.582799,41.774655],[-87.582777,41.77464],[-87.582767,41.774596],[-87.58278,41.774564],[-87.582831,41.774552],[-87.582887,41.774558],[-87.582906,41.774578],[-87.582909,41.774618],[-87.582879,41.774648]]]}},{"type":"Feature","properties":{"k":"tee"},"geometry":{"type":"Polygon","coordinates":[[[-87.582325,41.775174],[-87.582348,41.775199],[-87.582337,41.775227],[-87.582323,41.775238],[-87.582284,41.775249],[-87.582234,41.775239],[-87.582217,41.77521],[-87.582234,41.775177],[-87.582293,41.775164],[-87.582325,41.775174]]]}},{"type":"Feature","properties":{"k":"tee"},"geometry":{"type":"Polygon","coordinates":[[[-87.571102,41.775088],[-87.571086,41.775127],[-87.571072,41.775136],[-87.571033,41.775146],[-87.571006,41.775135],[-87.570994,41.775102],[-87.570998,41.775086],[-87.571027,41.775053],[-87.571058,41.77505],[-87.57109,41.775058],[-87.571102,41.775088]]]}},{"type":"Feature","properties":{"k":"tee"},"geometry":{"type":"Polygon","coordinates":[[[-87.56858,41.77426],[-87.56854,41.774294],[-87.568481,41.774296],[-87.568454,41.774288],[-87.568433,41.774272],[-87.568427,41.77425],[-87.568446,41.7742],[-87.568502,41.774182],[-87.568532,41.774178],[-87.568562,41.774184],[-87.568583,41.774196],[-87.568594,41.774218],[-87.568594,41.774243],[-87.56858,41.77426]]]}},{"type":"Feature","properties":{"k":"tee"},"geometry":{"type":"Polygon","coordinates":[[[-87.570851,41.77505],[-87.570887,41.775056],[-87.570903,41.775086],[-87.570891,41.775112],[-87.570842,41.775126],[-87.570812,41.775112],[-87.570807,41.775087],[-87.57082,41.775063],[-87.570851,41.77505]]]}},{"type":"Feature","properties":{"k":"tee"},"geometry":{"type":"Polygon","coordinates":[[[-87.568739,41.774228],[-87.568763,41.77424],[-87.568771,41.774262],[-87.568733,41.774325],[-87.568712,41.774344],[-87.568682,41.774354],[-87.568653,41.774354],[-87.568631,41.774344],[-87.568624,41.77432],[-87.568642,41.774266],[-87.568671,41.774238],[-87.56872,41.774226],[-87.568739,41.774228]]]}},{"type":"Feature","properties":{"k":"tee"},"geometry":{"type":"Polygon","coordinates":[[[-87.573734,41.774383],[-87.573754,41.77439],[-87.573766,41.77442],[-87.57376,41.774431],[-87.573739,41.774439],[-87.573711,41.774437],[-87.573686,41.77442],[-87.573682,41.7744],[-87.573702,41.774386],[-87.573734,41.774383]]]}},{"type":"Feature","properties":{"k":"tee"},"geometry":{"type":"Polygon","coordinates":[[[-87.583333,41.776297],[-87.583379,41.776285],[-87.583432,41.776297],[-87.583443,41.776319],[-87.583437,41.776341],[-87.583424,41.776367],[-87.583397,41.776391],[-87.583355,41.7764],[-87.583307,41.776387],[-87.583287,41.776362],[-87.58329,41.776329],[-87.583333,41.776297]]]}},{"type":"Feature","properties":{"k":"clubhouse","name":"Jackson Park Golf Clubhouse"},"geometry":{"type":"Polygon","coordinates":[[[-87.580716,41.779074],[-87.580868,41.779238],[-87.580761,41.779293],[-87.580738,41.779267],[-87.580597,41.779339],[-87.580638,41.779384],[-87.580501,41.779454],[-87.580325,41.779263],[-87.580455,41.779197],[-87.580494,41.77924],[-87.580632,41.77917],[-87.580599,41.779134],[-87.580716,41.779074]]]}},{"type":"Feature","properties":{"k":"path"},"geometry":{"type":"LineString","coordinates":[[-87.582199,41.775623],[-87.582202,41.775604],[-87.582159,41.77552],[-87.582054,41.775438],[-87.582009,41.775411],[-87.581957,41.775396]]}},{"type":"Feature","properties":{"k":"path"},"geometry":{"type":"LineString","coordinates":[[-87.582054,41.775438],[-87.582091,41.77538],[-87.582152,41.775337],[-87.582254,41.775304]]}},{"type":"Feature","properties":{"k":"path"},"geometry":{"type":"LineString","coordinates":[[-87.581957,41.775396],[-87.581758,41.775402],[-87.581254,41.775444],[-87.580825,41.775514],[-87.580378,41.775567],[-87.579501,41.775715],[-87.578855,41.775779],[-87.578548,41.77577],[-87.577682,41.775673]]}},{"type":"Feature","properties":{"k":"wood"},"geometry":{"type":"Polygon","coordinates":[[[-87.582285,41.777921],[-87.582003,41.778141],[-87.581775,41.778275],[-87.581673,41.778275],[-87.581582,41.778325],[-87.581515,41.778425],[-87.581201,41.778541],[-87.581137,41.778501],[-87.581206,41.778397],[-87.581282,41.778311],[-87.581593,41.778165],[-87.58178,41.778089],[-87.581818,41.778041],[-87.58185,41.777965],[-87.582016,41.777855],[-87.582105,41.777823],[-87.582159,41.777795],[-87.582258,41.777865],[-87.582285,41.777921]]]}},{"type":"Feature","properties":{"k":"wood"},"geometry":{"type":"Polygon","coordinates":[[[-87.581432,41.776291],[-87.581357,41.776367],[-87.581453,41.776349],[-87.58152,41.776353],[-87.581553,41.776409],[-87.581536,41.776463],[-87.581553,41.776535],[-87.581453,41.776659],[-87.581373,41.776861],[-87.581279,41.776897],[-87.58119,41.776987],[-87.581166,41.777057],[-87.581164,41.777117],[-87.580938,41.777217],[-87.580828,41.777293],[-87.580767,41.777349],[-87.580834,41.777377],[-87.580847,41.777431],[-87.580801,41.777491],[-87.580632,41.777623],[-87.580544,41.777629],[-87.580504,41.777673],[-87.580439,41.777673],[-87.580383,41.777619],[-87.580367,41.777521],[-87.580337,41.777433],[-87.580179,41.777279],[-87.580131,41.777201],[-87.580029,41.776715],[-87.579946,41.776621],[-87.579973,41.776581],[-87.580026,41.776575],[-87.580155,41.776579],[-87.58023,41.776567],[-87.580297,41.776511],[-87.580367,41.776481],[-87.580461,41.776455],[-87.580592,41.776445],[-87.580734,41.776411],[-87.58085,41.776351],[-87.580941,41.776317],[-87.581239,41.776291],[-87.581314,41.776267],[-87.581357,41.776241],[-87.581402,41.776243],[-87.581432,41.776259],[-87.581432,41.776291]]]}},{"type":"Feature","properties":{"k":"fairway"},"geometry":{"type":"Polygon","coordinates":[[[-87.56835,41.774016],[-87.568426,41.774003],[-87.568496,41.774008],[-87.568885,41.774094],[-87.569795,41.774271],[-87.569891,41.774297],[-87.570299,41.774364],[-87.570362,41.774372],[-87.570395,41.774364],[-87.570428,41.774341],[-87.570438,41.774312],[-87.570446,41.77427],[-87.570386,41.774181],[-87.570321,41.774155],[-87.569644,41.774023],[-87.56897,41.773936],[-87.568622,41.773921],[-87.568442,41.773932],[-87.568366,41.773921],[-87.568387,41.77394],[-87.568399,41.773973],[-87.568382,41.774002],[-87.56835,41.774016]]]}},{"type":"Feature","properties":{"k":"fairway"},"geometry":{"type":"Polygon","coordinates":[[[-87.570858,41.774075],[-87.570921,41.774094],[-87.570969,41.774128],[-87.571022,41.774146],[-87.57115,41.774171],[-87.571211,41.774146],[-87.571222,41.774121],[-87.571219,41.774094],[-87.571203,41.774075],[-87.571054,41.77407],[-87.570931,41.774016],[-87.570933,41.774053],[-87.5709,41.774071],[-87.570858,41.774075]]]}},{"type":"Feature","properties":{"k":"tee"},"geometry":{"type":"Polygon","coordinates":[[[-87.572027,41.774227],[-87.572076,41.774278],[-87.572109,41.774288],[-87.572206,41.774285],[-87.572243,41.774259],[-87.572251,41.774235],[-87.572241,41.774203],[-87.572214,41.774178],[-87.572148,41.774153],[-87.572085,41.774138],[-87.572051,41.774147],[-87.572035,41.774174],[-87.572027,41.774227]]]}},{"type":"Feature","properties":{"k":"bunker"},"geometry":{"type":"Polygon","coordinates":[[[-87.572436,41.773926],[-87.572458,41.77395],[-87.572483,41.773963],[-87.572517,41.773963],[-87.572531,41.773957],[-87.572537,41.773941],[-87.572524,41.773903],[-87.572487,41.773861],[-87.572462,41.773861],[-87.572426,41.773877],[-87.572418,41.773901],[-87.572436,41.773926]]]}},{"type":"Feature","properties":{"k":"tee"},"geometry":{"type":"Polygon","coordinates":[[[-87.575795,41.774237],[-87.575819,41.774226],[-87.57584,41.774203],[-87.575846,41.774168],[-87.575811,41.774132],[-87.575787,41.77412],[-87.575761,41.774119],[-87.575714,41.77414],[-87.575701,41.774162],[-87.575704,41.774184],[-87.575727,41.774224],[-87.575772,41.774239],[-87.575795,41.774237]]]}},{"type":"Feature","properties":{"k":"tee"},"geometry":{"type":"Polygon","coordinates":[[[-87.575597,41.77421],[-87.575635,41.774212],[-87.575661,41.77419],[-87.57567,41.77414],[-87.575642,41.774117],[-87.575592,41.774119],[-87.575571,41.774134],[-87.575561,41.774184],[-87.575571,41.774201],[-87.575597,41.77421]]]}},{"type":"Feature","properties":{"k":"tee"},"geometry":{"type":"Polygon","coordinates":[[[-87.571344,41.774506],[-87.571429,41.774513],[-87.571486,41.774484],[-87.571497,41.774455],[-87.571486,41.774402],[-87.571435,41.774391],[-87.57135,41.774388],[-87.57132,41.774396],[-87.571302,41.774451],[-87.571303,41.774482],[-87.571314,41.774496],[-87.571344,41.774506]]]}},{"type":"Feature","properties":{"k":"path"},"geometry":{"type":"LineString","coordinates":[[-87.577162,41.774242],[-87.576758,41.774087]]}},{"type":"Feature","properties":{"k":"path"},"geometry":{"type":"LineString","coordinates":[[-87.577326,41.774028],[-87.577143,41.77408]]}},{"type":"Feature","properties":{"k":"path"},"geometry":{"type":"LineString","coordinates":[[-87.577759,41.774298],[-87.577656,41.774335],[-87.577617,41.774335],[-87.577577,41.774324],[-87.577525,41.774298],[-87.577399,41.774193],[-87.577225,41.774108],[-87.577143,41.77408],[-87.576417,41.774093]]}},{"type":"Feature","properties":{"k":"path"},"geometry":{"type":"LineString","coordinates":[[-87.582166,41.775827],[-87.582149,41.775854],[-87.582104,41.775881],[-87.581832,41.775922]]}},{"type":"Feature","properties":{"k":"tee"},"geometry":{"type":"Polygon","coordinates":[[[-87.580928,41.777665],[-87.580964,41.777685],[-87.580974,41.777716],[-87.580953,41.777743],[-87.580909,41.777747],[-87.580876,41.777725],[-87.580872,41.77769],[-87.580896,41.777665],[-87.580928,41.777665]]]}},{"type":"Feature","properties":{"k":"tee"},"geometry":{"type":"Polygon","coordinates":[[[-87.583107,41.776497],[-87.583153,41.776485],[-87.583206,41.776497],[-87.583217,41.776519],[-87.583212,41.776541],[-87.583199,41.776567],[-87.583172,41.776591],[-87.583129,41.776601],[-87.583081,41.776588],[-87.583061,41.776563],[-87.583064,41.776529],[-87.583107,41.776497]]]}},{"type":"Feature","properties":{"k":"tee"},"geometry":{"type":"Polygon","coordinates":[[[-87.583495,41.776415],[-87.583541,41.776403],[-87.583595,41.776415],[-87.583605,41.776438],[-87.5836,41.77646],[-87.583587,41.776485],[-87.58356,41.77651],[-87.583517,41.776519],[-87.583469,41.776506],[-87.58345,41.776481],[-87.583453,41.776448],[-87.583495,41.776415]]]}},{"type":"Feature","properties":{"k":"tee"},"geometry":{"type":"Polygon","coordinates":[[[-87.581468,41.778821],[-87.581491,41.778832],[-87.581505,41.77885],[-87.581504,41.778886],[-87.581491,41.7789],[-87.581462,41.778911],[-87.581407,41.778907],[-87.581387,41.778881],[-87.581392,41.778846],[-87.581417,41.778827],[-87.581468,41.778821]]]}},{"type":"Feature","properties":{"k":"path"},"geometry":{"type":"LineString","coordinates":[[-87.579691,41.776119],[-87.57963,41.775994]]}},{"type":"Feature","properties":{"k":"path"},"geometry":{"type":"LineString","coordinates":[[-87.573871,41.774504],[-87.573492,41.774491]]}},{"type":"Feature","properties":{"k":"path"},"geometry":{"type":"LineString","coordinates":[[-87.578259,41.775221],[-87.578131,41.775215],[-87.578041,41.775223],[-87.577567,41.775228],[-87.577541,41.775216],[-87.577535,41.77517],[-87.577561,41.775152],[-87.577608,41.775145],[-87.577663,41.775151],[-87.577887,41.775225]]}},{"type":"Feature","properties":{"k":"path"},"geometry":{"type":"LineString","coordinates":[[-87.575636,41.775046],[-87.575556,41.775068],[-87.575526,41.77509],[-87.575473,41.775179],[-87.575451,41.775256]]}},{"type":"Feature","properties":{"k":"path"},"geometry":{"type":"LineString","coordinates":[[-87.57619,41.77408],[-87.575885,41.774084],[-87.575553,41.774075]]}},{"type":"Feature","properties":{"k":"path"},"geometry":{"type":"LineString","coordinates":[[-87.574911,41.775172],[-87.57484,41.775152],[-87.574455,41.775135],[-87.573616,41.77512],[-87.571723,41.775293],[-87.571467,41.775276],[-87.571181,41.775239],[-87.570341,41.775182],[-87.569792,41.775118]]}},{"type":"Feature","properties":{"k":"path"},"geometry":{"type":"LineString","coordinates":[[-87.568926,41.774262],[-87.568357,41.774094]]}},{"type":"Feature","properties":{"k":"path"},"geometry":{"type":"LineString","coordinates":[[-87.571123,41.775009],[-87.570724,41.775006]]}},{"type":"Feature","properties":{"k":"path"},"geometry":{"type":"LineString","coordinates":[[-87.577791,41.774481],[-87.577411,41.774549]]}},{"type":"Feature","properties":{"k":"path"},"geometry":{"type":"LineString","coordinates":[[-87.582971,41.774458],[-87.582686,41.774557]]}},{"type":"Feature","properties":{"k":"path"},"geometry":{"type":"LineString","coordinates":[[-87.584353,41.773786],[-87.584036,41.773792]]}},{"type":"Feature","properties":{"k":"tee"},"geometry":{"type":"Polygon","coordinates":[[[-87.584457,41.773668],[-87.584461,41.773688],[-87.584481,41.773707],[-87.584592,41.773695],[-87.584611,41.773683],[-87.584608,41.773656],[-87.584582,41.773644],[-87.584468,41.773657],[-87.584457,41.773668]]]}},{"type":"Feature","properties":{"k":"bunker"},"geometry":{"type":"Polygon","coordinates":[[[-87.582062,41.773763],[-87.582173,41.77375],[-87.582252,41.773761],[-87.582291,41.773752],[-87.582306,41.77373],[-87.582296,41.773708],[-87.582239,41.773694],[-87.582152,41.773707],[-87.582051,41.77371],[-87.582031,41.773727],[-87.582035,41.773749],[-87.58204,41.773757],[-87.582062,41.773763]]]}},{"type":"Feature","properties":{"k":"path"},"geometry":{"type":"LineString","coordinates":[[-87.579587,41.773888],[-87.579412,41.773921],[-87.579173,41.773909],[-87.579025,41.773925]]}},{"type":"Feature","properties":{"k":"tee"},"geometry":{"type":"Polygon","coordinates":[[[-87.579381,41.773834],[-87.579408,41.773866],[-87.579447,41.773875],[-87.579511,41.773857],[-87.579526,41.773838],[-87.579527,41.773821],[-87.579501,41.773784],[-87.579465,41.773764],[-87.579425,41.773762],[-87.579393,41.773775],[-87.579377,41.773809],[-87.579381,41.773834]]]}},{"type":"Feature","properties":{"k":"tee"},"geometry":{"type":"Polygon","coordinates":[[[-87.579234,41.773885],[-87.579284,41.773876],[-87.579315,41.773863],[-87.579324,41.773848],[-87.579317,41.773828],[-87.579293,41.773812],[-87.579249,41.773801],[-87.579209,41.773812],[-87.579173,41.773836],[-87.579169,41.77385],[-87.579181,41.773871],[-87.579234,41.773885]]]}},{"type":"Feature","properties":{"k":"tee"},"geometry":{"type":"Polygon","coordinates":[[[-87.579039,41.773866],[-87.579061,41.77384],[-87.579056,41.773819],[-87.579035,41.773805],[-87.578993,41.773808],[-87.578975,41.773832],[-87.57898,41.773856],[-87.579001,41.77387],[-87.579039,41.773866]]]}},{"type":"Feature","properties":{"k":"path"},"geometry":{"type":"LineString","coordinates":[[-87.583634,41.776385],[-87.583594,41.776359],[-87.583555,41.776352],[-87.583457,41.776396],[-87.583403,41.776455]]}},{"type":"Feature","properties":{"k":"fairway"},"geometry":{"type":"Polygon","coordinates":[[[-87.571773,41.775014],[-87.57183,41.775041],[-87.572279,41.775022],[-87.572897,41.775008],[-87.57308,41.774958],[-87.573216,41.774899],[-87.573259,41.774876],[-87.573271,41.774841],[-87.573246,41.7748],[-87.573147,41.774752],[-87.572746,41.774695],[-87.572423,41.774686],[-87.572057,41.77472],[-87.571826,41.774765],[-87.571748,41.774817],[-87.571708,41.774873],[-87.57171,41.774941],[-87.571742,41.774991],[-87.571773,41.775014]]]}},{"type":"Feature","properties":{"k":"tee"},"geometry":{"type":"Polygon","coordinates":[[[-87.573623,41.774386],[-87.573643,41.774393],[-87.573655,41.774423],[-87.573649,41.774434],[-87.573627,41.774442],[-87.5736,41.77444],[-87.573574,41.774423],[-87.57357,41.774403],[-87.57359,41.774389],[-87.573623,41.774386]]]}},{"type":"Feature","properties":{"k":"path"},"geometry":{"type":"LineString","coordinates":[[-87.575451,41.775256],[-87.575409,41.77526]]}},{"type":"Feature","properties":{"k":"path"},"geometry":{"type":"LineString","coordinates":[[-87.575061,41.775238],[-87.574911,41.775172]]}},{"type":"Feature","properties":{"k":"tee"},"geometry":{"type":"Polygon","coordinates":[[[-87.578743,41.774518],[-87.578764,41.774492],[-87.57876,41.774471],[-87.578739,41.774456],[-87.578697,41.774459],[-87.578679,41.774484],[-87.578684,41.774507],[-87.578704,41.774521],[-87.578743,41.774518]]]}},{"type":"Feature","properties":{"k":"tee"},"geometry":{"type":"Polygon","coordinates":[[[-87.578247,41.775349],[-87.578268,41.775323],[-87.578264,41.775302],[-87.578243,41.775287],[-87.578201,41.77529],[-87.578183,41.775315],[-87.578188,41.775338],[-87.578209,41.775352],[-87.578247,41.775349]]]}},{"type":"Feature","properties":{"k":"path"},"geometry":{"type":"LineString","coordinates":[[-87.579705,41.776447],[-87.579667,41.776339],[-87.579677,41.77628],[-87.579708,41.776224]]}},{"type":"Feature","properties":{"k":"tee"},"geometry":{"type":"Polygon","coordinates":[[[-87.579686,41.776721],[-87.579707,41.776695],[-87.579703,41.776674],[-87.579682,41.776659],[-87.57964,41.776662],[-87.579622,41.776686],[-87.579627,41.77671],[-87.579647,41.776724],[-87.579686,41.776721]]]}},{"type":"Feature","properties":{"k":"tee"},"geometry":{"type":"Polygon","coordinates":[[[-87.579589,41.776423],[-87.579632,41.776401],[-87.579649,41.776364],[-87.579629,41.776294],[-87.579601,41.776285],[-87.579549,41.776296],[-87.579533,41.776342],[-87.57953,41.776381],[-87.579556,41.776412],[-87.579589,41.776423]]]}},{"type":"Feature","properties":{"k":"tee"},"geometry":{"type":"Polygon","coordinates":[[[-87.58202,41.775942],[-87.582038,41.775996],[-87.582109,41.776013],[-87.58218,41.776],[-87.582204,41.775969],[-87.582201,41.775928],[-87.582166,41.775901],[-87.582102,41.775902],[-87.582047,41.775918],[-87.58202,41.775942]]]}},{"type":"Feature","properties":{"k":"tee"},"geometry":{"type":"Polygon","coordinates":[[[-87.582238,41.775925],[-87.582264,41.775966],[-87.582303,41.775969],[-87.582321,41.775953],[-87.582326,41.775932],[-87.582315,41.775909],[-87.58229,41.775895],[-87.582243,41.775906],[-87.582238,41.775925]]]}},{"type":"Feature","properties":{"k":"path"},"geometry":{"type":"LineString","coordinates":[[-87.580912,41.777971],[-87.580646,41.778262]]}},{"type":"Feature","properties":{"k":"path"},"geometry":{"type":"LineString","coordinates":[[-87.580058,41.778486],[-87.580476,41.778787],[-87.580564,41.778866],[-87.581047,41.779354]]}},{"type":"Feature","properties":{"k":"path"},"geometry":{"type":"LineString","coordinates":[[-87.581247,41.778863],[-87.580991,41.779026],[-87.580979,41.779094],[-87.580861,41.779167]]}},{"type":"Feature","properties":{"k":"path"},"geometry":{"type":"LineString","coordinates":[[-87.580107,41.77834],[-87.580068,41.778404],[-87.580058,41.778486]]}},{"type":"Feature","properties":{"k":"green"},"geometry":{"type":"Polygon","coordinates":[[[-87.580763,41.778899],[-87.580841,41.778866],[-87.580867,41.778843],[-87.580868,41.778833],[-87.580841,41.778808],[-87.580759,41.778761],[-87.580716,41.778752],[-87.580675,41.778757],[-87.58064,41.778782],[-87.580632,41.778835],[-87.580674,41.778881],[-87.58071,41.778895],[-87.580763,41.778899]]]}},{"type":"Feature","properties":{"k":"green"},"geometry":{"type":"Polygon","coordinates":[[[-87.580934,41.778895],[-87.580898,41.778922],[-87.580889,41.77896],[-87.580904,41.778984],[-87.580968,41.778994],[-87.58102,41.778973],[-87.581038,41.77895],[-87.581041,41.778928],[-87.581033,41.77891],[-87.581008,41.778895],[-87.580975,41.778889],[-87.580934,41.778895]]]}},{"type":"Feature","properties":{"k":"green"},"geometry":{"type":"Polygon","coordinates":[[[-87.581061,41.778808],[-87.581033,41.778839],[-87.581038,41.778861],[-87.581073,41.778888],[-87.581113,41.778892],[-87.581141,41.778874],[-87.581142,41.778835],[-87.581126,41.778819],[-87.581097,41.778808],[-87.581061,41.778808]]]}},{"type":"Feature","properties":{"k":"path"},"geometry":{"type":"LineString","coordinates":[[-87.580058,41.778486],[-87.579926,41.778371]]}},{"type":"Feature","properties":{"k":"path"},"geometry":{"type":"LineString","coordinates":[[-87.579223,41.776692],[-87.579309,41.776461],[-87.579362,41.776377],[-87.579447,41.776292],[-87.579609,41.776183],[-87.579676,41.776149],[-87.579691,41.776119]]}},{"type":"Feature","properties":{"k":"path"},"geometry":{"type":"LineString","coordinates":[[-87.579533,41.77581],[-87.579501,41.775715]]}},{"type":"Feature","properties":{"k":"path"},"geometry":{"type":"LineString","coordinates":[[-87.577682,41.775673],[-87.576949,41.775562],[-87.576405,41.775459],[-87.575935,41.775329],[-87.575561,41.775284],[-87.575484,41.775286],[-87.575451,41.775256]]}},{"type":"Feature","properties":{"k":"tee"},"geometry":{"type":"Polygon","coordinates":[[[-87.577551,41.775281],[-87.577541,41.775319],[-87.577564,41.775344],[-87.577617,41.775359],[-87.577689,41.775365],[-87.577821,41.77533],[-87.577842,41.775316],[-87.577846,41.77529],[-87.577811,41.775272],[-87.577696,41.775262],[-87.577598,41.775263],[-87.577551,41.775281]]]}},{"type":"Feature","properties":{"k":"path"},"geometry":{"type":"LineString","coordinates":[[-87.567662,41.773903],[-87.567822,41.773964],[-87.568039,41.774061],[-87.568452,41.774329],[-87.569264,41.774937]]}}]}