{"type":"FeatureCollection","features":[{"type":"Feature","properties":{"k":"hole","ref":"1","par":4,"hcp":9},"geometry":{"type":"LineString","coordinates":[[-118.499334,34.289827],[-118.496826,34.290298],[-118.495121,34.290373]]}},{"type":"Feature","properties":{"k":"hole","ref":"2","par":5,"hcp":5},"geometry":{"type":"LineString","coordinates":[[-118.493914,34.290659],[-118.493285,34.293022],[-118.493503,34.294272],[-118.493779,34.294985]]}},{"type":"Feature","properties":{"k":"hole","ref":"3","par":4,"hcp":13},"geometry":{"type":"LineString","coordinates":[[-118.493644,34.2957],[-118.492706,34.293943],[-118.492661,34.293073]]}},{"type":"Feature","properties":{"k":"hole","ref":"4","par":5,"hcp":3},"geometry":{"type":"LineString","coordinates":[[-118.492782,34.292786],[-118.493267,34.290262],[-118.49334,34.289049],[-118.493498,34.28777]]}},{"type":"Feature","properties":{"k":"hole","ref":"5","par":4,"hcp":11},"geometry":{"type":"LineString","coordinates":[[-118.493675,34.287075],[-118.494672,34.28538],[-118.495115,34.284441]]}},{"type":"Feature","properties":{"k":"hole","ref":"6","par":3,"hcp":15},"geometry":{"type":"LineString","coordinates":[[-118.495401,34.284761],[-118.495657,34.283398]]}},{"type":"Feature","properties":{"k":"hole","ref":"7","par":4,"hcp":9},"geometry":{"type":"LineString","coordinates":[[-118.495686,34.282928],[-118.497894,34.283589],[-118.49908,34.283571]]}},{"type":"Feature","properties":{"k":"hole","ref":"8","par":3,"hcp":17},"geometry":{"type":"LineString","coordinates":[[-118.499436,34.28387],[-118.499503,34.285012]]}},{"type":"Feature","properties":{"k":"hole","ref":"9","par":4,"hcp":7},"geometry":{"type":"LineString","coordinates":[[-118.499233,34.285624],[-118.499163,34.287633],[-118.499238,34.288639]]}},{"type":"Feature","properties":{"k":"hole","ref":"10","par":4,"hcp":4},"geometry":{"type":"LineString","coordinates":[[-118.500188,34.290074],[-118.500809,34.291744],[-118.500614,34.292658]]}},{"type":"Feature","properties":{"k":"hole","ref":"11","par":5,"hcp":6},"geometry":{"type":"LineString","coordinates":[[-118.50026,34.29349],[-118.499886,34.295012],[-118.500027,34.296318],[-118.500165,34.296916]]}},{"type":"Feature","properties":{"k":"hole","ref":"12","par":4,"hcp":3},"geometry":{"type":"LineString","coordinates":[[-118.500649,34.29692],[-118.500481,34.29844],[-118.500657,34.299129]]}},{"type":"Feature","properties":{"k":"hole","ref":"13","par":3,"hcp":16},"geometry":{"type":"LineString","coordinates":[[-118.500747,34.299815],[-118.501247,34.300973]]}},{"type":"Feature","properties":{"k":"hole","ref":"14","par":4,"hcp":14},"geometry":{"type":"LineString","coordinates":[[-118.500671,34.301091],[-118.498972,34.301009],[-118.497828,34.301124]]}},{"type":"Feature","properties":{"k":"hole","ref":"15","par":4,"hcp":2},"geometry":{"type":"LineString","coordinates":[[-118.497384,34.300362],[-118.497398,34.298406],[-118.49704,34.29718]]}},{"type":"Feature","properties":{"k":"hole","ref":"16","par":4,"hcp":2},"geometry":{"type":"LineString","coordinates":[[-118.496595,34.297098],[-118.497179,34.294904],[-118.497942,34.29331]]}},{"type":"Feature","properties":{"k":"hole","ref":"17","par":3,"hcp":18},"geometry":{"type":"LineString","coordinates":[[-118.498126,34.292448],[-118.496956,34.292649]]}},{"type":"Feature","properties":{"k":"hole","ref":"18","par":4,"hcp":18},"geometry":{"type":"LineString","coordinates":[[-118.496389,34.292335],[-118.497939,34.291289],[-118.498845,34.290384]]}},{"type":"Feature","properties":{"k":"stream"},"geometry":{"type":"LineString","coordinates":[[-118.501536,34.288125],[-118.501501,34.288033],[-118.501045,34.287494],[-118.500891,34.287259],[-118.500106,34.286375],[-118.499959,34.286147],[-118.499874,34.285865],[-118.499747,34.285683],[-118.499772,34.285532],[-118.50005,34.285166],[-118.500106,34.285029],[-118.500167,34.284508],[-118.500111,34.283921],[-118.499798,34.283624],[-118.499747,34.283408],[-118.499663,34.283285],[-118.499588,34.283246],[-118.49906,34.283061],[-118.498897,34.283046],[-118.497902,34.283061],[-118.497416,34.282988],[-118.496772,34.282849],[-118.496235,34.282667],[-118.495896,34.282519],[-118.495723,34.282461],[-118.49553,34.282379],[-118.495423,34.282285],[-118.495304,34.282082],[-118.495215,34.281868],[-118.49504,34.281297],[-118.49493,34.281124],[-118.494799,34.280987],[-118.494709,34.280932],[-118.494492,34.280822],[-118.493776,34.280581],[-118.493531,34.280523],[-118.493442,34.280509],[-118.493387,34.280505],[-118.493352,34.280513]]}},{"type":"Feature","properties":{"k":"stream"},"geometry":{"type":"LineString","coordinates":[[-118.501746,34.288428],[-118.501736,34.288416],[-118.50161,34.288365],[-118.501558,34.288318],[-118.501544,34.288114],[-118.501479,34.288027],[-118.501168,34.287659],[-118.500911,34.287312],[-118.500106,34.286403],[-118.499956,34.28617],[-118.499888,34.285963],[-118.499816,34.285802],[-118.499744,34.285695],[-118.499761,34.285533],[-118.499989,34.285221],[-118.500075,34.285058],[-118.500103,34.284912],[-118.50014,34.284547],[-118.500142,34.284129],[-118.50009,34.283939],[-118.499832,34.283641],[-118.499802,34.28356],[-118.499723,34.283408],[-118.499629,34.283284],[-118.499503,34.283232],[-118.49905,34.283073],[-118.498865,34.283059],[-118.497866,34.28307],[-118.497564,34.283023],[-118.49717,34.282927],[-118.49654,34.282761],[-118.496215,34.282666],[-118.495878,34.282519],[-118.49571,34.282461],[-118.495523,34.282381],[-118.495417,34.282285],[-118.495299,34.282082],[-118.495211,34.281866],[-118.495039,34.281303],[-118.494984,34.281218],[-118.4948,34.281024],[-118.494631,34.28093],[-118.494384,34.280814],[-118.49376,34.280598],[-118.493493,34.280529],[-118.493352,34.280513],[-118.492961,34.2805],[-118.492043,34.280634],[-118.491949,34.280625],[-118.491886,34.280594],[-118.491293,34.279946],[-118.491208,34.279839],[-118.491132,34.279674],[-118.491075,34.279392],[-118.491034,34.279259],[-118.491011,34.279083]]}},{"type":"Feature","properties":{"k":"green"},"geometry":{"type":"Polygon","coordinates":[[[-118.495062,34.290449],[-118.495109,34.290456],[-118.495166,34.290437],[-118.495203,34.290405],[-118.495232,34.290366],[-118.495227,34.290317],[-118.495164,34.290295],[-118.495074,34.290309],[-118.495029,34.290359],[-118.495025,34.29041],[-118.495062,34.290449]]]}},{"type":"Feature","properties":{"k":"bunker"},"geometry":{"type":"Polygon","coordinates":[[[-118.495208,34.290515],[-118.495222,34.290546],[-118.495304,34.290551],[-118.495372,34.290508],[-118.495396,34.290463],[-118.495385,34.290435],[-118.495354,34.290422],[-118.49532,34.290427],[-118.495301,34.29045],[-118.495318,34.290487],[-118.495306,34.2905],[-118.495262,34.290488],[-118.495224,34.29049],[-118.495208,34.290515]]]}},{"type":"Feature","properties":{"k":"tee"},"geometry":{"type":"Polygon","coordinates":[[[-118.499282,34.289917],[-118.499411,34.289901],[-118.499384,34.289749],[-118.499255,34.289764],[-118.499282,34.289917]]]}},{"type":"Feature","properties":{"k":"tee"},"geometry":{"type":"Polygon","coordinates":[[[-118.499223,34.289937],[-118.4992,34.289808],[-118.499072,34.289823],[-118.499095,34.289953],[-118.499223,34.289937]]]}},{"type":"Feature","properties":{"k":"path"},"geometry":{"type":"LineString","coordinates":[[-118.499446,34.28996],[-118.499274,34.290019],[-118.499179,34.290043],[-118.498897,34.290075],[-118.498777,34.290098],[-118.498604,34.290141],[-118.498454,34.290195],[-118.498361,34.290215],[-118.498042,34.290254]]}},{"type":"Feature","properties":{"k":"path"},"geometry":{"type":"LineString","coordinates":[[-118.498897,34.290075],[-118.498815,34.290038],[-118.498652,34.289938],[-118.498575,34.289913],[-118.498469,34.289896],[-118.498344,34.2899],[-118.498089,34.289959],[-118.497697,34.289997],[-118.49708,34.290081],[-118.496786,34.290111],[-118.496629,34.290111],[-118.496436,34.290093],[-118.4963,34.290092],[-118.496068,34.290111],[-118.495754,34.290123],[-118.495373,34.290117],[-118.495074,34.290187],[-118.494983,34.290217],[-118.494805,34.29031],[-118.494685,34.290414],[-118.494663,34.290423],[-118.494587,34.290428]]}},{"type":"Feature","properties":{"k":"path"},"geometry":{"type":"LineString","coordinates":[[-118.493807,34.295686],[-118.493793,34.29567],[-118.493662,34.295355],[-118.493527,34.295279],[-118.493428,34.295133],[-118.493212,34.294635],[-118.493079,34.294289],[-118.492957,34.293895],[-118.492916,34.293706],[-118.492891,34.293331],[-118.492906,34.293203],[-118.492868,34.293085],[-118.492723,34.292878],[-118.492733,34.292764],[-118.492712,34.292559],[-118.492715,34.292411],[-118.492744,34.292277],[-118.492743,34.292202],[-118.492777,34.292134],[-118.492889,34.292068],[-118.492954,34.29201],[-118.492994,34.291903],[-118.493019,34.291726],[-118.49326,34.291423],[-118.493302,34.29131],[-118.493447,34.290817],[-118.4936,34.290365],[-118.49361,34.290258],[-118.493606,34.290009],[-118.493589,34.289815],[-118.493589,34.289495],[-118.493605,34.289354],[-118.493633,34.289236],[-118.493644,34.289096],[-118.49365,34.288772],[-118.493709,34.288336],[-118.493705,34.288244],[-118.493725,34.288131],[-118.493722,34.287967],[-118.49369,34.287587]]}},{"type":"Feature","properties":{"k":"path"},"geometry":{"type":"LineString","coordinates":[[-118.499455,34.289247],[-118.499428,34.289353],[-118.499402,34.289529],[-118.499401,34.289588],[-118.499406,34.289623],[-118.499429,34.289671],[-118.499432,34.289728],[-118.499468,34.289842],[-118.499477,34.289912],[-118.499473,34.289944],[-118.499446,34.28996],[-118.499425,34.289998],[-118.499396,34.290077],[-118.499378,34.290175],[-118.499338,34.290261],[-118.499282,34.290333],[-118.499215,34.2904],[-118.498893,34.290566],[-118.498817,34.290616],[-118.498726,34.290718],[-118.498585,34.290892],[-118.498484,34.291071],[-118.498377,34.291364],[-118.498169,34.291587],[-118.498094,34.291707],[-118.498034,34.291766],[-118.497912,34.291821],[-118.497705,34.2919],[-118.497463,34.291971],[-118.497344,34.291997],[-118.497197,34.292018],[-118.496746,34.292017],[-118.4966,34.292054],[-118.496461,34.292137],[-118.496225,34.292354],[-118.4962,34.292447],[-118.496207,34.29256],[-118.496249,34.292657],[-118.496319,34.292749],[-118.496475,34.292849],[-118.496588,34.292883],[-118.496659,34.292891],[-118.496822,34.292863],[-118.4969,34.292881],[-118.496961,34.292919],[-118.497006,34.292981],[-118.497056,34.293022],[-118.497123,34.293039],[-118.497194,34.293022],[-118.497975,34.292642],[-118.498017,34.292631],[-118.498037,34.292633],[-118.498059,34.292658],[-118.498072,34.292691]]}},{"type":"Feature","properties":{"k":"path"},"geometry":{"type":"LineString","coordinates":[[-118.500754,34.299505],[-118.500623,34.299408],[-118.500501,34.299346],[-118.500422,34.299323],[-118.500359,34.299228],[-118.500347,34.299114],[-118.500351,34.299037],[-118.500298,34.298896],[-118.500235,34.298493],[-118.500232,34.298273],[-118.500286,34.298143],[-118.500389,34.297952],[-118.500447,34.297742],[-118.500475,34.297383],[-118.500461,34.296921],[-118.500443,34.296852],[-118.500307,34.296595],[-118.500274,34.296294],[-118.500272,34.29592],[-118.500188,34.295705],[-118.500172,34.29564],[-118.500176,34.295397],[-118.500256,34.295175],[-118.50027,34.295115],[-118.50027,34.295024],[-118.500214,34.294935],[-118.500169,34.294891],[-118.500139,34.294758],[-118.500126,34.294511],[-118.500129,34.294326],[-118.500197,34.293969],[-118.500162,34.293527],[-118.500186,34.293413],[-118.500244,34.293323],[-118.500414,34.2931]]}},{"type":"Feature","properties":{"k":"path"},"geometry":{"type":"LineString","coordinates":[[-118.500428,34.296824],[-118.500523,34.296474]]}},{"type":"Feature","properties":{"k":"path"},"geometry":{"type":"LineString","coordinates":[[-118.498602,34.288836],[-118.498432,34.288861],[-118.497685,34.288882],[-118.497511,34.288872],[-118.497289,34.288872],[-118.49706,34.288902],[-118.496974,34.288949],[-118.496911,34.289042],[-118.496806,34.289165],[-118.496701,34.289317],[-118.496454,34.289441],[-118.496377,34.289573],[-118.496327,34.28974],[-118.496327,34.289822],[-118.496313,34.289906]]}},{"type":"Feature","properties":{"k":"range"},"geometry":{"type":"Polygon","coordinates":[[[-118.49687,34.289968],[-118.496922,34.289985],[-118.497149,34.289971],[-118.497778,34.289909],[-118.498108,34.289873],[-118.498418,34.2898],[-118.498785,34.289753],[-118.499387,34.289698],[-118.49938,34.28954],[-118.499433,34.289238],[-118.499421,34.289134],[-118.499371,34.289006],[-118.499332,34.288972],[-118.499141,34.288952],[-118.499045,34.288951],[-118.498946,34.288933],[-118.498822,34.288885],[-118.498715,34.288859],[-118.498636,34.288858],[-118.498577,34.288972],[-118.49826,34.288951],[-118.497287,34.288989],[-118.497212,34.289029],[-118.49706,34.289482],[-118.49687,34.289968]]]}},{"type":"Feature","properties":{"k":"path"},"geometry":{"type":"LineString","coordinates":[[-118.498719,34.288168],[-118.498706,34.288346],[-118.498666,34.288619],[-118.498602,34.288836],[-118.49857,34.288896],[-118.498535,34.289004]]}},{"type":"Feature","properties":{"k":"path"},"geometry":{"type":"LineString","coordinates":[[-118.498602,34.288836],[-118.498672,34.28883],[-118.498799,34.288855],[-118.499021,34.288924],[-118.499296,34.288944],[-118.499399,34.288975]]}},{"type":"Feature","properties":{"k":"path"},"geometry":{"type":"LineString","coordinates":[[-118.499661,34.28999],[-118.499633,34.289988],[-118.499502,34.289945],[-118.499473,34.289944]]}},{"type":"Feature","properties":{"k":"path"},"geometry":{"type":"LineString","coordinates":[[-118.499083,34.28541],[-118.499032,34.28548],[-118.498931,34.28574],[-118.49893,34.285917],[-118.498943,34.286084],[-118.498993,34.286375],[-118.498987,34.286474],[-118.498958,34.286586],[-118.498921,34.286848],[-118.498865,34.287026],[-118.498749,34.287239],[-118.498726,34.287359],[-118.498715,34.287482],[-118.498711,34.287909],[-118.498719,34.288168]]}},{"type":"Feature","properties":{"k":"path"},"geometry":{"type":"LineString","coordinates":[[-118.499434,34.286998],[-118.499515,34.287561],[-118.499515,34.287658],[-118.499562,34.287819],[-118.499563,34.287894],[-118.499544,34.288059],[-118.499467,34.288287],[-118.499455,34.288497],[-118.499398,34.288804],[-118.499391,34.288888],[-118.499399,34.288975],[-118.499423,34.289056],[-118.499455,34.289247],[-118.499592,34.289331],[-118.499654,34.289391],[-118.499723,34.289436],[-118.499915,34.289501],[-118.499994,34.289518],[-118.500086,34.289521]]}},{"type":"Feature","properties":{"k":"bunker"},"geometry":{"type":"Polygon","coordinates":[[[-118.497183,34.292738],[-118.497139,34.292783],[-118.4971,34.292776],[-118.497138,34.292693],[-118.497181,34.292704],[-118.497183,34.292738]]]}},{"type":"Feature","properties":{"k":"green"},"geometry":{"type":"Polygon","coordinates":[[[-118.499309,34.288707],[-118.499241,34.288739],[-118.499186,34.288727],[-118.499156,34.288699],[-118.49915,34.288618],[-118.499185,34.28855],[-118.499249,34.288528],[-118.499314,34.288555],[-118.499357,34.288616],[-118.499341,34.288675],[-118.499309,34.288707]]]}},{"type":"Feature","properties":{"k":"bunker"},"geometry":{"type":"Polygon","coordinates":[[[-118.499116,34.288595],[-118.499116,34.288629],[-118.499084,34.288652],[-118.499037,34.288644],[-118.499033,34.288603],[-118.499069,34.288556],[-118.499094,34.288479],[-118.499148,34.288464],[-118.499173,34.288499],[-118.499162,34.288525],[-118.499125,34.288543],[-118.499116,34.288595]]]}},{"type":"Feature","properties":{"k":"bunker"},"geometry":{"type":"Polygon","coordinates":[[[-118.499474,34.287678],[-118.499371,34.28774],[-118.499321,34.287743],[-118.499287,34.287712],[-118.499283,34.287674],[-118.499325,34.287613],[-118.499311,34.287583],[-118.499326,34.287552],[-118.499391,34.28754],[-118.499411,34.287501],[-118.499445,34.287526],[-118.499428,34.287579],[-118.49945,34.287618],[-118.49947,34.287623],[-118.499483,34.287669],[-118.499474,34.287678]]]}},{"type":"Feature","properties":{"k":"tee"},"geometry":{"type":"Polygon","coordinates":[[[-118.499272,34.285675],[-118.499223,34.285674],[-118.499175,34.285663],[-118.499158,34.285529],[-118.49916,34.285479],[-118.499199,34.285496],[-118.499251,34.285548],[-118.499265,34.285585],[-118.499272,34.285675]]]}},{"type":"Feature","properties":{"k":"bunker"},"geometry":{"type":"Polygon","coordinates":[[[-118.499675,34.284938],[-118.499651,34.284959],[-118.499628,34.284946],[-118.499619,34.284914],[-118.499633,34.284895],[-118.499667,34.284903],[-118.499675,34.284938]]]}},{"type":"Feature","properties":{"k":"bunker"},"geometry":{"type":"Polygon","coordinates":[[[-118.499407,34.284894],[-118.499391,34.284918],[-118.499388,34.284941],[-118.499368,34.284961],[-118.499327,34.284961],[-118.49932,34.284935],[-118.499361,34.284878],[-118.49935,34.284862],[-118.499354,34.284828],[-118.499375,34.284813],[-118.499474,34.284861],[-118.499481,34.284883],[-118.499464,34.284899],[-118.499407,34.284894]]]}},{"type":"Feature","properties":{"k":"green"},"geometry":{"type":"Polygon","coordinates":[[[-118.499556,34.285089],[-118.499496,34.285117],[-118.499423,34.285107],[-118.49938,34.28507],[-118.499356,34.285032],[-118.499367,34.284993],[-118.499395,34.284964],[-118.499462,34.284923],[-118.499523,34.284911],[-118.499578,34.284934],[-118.499602,34.284983],[-118.499599,34.285048],[-118.499556,34.285089]]]}},{"type":"Feature","properties":{"k":"tee"},"geometry":{"type":"Polygon","coordinates":[[[-118.499479,34.28393],[-118.499386,34.283945],[-118.499319,34.28393],[-118.499321,34.283876],[-118.499358,34.283819],[-118.499499,34.283779],[-118.499479,34.28393]]]}},{"type":"Feature","properties":{"k":"bunker"},"geometry":{"type":"Polygon","coordinates":[[[-118.498906,34.283657],[-118.499016,34.283712],[-118.499038,34.283748],[-118.499014,34.283766],[-118.498973,34.283762],[-118.498921,34.283748],[-118.498863,34.283716],[-118.498866,34.283678],[-118.498906,34.283657]]]}},{"type":"Feature","properties":{"k":"green"},"geometry":{"type":"Polygon","coordinates":[[[-118.499096,34.283669],[-118.49917,34.283625],[-118.499225,34.283535],[-118.499211,34.283505],[-118.499178,34.283475],[-118.499128,34.283473],[-118.499005,34.283548],[-118.498944,34.283594],[-118.498963,34.283638],[-118.49902,34.283669],[-118.499096,34.283669]]]}},{"type":"Feature","properties":{"k":"bunker"},"geometry":{"type":"Polygon","coordinates":[[[-118.499018,34.283456],[-118.498977,34.28345],[-118.498969,34.283421],[-118.498977,34.283378],[-118.499087,34.283356],[-118.499148,34.283362],[-118.499172,34.283397],[-118.499161,34.283426],[-118.499126,34.283437],[-118.499056,34.2834],[-118.499037,34.283443],[-118.499018,34.283456]]]}},{"type":"Feature","properties":{"k":"bunker"},"geometry":{"type":"Polygon","coordinates":[[[-118.497767,34.283749],[-118.497803,34.283758],[-118.497836,34.283743],[-118.497826,34.283709],[-118.497779,34.283688],[-118.497715,34.283688],[-118.497679,34.283712],[-118.497683,34.283745],[-118.497713,34.283758],[-118.497767,34.283749]]]}},{"type":"Feature","properties":{"k":"tee"},"geometry":{"type":"Polygon","coordinates":[[[-118.495711,34.282986],[-118.495577,34.282953],[-118.495577,34.282909],[-118.495588,34.282881],[-118.49562,34.282877],[-118.495685,34.282896],[-118.495723,34.282896],[-118.495744,34.282908],[-118.495711,34.282986]]]}},{"type":"Feature","properties":{"k":"bunker"},"geometry":{"type":"Polygon","coordinates":[[[-118.495845,34.283489],[-118.495837,34.283524],[-118.495814,34.283557],[-118.495821,34.283605],[-118.495794,34.283617],[-118.495768,34.283618],[-118.495758,34.283579],[-118.49568,34.283561],[-118.495687,34.283524],[-118.495727,34.283516],[-118.495784,34.283539],[-118.495769,34.283497],[-118.495771,34.283465],[-118.495803,34.283442],[-118.495846,34.283458],[-118.495845,34.283489]]]}},{"type":"Feature","properties":{"k":"bunker"},"geometry":{"type":"Polygon","coordinates":[[[-118.495462,34.283474],[-118.495458,34.2835],[-118.495435,34.283525],[-118.495446,34.283567],[-118.495526,34.28355],[-118.49553,34.283516],[-118.495516,34.283493],[-118.495532,34.283472],[-118.495527,34.283444],[-118.495486,34.283428],[-118.495464,34.283439],[-118.495462,34.283474]]]}},{"type":"Feature","properties":{"k":"green"},"geometry":{"type":"Polygon","coordinates":[[[-118.495599,34.283469],[-118.495665,34.283483],[-118.495703,34.283459],[-118.495741,34.283404],[-118.495732,34.28337],[-118.495697,34.28334],[-118.495634,34.283332],[-118.495601,34.283347],[-118.495577,34.283383],[-118.495571,34.283422],[-118.495577,34.283462],[-118.495599,34.283469]]]}},{"type":"Feature","properties":{"k":"bunker"},"geometry":{"type":"Polygon","coordinates":[[[-118.495615,34.283249],[-118.495575,34.28329],[-118.495625,34.283312],[-118.495644,34.283307],[-118.495678,34.283313],[-118.495721,34.283306],[-118.495749,34.28329],[-118.495715,34.283259],[-118.495678,34.283268],[-118.495662,34.283237],[-118.495615,34.283249]]]}},{"type":"Feature","properties":{"k":"tee"},"geometry":{"type":"Polygon","coordinates":[[[-118.495396,34.284625],[-118.495341,34.284744],[-118.495247,34.28491],[-118.495297,34.284976],[-118.495365,34.284938],[-118.495444,34.28476],[-118.495502,34.284672],[-118.495485,34.284644],[-118.495396,34.284625]]]}},{"type":"Feature","properties":{"k":"green"},"geometry":{"type":"Polygon","coordinates":[[[-118.495046,34.284525],[-118.495091,34.284547],[-118.495139,34.284544],[-118.495179,34.284502],[-118.495204,34.284452],[-118.495219,34.284383],[-118.495198,34.284333],[-118.495166,34.284316],[-118.495118,34.284315],[-118.495068,34.284335],[-118.495047,34.284364],[-118.495032,34.284505],[-118.495046,34.284525]]]}},{"type":"Feature","properties":{"k":"bunker"},"geometry":{"type":"Polygon","coordinates":[[[-118.494977,34.284509],[-118.494966,34.284534],[-118.494912,34.284537],[-118.494896,34.284512],[-118.494926,34.284467],[-118.494952,34.284453],[-118.494944,34.284405],[-118.494956,34.284381],[-118.494995,34.284369],[-118.495014,34.284401],[-118.495017,34.284477],[-118.494977,34.284509]]]}},{"type":"Feature","properties":{"k":"bunker"},"geometry":{"type":"Polygon","coordinates":[[[-118.494637,34.285143],[-118.494649,34.285186],[-118.494617,34.285219],[-118.494562,34.285244],[-118.494522,34.285336],[-118.494475,34.285339],[-118.494425,34.285326],[-118.494424,34.285291],[-118.494449,34.285257],[-118.494484,34.28525],[-118.494505,34.285211],[-118.494507,34.285181],[-118.494549,34.285163],[-118.494581,34.285173],[-118.4946,34.285131],[-118.494637,34.285143]]]}},{"type":"Feature","properties":{"k":"tee"},"geometry":{"type":"Polygon","coordinates":[[[-118.493674,34.287192],[-118.493611,34.287152],[-118.49362,34.287077],[-118.493734,34.286891],[-118.493829,34.286916],[-118.493738,34.287102],[-118.493674,34.287192]]]}},{"type":"Feature","properties":{"k":"bunker"},"geometry":{"type":"Polygon","coordinates":[[[-118.493534,34.287709],[-118.493466,34.28769],[-118.493455,34.28766],[-118.493506,34.287641],[-118.493557,34.28767],[-118.493559,34.2877],[-118.493534,34.287709]]]}},{"type":"Feature","properties":{"k":"green"},"geometry":{"type":"Polygon","coordinates":[[[-118.493513,34.287858],[-118.493586,34.287812],[-118.493599,34.287775],[-118.493528,34.287735],[-118.493421,34.287723],[-118.493393,34.287784],[-118.493418,34.287857],[-118.493513,34.287858]]]}},{"type":"Feature","properties":{"k":"bunker"},"geometry":{"type":"Polygon","coordinates":[[[-118.493611,34.28787],[-118.493647,34.287902],[-118.493643,34.287936],[-118.4936,34.287956],[-118.493571,34.287959],[-118.493538,34.287979],[-118.493523,34.288],[-118.493472,34.287975],[-118.493514,34.287902],[-118.493571,34.28792],[-118.493587,34.287887],[-118.493611,34.28787]]]}},{"type":"Feature","properties":{"k":"bunker"},"geometry":{"type":"Polygon","coordinates":[[[-118.493504,34.290377],[-118.493469,34.290385],[-118.49345,34.290356],[-118.493421,34.29028],[-118.493439,34.290252],[-118.493471,34.290256],[-118.493493,34.29028],[-118.493531,34.290268],[-118.493546,34.290293],[-118.493524,34.290318],[-118.493529,34.290366],[-118.493504,34.290377]]]}},{"type":"Feature","properties":{"k":"tee"},"geometry":{"type":"Polygon","coordinates":[[[-118.492812,34.292836],[-118.492745,34.292836],[-118.492758,34.29275],[-118.492763,34.292586],[-118.492747,34.292455],[-118.492782,34.2923],[-118.49278,34.292253],[-118.492899,34.29227],[-118.492831,34.29277],[-118.492812,34.292836]]]}},{"type":"Feature","properties":{"k":"bunker"},"geometry":{"type":"Polygon","coordinates":[[[-118.493155,34.293079],[-118.493117,34.293109],[-118.493071,34.293089],[-118.493073,34.293053],[-118.493105,34.293011],[-118.493081,34.292999],[-118.493068,34.292971],[-118.493087,34.292941],[-118.493133,34.292931],[-118.493177,34.292985],[-118.493154,34.293006],[-118.493148,34.293032],[-118.493155,34.293079]]]}},{"type":"Feature","properties":{"k":"bunker"},"geometry":{"type":"Polygon","coordinates":[[[-118.492789,34.293291],[-118.492778,34.293309],[-118.492712,34.293333],[-118.492691,34.293329],[-118.492683,34.293319],[-118.492691,34.293278],[-118.492685,34.293267],[-118.492646,34.293263],[-118.492631,34.293244],[-118.49264,34.293211],[-118.492674,34.293203],[-118.492706,34.293211],[-118.492718,34.293183],[-118.492738,34.29317],[-118.492771,34.293173],[-118.492786,34.293185],[-118.49279,34.293202],[-118.492759,34.293242],[-118.492791,34.293271],[-118.492789,34.293291]]]}},{"type":"Feature","properties":{"k":"green"},"geometry":{"type":"Polygon","coordinates":[[[-118.492754,34.293086],[-118.492734,34.293113],[-118.492698,34.293135],[-118.492651,34.293143],[-118.492598,34.293132],[-118.492576,34.293113],[-118.492574,34.293056],[-118.492586,34.29303],[-118.492616,34.293008],[-118.492662,34.293002],[-118.49272,34.293019],[-118.492751,34.293055],[-118.492754,34.293086]]]}},{"type":"Feature","properties":{"k":"tee"},"geometry":{"type":"Polygon","coordinates":[[[-118.493971,34.290622],[-118.493977,34.290604],[-118.493911,34.290567],[-118.493871,34.290581],[-118.493818,34.290675],[-118.493854,34.290696],[-118.493933,34.290718],[-118.493971,34.290651],[-118.493971,34.290622]]]}},{"type":"Feature","properties":{"k":"green"},"geometry":{"type":"Polygon","coordinates":[[[-118.493777,34.294896],[-118.493835,34.294896],[-118.493877,34.294972],[-118.493852,34.295021],[-118.493811,34.295062],[-118.493748,34.295086],[-118.493706,34.295062],[-118.493685,34.29503],[-118.493678,34.294992],[-118.493691,34.294945],[-118.493777,34.294896]]]}},{"type":"Feature","properties":{"k":"bunker"},"geometry":{"type":"Polygon","coordinates":[[[-118.493879,34.294788],[-118.493894,34.294818],[-118.493873,34.294839],[-118.493845,34.294846],[-118.493822,34.294841],[-118.493817,34.294782],[-118.493773,34.294794],[-118.493738,34.294782],[-118.493741,34.294748],[-118.493758,34.294727],[-118.493819,34.294717],[-118.49384,34.294694],[-118.493867,34.294686],[-118.493904,34.29472],[-118.49387,34.294747],[-118.493864,34.294765],[-118.493879,34.294788]]]}},{"type":"Feature","properties":{"k":"tee"},"geometry":{"type":"Polygon","coordinates":[[[-118.493697,34.295718],[-118.493689,34.295667],[-118.493632,34.295596],[-118.493555,34.29547],[-118.493532,34.295454],[-118.493471,34.295454],[-118.493445,34.295472],[-118.493457,34.295517],[-118.493586,34.295716],[-118.493602,34.295756],[-118.493697,34.295718]]]}},{"type":"Feature","properties":{"k":"bunker"},"geometry":{"type":"Polygon","coordinates":[[[-118.498665,34.29045],[-118.498676,34.290473],[-118.498659,34.290493],[-118.498644,34.290503],[-118.498624,34.290497],[-118.498608,34.290483],[-118.498609,34.290462],[-118.498598,34.290439],[-118.498571,34.290427],[-118.498576,34.290396],[-118.498603,34.290381],[-118.498613,34.290354],[-118.498681,34.290315],[-118.498699,34.290306],[-118.498729,34.290312],[-118.498735,34.290326],[-118.498726,34.290347],[-118.498673,34.290366],[-118.49867,34.290388],[-118.498679,34.290399],[-118.498647,34.290432],[-118.498665,34.29045]]]}},{"type":"Feature","properties":{"k":"green"},"geometry":{"type":"Polygon","coordinates":[[[-118.498815,34.290476],[-118.498939,34.290403],[-118.498968,34.290369],[-118.498974,34.290316],[-118.498945,34.29027],[-118.498916,34.290259],[-118.498867,34.290255],[-118.498728,34.29043],[-118.498726,34.290448],[-118.498746,34.290461],[-118.498782,34.290478],[-118.498815,34.290476]]]}},{"type":"Feature","properties":{"k":"bunker"},"geometry":{"type":"Polygon","coordinates":[[[-118.498415,34.291012],[-118.498395,34.291024],[-118.498364,34.29103],[-118.498334,34.291011],[-118.498328,34.290989],[-118.498353,34.29097],[-118.498382,34.290963],[-118.498385,34.290922],[-118.498412,34.290921],[-118.498436,34.290935],[-118.498467,34.290933],[-118.49848,34.290941],[-118.498475,34.290979],[-118.498418,34.290992],[-118.498415,34.291012]]]}},{"type":"Feature","properties":{"k":"bunker"},"geometry":{"type":"Polygon","coordinates":[[[-118.497129,34.292529],[-118.497139,34.292553],[-118.497117,34.292596],[-118.497081,34.292609],[-118.497054,34.292607],[-118.497043,34.292569],[-118.497067,34.292541],[-118.497056,34.292529],[-118.497028,34.292519],[-118.497019,34.292483],[-118.497001,34.292472],[-118.496997,34.292451],[-118.497007,34.292432],[-118.49704,34.292426],[-118.497062,34.292435],[-118.497085,34.292503],[-118.497117,34.292513],[-118.497129,34.292529]]]}},{"type":"Feature","properties":{"k":"bunker"},"geometry":{"type":"Polygon","coordinates":[[[-118.49685,34.292742],[-118.496862,34.292769],[-118.496847,34.292796],[-118.496819,34.292803],[-118.49679,34.292797],[-118.496785,34.292776],[-118.496803,34.292751],[-118.496801,34.292737],[-118.496766,34.292729],[-118.496748,34.292713],[-118.496764,34.292679],[-118.496738,34.292648],[-118.496761,34.292629],[-118.496809,34.292637],[-118.496837,34.292661],[-118.49685,34.292742]]]}},{"type":"Feature","properties":{"k":"green"},"geometry":{"type":"Polygon","coordinates":[[[-118.49704,34.292698],[-118.497004,34.292738],[-118.496958,34.292745],[-118.49691,34.292733],[-118.496878,34.292652],[-118.496894,34.292528],[-118.496941,34.292518],[-118.496976,34.292533],[-118.497008,34.29262],[-118.497042,34.292653],[-118.497051,34.292678],[-118.49704,34.292698]]]}},{"type":"Feature","properties":{"k":"tee"},"geometry":{"type":"Polygon","coordinates":[[[-118.498208,34.292488],[-118.498074,34.292513],[-118.498043,34.292417],[-118.498178,34.292385],[-118.498208,34.292488]]]}},{"type":"Feature","properties":{"k":"tee"},"geometry":{"type":"Polygon","coordinates":[[[-118.500166,34.290132],[-118.500269,34.290098],[-118.500223,34.289987],[-118.500121,34.290014],[-118.500166,34.290132]]]}},{"type":"Feature","properties":{"k":"green"},"geometry":{"type":"Polygon","coordinates":[[[-118.500692,34.292751],[-118.500659,34.292767],[-118.500616,34.292769],[-118.500574,34.292764],[-118.500538,34.292746],[-118.500519,34.292716],[-118.500514,34.292664],[-118.500533,34.292615],[-118.500577,34.292579],[-118.500608,34.292571],[-118.500651,34.292578],[-118.500671,34.29267],[-118.500692,34.292717],[-118.500692,34.292751]]]}},{"type":"Feature","properties":{"k":"bunker"},"geometry":{"type":"Polygon","coordinates":[[[-118.500447,34.292621],[-118.500465,34.292664],[-118.500435,34.292684],[-118.500394,34.292681],[-118.500378,34.29266],[-118.500398,34.292616],[-118.500384,34.292605],[-118.500374,34.29258],[-118.500396,34.292554],[-118.500439,34.292558],[-118.500501,34.292549],[-118.500521,34.292566],[-118.50052,34.29259],[-118.500464,34.292604],[-118.500447,34.292621]]]}},{"type":"Feature","properties":{"k":"tee"},"geometry":{"type":"Polygon","coordinates":[[[-118.50028,34.293582],[-118.5002,34.293568],[-118.500272,34.293377],[-118.500337,34.293391],[-118.500338,34.293404],[-118.50028,34.293582]]]}},{"type":"Feature","properties":{"k":"bunker"},"geometry":{"type":"Polygon","coordinates":[[[-118.500153,34.295104],[-118.500112,34.295104],[-118.500097,34.295072],[-118.500118,34.29503],[-118.5001,34.295],[-118.500092,34.294962],[-118.500135,34.294946],[-118.500169,34.294965],[-118.500183,34.294998],[-118.500182,34.295036],[-118.500194,34.295067],[-118.50018,34.295094],[-118.500153,34.295104]]]}},{"type":"Feature","properties":{"k":"bunker"},"geometry":{"type":"Polygon","coordinates":[[[-118.500044,34.296746],[-118.500057,34.296774],[-118.500039,34.296805],[-118.500009,34.296817],[-118.499991,34.296803],[-118.499991,34.296782],[-118.499952,34.296772],[-118.499935,34.296746],[-118.50001,34.296694],[-118.500048,34.296691],[-118.500064,34.296717],[-118.500044,34.296746]]]}},{"type":"Feature","properties":{"k":"bunker"},"geometry":{"type":"Polygon","coordinates":[[[-118.500248,34.296604],[-118.500246,34.296623],[-118.50023,34.296644],[-118.500196,34.296644],[-118.500183,34.29661],[-118.500183,34.296573],[-118.500216,34.29654],[-118.500249,34.296535],[-118.500271,34.296549],[-118.500288,34.29658],[-118.500278,34.296596],[-118.500248,34.296604]]]}},{"type":"Feature","properties":{"k":"tee"},"geometry":{"type":"Polygon","coordinates":[[[-118.500704,34.296999],[-118.500612,34.296988],[-118.50061,34.296856],[-118.500714,34.296861],[-118.500704,34.296999]]]}},{"type":"Feature","properties":{"k":"bunker"},"geometry":{"type":"Polygon","coordinates":[[[-118.500669,34.29842],[-118.500684,34.298437],[-118.500684,34.29845],[-118.500712,34.29845],[-118.500723,34.298423],[-118.500696,34.298341],[-118.500671,34.298338],[-118.500644,34.298358],[-118.500616,34.298363],[-118.500576,34.298405],[-118.500605,34.298447],[-118.500637,34.298458],[-118.50065,34.298431],[-118.500669,34.29842]]]}},{"type":"Feature","properties":{"k":"bunker"},"geometry":{"type":"Polygon","coordinates":[[[-118.500746,34.298958],[-118.500754,34.298995],[-118.500769,34.299011],[-118.500811,34.299007],[-118.500812,34.298946],[-118.500839,34.298919],[-118.500826,34.298887],[-118.500803,34.298881],[-118.500751,34.298901],[-118.500697,34.298901],[-118.500661,34.298923],[-118.500662,34.29894],[-118.500693,34.29898],[-118.500746,34.298958]]]}},{"type":"Feature","properties":{"k":"bunker"},"geometry":{"type":"Polygon","coordinates":[[[-118.500449,34.299027],[-118.500485,34.29902],[-118.500506,34.298997],[-118.500496,34.298971],[-118.500474,34.298956],[-118.500433,34.298969],[-118.500424,34.298991],[-118.500434,34.299016],[-118.500449,34.299027]]]}},{"type":"Feature","properties":{"k":"green"},"geometry":{"type":"Polygon","coordinates":[[[-118.500723,34.299231],[-118.500761,34.29921],[-118.50078,34.299152],[-118.500756,34.299084],[-118.5007,34.299031],[-118.50065,34.29901],[-118.500565,34.299057],[-118.500566,34.299119],[-118.500587,34.299196],[-118.500612,34.299229],[-118.50066,34.29924],[-118.500723,34.299231]]]}},{"type":"Feature","properties":{"k":"tee"},"geometry":{"type":"Polygon","coordinates":[[[-118.500839,34.299869],[-118.500734,34.299901],[-118.500668,34.299761],[-118.500776,34.299738],[-118.500839,34.299869]]]}},{"type":"Feature","properties":{"k":"bunker"},"geometry":{"type":"Polygon","coordinates":[[[-118.501421,34.300858],[-118.50142,34.300818],[-118.501377,34.300793],[-118.501349,34.300789],[-118.501328,34.300774],[-118.501319,34.300751],[-118.501278,34.300743],[-118.501248,34.300753],[-118.501242,34.300779],[-118.50126,34.300794],[-118.501287,34.300798],[-118.501296,34.300847],[-118.501327,34.300857],[-118.501355,34.300857],[-118.501372,34.300876],[-118.501399,34.300878],[-118.501421,34.300858]]]}},{"type":"Feature","properties":{"k":"green"},"geometry":{"type":"Polygon","coordinates":[[[-118.501229,34.300861],[-118.501171,34.300875],[-118.501157,34.30091],[-118.501184,34.301018],[-118.501209,34.301044],[-118.501255,34.30105],[-118.501318,34.30103],[-118.501351,34.300989],[-118.501358,34.300955],[-118.501344,34.30092],[-118.50131,34.30089],[-118.501276,34.300876],[-118.501262,34.30086],[-118.501229,34.300861]]]}},{"type":"Feature","properties":{"k":"tee"},"geometry":{"type":"Polygon","coordinates":[[[-118.500738,34.301144],[-118.500593,34.301144],[-118.500582,34.301026],[-118.500744,34.301032],[-118.500738,34.301144]]]}},{"type":"Feature","properties":{"k":"green"},"geometry":{"type":"Polygon","coordinates":[[[-118.497941,34.301155],[-118.497958,34.301104],[-118.497937,34.301071],[-118.497893,34.301049],[-118.49781,34.301049],[-118.497717,34.30109],[-118.497684,34.301142],[-118.497679,34.301178],[-118.497785,34.301215],[-118.49785,34.301204],[-118.497897,34.301187],[-118.497941,34.301155]]]}},{"type":"Feature","properties":{"k":"bunker"},"geometry":{"type":"Polygon","coordinates":[[[-118.498031,34.301237],[-118.498061,34.301244],[-118.498092,34.30123],[-118.498096,34.301211],[-118.498041,34.301166],[-118.498004,34.301159],[-118.497986,34.301173],[-118.497993,34.301198],[-118.497968,34.301208],[-118.497939,34.301206],[-118.497903,34.301214],[-118.497888,34.301245],[-118.497905,34.301265],[-118.497936,34.301272],[-118.497994,34.301246],[-118.498031,34.301237]]]}},{"type":"Feature","properties":{"k":"bunker"},"geometry":{"type":"Polygon","coordinates":[[[-118.497659,34.301277],[-118.497601,34.301281],[-118.497588,34.301253],[-118.497627,34.301201],[-118.497703,34.301234],[-118.497711,34.301262],[-118.497696,34.301286],[-118.497659,34.301277]]]}},{"type":"Feature","properties":{"k":"tee"},"geometry":{"type":"Polygon","coordinates":[[[-118.498068,34.300242],[-118.497834,34.300272],[-118.497818,34.300075],[-118.498032,34.300053],[-118.498068,34.300242]]]}},{"type":"Feature","properties":{"k":"tee"},"geometry":{"type":"Polygon","coordinates":[[[-118.497517,34.300366],[-118.497367,34.30038],[-118.497363,34.300155],[-118.49752,34.30014],[-118.497517,34.300366]]]}},{"type":"Feature","properties":{"k":"bunker"},"geometry":{"type":"Polygon","coordinates":[[[-118.497576,34.29844],[-118.497554,34.298439],[-118.497527,34.298414],[-118.497496,34.298403],[-118.49748,34.298381],[-118.4975,34.298353],[-118.497562,34.298364],[-118.497585,34.298359],[-118.497619,34.298376],[-118.497625,34.298403],[-118.497576,34.29844]]]}},{"type":"Feature","properties":{"k":"bunker"},"geometry":{"type":"Polygon","coordinates":[[[-118.497192,34.297367],[-118.497154,34.297375],[-118.497129,34.297353],[-118.497127,34.29734],[-118.497147,34.297322],[-118.497173,34.297315],[-118.497174,34.297246],[-118.497186,34.297241],[-118.497214,34.297247],[-118.497235,34.297287],[-118.497237,34.297325],[-118.497219,34.297354],[-118.497192,34.297367]]]}},{"type":"Feature","properties":{"k":"green"},"geometry":{"type":"Polygon","coordinates":[[[-118.497099,34.297309],[-118.497067,34.297316],[-118.497022,34.297304],[-118.496989,34.297277],[-118.496961,34.29723],[-118.49695,34.297172],[-118.496957,34.297123],[-118.496977,34.297081],[-118.497004,34.297065],[-118.497072,34.297067],[-118.497106,34.297087],[-118.49713,34.297137],[-118.497139,34.297275],[-118.497126,34.297297],[-118.497099,34.297309]]]}},{"type":"Feature","properties":{"k":"tee"},"geometry":{"type":"Polygon","coordinates":[[[-118.496642,34.297197],[-118.496654,34.297003],[-118.496598,34.297005],[-118.496593,34.297042],[-118.496532,34.297037],[-118.496523,34.297162],[-118.496547,34.2972],[-118.496582,34.297215],[-118.496622,34.297209],[-118.496642,34.297197]]]}},{"type":"Feature","properties":{"k":"green"},"geometry":{"type":"Polygon","coordinates":[[[-118.497909,34.293435],[-118.497855,34.293411],[-118.497851,34.293362],[-118.497893,34.293216],[-118.497973,34.29319],[-118.498046,34.293204],[-118.498081,34.293236],[-118.49808,34.293309],[-118.497972,34.293427],[-118.497909,34.293435]]]}},{"type":"Feature","properties":{"k":"bunker"},"geometry":{"type":"Polygon","coordinates":[[[-118.497721,34.293481],[-118.49766,34.293428],[-118.497707,34.29338],[-118.497713,34.293348],[-118.497739,34.293317],[-118.497774,34.293315],[-118.497799,34.293334],[-118.497792,34.293362],[-118.497759,34.293396],[-118.497766,34.29341],[-118.497794,34.29342],[-118.497794,34.293447],[-118.497777,34.293466],[-118.497721,34.293481]]]}},{"type":"Feature","properties":{"k":"bunker"},"geometry":{"type":"Polygon","coordinates":[[[-118.497752,34.294234],[-118.497719,34.294255],[-118.49769,34.294254],[-118.497681,34.294228],[-118.4977,34.294191],[-118.497653,34.294147],[-118.497679,34.294115],[-118.497717,34.294108],[-118.497738,34.294131],[-118.497756,34.294137],[-118.497774,34.294123],[-118.497806,34.294124],[-118.49782,34.294143],[-118.497812,34.294175],[-118.497773,34.294199],[-118.497752,34.294234]]]}},{"type":"Feature","properties":{"k":"bunker"},"geometry":{"type":"Polygon","coordinates":[[[-118.496958,34.295056],[-118.496925,34.29505],[-118.496921,34.295031],[-118.496933,34.29501],[-118.49692,34.294971],[-118.496969,34.294951],[-118.496999,34.294925],[-118.49702,34.294927],[-118.497026,34.294963],[-118.497018,34.294982],[-118.496978,34.295011],[-118.49698,34.295043],[-118.496958,34.295056]]]}},{"type":"Feature","properties":{"k":"tee"},"geometry":{"type":"Polygon","coordinates":[[[-118.496792,34.292163],[-118.496361,34.292401],[-118.496305,34.292343],[-118.496751,34.292114],[-118.496792,34.292163]]]}},{"type":"Feature","properties":{"k":"green"},"geometry":{"type":"Polygon","coordinates":[[[-118.500189,34.297002],[-118.500139,34.296982],[-118.50009,34.29694],[-118.500073,34.296893],[-118.500076,34.296852],[-118.500099,34.296823],[-118.500126,34.29681],[-118.500169,34.296814],[-118.500215,34.296855],[-118.500248,34.296911],[-118.500247,34.296957],[-118.50023,34.296985],[-118.500189,34.297002]]]}},{"type":"Feature","properties":{"k":"path"},"geometry":{"type":"LineString","coordinates":[[-118.499138,34.28531],[-118.499083,34.28541],[-118.499123,34.285452],[-118.499124,34.285508],[-118.499102,34.285619],[-118.499103,34.285676],[-118.499132,34.285704],[-118.499333,34.285753],[-118.499355,34.285786],[-118.499358,34.285844],[-118.499335,34.28592],[-118.499267,34.286074],[-118.499264,34.286099],[-118.499434,34.286998]]}}]}