{"type":"FeatureCollection","features":[{"type":"Feature","properties":{"k":"water"},"geometry":{"type":"Polygon","coordinates":[[[-74.933998,39.843878],[-74.93362,39.843562],[-74.933611,39.843483],[-74.933697,39.843463],[-74.934143,39.843153],[-74.9341,39.84343],[-74.933834,39.843575],[-74.933972,39.843575],[-74.933998,39.843878]]]}},{"type":"Feature","properties":{"k":"water"},"geometry":{"type":"Polygon","coordinates":[[[-74.931343,39.843644],[-74.931335,39.843803],[-74.931321,39.843884],[-74.931304,39.843915],[-74.931089,39.844167],[-74.931072,39.84422],[-74.931088,39.84426],[-74.931124,39.844281],[-74.93115,39.844283],[-74.931256,39.844249],[-74.931317,39.844247],[-74.931368,39.844257],[-74.931412,39.844281],[-74.931443,39.844285],[-74.93159,39.844219],[-74.931717,39.844194],[-74.93187,39.844175],[-74.931893,39.844149],[-74.931892,39.844102],[-74.931865,39.844052],[-74.931675,39.843879],[-74.931646,39.843791],[-74.931641,39.843743],[-74.931702,39.843545],[-74.931813,39.843385],[-74.931935,39.84325],[-74.932017,39.843174],[-74.932022,39.843153],[-74.932011,39.84312],[-74.931983,39.843104],[-74.931862,39.843075],[-74.931825,39.84305],[-74.931755,39.842927],[-74.931711,39.842872],[-74.931698,39.842839],[-74.931691,39.842765],[-74.931714,39.842713],[-74.931776,39.842649],[-74.931779,39.842623],[-74.931767,39.842612],[-74.931737,39.842594],[-74.931437,39.842555],[-74.931222,39.842535],[-74.931175,39.842536],[-74.931119,39.842553],[-74.931097,39.842592],[-74.931085,39.842649],[-74.931098,39.84269],[-74.931112,39.842705],[-74.93116,39.842723],[-74.931376,39.842746],[-74.93146,39.842793],[-74.931506,39.842879],[-74.931545,39.843085],[-74.931551,39.843148],[-74.93154,39.843261],[-74.931524,39.843304],[-74.931478,39.843377],[-74.931438,39.843427],[-74.931343,39.843505],[-74.931334,39.843543],[-74.931343,39.843644]]]}},{"type":"Feature","properties":{"k":"wood"},"geometry":{"type":"Polygon","coordinates":[[[-74.932842,39.842703],[-74.933358,39.842493],[-74.934557,39.842602],[-74.935746,39.842347],[-74.93613,39.842357],[-74.936179,39.842439],[-74.935963,39.842561],[-74.935,39.842789],[-74.934673,39.843829],[-74.934145,39.844017],[-74.932842,39.842703]]]}},{"type":"Feature","properties":{"k":"water"},"geometry":{"type":"Polygon","coordinates":[[[-74.93214,39.844788],[-74.932156,39.844738],[-74.932221,39.844687],[-74.932352,39.844671],[-74.932392,39.844659],[-74.932488,39.844599],[-74.932533,39.844539],[-74.932553,39.844468],[-74.932561,39.844391],[-74.932572,39.844374],[-74.932587,39.844368],[-74.932631,39.844367],[-74.932737,39.844403],[-74.932896,39.844505],[-74.932942,39.844549],[-74.932943,39.844591],[-74.932882,39.844606],[-74.932864,39.844616],[-74.932827,39.844766],[-74.932763,39.844863],[-74.932682,39.84491],[-74.932484,39.844933],[-74.932452,39.844946],[-74.932356,39.845055],[-74.932335,39.845066],[-74.932309,39.845072],[-74.932253,39.845068],[-74.932235,39.84506],[-74.932212,39.845035],[-74.932185,39.844964],[-74.93214,39.844788]]]}},{"type":"Feature","properties":{"k":"water"},"geometry":{"type":"Polygon","coordinates":[[[-74.933334,39.844232],[-74.933309,39.844258],[-74.933165,39.844346],[-74.933016,39.844465],[-74.932995,39.844478],[-74.932966,39.844479],[-74.932921,39.844454],[-74.93266,39.844234],[-74.932659,39.844217],[-74.932682,39.844173],[-74.932701,39.844156],[-74.932867,39.844031],[-74.93294,39.843989],[-74.933025,39.843912],[-74.933078,39.843887],[-74.933305,39.843836],[-74.933578,39.843722],[-74.933632,39.84372],[-74.933664,39.843734],[-74.933798,39.843829],[-74.933858,39.843888],[-74.933879,39.843934],[-74.93387,39.843964],[-74.933656,39.84414],[-74.933614,39.844156],[-74.933466,39.844157],[-74.933425,39.844169],[-74.933358,39.844205],[-74.933334,39.844232]]]}},{"type":"Feature","properties":{"k":"water"},"geometry":{"type":"Polygon","coordinates":[[[-74.92946,39.847088],[-74.929519,39.847034],[-74.929593,39.846945],[-74.929809,39.846723],[-74.929952,39.84662],[-74.930031,39.84655],[-74.930143,39.846399],[-74.930224,39.846156],[-74.930398,39.845902],[-74.930404,39.845826],[-74.930375,39.845718],[-74.930353,39.845583],[-74.930387,39.845469],[-74.930423,39.845415],[-74.93068,39.845182],[-74.931014,39.84484],[-74.931063,39.844748],[-74.930992,39.84458],[-74.930989,39.844546],[-74.930996,39.844523],[-74.931048,39.844454],[-74.931096,39.844454],[-74.931123,39.844462],[-74.931143,39.844481],[-74.931174,39.844494],[-74.931321,39.844464],[-74.931359,39.84444],[-74.931399,39.844384],[-74.931458,39.844377],[-74.931495,39.844385],[-74.931534,39.84437],[-74.931701,39.84436],[-74.931787,39.844335],[-74.931892,39.844335],[-74.931969,39.84435],[-74.931986,39.844388],[-74.931999,39.844459],[-74.932042,39.844544],[-74.93205,39.844608],[-74.932003,39.844629],[-74.932032,39.844694],[-74.932055,39.844867],[-74.932084,39.844903],[-74.932127,39.84502],[-74.932141,39.845148],[-74.932116,39.845465],[-74.932095,39.845603],[-74.931999,39.84572],[-74.931924,39.845747],[-74.931885,39.845751],[-74.931833,39.845756],[-74.93178,39.845743],[-74.931765,39.845768],[-74.931789,39.84583],[-74.931781,39.845888],[-74.931713,39.845983],[-74.931699,39.846058],[-74.93165,39.846119],[-74.931497,39.846266],[-74.931455,39.846347],[-74.931417,39.84637],[-74.931382,39.84642],[-74.931368,39.846475],[-74.931219,39.846708],[-74.931163,39.846823],[-74.931128,39.846871],[-74.931203,39.847023],[-74.931275,39.847075],[-74.93129,39.847109],[-74.931301,39.847154],[-74.931285,39.847189],[-74.931251,39.847229],[-74.931134,39.847309],[-74.93093,39.847392],[-74.930839,39.847447],[-74.930736,39.847524],[-74.930667,39.847594],[-74.930436,39.847896],[-74.929906,39.8478],[-74.929524,39.847701],[-74.929381,39.84764],[-74.929232,39.847565],[-74.929147,39.847511],[-74.929073,39.847446],[-74.929068,39.847423],[-74.929108,39.847351],[-74.929135,39.84732],[-74.929258,39.847224],[-74.92946,39.847088]]]}},{"type":"Feature","properties":{"k":"stream"},"geometry":{"type":"LineString","coordinates":[[-74.932754,39.844414],[-74.932604,39.844605],[-74.932408,39.844798],[-74.932336,39.844843],[-74.932168,39.844896]]}},{"type":"Feature","properties":{"k":"stream"},"geometry":{"type":"LineString","coordinates":[[-74.933739,39.843787],[-74.93327,39.844046],[-74.933054,39.84413],[-74.933009,39.844159],[-74.932812,39.844356]]}},{"type":"Feature","properties":{"k":"stream"},"geometry":{"type":"LineString","coordinates":[[-74.932168,39.844896],[-74.93209,39.84492]]}},{"type":"Feature","properties":{"k":"stream"},"geometry":{"type":"LineString","coordinates":[[-74.932812,39.844356],[-74.932754,39.844414]]}},{"type":"Feature","properties":{"k":"stream"},"geometry":{"type":"LineString","coordinates":[[-74.933814,39.843744],[-74.933739,39.843787]]}},{"type":"Feature","properties":{"k":"stream"},"geometry":{"type":"LineString","coordinates":[[-74.93209,39.84492],[-74.931872,39.844982],[-74.931802,39.844992],[-74.931767,39.844987],[-74.931698,39.844917],[-74.931643,39.844915],[-74.93162,39.844924],[-74.931557,39.844985],[-74.931524,39.844995],[-74.931423,39.844987],[-74.931394,39.844997],[-74.931365,39.845044],[-74.931329,39.845067],[-74.931277,39.845087]]}},{"type":"Feature","properties":{"k":"stream"},"geometry":{"type":"LineString","coordinates":[[-74.931438,39.844285],[-74.931473,39.84438]]}},{"type":"Feature","properties":{"k":"stream"},"geometry":{"type":"LineString","coordinates":[[-74.931544,39.842569],[-74.931493,39.842679],[-74.931472,39.842748],[-74.931477,39.84277],[-74.931497,39.842789],[-74.931599,39.842862],[-74.931613,39.842891],[-74.931618,39.843],[-74.931605,39.843202],[-74.931513,39.843443],[-74.931507,39.843565],[-74.931522,39.843642],[-74.931627,39.843854],[-74.93164,39.84391],[-74.931637,39.843971],[-74.931626,39.844015],[-74.931551,39.844093],[-74.931527,39.844128],[-74.931505,39.8442],[-74.931466,39.84424],[-74.931438,39.844285]]}},{"type":"Feature","properties":{"k":"stream"},"geometry":{"type":"LineString","coordinates":[[-74.931473,39.84438],[-74.931489,39.844422],[-74.931478,39.84451],[-74.931465,39.844541],[-74.931418,39.844554],[-74.931332,39.844522],[-74.931294,39.844521],[-74.931258,39.844543],[-74.93127,39.844609],[-74.931254,39.844663],[-74.931254,39.844703],[-74.931282,39.844766],[-74.931288,39.844841],[-74.931313,39.844909],[-74.931277,39.845087]]}},{"type":"Feature","properties":{"k":"stream"},"geometry":{"type":"LineString","coordinates":[[-74.931277,39.845087],[-74.931034,39.845183],[-74.930876,39.845228],[-74.930741,39.845249],[-74.93071,39.845261],[-74.93068,39.845284],[-74.930668,39.84531],[-74.930649,39.845484],[-74.9306,39.845696],[-74.930591,39.845781],[-74.93062,39.845897],[-74.93058,39.846078],[-74.930549,39.846118],[-74.930435,39.846215],[-74.930427,39.84624],[-74.930435,39.846288],[-74.930473,39.846355],[-74.93048,39.846385],[-74.930465,39.846425],[-74.930417,39.846481],[-74.930408,39.846515],[-74.930413,39.846566],[-74.930467,39.84665],[-74.930469,39.846682],[-74.93044,39.846829],[-74.930457,39.84688],[-74.930449,39.847095],[-74.930419,39.847207],[-74.930391,39.847263],[-74.93035,39.847303],[-74.930218,39.847377],[-74.93015,39.847394],[-74.929754,39.847429],[-74.929675,39.847442],[-74.929609,39.847465],[-74.929553,39.847499],[-74.929529,39.847523],[-74.929461,39.847663]]}},{"type":"Feature","properties":{"k":"stream"},"geometry":{"type":"LineString","coordinates":[[-74.934175,39.843407],[-74.934115,39.843465],[-74.934107,39.843541],[-74.934093,39.843555],[-74.933814,39.843744]]}}]}