{"type":"FeatureCollection","features":[{"type":"Feature","properties":{"k":"hole","ref":"1","par":5},"geometry":{"type":"LineString","coordinates":[[-83.784805,42.229374],[-83.787607,42.229416],[-83.789342,42.229948],[-83.790168,42.230295]]}},{"type":"Feature","properties":{"k":"hole","ref":"2","par":3},"geometry":{"type":"LineString","coordinates":[[-83.790618,42.230003],[-83.789211,42.229318]]}},{"type":"Feature","properties":{"k":"hole","ref":"3","par":4},"geometry":{"type":"LineString","coordinates":[[-83.791172,42.229233],[-83.794129,42.229293],[-83.795716,42.229421]]}},{"type":"Feature","properties":{"k":"hole","ref":"4","par":4},"geometry":{"type":"LineString","coordinates":[[-83.796073,42.230302],[-83.793424,42.230038],[-83.791795,42.229722]]}},{"type":"Feature","properties":{"k":"hole","ref":"5","par":4},"geometry":{"type":"LineString","coordinates":[[-83.79338,42.230971],[-83.792951,42.23284],[-83.792968,42.233966]]}},{"type":"Feature","properties":{"k":"hole","ref":"6","par":3},"geometry":{"type":"LineString","coordinates":[[-83.792733,42.23373],[-83.791714,42.233006]]}},{"type":"Feature","properties":{"k":"hole","ref":"7","par":4},"geometry":{"type":"LineString","coordinates":[[-83.792364,42.232968],[-83.792266,42.231133],[-83.791698,42.230435]]}},{"type":"Feature","properties":{"k":"hole","ref":"8","par":4},"geometry":{"type":"LineString","coordinates":[[-83.790849,42.229608],[-83.791529,42.231354],[-83.790975,42.231939]]}},{"type":"Feature","properties":{"k":"hole","ref":"9","par":5},"geometry":{"type":"LineString","coordinates":[[-83.79073,42.230708],[-83.787718,42.23061],[-83.785853,42.230022],[-83.784636,42.229925]]}},{"type":"Feature","properties":{"k":"hole","ref":"10","par":4},"geometry":{"type":"LineString","coordinates":[[-83.785153,42.231647],[-83.78486,42.233702],[-83.784302,42.235142]]}},{"type":"Feature","properties":{"k":"hole","ref":"11","par":5},"geometry":{"type":"LineString","coordinates":[[-83.78489,42.235293],[-83.787167,42.235082],[-83.788743,42.234963],[-83.790354,42.234902]]}},{"type":"Feature","properties":{"k":"hole","ref":"12","par":4},"geometry":{"type":"LineString","coordinates":[[-83.792679,42.235236],[-83.792126,42.234028],[-83.79083,42.233034]]}},{"type":"Feature","properties":{"k":"hole","ref":"13","par":3},"geometry":{"type":"LineString","coordinates":[[-83.79005,42.233278],[-83.790369,42.234398]]}},{"type":"Feature","properties":{"k":"hole","ref":"14","par":4},"geometry":{"type":"LineString","coordinates":[[-83.789634,42.234234],[-83.787076,42.234369],[-83.785472,42.234548]]}},{"type":"Feature","properties":{"k":"hole","ref":"15","par":4},"geometry":{"type":"LineString","coordinates":[[-83.785769,42.233673],[-83.788246,42.233624],[-83.789371,42.232996]]}},{"type":"Feature","properties":{"k":"hole","ref":"16","par":4},"geometry":{"type":"LineString","coordinates":[[-83.791207,42.232373],[-83.788177,42.232611],[-83.786176,42.232802]]}},{"type":"Feature","properties":{"k":"hole","ref":"17","par":3},"geometry":{"type":"LineString","coordinates":[[-83.785425,42.232265],[-83.787952,42.231967]]}},{"type":"Feature","properties":{"k":"hole","ref":"18","par":5},"geometry":{"type":"LineString","coordinates":[[-83.790901,42.230915],[-83.788059,42.231193],[-83.786451,42.230801],[-83.784555,42.230661]]}},{"type":"Feature","properties":{"k":"water"},"geometry":{"type":"Polygon","coordinates":[[[-83.784687,42.230173],[-83.784542,42.230143],[-83.784463,42.230149],[-83.784365,42.230202],[-83.784293,42.230272],[-83.784279,42.230317],[-83.784315,42.230354],[-83.784372,42.230352],[-83.784441,42.230336],[-83.784578,42.230352],[-83.784881,42.23044],[-83.784972,42.230483],[-83.785066,42.230485],[-83.785152,42.230421],[-83.785152,42.230376],[-83.78512,42.230258],[-83.78504,42.230143],[-83.785026,42.230082],[-83.785004,42.230047],[-83.784932,42.230031],[-83.784863,42.230042],[-83.784809,42.230082],[-83.784748,42.230154],[-83.784687,42.230173]]]}},{"type":"Feature","properties":{"k":"water"},"geometry":{"type":"Polygon","coordinates":[[[-83.786748,42.233369],[-83.786628,42.233572],[-83.786538,42.233628],[-83.786415,42.233628],[-83.786174,42.233599],[-83.786062,42.233569],[-83.785961,42.233583],[-83.785921,42.233652],[-83.785946,42.233767],[-83.786015,42.233802],[-83.786148,42.233818],[-83.786231,42.233791],[-83.786304,42.233791],[-83.786408,42.233813],[-83.786488,42.233802],[-83.786639,42.233738],[-83.786773,42.233703],[-83.786971,42.233666],[-83.787061,42.233599],[-83.787119,42.233537],[-83.787155,42.233481],[-83.787155,42.233404],[-83.787105,42.23335],[-83.787025,42.233308],[-83.787007,42.233196],[-83.786921,42.233278],[-83.786787,42.233316],[-83.786748,42.233369]]]}},{"type":"Feature","properties":{"k":"water"},"geometry":{"type":"Polygon","coordinates":[[[-83.787072,42.22959],[-83.786812,42.229641],[-83.786697,42.229649],[-83.786621,42.22963],[-83.78656,42.229587],[-83.786311,42.229518],[-83.786026,42.229577],[-83.785885,42.229553],[-83.785773,42.229553],[-83.785679,42.229577],[-83.785621,42.229611],[-83.785621,42.229654],[-83.785672,42.229692],[-83.785751,42.229705],[-83.785989,42.229684],[-83.786087,42.22971],[-83.786192,42.22975],[-83.786412,42.229769],[-83.786502,42.229796],[-83.786621,42.22986],[-83.78669,42.229884],[-83.78678,42.229884],[-83.786924,42.229849],[-83.786989,42.229865],[-83.787018,42.229913],[-83.78704,42.229983],[-83.787126,42.230058],[-83.787267,42.23014],[-83.787458,42.230191],[-83.787563,42.23021],[-83.787744,42.230277],[-83.788325,42.230547],[-83.788415,42.230563],[-83.788884,42.230509],[-83.788996,42.23044],[-83.789018,42.230386],[-83.789018,42.23032],[-83.789,42.230263],[-83.788913,42.230226],[-83.788747,42.230181],[-83.788657,42.23014],[-83.788581,42.230122],[-83.788357,42.230111],[-83.788285,42.230079],[-83.788235,42.230018],[-83.788242,42.229863],[-83.788217,42.229798],[-83.788177,42.229766],[-83.787989,42.229737],[-83.787596,42.229782],[-83.787531,42.229774],[-83.787466,42.229732],[-83.78739,42.229654],[-83.787271,42.229603],[-83.787188,42.229593],[-83.787072,42.22959]]]}},{"type":"Feature","properties":{"k":"clubhouse"},"geometry":{"type":"Polygon","coordinates":[[[-83.783279,42.230266],[-83.783016,42.230478],[-83.782897,42.230397],[-83.782932,42.230369],[-83.782824,42.230295],[-83.782986,42.230165],[-83.783087,42.230234],[-83.783153,42.23018],[-83.783279,42.230266]]]}},{"type":"Feature","properties":{"k":"green"},"geometry":{"type":"Polygon","coordinates":[[[-83.784404,42.235038],[-83.784438,42.23498],[-83.784434,42.234946],[-83.784417,42.234913],[-83.784257,42.234917],[-83.784224,42.23497],[-83.784222,42.235009],[-83.784234,42.235048],[-83.784222,42.235096],[-83.784184,42.235154],[-83.784183,42.235194],[-83.784222,42.235229],[-83.784282,42.235233],[-83.784367,42.235223],[-83.784415,42.235185],[-83.784426,42.23514],[-83.784404,42.235088],[-83.784404,42.235038]]]}},{"type":"Feature","properties":{"k":"tee"},"geometry":{"type":"Polygon","coordinates":[[[-83.785129,42.232162],[-83.785094,42.232181],[-83.785036,42.23218],[-83.785005,42.232161],[-83.784993,42.232129],[-83.784999,42.232093],[-83.784991,42.232067],[-83.785006,42.232034],[-83.785046,42.232012],[-83.785094,42.232012],[-83.785128,42.232032],[-83.785151,42.232133],[-83.785129,42.232162]]]}},{"type":"Feature","properties":{"k":"tee"},"geometry":{"type":"Polygon","coordinates":[[[-83.785159,42.231899],[-83.78511,42.231911],[-83.785071,42.231888],[-83.785059,42.23184],[-83.785089,42.231801],[-83.785147,42.231794],[-83.78519,42.231818],[-83.78519,42.231866],[-83.785159,42.231899]]]}},{"type":"Feature","properties":{"k":"tee"},"geometry":{"type":"Polygon","coordinates":[[[-83.785202,42.231672],[-83.785165,42.231694],[-83.785118,42.231688],[-83.7851,42.231658],[-83.785104,42.231623],[-83.785147,42.231604],[-83.785194,42.231619],[-83.785202,42.231672]]]}},{"type":"Feature","properties":{"k":"tee"},"geometry":{"type":"Polygon","coordinates":[[[-83.785501,42.232267],[-83.785482,42.232301],[-83.785435,42.232317],[-83.785385,42.232317],[-83.785348,42.232286],[-83.785353,42.232236],[-83.78539,42.232205],[-83.785453,42.232203],[-83.785498,42.232227],[-83.785501,42.232267]]]}},{"type":"Feature","properties":{"k":"tee"},"geometry":{"type":"Polygon","coordinates":[[[-83.785749,42.232326],[-83.785667,42.232317],[-83.785629,42.232293],[-83.78562,42.232248],[-83.785634,42.232211],[-83.785697,42.232194],[-83.785764,42.2322],[-83.785808,42.232242],[-83.785811,42.232293],[-83.785749,42.232326]]]}},{"type":"Feature","properties":{"k":"tee"},"geometry":{"type":"Polygon","coordinates":[[[-83.786122,42.232239],[-83.786076,42.232259],[-83.786015,42.232251],[-83.785973,42.23223],[-83.785973,42.232196],[-83.786017,42.232166],[-83.78607,42.23216],[-83.786122,42.232177],[-83.786136,42.232211],[-83.786122,42.232239]]]}},{"type":"Feature","properties":{"k":"tee"},"geometry":{"type":"Polygon","coordinates":[[[-83.786305,42.232227],[-83.786261,42.232227],[-83.786214,42.232201],[-83.786211,42.232151],[-83.786248,42.232127],[-83.786316,42.232134],[-83.786348,42.232167],[-83.786344,42.232201],[-83.786305,42.232227]]]}},{"type":"Feature","properties":{"k":"tee"},"geometry":{"type":"Polygon","coordinates":[[[-83.785492,42.235144],[-83.785452,42.235163],[-83.785354,42.235166],[-83.785295,42.235148],[-83.785295,42.235112],[-83.785334,42.235083],[-83.785401,42.235082],[-83.785467,42.235093],[-83.7855,42.235117],[-83.785492,42.235144]]]}},{"type":"Feature","properties":{"k":"tee"},"geometry":{"type":"Polygon","coordinates":[[[-83.785186,42.235244],[-83.785158,42.235278],[-83.785091,42.235288],[-83.78504,42.235283],[-83.785005,42.235249],[-83.785017,42.235215],[-83.785043,42.235195],[-83.785124,42.235191],[-83.785175,42.235206],[-83.785186,42.235244]]]}},{"type":"Feature","properties":{"k":"tee"},"geometry":{"type":"Polygon","coordinates":[[[-83.784966,42.235298],[-83.784941,42.235332],[-83.784881,42.235347],[-83.784823,42.235334],[-83.7848,42.235297],[-83.78483,42.235259],[-83.784913,42.235244],[-83.784959,42.235262],[-83.784966,42.235298]]]}},{"type":"Feature","properties":{"k":"green"},"geometry":{"type":"Polygon","coordinates":[[[-83.785719,42.234612],[-83.785686,42.234644],[-83.785623,42.234652],[-83.785555,42.234626],[-83.78533,42.234661],[-83.785273,42.234635],[-83.785255,42.234577],[-83.785273,42.234505],[-83.785336,42.23447],[-83.785432,42.234467],[-83.785543,42.234408],[-83.785604,42.234426],[-83.785633,42.234456],[-83.785633,42.234508],[-83.785686,42.234559],[-83.785719,42.234612]]]}},{"type":"Feature","properties":{"k":"stream"},"geometry":{"type":"LineString","coordinates":[[-83.787007,42.233196],[-83.787041,42.23304],[-83.787036,42.232982],[-83.787082,42.232907],[-83.787021,42.232728],[-83.786856,42.232551],[-83.786622,42.232331],[-83.786516,42.232198],[-83.786383,42.232096],[-83.786242,42.231969],[-83.786128,42.231828],[-83.785989,42.23172],[-83.785933,42.23163],[-83.785794,42.231529],[-83.785661,42.231354],[-83.785514,42.231214],[-83.785066,42.230485]]}},{"type":"Feature","properties":{"k":"stream"},"geometry":{"type":"LineString","coordinates":[[-83.790016,42.232708],[-83.790049,42.232571]]}},{"type":"Feature","properties":{"k":"wood"},"geometry":{"type":"Polygon","coordinates":[[[-83.78998,42.234615],[-83.789352,42.234701],[-83.788937,42.234698],[-83.78774,42.234831],[-83.787548,42.234809],[-83.787478,42.234704],[-83.787548,42.234615],[-83.788272,42.234467],[-83.788492,42.234523],[-83.789261,42.234341],[-83.789785,42.234292],[-83.789913,42.234163],[-83.789796,42.234074],[-83.789452,42.234129],[-83.789186,42.234163],[-83.788937,42.234027],[-83.788878,42.233855],[-83.78786,42.234033],[-83.787644,42.234],[-83.787606,42.23391],[-83.787843,42.233787],[-83.788521,42.233735],[-83.788799,42.23359],[-83.788978,42.233366],[-83.78919,42.233298],[-83.789377,42.233375],[-83.78949,42.233304],[-83.789733,42.232852],[-83.789977,42.232688],[-83.791061,42.23255],[-83.791196,42.23265],[-83.791179,42.232846],[-83.790661,42.232831],[-83.790481,42.232995],[-83.790523,42.233221],[-83.790311,42.233292],[-83.790167,42.233511],[-83.790176,42.233331],[-83.790039,42.233151],[-83.78964,42.233496],[-83.789913,42.233857],[-83.790163,42.234459],[-83.78998,42.234615]]]}},{"type":"Feature","properties":{"k":"wood"},"geometry":{"type":"Polygon","coordinates":[[[-83.789002,42.232768],[-83.788544,42.232905],[-83.788601,42.232991],[-83.788474,42.233212],[-83.788224,42.233277],[-83.787902,42.233244],[-83.787746,42.233352],[-83.788166,42.2335],[-83.788639,42.233264],[-83.788904,42.233086],[-83.789058,42.232888],[-83.789002,42.232768]]]}},{"type":"Feature","properties":{"k":"wood"},"geometry":{"type":"Polygon","coordinates":[[[-83.787404,42.235357],[-83.787874,42.235287],[-83.789017,42.235236],[-83.789572,42.235031],[-83.790458,42.235082],[-83.790676,42.23498],[-83.790705,42.234771],[-83.790349,42.234679],[-83.78998,42.234615],[-83.790163,42.234459],[-83.790287,42.23456],[-83.790476,42.234542],[-83.790535,42.23443],[-83.790297,42.233868],[-83.790705,42.234353],[-83.790972,42.235161],[-83.791231,42.235247],[-83.79177,42.23516],[-83.791622,42.234698],[-83.791762,42.234486],[-83.791578,42.234279],[-83.791066,42.233744],[-83.791368,42.233744],[-83.791641,42.233901],[-83.791633,42.234031],[-83.792059,42.234408],[-83.792171,42.2349],[-83.792307,42.235139],[-83.792435,42.235224],[-83.792781,42.23506],[-83.793045,42.234818],[-83.792863,42.234682],[-83.792688,42.2344],[-83.792667,42.234227],[-83.793006,42.234284],[-83.793279,42.233885],[-83.793222,42.233118],[-83.79332,42.232752],[-83.793446,42.235333],[-83.783842,42.235478],[-83.784823,42.235411],[-83.787404,42.235357]]]}},{"type":"Feature","properties":{"k":"wood"},"geometry":{"type":"Polygon","coordinates":[[[-83.792752,42.233329],[-83.792715,42.233473],[-83.792523,42.233336],[-83.792383,42.233164],[-83.792173,42.23308],[-83.792227,42.233025],[-83.792525,42.233027],[-83.792684,42.233175],[-83.792752,42.233329]]]}},{"type":"Feature","properties":{"k":"stream"},"geometry":{"type":"LineString","coordinates":[[-83.790049,42.232571],[-83.790125,42.232523],[-83.79014,42.232402],[-83.790107,42.232227],[-83.790128,42.232097],[-83.790059,42.231908],[-83.790045,42.231696],[-83.789953,42.231481],[-83.789879,42.231382],[-83.789817,42.231235],[-83.789333,42.230868],[-83.789037,42.230706],[-83.788942,42.230563],[-83.788884,42.230509]]}},{"type":"Feature","properties":{"k":"fairway"},"geometry":{"type":"Polygon","coordinates":[[[-83.785007,42.232729],[-83.784927,42.232718],[-83.78485,42.232768],[-83.78479,42.233088],[-83.784713,42.233308],[-83.78462,42.233847],[-83.784695,42.234251],[-83.784659,42.234364],[-83.784321,42.234578],[-83.784217,42.234668],[-83.78421,42.23481],[-83.784257,42.234917],[-83.784417,42.234913],[-83.784505,42.234786],[-83.784591,42.234633],[-83.784796,42.234475],[-83.784865,42.234186],[-83.784967,42.233862],[-83.785056,42.233715],[-83.785091,42.233489],[-83.785118,42.232943],[-83.785089,42.232796],[-83.785007,42.232729]]]}},{"type":"Feature","properties":{"k":"bunker"},"geometry":{"type":"Polygon","coordinates":[[[-83.784576,42.235126],[-83.784539,42.235148],[-83.784503,42.23514],[-83.784482,42.235099],[-83.7845,42.235063],[-83.784549,42.235054],[-83.784586,42.235084],[-83.784576,42.235126]]]}},{"type":"Feature","properties":{"k":"bunker"},"geometry":{"type":"Polygon","coordinates":[[[-83.784704,42.234814],[-83.784648,42.234817],[-83.784619,42.234787],[-83.784645,42.234754],[-83.7847,42.23474],[-83.784732,42.234751],[-83.784742,42.234781],[-83.784704,42.234814]]]}},{"type":"Feature","properties":{"k":"bunker"},"geometry":{"type":"Polygon","coordinates":[[[-83.784753,42.23467],[-83.784714,42.234669],[-83.784685,42.234646],[-83.784692,42.234621],[-83.784733,42.234602],[-83.784775,42.234605],[-83.784791,42.234617],[-83.784791,42.234649],[-83.784753,42.23467]]]}},{"type":"Feature","properties":{"k":"bunker"},"geometry":{"type":"Polygon","coordinates":[[[-83.784142,42.235053],[-83.784145,42.235085],[-83.784116,42.235107],[-83.784072,42.235107],[-83.784038,42.235068],[-83.78404,42.235028],[-83.784078,42.234989],[-83.78413,42.234981],[-83.784158,42.235007],[-83.784142,42.235053]]]}},{"type":"Feature","properties":{"k":"bunker"},"geometry":{"type":"Polygon","coordinates":[[[-83.785408,42.234428],[-83.78534,42.23443],[-83.785309,42.234407],[-83.785314,42.234369],[-83.78537,42.234348],[-83.78543,42.234353],[-83.785467,42.234391],[-83.785408,42.234428]]]}},{"type":"Feature","properties":{"k":"bunker"},"geometry":{"type":"Polygon","coordinates":[[[-83.785639,42.234706],[-83.785564,42.234702],[-83.785514,42.23472],[-83.785519,42.234752],[-83.785572,42.234778],[-83.785648,42.234772],[-83.785674,42.234732],[-83.785639,42.234706]]]}},{"type":"Feature","properties":{"k":"bunker"},"geometry":{"type":"Polygon","coordinates":[[[-83.78536,42.234715],[-83.785288,42.234714],[-83.785222,42.234686],[-83.785179,42.234699],[-83.785179,42.234731],[-83.785212,42.234773],[-83.785281,42.234794],[-83.78536,42.234786],[-83.785402,42.234753],[-83.785398,42.234726],[-83.78536,42.234715]]]}},{"type":"Feature","properties":{"k":"wood"},"geometry":{"type":"Polygon","coordinates":[[[-83.785377,42.23487],[-83.785245,42.234879],[-83.785132,42.234847],[-83.78506,42.234765],[-83.785069,42.234644],[-83.785247,42.234333],[-83.78542,42.234166],[-83.785316,42.234055],[-83.785166,42.233962],[-83.785161,42.234181],[-83.784939,42.234804],[-83.784781,42.235104],[-83.784855,42.235126],[-83.785164,42.235061],[-83.785431,42.234933],[-83.785437,42.234893],[-83.785377,42.23487]]]}},{"type":"Feature","properties":{"k":"wood"},"geometry":{"type":"Polygon","coordinates":[[[-83.784823,42.235411],[-83.784682,42.235326],[-83.784225,42.235351],[-83.784136,42.235336],[-83.783914,42.235068],[-83.783877,42.234909],[-83.783931,42.234661],[-83.784078,42.234469],[-83.7843,42.234256],[-83.784351,42.23414],[-83.784324,42.234004],[-83.784122,42.233885],[-83.783705,42.234003],[-83.783842,42.235478],[-83.784823,42.235411]]]}},{"type":"Feature","properties":{"k":"range"},"geometry":{"type":"Polygon","coordinates":[[[-83.784559,42.23119],[-83.784481,42.231874],[-83.78438,42.232142],[-83.783235,42.231932],[-83.782173,42.231687],[-83.781985,42.231243],[-83.782163,42.230868],[-83.782443,42.230635],[-83.782826,42.230805],[-83.784559,42.23119]]]}},{"type":"Feature","properties":{"k":"green"},"geometry":{"type":"Polygon","coordinates":[[[-83.790491,42.234963],[-83.790432,42.234984],[-83.79035,42.234966],[-83.790275,42.23496],[-83.790219,42.234933],[-83.790198,42.234881],[-83.790216,42.234833],[-83.790262,42.234807],[-83.79032,42.234811],[-83.790386,42.234845],[-83.790473,42.23487],[-83.790518,42.234905],[-83.790519,42.23494],[-83.790491,42.234963]]]}},{"type":"Feature","properties":{"k":"fairway"},"geometry":{"type":"Polygon","coordinates":[[[-83.790219,42.234933],[-83.790198,42.234881],[-83.790216,42.234833],[-83.789952,42.23481],[-83.789735,42.234819],[-83.789572,42.23478],[-83.78886,42.234841],[-83.788668,42.234846],[-83.787909,42.234915],[-83.787647,42.234968],[-83.787235,42.234965],[-83.786426,42.235012],[-83.786366,42.235027],[-83.786344,42.235096],[-83.786387,42.235169],[-83.786472,42.235208],[-83.786628,42.235207],[-83.786838,42.235224],[-83.78727,42.235211],[-83.787695,42.235175],[-83.788019,42.235159],[-83.788453,42.235118],[-83.788644,42.235084],[-83.789074,42.235032],[-83.789392,42.234975],[-83.78969,42.234956],[-83.789868,42.234927],[-83.790219,42.234933]]]}},{"type":"Feature","properties":{"k":"tee"},"geometry":{"type":"Polygon","coordinates":[[[-83.792676,42.235176],[-83.792607,42.235194],[-83.792592,42.235224],[-83.792613,42.235265],[-83.792672,42.235289],[-83.79273,42.235283],[-83.792752,42.235248],[-83.792725,42.235193],[-83.792676,42.235176]]]}},{"type":"Feature","properties":{"k":"tee"},"geometry":{"type":"Polygon","coordinates":[[[-83.792387,42.235013],[-83.792366,42.234975],[-83.792336,42.234962],[-83.792302,42.234964],[-83.792275,42.234993],[-83.792277,42.23503],[-83.792308,42.235061],[-83.792343,42.235064],[-83.792378,42.235045],[-83.792387,42.235013]]]}},{"type":"Feature","properties":{"k":"tee"},"geometry":{"type":"Polygon","coordinates":[[[-83.792698,42.234611],[-83.792672,42.234584],[-83.79263,42.234588],[-83.792629,42.234608],[-83.792654,42.234632],[-83.792675,42.234635],[-83.792699,42.234628],[-83.792698,42.234611]]]}},{"type":"Feature","properties":{"k":"fairway"},"geometry":{"type":"Polygon","coordinates":[[[-83.791983,42.233779],[-83.79187,42.233769],[-83.791736,42.233802],[-83.791721,42.233866],[-83.791976,42.234135],[-83.792048,42.234281],[-83.792147,42.234355],[-83.79223,42.234366],[-83.792383,42.234324],[-83.792418,42.234268],[-83.792415,42.234183],[-83.792369,42.234019],[-83.792281,42.233918],[-83.792068,42.2338],[-83.791983,42.233779]]]}},{"type":"Feature","properties":{"k":"green"},"geometry":{"type":"Polygon","coordinates":[[[-83.790967,42.233016],[-83.79105,42.233066],[-83.791078,42.233106],[-83.79105,42.233143],[-83.790985,42.233153],[-83.790918,42.233149],[-83.790827,42.233184],[-83.790763,42.233191],[-83.79072,42.233177],[-83.790688,42.233136],[-83.790679,42.233075],[-83.790641,42.232979],[-83.79064,42.232926],[-83.790683,42.232896],[-83.790779,42.232877],[-83.790876,42.232886],[-83.79095,42.232945],[-83.790967,42.233016]]]}},{"type":"Feature","properties":{"k":"green"},"geometry":{"type":"Polygon","coordinates":[[[-83.791798,42.233047],[-83.791799,42.233117],[-83.791767,42.233154],[-83.791698,42.233163],[-83.791641,42.233134],[-83.791592,42.233027],[-83.791622,42.232931],[-83.791723,42.23289],[-83.791804,42.232902],[-83.79184,42.232967],[-83.791798,42.233047]]]}},{"type":"Feature","properties":{"k":"bunker"},"geometry":{"type":"Polygon","coordinates":[[[-83.791284,42.233032],[-83.79123,42.233035],[-83.791211,42.233063],[-83.791216,42.2331],[-83.791247,42.233116],[-83.791291,42.233108],[-83.791314,42.233084],[-83.791308,42.233051],[-83.791284,42.233032]]]}},{"type":"Feature","properties":{"k":"bunker"},"geometry":{"type":"Polygon","coordinates":[[[-83.791146,42.233054],[-83.791166,42.233001],[-83.791144,42.232968],[-83.791115,42.232959],[-83.791073,42.232982],[-83.791067,42.23302],[-83.791096,42.233055],[-83.791146,42.233054]]]}},{"type":"Feature","properties":{"k":"bunker"},"geometry":{"type":"Polygon","coordinates":[[[-83.791468,42.232944],[-83.79141,42.232968],[-83.791365,42.232944],[-83.791367,42.232909],[-83.791414,42.232879],[-83.791466,42.232882],[-83.791483,42.232917],[-83.791468,42.232944]]]}},{"type":"Feature","properties":{"k":"bunker"},"geometry":{"type":"Polygon","coordinates":[[[-83.791718,42.23279],[-83.791728,42.232815],[-83.791703,42.232842],[-83.79163,42.232856],[-83.791595,42.232847],[-83.791588,42.232827],[-83.791605,42.232796],[-83.791673,42.232773],[-83.791718,42.23279]]]}},{"type":"Feature","properties":{"k":"tee"},"geometry":{"type":"Polygon","coordinates":[[[-83.792767,42.234992],[-83.79272,42.234998],[-83.792707,42.235021],[-83.792715,42.235046],[-83.792748,42.235055],[-83.792779,42.235048],[-83.792797,42.235017],[-83.792767,42.234992]]]}},{"type":"Feature","properties":{"k":"tee"},"geometry":{"type":"Polygon","coordinates":[[[-83.790083,42.233307],[-83.789923,42.23349],[-83.789898,42.233537],[-83.789863,42.233555],[-83.789821,42.23354],[-83.789811,42.233489],[-83.789869,42.233441],[-83.790025,42.23324],[-83.790058,42.233235],[-83.790092,42.233261],[-83.790083,42.233307]]]}},{"type":"Feature","properties":{"k":"tee"},"geometry":{"type":"Polygon","coordinates":[[[-83.789978,42.233701],[-83.789962,42.233663],[-83.789924,42.233651],[-83.789888,42.233666],[-83.789879,42.233699],[-83.789907,42.233727],[-83.789941,42.233739],[-83.789969,42.233728],[-83.789978,42.233701]]]}},{"type":"Feature","properties":{"k":"green"},"geometry":{"type":"Polygon","coordinates":[[[-83.790458,42.234307],[-83.790442,42.234376],[-83.790466,42.234439],[-83.790446,42.234478],[-83.790354,42.234503],[-83.790286,42.234481],[-83.790258,42.234423],[-83.790273,42.234372],[-83.790319,42.23433],[-83.790339,42.234284],[-83.790394,42.234266],[-83.790444,42.234276],[-83.790458,42.234307]]]}},{"type":"Feature","properties":{"k":"fairway"},"geometry":{"type":"Polygon","coordinates":[[[-83.790273,42.234372],[-83.7903,42.234297],[-83.790282,42.234234],[-83.790211,42.234188],[-83.790205,42.234155],[-83.790226,42.234125],[-83.790265,42.234111],[-83.790315,42.234113],[-83.790348,42.234141],[-83.79038,42.234231],[-83.790444,42.234276],[-83.790394,42.234266],[-83.790339,42.234284],[-83.790319,42.23433],[-83.790273,42.234372]]]}},{"type":"Feature","properties":{"k":"bunker"},"geometry":{"type":"Polygon","coordinates":[[[-83.790282,42.234234],[-83.79028,42.234271],[-83.79026,42.234291],[-83.790237,42.234294],[-83.790212,42.234288],[-83.790196,42.23427],[-83.790199,42.234246],[-83.790218,42.234223],[-83.790238,42.234213],[-83.790257,42.234214],[-83.790282,42.234234]]]}},{"type":"Feature","properties":{"k":"tee"},"geometry":{"type":"Polygon","coordinates":[[[-83.789574,42.234262],[-83.789619,42.234266],[-83.789669,42.234257],[-83.789687,42.23424],[-83.789681,42.234218],[-83.789653,42.234203],[-83.789603,42.234209],[-83.789552,42.234226],[-83.789325,42.234242],[-83.789305,42.234258],[-83.789307,42.234279],[-83.789333,42.234295],[-83.789396,42.23429],[-83.789469,42.234269],[-83.789574,42.234262]]]}},{"type":"Feature","properties":{"k":"tee"},"geometry":{"type":"Polygon","coordinates":[[[-83.789293,42.234193],[-83.789293,42.234229],[-83.789251,42.234246],[-83.789199,42.234229],[-83.789195,42.234208],[-83.789218,42.234186],[-83.789293,42.234193]]]}},{"type":"Feature","properties":{"k":"tee"},"geometry":{"type":"Polygon","coordinates":[[[-83.785841,42.233649],[-83.785828,42.233692],[-83.785769,42.233717],[-83.785704,42.233698],[-83.785683,42.23367],[-83.785709,42.233623],[-83.785755,42.23361],[-83.785814,42.233623],[-83.785841,42.233649]]]}},{"type":"Feature","properties":{"k":"tee"},"geometry":{"type":"Polygon","coordinates":[[[-83.785836,42.233772],[-83.785895,42.233787],[-83.785921,42.23382],[-83.785903,42.233856],[-83.785852,42.233874],[-83.785804,42.233865],[-83.785773,42.233835],[-83.785784,42.233799],[-83.785836,42.233772]]]}},{"type":"Feature","properties":{"k":"tee"},"geometry":{"type":"Polygon","coordinates":[[[-83.786131,42.233867],[-83.786131,42.233892],[-83.786085,42.233918],[-83.786034,42.233917],[-83.785994,42.233898],[-83.785983,42.233868],[-83.786007,42.233846],[-83.786083,42.233842],[-83.786131,42.233867]]]}},{"type":"Feature","properties":{"k":"tee"},"geometry":{"type":"Polygon","coordinates":[[[-83.786359,42.233862],[-83.786336,42.233889],[-83.786266,42.233908],[-83.786219,42.233893],[-83.786204,42.233874],[-83.786225,42.233839],[-83.786276,42.233826],[-83.78633,42.233833],[-83.786359,42.233862]]]}},{"type":"Feature","properties":{"k":"fairway"},"geometry":{"type":"Polygon","coordinates":[[[-83.78741,42.233802],[-83.787318,42.233807],[-83.787225,42.233765],[-83.787204,42.233727],[-83.787211,42.233685],[-83.787268,42.233654],[-83.787484,42.23361],[-83.78785,42.233573],[-83.788266,42.233564],[-83.788391,42.23353],[-83.788509,42.233449],[-83.788708,42.23326],[-83.788827,42.233195],[-83.788895,42.233187],[-83.788964,42.233217],[-83.788986,42.233274],[-83.788949,42.233322],[-83.78885,42.233352],[-83.788727,42.233423],[-83.788649,42.233531],[-83.788537,42.233624],[-83.788329,42.233682],[-83.788056,42.233696],[-83.787665,42.233732],[-83.787511,42.233764],[-83.78741,42.233802]]]}},{"type":"Feature","properties":{"k":"bunker"},"geometry":{"type":"Polygon","coordinates":[[[-83.789118,42.233029],[-83.789119,42.233118],[-83.789079,42.233149],[-83.789044,42.233153],[-83.789018,42.233141],[-83.789003,42.233121],[-83.789024,42.233076],[-83.78903,42.233031],[-83.789076,42.233],[-83.789102,42.233008],[-83.789118,42.233029]]]}},{"type":"Feature","properties":{"k":"green"},"geometry":{"type":"Polygon","coordinates":[[[-83.789188,42.23303],[-83.789232,42.232988],[-83.789265,42.232932],[-83.789397,42.232857],[-83.789468,42.232853],[-83.789532,42.232876],[-83.789563,42.232923],[-83.789548,42.232974],[-83.789434,42.233045],[-83.789381,42.233137],[-83.789322,42.233154],[-83.789246,42.233127],[-83.789196,42.233082],[-83.789188,42.23303]]]}},{"type":"Feature","properties":{"k":"tee"},"geometry":{"type":"Polygon","coordinates":[[[-83.791122,42.232365],[-83.791131,42.232404],[-83.791205,42.23242],[-83.791273,42.2324],[-83.791281,42.23236],[-83.791236,42.232329],[-83.79116,42.232327],[-83.791122,42.232365]]]}},{"type":"Feature","properties":{"k":"tee"},"geometry":{"type":"Polygon","coordinates":[[[-83.790918,42.232395],[-83.790845,42.232392],[-83.790792,42.23242],[-83.79078,42.23245],[-83.790815,42.232476],[-83.790886,42.232478],[-83.790946,42.232454],[-83.790956,42.23242],[-83.790918,42.232395]]]}},{"type":"Feature","properties":{"k":"tee"},"geometry":{"type":"Polygon","coordinates":[[[-83.790673,42.23248],[-83.790627,42.232509],[-83.790554,42.232499],[-83.790529,42.232473],[-83.790532,42.232444],[-83.790579,42.232422],[-83.790643,42.232427],[-83.790673,42.23248]]]}},{"type":"Feature","properties":{"k":"bunker"},"geometry":{"type":"Polygon","coordinates":[[[-83.789281,42.232322],[-83.789243,42.232354],[-83.789173,42.232356],[-83.789133,42.23233],[-83.789139,42.232298],[-83.789202,42.232269],[-83.789243,42.232273],[-83.789281,42.232292],[-83.789281,42.232322]]]}},{"type":"Feature","properties":{"k":"fairway"},"geometry":{"type":"Polygon","coordinates":[[[-83.789486,42.232464],[-83.789432,42.232536],[-83.789366,42.232559],[-83.789229,42.232568],[-83.788894,42.232626],[-83.788623,42.232659],[-83.788457,42.232698],[-83.788248,42.232772],[-83.787685,42.232816],[-83.787421,42.232858],[-83.787357,42.232852],[-83.787297,42.232793],[-83.78727,42.23269],[-83.787279,42.232627],[-83.78732,42.232589],[-83.787476,42.23256],[-83.787655,42.232552],[-83.788055,42.232457],[-83.788476,42.23245],[-83.789048,42.232373],[-83.78921,42.232384],[-83.789328,42.232363],[-83.789425,42.232371],[-83.789473,42.232411],[-83.789486,42.232464]]]}},{"type":"Feature","properties":{"k":"bunker"},"geometry":{"type":"Polygon","coordinates":[[[-83.788254,42.232382],[-83.788261,42.232345],[-83.788233,42.232315],[-83.78818,42.232311],[-83.788139,42.23232],[-83.788119,42.232364],[-83.788134,42.232385],[-83.78816,42.232389],[-83.788191,42.23238],[-83.788225,42.232393],[-83.788254,42.232382]]]}},{"type":"Feature","properties":{"k":"wood"},"geometry":{"type":"Polygon","coordinates":[[[-83.787871,42.23238],[-83.787896,42.232346],[-83.787876,42.232316],[-83.787805,42.232292],[-83.787455,42.232351],[-83.787345,42.232397],[-83.787327,42.232435],[-83.787381,42.23246],[-83.787569,42.232452],[-83.787871,42.23238]]]}},{"type":"Feature","properties":{"k":"green"},"geometry":{"type":"Polygon","coordinates":[[[-83.786347,42.232863],[-83.786402,42.232812],[-83.786394,42.232755],[-83.786322,42.232699],[-83.78621,42.232688],[-83.786069,42.23273],[-83.785975,42.232814],[-83.785976,42.2329],[-83.786029,42.232945],[-83.786101,42.232945],[-83.786159,42.232898],[-83.78624,42.232869],[-83.786347,42.232863]]]}},{"type":"Feature","properties":{"k":"fairway"},"geometry":{"type":"Polygon","coordinates":[[[-83.786347,42.232863],[-83.786654,42.232848],[-83.786731,42.232812],[-83.786738,42.232747],[-83.786722,42.232682],[-83.786651,42.232643],[-83.786402,42.232667],[-83.786322,42.232699],[-83.786394,42.232755],[-83.786402,42.232812],[-83.786347,42.232863]]]}},{"type":"Feature","properties":{"k":"bunker"},"geometry":{"type":"Polygon","coordinates":[[[-83.786318,42.232638],[-83.786324,42.232607],[-83.786295,42.232575],[-83.786228,42.23256],[-83.786166,42.232582],[-83.786141,42.23262],[-83.786171,42.232644],[-83.786276,42.232654],[-83.786318,42.232638]]]}},{"type":"Feature","properties":{"k":"bunker"},"geometry":{"type":"Polygon","coordinates":[[[-83.786417,42.232916],[-83.78637,42.23292],[-83.786342,42.232947],[-83.786308,42.232947],[-83.786289,42.23297],[-83.786298,42.233],[-83.786352,42.23301],[-83.786436,42.232983],[-83.786453,42.232957],[-83.786447,42.232929],[-83.786417,42.232916]]]}},{"type":"Feature","properties":{"k":"wood"},"geometry":{"type":"Polygon","coordinates":[[[-83.78697,42.232992],[-83.786907,42.233224],[-83.786671,42.233331],[-83.786558,42.233539],[-83.786339,42.233575],[-83.786058,42.233513],[-83.785865,42.233569],[-83.785745,42.233563],[-83.785616,42.233655],[-83.785668,42.233778],[-83.785485,42.233649],[-83.785451,42.233428],[-83.785497,42.232861],[-83.785421,42.232448],[-83.786008,42.232586],[-83.785848,42.232824],[-83.78592,42.232963],[-83.786298,42.233085],[-83.786654,42.232956],[-83.78697,42.232992]]]}},{"type":"Feature","properties":{"k":"wood"},"geometry":{"type":"Polygon","coordinates":[[[-83.785578,42.233849],[-83.785409,42.23369],[-83.785432,42.23388],[-83.785506,42.233933],[-83.785567,42.233905],[-83.785578,42.233849]]]}},{"type":"Feature","properties":{"k":"wood"},"geometry":{"type":"Polygon","coordinates":[[[-83.785985,42.234236],[-83.785826,42.234241],[-83.785497,42.234161],[-83.785591,42.233936],[-83.785661,42.233904],[-83.785929,42.233994],[-83.786264,42.233984],[-83.786447,42.23395],[-83.786694,42.233958],[-83.787172,42.233925],[-83.787257,42.233971],[-83.787204,42.234031],[-83.786628,42.234065],[-83.786216,42.234138],[-83.785985,42.234236]]]}},{"type":"Feature","properties":{"k":"fairway"},"geometry":{"type":"Polygon","coordinates":[[[-83.786875,42.232227],[-83.786792,42.232217],[-83.786701,42.232133],[-83.786714,42.232035],[-83.786789,42.231986],[-83.786973,42.231976],[-83.787292,42.231925],[-83.787356,42.231891],[-83.787418,42.231846],[-83.787475,42.231844],[-83.78761,42.231923],[-83.78768,42.231945],[-83.78773,42.231938],[-83.7877,42.231982],[-83.787715,42.232027],[-83.78757,42.232045],[-83.787468,42.232086],[-83.787336,42.232156],[-83.787257,42.23217],[-83.787095,42.232166],[-83.787001,42.232177],[-83.786875,42.232227]]]}},{"type":"Feature","properties":{"k":"green"},"geometry":{"type":"Polygon","coordinates":[[[-83.787715,42.232027],[-83.7877,42.231982],[-83.78773,42.231938],[-83.787799,42.231905],[-83.78788,42.231891],[-83.787942,42.231849],[-83.788025,42.231842],[-83.788102,42.231876],[-83.788144,42.231954],[-83.788137,42.232027],[-83.788076,42.232073],[-83.787982,42.232078],[-83.787853,42.232038],[-83.787777,42.232042],[-83.787715,42.232027]]]}},{"type":"Feature","properties":{"k":"bunker"},"geometry":{"type":"Polygon","coordinates":[[[-83.787882,42.232168],[-83.787837,42.2322],[-83.787777,42.232185],[-83.787772,42.232148],[-83.787814,42.232111],[-83.787855,42.23211],[-83.787882,42.23213],[-83.787882,42.232168]]]}},{"type":"Feature","properties":{"k":"bunker"},"geometry":{"type":"Polygon","coordinates":[[[-83.7875,42.232168],[-83.787521,42.232107],[-83.787552,42.232099],[-83.787583,42.232111],[-83.787605,42.23215],[-83.78758,42.232193],[-83.787552,42.232199],[-83.787507,42.232188],[-83.7875,42.232168]]]}},{"type":"Feature","properties":{"k":"bunker"},"geometry":{"type":"Polygon","coordinates":[[[-83.78768,42.23188],[-83.787611,42.231883],[-83.787559,42.231852],[-83.787556,42.231823],[-83.787583,42.231796],[-83.787627,42.231793],[-83.787694,42.231818],[-83.787706,42.231839],[-83.78768,42.23188]]]}},{"type":"Feature","properties":{"k":"wood"},"geometry":{"type":"Polygon","coordinates":[[[-83.790965,42.23118],[-83.790895,42.231151],[-83.790629,42.231233],[-83.790514,42.231279],[-83.79033,42.231277],[-83.790113,42.231302],[-83.789776,42.231405],[-83.789739,42.231452],[-83.789742,42.231581],[-83.789638,42.231617],[-83.789306,42.231667],[-83.788228,42.231664],[-83.788166,42.231689],[-83.788166,42.231743],[-83.788297,42.231908],[-83.788302,42.232089],[-83.788364,42.232169],[-83.788746,42.232191],[-83.789174,42.23215],[-83.789654,42.232197],[-83.790067,42.232325],[-83.790237,42.232339],[-83.790357,42.232358],[-83.790569,42.232326],[-83.790694,42.232278],[-83.790879,42.232313],[-83.790845,42.23225],[-83.790607,42.232195],[-83.790445,42.232074],[-83.790403,42.231915],[-83.790454,42.231791],[-83.790654,42.231568],[-83.790924,42.231308],[-83.790965,42.23118]]]}},{"type":"Feature","properties":{"k":"wood"},"geometry":{"type":"Polygon","coordinates":[[[-83.788544,42.232905],[-83.788601,42.232991],[-83.788474,42.233212],[-83.788224,42.233277],[-83.787902,42.233244],[-83.787746,42.233352],[-83.787331,42.233519],[-83.787245,42.23348],[-83.787204,42.233368],[-83.787096,42.233228],[-83.787313,42.233041],[-83.787593,42.233036],[-83.78824,42.232963],[-83.788544,42.232905]]]}},{"type":"Feature","properties":{"k":"tee"},"geometry":{"type":"Polygon","coordinates":[[[-83.790967,42.23092],[-83.790944,42.230961],[-83.790887,42.230967],[-83.790842,42.230946],[-83.790831,42.230913],[-83.790847,42.230874],[-83.790899,42.230855],[-83.790944,42.230866],[-83.790967,42.23092]]]}},{"type":"Feature","properties":{"k":"tee"},"geometry":{"type":"Polygon","coordinates":[[[-83.790723,42.231023],[-83.790707,42.231061],[-83.79065,42.231076],[-83.790589,42.231039],[-83.790574,42.230986],[-83.790595,42.230947],[-83.790648,42.230935],[-83.790697,42.230953],[-83.790723,42.231023]]]}},{"type":"Feature","properties":{"k":"tee"},"geometry":{"type":"Polygon","coordinates":[[[-83.790493,42.231109],[-83.790482,42.231141],[-83.790432,42.231158],[-83.790376,42.231147],[-83.790343,42.231102],[-83.790355,42.231063],[-83.790402,42.23104],[-83.790459,42.231054],[-83.790493,42.231109]]]}},{"type":"Feature","properties":{"k":"tee"},"geometry":{"type":"Polygon","coordinates":[[[-83.79005,42.231167],[-83.790025,42.231209],[-83.789964,42.231226],[-83.789914,42.231205],[-83.789903,42.231167],[-83.789945,42.231135],[-83.79001,42.231133],[-83.79005,42.231167]]]}},{"type":"Feature","properties":{"k":"wood"},"geometry":{"type":"Polygon","coordinates":[[[-83.788677,42.230996],[-83.788648,42.231031],[-83.788949,42.231118],[-83.789381,42.231152],[-83.789465,42.231124],[-83.789936,42.231096],[-83.790107,42.231112],[-83.790245,42.231066],[-83.79033,42.231008],[-83.790473,42.230989],[-83.790587,42.230905],[-83.79074,42.230907],[-83.790814,42.230835],[-83.790905,42.230803],[-83.790854,42.230728],[-83.790752,42.230799],[-83.790591,42.230807],[-83.790453,42.230869],[-83.790229,42.23085],[-83.79009,42.230877],[-83.789872,42.230865],[-83.789444,42.230897],[-83.789141,42.230957],[-83.788677,42.230996]]]}},{"type":"Feature","properties":{"k":"wood"},"geometry":{"type":"Polygon","coordinates":[[[-83.789161,42.230477],[-83.789159,42.230369],[-83.78922,42.230315],[-83.789328,42.230326],[-83.789629,42.230461],[-83.789768,42.230464],[-83.789938,42.230514],[-83.789971,42.2306],[-83.789918,42.230644],[-83.789757,42.230656],[-83.789601,42.230617],[-83.789479,42.230612],[-83.789493,42.230552],[-83.789439,42.230487],[-83.789311,42.230464],[-83.789161,42.230477]]]}},{"type":"Feature","properties":{"k":"bunker"},"geometry":{"type":"Polygon","coordinates":[[[-83.788497,42.231379],[-83.788471,42.231419],[-83.78837,42.231432],[-83.788315,42.23142],[-83.788307,42.231386],[-83.788362,42.231344],[-83.788432,42.231333],[-83.788476,42.23135],[-83.788497,42.231379]]]}},{"type":"Feature","properties":{"k":"bunker"},"geometry":{"type":"Polygon","coordinates":[[[-83.787721,42.23141],[-83.787732,42.231438],[-83.787714,42.231465],[-83.787657,42.231473],[-83.787616,42.231457],[-83.787573,42.23141],[-83.787584,42.231377],[-83.787611,42.231358],[-83.787646,42.231358],[-83.787682,42.231394],[-83.787721,42.23141]]]}},{"type":"Feature","properties":{"k":"bunker"},"geometry":{"type":"Polygon","coordinates":[[[-83.787854,42.230864],[-83.787851,42.230905],[-83.787815,42.23094],[-83.787755,42.230944],[-83.787667,42.230908],[-83.787651,42.230872],[-83.787669,42.230845],[-83.78771,42.230842],[-83.787747,42.230856],[-83.787809,42.230841],[-83.787854,42.230864]]]}},{"type":"Feature","properties":{"k":"bunker"},"geometry":{"type":"Polygon","coordinates":[[[-83.787395,42.230655],[-83.787404,42.230612],[-83.787362,42.230578],[-83.787272,42.230567],[-83.787218,42.230583],[-83.787209,42.230618],[-83.787238,42.230648],[-83.787297,42.230644],[-83.787358,42.230668],[-83.787395,42.230655]]]}},{"type":"Feature","properties":{"k":"green"},"geometry":{"type":"Polygon","coordinates":[[[-83.784862,42.229928],[-83.784891,42.229888],[-83.784871,42.229856],[-83.784802,42.229835],[-83.784715,42.22984],[-83.784613,42.229823],[-83.784534,42.22985],[-83.784485,42.229924],[-83.784493,42.230005],[-83.784547,42.230052],[-83.784628,42.23007],[-83.784695,42.230033],[-83.784718,42.229979],[-83.784791,42.229941],[-83.784862,42.229928]]]}},{"type":"Feature","properties":{"k":"green"},"geometry":{"type":"Polygon","coordinates":[[[-83.784668,42.230766],[-83.784562,42.230746],[-83.78447,42.230761],[-83.784399,42.23075],[-83.784361,42.23069],[-83.784422,42.230539],[-83.784473,42.230506],[-83.78454,42.230505],[-83.784596,42.23054],[-83.784645,42.230609],[-83.784767,42.230642],[-83.784791,42.230684],[-83.784749,42.230749],[-83.784668,42.230766]]]}},{"type":"Feature","properties":{"k":"fairway"},"geometry":{"type":"Polygon","coordinates":[[[-83.784767,42.230642],[-83.784899,42.230645],[-83.785067,42.23068],[-83.785096,42.230708],[-83.785073,42.230802],[-83.785036,42.230822],[-83.784753,42.230771],[-83.784668,42.230766],[-83.784749,42.230749],[-83.784791,42.230684],[-83.784767,42.230642]]]}},{"type":"Feature","properties":{"k":"bunker"},"geometry":{"type":"Polygon","coordinates":[[[-83.784943,42.230925],[-83.784904,42.230945],[-83.784874,42.230944],[-83.78483,42.230918],[-83.784786,42.230915],[-83.784762,42.230895],[-83.784778,42.230859],[-83.784827,42.230843],[-83.784929,42.230881],[-83.784945,42.230903],[-83.784943,42.230925]]]}},{"type":"Feature","properties":{"k":"bunker"},"geometry":{"type":"Polygon","coordinates":[[[-83.784355,42.230575],[-83.784326,42.230605],[-83.784295,42.230604],[-83.784263,42.230581],[-83.784263,42.230554],[-83.784305,42.230517],[-83.78435,42.230525],[-83.784355,42.230575]]]}},{"type":"Feature","properties":{"k":"bunker"},"geometry":{"type":"Polygon","coordinates":[[[-83.784722,42.230483],[-83.784662,42.230489],[-83.784657,42.23054],[-83.784702,42.23058],[-83.784778,42.230598],[-83.784826,42.230588],[-83.784837,42.230565],[-83.784824,42.230546],[-83.784773,42.230529],[-83.784722,42.230483]]]}},{"type":"Feature","properties":{"k":"wood"},"geometry":{"type":"Polygon","coordinates":[[[-83.786943,42.230588],[-83.786897,42.230655],[-83.786399,42.230538],[-83.785698,42.23045],[-83.785495,42.230445],[-83.785335,42.230408],[-83.785267,42.230337],[-83.785254,42.23023],[-83.785333,42.230194],[-83.786273,42.230416],[-83.786911,42.23054],[-83.786943,42.230588]]]}},{"type":"Feature","properties":{"k":"green"},"geometry":{"type":"Polygon","coordinates":[[[-83.783695,42.230341],[-83.783738,42.230378],[-83.783696,42.230455],[-83.783625,42.230485],[-83.78357,42.230482],[-83.783531,42.230451],[-83.78351,42.230391],[-83.783553,42.230349],[-83.783695,42.230341]]]}},{"type":"Feature","properties":{"k":"wood"},"geometry":{"type":"Polygon","coordinates":[[[-83.787577,42.23164],[-83.787518,42.231704],[-83.787124,42.231805],[-83.78677,42.231851],[-83.786522,42.231913],[-83.786366,42.231992],[-83.786362,42.232051],[-83.786149,42.232143],[-83.785909,42.232107],[-83.785372,42.232168],[-83.785252,42.232256],[-83.785222,42.232232],[-83.785219,42.232072],[-83.785253,42.231876],[-83.785313,42.231651],[-83.785282,42.231561],[-83.784931,42.231257],[-83.784816,42.231083],[-83.785018,42.231073],[-83.785226,42.231083],[-83.785438,42.231043],[-83.78547,42.231089],[-83.785558,42.231129],[-83.786124,42.231217],[-83.786727,42.231274],[-83.786942,42.231327],[-83.787577,42.23164]]]}},{"type":"Feature","properties":{"k":"tee"},"geometry":{"type":"Polygon","coordinates":[[[-83.79079,42.230692],[-83.790786,42.230735],[-83.790747,42.23076],[-83.7907,42.23076],[-83.790663,42.230737],[-83.790647,42.230702],[-83.790664,42.230661],[-83.790729,42.230646],[-83.790777,42.230663],[-83.79079,42.230692]]]}},{"type":"Feature","properties":{"k":"tee"},"geometry":{"type":"Polygon","coordinates":[[[-83.7904,42.23077],[-83.790419,42.230802],[-83.790459,42.23081],[-83.790519,42.23079],[-83.790544,42.230744],[-83.790529,42.230676],[-83.790495,42.230649],[-83.79043,42.230644],[-83.790397,42.23068],[-83.7904,42.23077]]]}},{"type":"Feature","properties":{"k":"tee"},"geometry":{"type":"Polygon","coordinates":[[[-83.790025,42.230809],[-83.790061,42.230833],[-83.79013,42.230833],[-83.790168,42.230801],[-83.790168,42.23073],[-83.790134,42.2307],[-83.790087,42.230692],[-83.79004,42.230714],[-83.790023,42.230768],[-83.790025,42.230809]]]}},{"type":"Feature","properties":{"k":"tee"},"geometry":{"type":"Polygon","coordinates":[[[-83.789437,42.230587],[-83.789446,42.230554],[-83.789409,42.23052],[-83.789362,42.230517],[-83.789306,42.230541],[-83.789298,42.230582],[-83.789333,42.230613],[-83.789392,42.230613],[-83.789437,42.230587]]]}},{"type":"Feature","properties":{"k":"bunker"},"geometry":{"type":"Polygon","coordinates":[[[-83.784809,42.229979],[-83.784838,42.22998],[-83.784865,42.229996],[-83.784847,42.230024],[-83.78479,42.23005],[-83.784757,42.230048],[-83.784744,42.230023],[-83.78476,42.23],[-83.784809,42.229979]]]}},{"type":"Feature","properties":{"k":"bunker"},"geometry":{"type":"Polygon","coordinates":[[[-83.784467,42.229905],[-83.784471,42.22985],[-83.78445,42.229822],[-83.784409,42.229817],[-83.784361,42.229853],[-83.784355,42.229925],[-83.784378,42.229949],[-83.784427,42.229947],[-83.784467,42.229905]]]}},{"type":"Feature","properties":{"k":"bunker"},"geometry":{"type":"Polygon","coordinates":[[[-83.784832,42.229778],[-83.784815,42.229739],[-83.784744,42.229709],[-83.7847,42.229718],[-83.784672,42.229741],[-83.784678,42.229774],[-83.784711,42.229797],[-83.784791,42.229804],[-83.784832,42.229778]]]}},{"type":"Feature","properties":{"k":"wood"},"geometry":{"type":"Polygon","coordinates":[[[-83.784427,42.22969],[-83.784494,42.229697],[-83.784668,42.229624],[-83.78477,42.229616],[-83.785062,42.229676],[-83.785178,42.22973],[-83.785326,42.229749],[-83.785453,42.229707],[-83.785523,42.22964],[-83.785539,42.229592],[-83.785342,42.22957],[-83.785213,42.229484],[-83.784826,42.229459],[-83.784727,42.229439],[-83.784627,42.229375],[-83.784546,42.229532],[-83.784427,42.22969]]]}},{"type":"Feature","properties":{"k":"tee"},"geometry":{"type":"Polygon","coordinates":[[[-83.784837,42.229339],[-83.784871,42.229365],[-83.784859,42.229399],[-83.784803,42.229413],[-83.784756,42.229399],[-83.784736,42.229375],[-83.784759,42.229342],[-83.784837,42.229339]]]}},{"type":"Feature","properties":{"k":"tee"},"geometry":{"type":"Polygon","coordinates":[[[-83.785214,42.229402],[-83.78515,42.229413],[-83.785108,42.229401],[-83.7851,42.229381],[-83.785126,42.229353],[-83.78516,42.229344],[-83.785203,42.22935],[-83.785226,42.229368],[-83.785214,42.229402]]]}},{"type":"Feature","properties":{"k":"tee"},"geometry":{"type":"Polygon","coordinates":[[[-83.785573,42.229464],[-83.785572,42.229488],[-83.785551,42.229518],[-83.785467,42.229532],[-83.785403,42.229527],[-83.785372,42.229509],[-83.785368,42.22949],[-83.785393,42.229467],[-83.785441,42.22945],[-83.785537,42.229446],[-83.785573,42.229464]]]}},{"type":"Feature","properties":{"k":"tee"},"geometry":{"type":"Polygon","coordinates":[[[-83.785976,42.229426],[-83.785934,42.229388],[-83.785865,42.229382],[-83.785814,42.22941],[-83.785804,42.229442],[-83.785829,42.22947],[-83.785919,42.229474],[-83.785964,42.229461],[-83.785976,42.229426]]]}},{"type":"Feature","properties":{"k":"fairway"},"geometry":{"type":"Polygon","coordinates":[[[-83.787125,42.229255],[-83.787006,42.229299],[-83.786835,42.229335],[-83.786778,42.229377],[-83.786766,42.229465],[-83.786827,42.229511],[-83.786958,42.229536],[-83.787178,42.229539],[-83.787337,42.229568],[-83.78756,42.229637],[-83.787695,42.229655],[-83.787965,42.229624],[-83.788127,42.229639],[-83.788382,42.229726],[-83.788639,42.229828],[-83.788874,42.22987],[-83.789132,42.22997],[-83.789676,42.230254],[-83.789774,42.23028],[-83.789899,42.230277],[-83.789989,42.230297],[-83.789991,42.230246],[-83.790027,42.230207],[-83.789969,42.230169],[-83.789921,42.230109],[-83.789833,42.230061],[-83.78965,42.229998],[-83.789423,42.229893],[-83.789246,42.229782],[-83.789078,42.229715],[-83.788859,42.229566],[-83.788804,42.229538],[-83.788664,42.229495],[-83.788596,42.229494],[-83.78848,42.229478],[-83.788344,42.22943],[-83.788067,42.229393],[-83.78772,42.229296],[-83.787511,42.229258],[-83.787297,42.229247],[-83.787125,42.229255]]]}},{"type":"Feature","properties":{"k":"bunker"},"geometry":{"type":"Polygon","coordinates":[[[-83.788619,42.229425],[-83.788607,42.229394],[-83.788568,42.22937],[-83.788551,42.229369],[-83.788487,42.22939],[-83.788468,42.229403],[-83.788457,42.22943],[-83.78847,42.229447],[-83.788484,42.229451],[-83.788538,42.229446],[-83.788575,42.229452],[-83.788604,42.229445],[-83.788619,42.229425]]]}},{"type":"Feature","properties":{"k":"bunker"},"geometry":{"type":"Polygon","coordinates":[[[-83.788003,42.229306],[-83.788,42.229287],[-83.787973,42.229257],[-83.787951,42.229248],[-83.787912,42.229254],[-83.787894,42.229279],[-83.787913,42.22932],[-83.787969,42.229332],[-83.787995,42.229321],[-83.788003,42.229306]]]}},{"type":"Feature","properties":{"k":"bunker"},"geometry":{"type":"Polygon","coordinates":[[[-83.788084,42.22928],[-83.788122,42.229281],[-83.78817,42.229295],[-83.788204,42.229326],[-83.788196,42.229351],[-83.788164,42.229361],[-83.788063,42.229346],[-83.78804,42.229321],[-83.788043,42.2293],[-83.788054,42.229288],[-83.788084,42.22928]]]}},{"type":"Feature","properties":{"k":"wood"},"geometry":{"type":"Polygon","coordinates":[[[-83.789071,42.229591],[-83.789049,42.229553],[-83.789114,42.229541],[-83.789906,42.229804],[-83.789951,42.229846],[-83.789936,42.229881],[-83.789594,42.229791],[-83.789071,42.229591]]]}},{"type":"Feature","properties":{"k":"green"},"geometry":{"type":"Polygon","coordinates":[[[-83.790027,42.230207],[-83.790088,42.230198],[-83.790202,42.230236],[-83.790294,42.230251],[-83.790332,42.230283],[-83.790337,42.230314],[-83.790328,42.23034],[-83.790278,42.230364],[-83.790241,42.230365],[-83.790158,42.230345],[-83.79004,42.230332],[-83.790009,42.230319],[-83.789989,42.230297],[-83.789986,42.230263],[-83.790001,42.23023],[-83.790027,42.230207]]]}},{"type":"Feature","properties":{"k":"bunker"},"geometry":{"type":"Polygon","coordinates":[[[-83.790137,42.230054],[-83.790151,42.230078],[-83.790144,42.2301],[-83.790129,42.230109],[-83.79008,42.230112],[-83.790052,42.230102],[-83.790036,42.230086],[-83.790038,42.23006],[-83.790057,42.230047],[-83.79011,42.230044],[-83.790137,42.230054]]]}},{"type":"Feature","properties":{"k":"bunker"},"geometry":{"type":"Polygon","coordinates":[[[-83.789949,42.230354],[-83.789991,42.230377],[-83.789991,42.230393],[-83.789974,42.23041],[-83.789932,42.23042],[-83.789889,42.230407],[-83.789853,42.230362],[-83.789855,42.230348],[-83.789872,42.230332],[-83.789903,42.230322],[-83.789941,42.230341],[-83.789949,42.230354]]]}},{"type":"Feature","properties":{"k":"bunker"},"geometry":{"type":"Polygon","coordinates":[[[-83.789698,42.230317],[-83.78972,42.230332],[-83.789723,42.230361],[-83.789691,42.230377],[-83.789665,42.230375],[-83.789641,42.230369],[-83.7896,42.23034],[-83.789592,42.230301],[-83.789617,42.230279],[-83.789646,42.230278],[-83.789682,42.23029],[-83.789698,42.230317]]]}},{"type":"Feature","properties":{"k":"bunker"},"geometry":{"type":"Polygon","coordinates":[[[-83.789185,42.229211],[-83.789184,42.229189],[-83.78916,42.229175],[-83.789093,42.229185],[-83.789043,42.229219],[-83.789049,42.229251],[-83.789087,42.229264],[-83.789136,42.229246],[-83.789185,42.229211]]]}},{"type":"Feature","properties":{"k":"green"},"geometry":{"type":"Polygon","coordinates":[[[-83.789383,42.229275],[-83.789344,42.229327],[-83.789313,42.229387],[-83.789229,42.229427],[-83.789128,42.229436],[-83.789061,42.22942],[-83.789034,42.229391],[-83.789027,42.229341],[-83.789055,42.2293],[-83.789091,42.229281],[-83.789136,42.229271],[-83.789216,42.229225],[-83.78929,42.229207],[-83.789358,42.22922],[-83.789383,42.229275]]]}},{"type":"Feature","properties":{"k":"bunker"},"geometry":{"type":"Polygon","coordinates":[[[-83.78946,42.229315],[-83.789478,42.229343],[-83.789454,42.229392],[-83.789417,42.2294],[-83.789388,42.229387],[-83.789382,42.229361],[-83.789421,42.229313],[-83.78946,42.229315]]]}},{"type":"Feature","properties":{"k":"bunker"},"geometry":{"type":"Polygon","coordinates":[[[-83.789335,42.229479],[-83.789323,42.229514],[-83.789275,42.229529],[-83.78924,42.229524],[-83.789201,42.229501],[-83.789204,42.229477],[-83.789265,42.229458],[-83.789306,42.22946],[-83.789335,42.229479]]]}},{"type":"Feature","properties":{"k":"fairway"},"geometry":{"type":"Polygon","coordinates":[[[-83.789888,42.229497],[-83.789849,42.229533],[-83.789804,42.229597],[-83.78975,42.229624],[-83.789713,42.229622],[-83.789694,42.229614],[-83.789672,42.229584],[-83.789567,42.229555],[-83.789539,42.229538],[-83.78953,42.229516],[-83.789594,42.229434],[-83.789633,42.229415],[-83.789668,42.229415],[-83.789712,42.229437],[-83.789758,42.229445],[-83.789856,42.229449],[-83.789884,42.229471],[-83.789888,42.229497]]]}},{"type":"Feature","properties":{"k":"tee"},"geometry":{"type":"Polygon","coordinates":[[[-83.790553,42.229532],[-83.79059,42.229557],[-83.790602,42.229589],[-83.790602,42.229656],[-83.790578,42.229723],[-83.790542,42.229749],[-83.790496,42.229752],[-83.790466,42.229738],[-83.790455,42.22971],[-83.790471,42.229659],[-83.790469,42.229601],[-83.790479,42.229559],[-83.790508,42.229536],[-83.790553,42.229532]]]}},{"type":"Feature","properties":{"k":"tee"},"geometry":{"type":"Polygon","coordinates":[[[-83.790406,42.229824],[-83.790278,42.229781],[-83.790238,42.229782],[-83.790213,42.229804],[-83.790218,42.229836],[-83.790272,42.229875],[-83.790355,42.229901],[-83.790397,42.229896],[-83.790426,42.229862],[-83.790406,42.229824]]]}},{"type":"Feature","properties":{"k":"tee"},"geometry":{"type":"Polygon","coordinates":[[[-83.790589,42.229918],[-83.790636,42.229924],[-83.790662,42.229952],[-83.790677,42.229997],[-83.790668,42.230054],[-83.790645,42.230081],[-83.790615,42.230093],[-83.790581,42.230089],[-83.790556,42.230069],[-83.790517,42.229995],[-83.790517,42.229964],[-83.790546,42.229933],[-83.790589,42.229918]]]}},{"type":"Feature","properties":{"k":"tee"},"geometry":{"type":"Polygon","coordinates":[[[-83.791312,42.229247],[-83.791314,42.229213],[-83.791291,42.229181],[-83.791248,42.229167],[-83.791061,42.229186],[-83.791014,42.229203],[-83.791005,42.229235],[-83.791014,42.229259],[-83.791051,42.22927],[-83.791247,42.229281],[-83.791286,42.22927],[-83.791312,42.229247]]]}},{"type":"Feature","properties":{"k":"tee"},"geometry":{"type":"Polygon","coordinates":[[[-83.791716,42.22923],[-83.791706,42.229259],[-83.791667,42.229284],[-83.791522,42.229292],[-83.791479,42.229282],[-83.791449,42.22925],[-83.791465,42.229204],[-83.791495,42.229195],[-83.791648,42.229185],[-83.791691,42.229194],[-83.791716,42.22923]]]}},{"type":"Feature","properties":{"k":"tee"},"geometry":{"type":"Polygon","coordinates":[[[-83.79233,42.229186],[-83.792332,42.229156],[-83.792308,42.229129],[-83.792239,42.229115],[-83.792169,42.22912],[-83.792121,42.229149],[-83.792106,42.22918],[-83.792128,42.229213],[-83.792181,42.229233],[-83.792266,42.229233],[-83.792305,42.229218],[-83.79233,42.229186]]]}},{"type":"Feature","properties":{"k":"green"},"geometry":{"type":"Polygon","coordinates":[[[-83.795797,42.229321],[-83.795827,42.229408],[-83.795856,42.229455],[-83.795842,42.229502],[-83.795766,42.229551],[-83.795699,42.229563],[-83.79564,42.229544],[-83.795593,42.229496],[-83.795581,42.229363],[-83.795605,42.229295],[-83.795647,42.229263],[-83.795706,42.229263],[-83.795762,42.229288],[-83.795797,42.229321]]]}},{"type":"Feature","properties":{"k":"fairway"},"geometry":{"type":"Polygon","coordinates":[[[-83.795581,42.229363],[-83.795593,42.229496],[-83.795553,42.229483],[-83.795505,42.229495],[-83.79545,42.229523],[-83.795384,42.229533],[-83.795286,42.22953],[-83.794978,42.229496],[-83.794869,42.229473],[-83.794765,42.229467],[-83.794631,42.229476],[-83.794449,42.229431],[-83.794301,42.229404],[-83.794171,42.229367],[-83.794071,42.229368],[-83.793795,42.229457],[-83.793714,42.229466],[-83.793516,42.229445],[-83.793376,42.22945],[-83.793215,42.229405],[-83.792952,42.229366],[-83.792905,42.229326],[-83.7929,42.22927],[-83.792923,42.229218],[-83.792985,42.229176],[-83.793073,42.22916],[-83.793377,42.229156],[-83.793511,42.22918],[-83.793683,42.22923],[-83.793773,42.229216],[-83.793911,42.229163],[-83.794276,42.229141],[-83.794428,42.229162],[-83.794564,42.229213],[-83.794701,42.229232],[-83.794918,42.229226],[-83.795089,42.229251],[-83.795229,42.229263],[-83.795319,42.229295],[-83.79543,42.229366],[-83.79547,42.229403],[-83.795508,42.229411],[-83.795546,42.229399],[-83.795581,42.229363]]]}},{"type":"Feature","properties":{"k":"bunker"},"geometry":{"type":"Polygon","coordinates":[[[-83.795628,42.229592],[-83.795626,42.22962],[-83.795597,42.229639],[-83.795559,42.229636],[-83.795519,42.229614],[-83.79549,42.229564],[-83.795492,42.229535],[-83.795524,42.229517],[-83.795554,42.229524],[-83.795588,42.229574],[-83.795628,42.229592]]]}},{"type":"Feature","properties":{"k":"bunker"},"geometry":{"type":"Polygon","coordinates":[[[-83.795541,42.229314],[-83.795522,42.229338],[-83.795519,42.229372],[-83.795503,42.229385],[-83.795479,42.229385],[-83.795453,42.22937],[-83.795443,42.229333],[-83.795463,42.229298],[-83.795487,42.229281],[-83.795518,42.229273],[-83.79554,42.229284],[-83.795541,42.229314]]]}},{"type":"Feature","properties":{"k":"bunker"},"geometry":{"type":"Polygon","coordinates":[[[-83.794261,42.229435],[-83.794262,42.229464],[-83.79423,42.229488],[-83.794187,42.229493],[-83.794147,42.229483],[-83.794128,42.229459],[-83.794142,42.229432],[-83.794171,42.229413],[-83.794217,42.229413],[-83.794261,42.229435]]]}},{"type":"Feature","properties":{"k":"bunker"},"geometry":{"type":"Polygon","coordinates":[[[-83.793829,42.229155],[-83.793808,42.229176],[-83.79372,42.229204],[-83.793659,42.229196],[-83.79364,42.229176],[-83.793635,42.229153],[-83.793657,42.229136],[-83.793755,42.229114],[-83.793796,42.22912],[-83.793825,42.229135],[-83.793829,42.229155]]]}},{"type":"Feature","properties":{"k":"tee"},"geometry":{"type":"Polygon","coordinates":[[[-83.796091,42.230285],[-83.796105,42.230299],[-83.796101,42.230318],[-83.796069,42.230326],[-83.796037,42.23032],[-83.796027,42.230292],[-83.796057,42.23028],[-83.796091,42.230285]]]}},{"type":"Feature","properties":{"k":"tee"},"geometry":{"type":"Polygon","coordinates":[[[-83.795826,42.230192],[-83.795829,42.230167],[-83.795796,42.230131],[-83.795737,42.230114],[-83.795706,42.230116],[-83.795648,42.230141],[-83.795635,42.230177],[-83.795659,42.230209],[-83.795692,42.230217],[-83.795788,42.230215],[-83.795826,42.230192]]]}},{"type":"Feature","properties":{"k":"tee"},"geometry":{"type":"Polygon","coordinates":[[[-83.79559,42.230267],[-83.79564,42.230286],[-83.795666,42.230328],[-83.795646,42.23038],[-83.79562,42.230395],[-83.795579,42.230397],[-83.795545,42.230377],[-83.795528,42.230352],[-83.795521,42.230306],[-83.79554,42.230278],[-83.79559,42.230267]]]}},{"type":"Feature","properties":{"k":"tee"},"geometry":{"type":"Polygon","coordinates":[[[-83.795385,42.230346],[-83.795379,42.230314],[-83.795356,42.230295],[-83.795267,42.230279],[-83.795227,42.230289],[-83.795211,42.230314],[-83.795212,42.23033],[-83.795241,42.230357],[-83.795311,42.230372],[-83.795367,42.230368],[-83.795385,42.230346]]]}},{"type":"Feature","properties":{"k":"wood"},"geometry":{"type":"Polygon","coordinates":[[[-83.795276,42.228961],[-83.795319,42.22902],[-83.795381,42.229058],[-83.795705,42.229082],[-83.795882,42.229163],[-83.795977,42.229305],[-83.796002,42.229466],[-83.795958,42.229572],[-83.795851,42.229641],[-83.795699,42.22971],[-83.795664,42.229746],[-83.795667,42.229794],[-83.795753,42.229974],[-83.795983,42.230106],[-83.796088,42.230138],[-83.796118,42.230188],[-83.796185,42.230223],[-83.796208,42.230276],[-83.796188,42.230345],[-83.796123,42.230387],[-83.796036,42.230399],[-83.795967,42.23038],[-83.795914,42.23035],[-83.795878,42.230294],[-83.795823,42.230302],[-83.795696,42.230403],[-83.795614,42.230441],[-83.796255,42.23044],[-83.796144,42.228955],[-83.795276,42.228961]]]}},{"type":"Feature","properties":{"k":"wood"},"geometry":{"type":"Polygon","coordinates":[[[-83.795654,42.229939],[-83.795647,42.229986],[-83.795444,42.230177],[-83.795394,42.230198],[-83.79519,42.230205],[-83.795113,42.230193],[-83.794944,42.230108],[-83.794401,42.230006],[-83.794164,42.229937],[-83.794086,42.229889],[-83.794049,42.229822],[-83.794083,42.229737],[-83.794178,42.229674],[-83.794334,42.229624],[-83.794595,42.229618],[-83.794761,42.229632],[-83.795341,42.229746],[-83.795577,42.229823],[-83.795631,42.229874],[-83.795654,42.229939]]]}},{"type":"Feature","properties":{"k":"bunker"},"geometry":{"type":"Polygon","coordinates":[[[-83.794059,42.229466],[-83.794014,42.229506],[-83.793964,42.22952],[-83.793937,42.229519],[-83.793919,42.229509],[-83.793922,42.229482],[-83.793948,42.22945],[-83.794004,42.229432],[-83.794035,42.229434],[-83.794056,42.229446],[-83.794059,42.229466]]]}},{"type":"Feature","properties":{"k":"fairway"},"geometry":{"type":"Polygon","coordinates":[[[-83.794624,42.230304],[-83.794443,42.230307],[-83.794217,42.230281],[-83.793405,42.230236],[-83.793164,42.230198],[-83.792962,42.230154],[-83.79254,42.230024],[-83.792392,42.229955],[-83.792109,42.229866],[-83.792009,42.229806],[-83.791943,42.229792],[-83.792,42.229776],[-83.792022,42.22974],[-83.792053,42.229774],[-83.792104,42.229801],[-83.792166,42.229814],[-83.792238,42.229811],[-83.79228,42.22979],[-83.792346,42.229736],[-83.792387,42.229729],[-83.792677,42.229764],[-83.792894,42.229842],[-83.793071,42.229884],[-83.793211,42.229892],[-83.793355,42.229887],[-83.7935,42.229904],[-83.793792,42.229972],[-83.794008,42.230014],[-83.794268,42.230037],[-83.794432,42.230098],[-83.794541,42.230124],[-83.79463,42.230131],[-83.794695,42.230158],[-83.794726,42.230206],[-83.794693,42.230274],[-83.794624,42.230304]]]}},{"type":"Feature","properties":{"k":"green"},"geometry":{"type":"Polygon","coordinates":[[[-83.792022,42.22974],[-83.792,42.229776],[-83.791861,42.229807],[-83.791781,42.229853],[-83.791716,42.229856],[-83.791655,42.229829],[-83.791594,42.229751],[-83.791589,42.229723],[-83.791608,42.229691],[-83.791713,42.229616],[-83.791821,42.229593],[-83.791892,42.229605],[-83.791994,42.229653],[-83.792022,42.22974]]]}},{"type":"Feature","properties":{"k":"bunker"},"geometry":{"type":"Polygon","coordinates":[[[-83.791703,42.229594],[-83.791629,42.229621],[-83.791586,42.229656],[-83.791555,42.229661],[-83.791534,42.229653],[-83.791524,42.229632],[-83.791547,42.229591],[-83.791627,42.229545],[-83.791667,42.229541],[-83.791695,42.22955],[-83.791709,42.229571],[-83.791703,42.229594]]]}},{"type":"Feature","properties":{"k":"bunker"},"geometry":{"type":"Polygon","coordinates":[[[-83.791947,42.229831],[-83.791865,42.229871],[-83.791858,42.229892],[-83.791866,42.229909],[-83.791902,42.229924],[-83.791961,42.229915],[-83.792004,42.229877],[-83.792006,42.229845],[-83.791981,42.229832],[-83.791947,42.229831]]]}},{"type":"Feature","properties":{"k":"tee"},"geometry":{"type":"Polygon","coordinates":[[[-83.793583,42.230597],[-83.793521,42.230593],[-83.79349,42.230603],[-83.793492,42.23062],[-83.793511,42.230631],[-83.793565,42.230629],[-83.793591,42.23062],[-83.793583,42.230597]]]}},{"type":"Feature","properties":{"k":"tee"},"geometry":{"type":"Polygon","coordinates":[[[-83.793429,42.230926],[-83.793448,42.230958],[-83.793438,42.230991],[-83.793399,42.231018],[-83.793358,42.231023],[-83.793317,42.231007],[-83.793306,42.230973],[-83.793333,42.230939],[-83.793384,42.230919],[-83.793429,42.230926]]]}},{"type":"Feature","properties":{"k":"tee"},"geometry":{"type":"Polygon","coordinates":[[[-83.793386,42.23111],[-83.793421,42.23114],[-83.79342,42.231169],[-83.793381,42.231202],[-83.793327,42.231219],[-83.793276,42.231203],[-83.793259,42.231176],[-83.793262,42.231151],[-83.793298,42.231118],[-83.793351,42.231106],[-83.793386,42.23111]]]}},{"type":"Feature","properties":{"k":"tee"},"geometry":{"type":"Polygon","coordinates":[[[-83.793128,42.231181],[-83.793086,42.231205],[-83.793023,42.2312],[-83.79299,42.231166],[-83.792993,42.231132],[-83.793028,42.231107],[-83.79308,42.231102],[-83.793125,42.231131],[-83.793128,42.231181]]]}},{"type":"Feature","properties":{"k":"tee"},"geometry":{"type":"Polygon","coordinates":[[[-83.793129,42.231343],[-83.793118,42.23138],[-83.793067,42.23141],[-83.793006,42.231411],[-83.792972,42.231384],[-83.792967,42.23135],[-83.792983,42.231322],[-83.793046,42.231304],[-83.793101,42.231313],[-83.793129,42.231343]]]}},{"type":"Feature","properties":{"k":"wood"},"geometry":{"type":"Polygon","coordinates":[[[-83.795256,42.230442],[-83.795075,42.230352],[-83.794742,42.230355],[-83.79462,42.230378],[-83.794355,42.230385],[-83.793987,42.230352],[-83.79343,42.230356],[-83.793164,42.230413],[-83.793747,42.230446],[-83.795256,42.230442]]]}},{"type":"Feature","properties":{"k":"wood"},"geometry":{"type":"Polygon","coordinates":[[[-83.793753,42.230574],[-83.793747,42.230446],[-83.793164,42.230413],[-83.793282,42.230595],[-83.793542,42.230541],[-83.793753,42.230574]]]}},{"type":"Feature","properties":{"k":"fairway"},"geometry":{"type":"Polygon","coordinates":[[[-83.793178,42.232289],[-83.793127,42.232218],[-83.79302,42.232192],[-83.792942,42.2322],[-83.792857,42.232271],[-83.792877,42.232563],[-83.792851,42.232677],[-83.792786,42.232799],[-83.792789,42.232971],[-83.792776,42.233138],[-83.792857,42.233461],[-83.792877,42.233513],[-83.792894,42.233631],[-83.792992,42.233792],[-83.792982,42.233843],[-83.793026,42.233828],[-83.79309,42.233857],[-83.793085,42.233815],[-83.793154,42.233685],[-83.793155,42.233635],[-83.793129,42.233525],[-83.793077,42.233408],[-83.793049,42.233],[-83.793068,42.232934],[-83.793099,42.232881],[-83.793159,42.232814],[-83.793214,42.232723],[-83.793223,42.232662],[-83.793178,42.232289]]]}},{"type":"Feature","properties":{"k":"green"},"geometry":{"type":"Polygon","coordinates":[[[-83.792982,42.233843],[-83.793026,42.233828],[-83.79309,42.233857],[-83.793109,42.233898],[-83.79309,42.233941],[-83.793024,42.233997],[-83.792967,42.234089],[-83.792902,42.234114],[-83.792835,42.234097],[-83.792805,42.234042],[-83.792863,42.233945],[-83.792932,42.233911],[-83.792982,42.233843]]]}},{"type":"Feature","properties":{"k":"bunker"},"geometry":{"type":"Polygon","coordinates":[[[-83.792932,42.233818],[-83.792917,42.233867],[-83.792879,42.233889],[-83.792838,42.233882],[-83.792819,42.233861],[-83.792823,42.233827],[-83.792854,42.233791],[-83.792905,42.233788],[-83.792932,42.233818]]]}},{"type":"Feature","properties":{"k":"tee"},"geometry":{"type":"Polygon","coordinates":[[[-83.79277,42.233641],[-83.792785,42.233661],[-83.792759,42.233739],[-83.792685,42.233806],[-83.792659,42.233809],[-83.792642,42.233786],[-83.792674,42.23376],[-83.792698,42.23372],[-83.792702,42.233695],[-83.792738,42.233643],[-83.79277,42.233641]]]}},{"type":"Feature","properties":{"k":"tee"},"geometry":{"type":"Polygon","coordinates":[[[-83.792663,42.233728],[-83.792642,42.233764],[-83.792602,42.233778],[-83.792544,42.233753],[-83.792526,42.233716],[-83.792546,42.233685],[-83.792594,42.233678],[-83.792644,42.233697],[-83.792663,42.233728]]]}},{"type":"Feature","properties":{"k":"tee"},"geometry":{"type":"Polygon","coordinates":[[[-83.792645,42.23367],[-83.792683,42.233666],[-83.792705,42.233623],[-83.792693,42.233591],[-83.792649,42.233574],[-83.792615,42.233584],[-83.792587,42.233618],[-83.7926,42.233645],[-83.792645,42.23367]]]}},{"type":"Feature","properties":{"k":"tee"},"geometry":{"type":"Polygon","coordinates":[[[-83.792554,42.233552],[-83.792527,42.233601],[-83.792485,42.233611],[-83.792454,42.233595],[-83.792443,42.233564],[-83.792461,42.233529],[-83.792501,42.233514],[-83.792534,42.233516],[-83.792554,42.233552]]]}},{"type":"Feature","properties":{"k":"wood"},"geometry":{"type":"Polygon","coordinates":[[[-83.793218,42.231923],[-83.793212,42.231844],[-83.79308,42.23187],[-83.792941,42.231919],[-83.792642,42.23196],[-83.792442,42.232051],[-83.792394,42.23215],[-83.792215,42.23225],[-83.792133,42.232337],[-83.792101,42.232445],[-83.792263,42.232399],[-83.792432,42.232391],[-83.792753,42.232309],[-83.792986,42.232082],[-83.793063,42.231977],[-83.793218,42.231923]]]}},{"type":"Feature","properties":{"k":"wood"},"geometry":{"type":"Polygon","coordinates":[[[-83.792837,42.231882],[-83.79289,42.231831],[-83.792913,42.231612],[-83.792865,42.231393],[-83.792888,42.231153],[-83.792964,42.231057],[-83.793061,42.231025],[-83.793166,42.231044],[-83.793223,42.231017],[-83.793245,42.230961],[-83.793226,42.230888],[-83.793109,42.230816],[-83.793049,42.230749],[-83.792851,42.230698],[-83.792411,42.230461],[-83.792349,42.230451],[-83.792323,42.230488],[-83.792443,42.230709],[-83.792681,42.230871],[-83.792761,42.231011],[-83.792725,42.231199],[-83.792576,42.231617],[-83.792509,42.231852],[-83.792506,42.231945],[-83.79268,42.231899],[-83.792837,42.231882]]]}},{"type":"Feature","properties":{"k":"wood"},"geometry":{"type":"Polygon","coordinates":[[[-83.793164,42.230413],[-83.792465,42.230225],[-83.792413,42.230236],[-83.792382,42.230298],[-83.792408,42.230379],[-83.792478,42.230451],[-83.792717,42.230577],[-83.792831,42.230648],[-83.793073,42.230714],[-83.793231,42.230839],[-83.793279,42.230665],[-83.793282,42.230595],[-83.793164,42.230413]]]}},{"type":"Feature","properties":{"k":"wood"},"geometry":{"type":"Polygon","coordinates":[[[-83.79332,42.232752],[-83.793433,42.232595],[-83.793487,42.232192],[-83.793457,42.232142],[-83.793392,42.232098],[-83.793406,42.231963],[-83.793355,42.231752],[-83.793387,42.231483],[-83.793446,42.231238],[-83.793481,42.231139],[-83.79347,42.231079],[-83.793519,42.230975],[-83.793496,42.230905],[-83.793415,42.230873],[-83.793317,42.230865],[-83.793296,42.230837],[-83.79332,42.230721],[-83.793359,42.230678],[-83.793415,42.230671],[-83.793566,42.230688],[-83.793651,42.230666],[-83.793664,42.230604],[-83.793542,42.230541],[-83.793753,42.230574],[-83.793853,42.232684],[-83.79332,42.232752]]]}},{"type":"Feature","properties":{"k":"wood"},"geometry":{"type":"Polygon","coordinates":[[[-83.793136,42.229669],[-83.793191,42.229648],[-83.793209,42.229604],[-83.793169,42.229542],[-83.792964,42.229437],[-83.792801,42.229397],[-83.79264,42.229318],[-83.792484,42.229275],[-83.79239,42.229275],[-83.792246,42.2293],[-83.791973,42.22926],[-83.791849,42.229267],[-83.791758,42.229295],[-83.791665,42.229336],[-83.791436,42.22934],[-83.791416,42.229394],[-83.791449,42.229453],[-83.791648,42.22945],[-83.792029,42.229486],[-83.792456,42.229559],[-83.792598,42.22961],[-83.793136,42.229669]]]}},{"type":"Feature","properties":{"k":"wood"},"geometry":{"type":"Polygon","coordinates":[[[-83.790902,42.229185],[-83.79073,42.229276],[-83.790646,42.229343],[-83.790624,42.229419],[-83.790665,42.229512],[-83.790802,42.229446],[-83.790897,42.229448],[-83.791009,42.229512],[-83.791054,42.229626],[-83.791097,42.229664],[-83.791213,42.229695],[-83.791291,42.229654],[-83.791338,42.229607],[-83.791382,42.229456],[-83.791362,42.229334],[-83.791234,42.22934],[-83.790987,42.22931],[-83.790931,42.229261],[-83.790902,42.229185]]]}},{"type":"Feature","properties":{"k":"wood"},"geometry":{"type":"Polygon","coordinates":[[[-83.790524,42.229424],[-83.790549,42.229386],[-83.790522,42.229369],[-83.790428,42.229368],[-83.789924,42.229179],[-83.789848,42.229183],[-83.789817,42.22921],[-83.78983,42.229248],[-83.79001,42.229342],[-83.790299,42.229421],[-83.790524,42.229424]]]}},{"type":"Feature","properties":{"k":"wood"},"geometry":{"type":"Polygon","coordinates":[[[-83.790483,42.229467],[-83.790282,42.229574],[-83.790226,42.229582],[-83.790169,42.229562],[-83.78997,42.229428],[-83.789883,42.229393],[-83.789866,42.229364],[-83.789893,42.229342],[-83.789931,42.229347],[-83.790046,42.229393],[-83.790264,42.229451],[-83.790341,42.229459],[-83.79047,42.229455],[-83.790483,42.229467]]]}},{"type":"Feature","properties":{"k":"wood"},"geometry":{"type":"Polygon","coordinates":[[[-83.79091,42.23069],[-83.790934,42.230623],[-83.790944,42.230299],[-83.790893,42.23021],[-83.790877,42.230092],[-83.790799,42.22983],[-83.790676,42.229676],[-83.790657,42.229752],[-83.790751,42.230003],[-83.790748,42.230405],[-83.790852,42.230638],[-83.79091,42.23069]]]}},{"type":"Feature","properties":{"k":"wood"},"geometry":{"type":"Polygon","coordinates":[[[-83.792257,42.23043],[-83.792092,42.230395],[-83.791756,42.230191],[-83.791481,42.230209],[-83.791341,42.230305],[-83.791204,42.230249],[-83.791128,42.230095],[-83.791028,42.229779],[-83.791041,42.229719],[-83.791089,42.2297],[-83.791178,42.229719],[-83.791515,42.229884],[-83.791641,42.229989],[-83.791829,42.23005],[-83.79205,42.23008],[-83.792108,42.230104],[-83.79227,42.230379],[-83.792257,42.23043]]]}},{"type":"Feature","properties":{"k":"green"},"geometry":{"type":"Polygon","coordinates":[[[-83.791809,42.230567],[-83.791844,42.230539],[-83.791866,42.230452],[-83.791849,42.230407],[-83.79179,42.230367],[-83.791694,42.23035],[-83.791621,42.230328],[-83.791547,42.230341],[-83.791503,42.230395],[-83.791525,42.230448],[-83.791643,42.230499],[-83.791716,42.230561],[-83.791809,42.230567]]]}},{"type":"Feature","properties":{"k":"fairway"},"geometry":{"type":"Polygon","coordinates":[[[-83.791866,42.230452],[-83.792053,42.230581],[-83.792195,42.230706],[-83.792361,42.230749],[-83.792486,42.230884],[-83.792491,42.231037],[-83.792444,42.231158],[-83.792276,42.231445],[-83.792198,42.231705],[-83.792206,42.231779],[-83.792175,42.231825],[-83.792106,42.231837],[-83.792023,42.231816],[-83.791976,42.231765],[-83.79195,42.231649],[-83.791938,42.231404],[-83.792003,42.231305],[-83.792053,42.231169],[-83.792191,42.230925],[-83.792197,42.23086],[-83.792172,42.230807],[-83.792035,42.230712],[-83.791921,42.230619],[-83.791809,42.230567],[-83.791844,42.230539],[-83.791866,42.230452]]]}},{"type":"Feature","properties":{"k":"bunker"},"geometry":{"type":"Polygon","coordinates":[[[-83.792338,42.230675],[-83.792303,42.230695],[-83.792216,42.230675],[-83.792209,42.230656],[-83.792237,42.230627],[-83.792289,42.230625],[-83.792331,42.230647],[-83.792338,42.230675]]]}},{"type":"Feature","properties":{"k":"bunker"},"geometry":{"type":"Polygon","coordinates":[[[-83.791775,42.230708],[-83.791777,42.230676],[-83.791738,42.230663],[-83.791678,42.230682],[-83.791672,42.230706],[-83.791702,42.230729],[-83.791736,42.230731],[-83.791775,42.230708]]]}},{"type":"Feature","properties":{"k":"bunker"},"geometry":{"type":"Polygon","coordinates":[[[-83.791674,42.230589],[-83.791633,42.230577],[-83.791608,42.230546],[-83.791556,42.230537],[-83.791528,42.230558],[-83.791546,42.230601],[-83.791577,42.230625],[-83.791641,42.230642],[-83.791681,42.230627],[-83.791691,42.230607],[-83.791674,42.230589]]]}},{"type":"Feature","properties":{"k":"bunker"},"geometry":{"type":"Polygon","coordinates":[[[-83.791782,42.231124],[-83.79181,42.231091],[-83.791847,42.23109],[-83.791874,42.231115],[-83.791863,42.23115],[-83.791831,42.231166],[-83.791791,42.231153],[-83.791782,42.231124]]]}},{"type":"Feature","properties":{"k":"bunker"},"geometry":{"type":"Polygon","coordinates":[[[-83.791925,42.231318],[-83.791915,42.231351],[-83.79189,42.231367],[-83.791849,42.231367],[-83.791822,42.231331],[-83.791828,42.231299],[-83.791869,42.231292],[-83.791925,42.231318]]]}},{"type":"Feature","properties":{"k":"wood"},"geometry":{"type":"Polygon","coordinates":[[[-83.791959,42.232057],[-83.791997,42.232513],[-83.791978,42.232565],[-83.791928,42.23259],[-83.791869,42.232575],[-83.79176,42.232506],[-83.79163,42.232364],[-83.791574,42.232236],[-83.79145,42.232099],[-83.791509,42.231964],[-83.791577,42.231896],[-83.791724,42.231856],[-83.791824,42.231873],[-83.791959,42.232057]]]}},{"type":"Feature","properties":{"k":"tee"},"geometry":{"type":"Polygon","coordinates":[[[-83.792373,42.232915],[-83.792411,42.23293],[-83.792414,42.232976],[-83.792389,42.233013],[-83.79235,42.233024],[-83.792313,42.232999],[-83.792311,42.232961],[-83.792338,42.232923],[-83.792373,42.232915]]]}},{"type":"Feature","properties":{"k":"tee"},"geometry":{"type":"Polygon","coordinates":[[[-83.792301,42.232923],[-83.792263,42.232951],[-83.792224,42.23295],[-83.792197,42.232928],[-83.792186,42.232881],[-83.792206,42.232852],[-83.792251,42.232836],[-83.792284,42.232838],[-83.792309,42.23288],[-83.792301,42.232923]]]}},{"type":"Feature","properties":{"k":"tee"},"geometry":{"type":"Polygon","coordinates":[[[-83.792397,42.232652],[-83.7924,42.232698],[-83.792382,42.232726],[-83.792346,42.232733],[-83.792292,42.232704],[-83.792282,42.232671],[-83.7923,42.232633],[-83.792328,42.232619],[-83.792365,42.232625],[-83.792397,42.232652]]]}},{"type":"Feature","properties":{"k":"tee"},"geometry":{"type":"Polygon","coordinates":[[[-83.792142,42.232646],[-83.79216,42.232678],[-83.792199,42.232687],[-83.792243,42.232672],[-83.79226,42.232632],[-83.792254,42.232589],[-83.792225,42.232567],[-83.792182,42.232566],[-83.792154,42.232587],[-83.792142,42.232646]]]}},{"type":"Feature","properties":{"k":"tee"},"geometry":{"type":"Polygon","coordinates":[[[-83.790919,42.229619],[-83.790928,42.229596],[-83.790905,42.229571],[-83.790842,42.229559],[-83.7908,42.22957],[-83.790779,42.229602],[-83.790785,42.229645],[-83.790806,42.229666],[-83.79084,42.229669],[-83.790919,42.229619]]]}},{"type":"Feature","properties":{"k":"tee"},"geometry":{"type":"Polygon","coordinates":[[[-83.790941,42.229815],[-83.790948,42.229879],[-83.790991,42.229962],[-83.790988,42.229999],[-83.790963,42.230023],[-83.790928,42.230027],[-83.790895,42.23001],[-83.790878,42.229982],[-83.790877,42.22992],[-83.790846,42.229821],[-83.790862,42.229796],[-83.790894,42.229784],[-83.790929,42.229794],[-83.790941,42.229815]]]}},{"type":"Feature","properties":{"k":"tee"},"geometry":{"type":"Polygon","coordinates":[[[-83.790952,42.230167],[-83.791001,42.230301],[-83.791029,42.230324],[-83.79106,42.230332],[-83.79109,42.230318],[-83.791107,42.230285],[-83.791094,42.230212],[-83.791038,42.230132],[-83.790996,42.230117],[-83.790958,42.230124],[-83.790948,42.230142],[-83.790952,42.230167]]]}},{"type":"Feature","properties":{"k":"fairway"},"geometry":{"type":"Polygon","coordinates":[[[-83.791627,42.231065],[-83.791572,42.230997],[-83.791488,42.230971],[-83.791414,42.230978],[-83.791346,42.231018],[-83.79133,42.231078],[-83.791345,42.231287],[-83.791337,42.231422],[-83.791322,42.231529],[-83.791304,42.23157],[-83.791322,42.231617],[-83.791397,42.23165],[-83.791502,42.231648],[-83.791585,42.231622],[-83.79165,42.231575],[-83.791691,42.231508],[-83.791703,42.231426],[-83.791627,42.231065]]]}},{"type":"Feature","properties":{"k":"green"},"geometry":{"type":"Polygon","coordinates":[[[-83.791105,42.231889],[-83.791091,42.231833],[-83.791051,42.231807],[-83.790981,42.231813],[-83.79091,42.231852],[-83.790825,42.231969],[-83.790824,42.232017],[-83.790877,42.232048],[-83.790947,42.232056],[-83.791008,42.232037],[-83.791052,42.231936],[-83.791105,42.231889]]]}},{"type":"Feature","properties":{"k":"fairway"},"geometry":{"type":"Polygon","coordinates":[[[-83.791105,42.231889],[-83.791157,42.231817],[-83.791158,42.231777],[-83.791116,42.231747],[-83.791063,42.231742],[-83.791023,42.231759],[-83.790981,42.231813],[-83.791051,42.231807],[-83.791091,42.231833],[-83.791105,42.231889]]]}},{"type":"Feature","properties":{"k":"bunker"},"geometry":{"type":"Polygon","coordinates":[[[-83.791169,42.231795],[-83.791203,42.231779],[-83.791233,42.231782],[-83.791281,42.231827],[-83.79128,42.231861],[-83.791261,42.231886],[-83.791233,42.23189],[-83.791199,42.231874],[-83.791165,42.231818],[-83.791169,42.231795]]]}},{"type":"Feature","properties":{"k":"bunker"},"geometry":{"type":"Polygon","coordinates":[[[-83.791017,42.231759],[-83.791017,42.231737],[-83.791004,42.231721],[-83.790957,42.231713],[-83.790904,42.231724],[-83.790876,42.231754],[-83.79088,42.23178],[-83.790901,42.231793],[-83.790927,42.231795],[-83.790956,42.231779],[-83.790993,42.231781],[-83.791008,42.231775],[-83.791017,42.231759]]]}},{"type":"Feature","properties":{"k":"bunker"},"geometry":{"type":"Polygon","coordinates":[[[-83.79081,42.23188],[-83.790809,42.231901],[-83.790765,42.23195],[-83.790728,42.231961],[-83.790693,42.231954],[-83.790674,42.231932],[-83.790675,42.231912],[-83.790721,42.231864],[-83.790754,42.231855],[-83.790797,42.231862],[-83.79081,42.23188]]]}},{"type":"Feature","properties":{"k":"tee"},"geometry":{"type":"Polygon","coordinates":[[[-83.790739,42.232315],[-83.790711,42.23231],[-83.790673,42.232315],[-83.790649,42.232326],[-83.790629,42.232345],[-83.790624,42.232365],[-83.790633,42.232379],[-83.790648,42.23239],[-83.790696,42.232397],[-83.79075,42.232381],[-83.790774,42.232356],[-83.790773,42.23234],[-83.790761,42.232323],[-83.790739,42.232315]]]}}]}