{"type":"FeatureCollection","features":[{"type":"Feature","properties":{"k":"hole","ref":"1","par":4,"hcp":5},"geometry":{"type":"LineString","coordinates":[[-118.000388,33.903702],[-118.000297,33.905302],[-117.999424,33.906594]]}},{"type":"Feature","properties":{"k":"hole","ref":"2","par":4,"hcp":3},"geometry":{"type":"LineString","coordinates":[[-117.999095,33.90617],[-117.998276,33.907986],[-117.997265,33.908658]]}},{"type":"Feature","properties":{"k":"hole","ref":"3","par":3,"hcp":7},"geometry":{"type":"LineString","coordinates":[[-117.997291,33.909156],[-117.995388,33.908875]]}},{"type":"Feature","properties":{"k":"hole","ref":"4","par":5,"hcp":17},"geometry":{"type":"LineString","coordinates":[[-117.994881,33.908848],[-117.995841,33.907373],[-117.996629,33.906045],[-117.997203,33.905392]]}},{"type":"Feature","properties":{"k":"hole","ref":"5","par":3,"hcp":13},"geometry":{"type":"LineString","coordinates":[[-117.99736,33.904767],[-117.99613,33.90553]]}},{"type":"Feature","properties":{"k":"hole","ref":"6","par":4,"hcp":11},"geometry":{"type":"LineString","coordinates":[[-117.99562,33.905383],[-117.997314,33.904072],[-117.998922,33.903929]]}},{"type":"Feature","properties":{"k":"hole","ref":"7","par":5,"hcp":15},"geometry":{"type":"LineString","coordinates":[[-117.998611,33.904495],[-117.997477,33.906345],[-117.996681,33.907531],[-117.996578,33.908205]]}},{"type":"Feature","properties":{"k":"hole","ref":"8","par":4,"hcp":1},"geometry":{"type":"LineString","coordinates":[[-117.996864,33.908546],[-117.998153,33.907016],[-117.998866,33.905498]]}},{"type":"Feature","properties":{"k":"hole","ref":"9","par":3,"hcp":9},"geometry":{"type":"LineString","coordinates":[[-117.999341,33.905657],[-117.999661,33.904049]]}},{"type":"Feature","properties":{"k":"hole","ref":"10","par":4,"hcp":6},"geometry":{"type":"LineString","coordinates":[[-118.00159,33.903375],[-118.002718,33.904894],[-118.003623,33.905482]]}},{"type":"Feature","properties":{"k":"hole","ref":"11","par":3,"hcp":4},"geometry":{"type":"LineString","coordinates":[[-118.00379,33.905791],[-118.002223,33.905546]]}},{"type":"Feature","properties":{"k":"hole","ref":"12","par":5,"hcp":2},"geometry":{"type":"LineString","coordinates":[[-118.001622,33.905745],[-117.999942,33.907104],[-117.998766,33.90856],[-117.998086,33.908959]]}},{"type":"Feature","properties":{"k":"hole","ref":"13","par":3,"hcp":10},"geometry":{"type":"LineString","coordinates":[[-117.997721,33.909259],[-117.998747,33.909429]]}},{"type":"Feature","properties":{"k":"hole","ref":"14","par":8,"hcp":8},"geometry":{"type":"LineString","coordinates":[[-117.998505,33.909735],[-117.996592,33.909438],[-117.995302,33.909388]]}},{"type":"Feature","properties":{"k":"hole","ref":"15","par":4,"hcp":14},"geometry":{"type":"LineString","coordinates":[[-117.994622,33.908857],[-117.9951,33.907324],[-117.995578,33.906368]]}},{"type":"Feature","properties":{"k":"hole","ref":"16","par":5,"hcp":16},"geometry":{"type":"LineString","coordinates":[[-117.994573,33.907299],[-117.995061,33.905283],[-117.995712,33.904286],[-117.995226,33.903607]]}},{"type":"Feature","properties":{"k":"hole","ref":"17","par":3,"hcp":18},"geometry":{"type":"LineString","coordinates":[[-117.99466,33.903195],[-117.995906,33.90322]]}},{"type":"Feature","properties":{"k":"hole","ref":"18","par":4,"hcp":12},"geometry":{"type":"LineString","coordinates":[[-117.996077,33.903513],[-117.9981,33.903231],[-117.999593,33.903242]]}},{"type":"Feature","properties":{"k":"range"},"geometry":{"type":"Polygon","coordinates":[[[-118.001323,33.903532],[-118.000568,33.903615],[-118.00084,33.905803],[-118.001803,33.905542],[-118.002046,33.905296],[-118.001323,33.903532]]]}},{"type":"Feature","properties":{"k":"water"},"geometry":{"type":"Polygon","coordinates":[[[-118.00322,33.904817],[-118.003159,33.904807],[-118.003124,33.904783],[-118.003077,33.904695],[-118.002991,33.904617],[-118.003016,33.904474],[-118.002996,33.904384],[-118.002897,33.904371],[-118.002794,33.904414],[-118.002644,33.9044],[-118.002464,33.904316],[-118.002336,33.904198],[-118.002269,33.904169],[-118.002193,33.904208],[-118.002131,33.904259],[-118.001862,33.904247],[-118.001786,33.904128],[-118.001796,33.904058],[-118.001877,33.904024],[-118.002232,33.904064],[-118.002281,33.904124],[-118.002353,33.904132],[-118.002414,33.904087],[-118.00256,33.904081],[-118.002604,33.904042],[-118.002688,33.904001],[-118.002777,33.904003],[-118.00286,33.904032],[-118.002947,33.904046],[-118.003058,33.904044],[-118.003132,33.904083],[-118.003383,33.904226],[-118.003457,33.904302],[-118.003501,33.904396],[-118.003494,33.904517],[-118.003521,33.904615],[-118.003504,33.904684],[-118.003427,33.904725],[-118.003381,33.904733],[-118.003294,33.904772],[-118.00327,33.904811],[-118.00322,33.904817]]]}},{"type":"Feature","properties":{"k":"tee"},"geometry":{"type":"Polygon","coordinates":[[[-118.00159,33.903531],[-118.001433,33.903222],[-118.001507,33.903201],[-118.001569,33.903173],[-118.001623,33.903226],[-118.001742,33.903479],[-118.00159,33.903531]]]}},{"type":"Feature","properties":{"k":"green"},"geometry":{"type":"Polygon","coordinates":[[[-118.000997,33.903459],[-118.000959,33.903425],[-118.000967,33.903368],[-118.001008,33.903322],[-118.001062,33.903285],[-118.001122,33.903258],[-118.001179,33.903253],[-118.001239,33.90329],[-118.001253,33.903327],[-118.001254,33.903367],[-118.001235,33.903412],[-118.001184,33.90345],[-118.001122,33.90347],[-118.001055,33.903479],[-118.000997,33.903459]]]}},{"type":"Feature","properties":{"k":"green"},"geometry":{"type":"Polygon","coordinates":[[[-118.001563,33.903774],[-118.001532,33.903728],[-118.001523,33.90369],[-118.001505,33.903662],[-118.001529,33.903634],[-118.001596,33.903642],[-118.001625,33.903706],[-118.001636,33.903759],[-118.001563,33.903774]]]}},{"type":"Feature","properties":{"k":"bunker"},"geometry":{"type":"Polygon","coordinates":[[[-118.002376,33.905333],[-118.002436,33.905348],[-118.002479,33.905381],[-118.002506,33.90543],[-118.002506,33.905473],[-118.002467,33.905506],[-118.002405,33.905506],[-118.002378,33.905493],[-118.002366,33.905423],[-118.002323,33.905411],[-118.00229,33.905381],[-118.002323,33.905348],[-118.002376,33.905333]]]}},{"type":"Feature","properties":{"k":"green"},"geometry":{"type":"Polygon","coordinates":[[[-118.003582,33.905418],[-118.003653,33.905414],[-118.003716,33.905424],[-118.003737,33.905461],[-118.00373,33.90551],[-118.003708,33.905536],[-118.003652,33.905556],[-118.003603,33.905558],[-118.003542,33.905544],[-118.003509,33.905475],[-118.003515,33.905447],[-118.003582,33.905418]]]}},{"type":"Feature","properties":{"k":"bunker"},"geometry":{"type":"Polygon","coordinates":[[[-118.003589,33.905354],[-118.003479,33.90529],[-118.003493,33.905247],[-118.003565,33.905242],[-118.003607,33.905246],[-118.00366,33.905277],[-118.003676,33.905323],[-118.003658,33.905354],[-118.003616,33.905371],[-118.003589,33.905354]]]}},{"type":"Feature","properties":{"k":"green"},"geometry":{"type":"Polygon","coordinates":[[[-118.002302,33.905613],[-118.002255,33.905623],[-118.002185,33.905624],[-118.002141,33.905613],[-118.002112,33.905589],[-118.002117,33.905534],[-118.002141,33.905505],[-118.002211,33.905468],[-118.002279,33.905474],[-118.002338,33.905514],[-118.002351,33.905553],[-118.002331,33.905591],[-118.002302,33.905613]]]}},{"type":"Feature","properties":{"k":"tee"},"geometry":{"type":"Polygon","coordinates":[[[-118.004022,33.905849],[-118.003494,33.905782],[-118.003497,33.905733],[-118.003527,33.905721],[-118.003891,33.905763],[-118.004056,33.905768],[-118.004051,33.905819],[-118.004022,33.905849]]]}},{"type":"Feature","properties":{"k":"bunker"},"geometry":{"type":"Polygon","coordinates":[[[-118.002223,33.905664],[-118.002278,33.905646],[-118.002319,33.905663],[-118.002332,33.905685],[-118.00232,33.905718],[-118.002252,33.90576],[-118.00222,33.905769],[-118.002176,33.905747],[-118.002157,33.905719],[-118.002168,33.905679],[-118.002199,33.905662],[-118.002223,33.905664]]]}},{"type":"Feature","properties":{"k":"tee"},"geometry":{"type":"Polygon","coordinates":[[[-118.001434,33.905806],[-118.001469,33.905765],[-118.001532,33.905717],[-118.00174,33.905602],[-118.001777,33.905631],[-118.001808,33.905681],[-118.001699,33.905763],[-118.001579,33.905831],[-118.001548,33.905862],[-118.001509,33.905885],[-118.001483,33.905878],[-118.001434,33.905806]]]}},{"type":"Feature","properties":{"k":"bunker"},"geometry":{"type":"Polygon","coordinates":[[[-117.999656,33.906496],[-117.999696,33.906489],[-117.999739,33.906517],[-117.99975,33.906555],[-117.999728,33.906602],[-117.999692,33.906634],[-117.999655,33.906646],[-117.999619,33.906652],[-117.999581,33.906648],[-117.999574,33.906629],[-117.9996,33.906569],[-117.999597,33.906549],[-117.999638,33.906493],[-117.999656,33.906496]]]}},{"type":"Feature","properties":{"k":"green"},"geometry":{"type":"Polygon","coordinates":[[[-117.999404,33.906501],[-117.999453,33.906493],[-117.999521,33.906519],[-117.99954,33.906549],[-117.99954,33.906594],[-117.999515,33.90664],[-117.999468,33.906664],[-117.999432,33.906671],[-117.999382,33.906657],[-117.999352,33.906641],[-117.999338,33.906618],[-117.999336,33.906588],[-117.999353,33.906535],[-117.999376,33.906513],[-117.999404,33.906501]]]}},{"type":"Feature","properties":{"k":"bunker"},"geometry":{"type":"Polygon","coordinates":[[[-117.998599,33.908283],[-117.998636,33.908275],[-117.998712,33.908307],[-117.998728,33.908346],[-117.998709,33.908394],[-117.998668,33.908408],[-117.998612,33.908389],[-117.99856,33.90832],[-117.998599,33.908283]]]}},{"type":"Feature","properties":{"k":"bunker"},"geometry":{"type":"Polygon","coordinates":[[[-117.998021,33.908716],[-117.998065,33.908726],[-117.998085,33.908766],[-117.998061,33.908811],[-117.99802,33.90884],[-117.997932,33.908865],[-117.997902,33.908834],[-117.9979,33.908803],[-117.997917,33.908773],[-117.998021,33.908716]]]}},{"type":"Feature","properties":{"k":"green"},"geometry":{"type":"Polygon","coordinates":[[[-117.997233,33.908586],[-117.997311,33.908586],[-117.997368,33.908624],[-117.997389,33.908666],[-117.997351,33.908715],[-117.997292,33.908754],[-117.997232,33.90875],[-117.997189,33.908712],[-117.997172,33.908678],[-117.997172,33.908639],[-117.997196,33.908602],[-117.997233,33.908586]]]}},{"type":"Feature","properties":{"k":"green"},"geometry":{"type":"Polygon","coordinates":[[[-117.998081,33.908879],[-117.998138,33.908901],[-117.99817,33.908945],[-117.998155,33.909004],[-117.99811,33.909034],[-117.998054,33.909034],[-117.997991,33.909012],[-117.997966,33.908973],[-117.99796,33.908929],[-117.997984,33.908895],[-117.998081,33.908879]]]}},{"type":"Feature","properties":{"k":"bunker"},"geometry":{"type":"Polygon","coordinates":[[[-117.997296,33.908556],[-117.997229,33.908564],[-117.997193,33.908552],[-117.997196,33.908505],[-117.997236,33.908475],[-117.997321,33.908462],[-117.997395,33.908464],[-117.997426,33.908496],[-117.997433,33.908519],[-117.997414,33.90855],[-117.997365,33.908575],[-117.997296,33.908556]]]}},{"type":"Feature","properties":{"k":"tee"},"geometry":{"type":"Polygon","coordinates":[[[-117.996924,33.908384],[-117.997026,33.908442],[-117.996943,33.908552],[-117.996873,33.908627],[-117.996805,33.908608],[-117.996735,33.908577],[-117.996924,33.908384]]]}},{"type":"Feature","properties":{"k":"bunker"},"geometry":{"type":"Polygon","coordinates":[[[-117.996694,33.90808],[-117.996698,33.908037],[-117.996751,33.908001],[-117.996811,33.907996],[-117.99684,33.908033],[-117.996827,33.908074],[-117.996776,33.9081],[-117.996712,33.9081],[-117.996694,33.90808]]]}},{"type":"Feature","properties":{"k":"bunker"},"geometry":{"type":"Polygon","coordinates":[[[-117.996432,33.90802],[-117.996477,33.908013],[-117.996493,33.908054],[-117.996463,33.908098],[-117.996417,33.908138],[-117.996387,33.908153],[-117.996358,33.908157],[-117.996348,33.908116],[-117.996374,33.90806],[-117.996432,33.90802]]]}},{"type":"Feature","properties":{"k":"green"},"geometry":{"type":"Polygon","coordinates":[[[-117.99656,33.908116],[-117.996602,33.908121],[-117.996656,33.908153],[-117.996672,33.908211],[-117.996655,33.908267],[-117.996598,33.908285],[-117.996539,33.90829],[-117.996482,33.908275],[-117.996454,33.908243],[-117.996453,33.908204],[-117.996473,33.908166],[-117.996516,33.908136],[-117.99656,33.908116]]]}},{"type":"Feature","properties":{"k":"tee"},"geometry":{"type":"Polygon","coordinates":[[[-117.999117,33.905996],[-117.999207,33.906024],[-117.999187,33.906109],[-117.999097,33.906312],[-117.999061,33.906337],[-117.998993,33.906321],[-117.998965,33.906292],[-117.998974,33.906248],[-117.999034,33.906154],[-117.999117,33.905996]]]}},{"type":"Feature","properties":{"k":"tee"},"geometry":{"type":"Polygon","coordinates":[[[-117.999293,33.905578],[-117.999395,33.905588],[-117.999397,33.905666],[-117.999372,33.90573],[-117.99926,33.905718],[-117.999241,33.9057],[-117.999277,33.905638],[-117.999293,33.905578]]]}},{"type":"Feature","properties":{"k":"tee"},"geometry":{"type":"Polygon","coordinates":[[[-117.999335,33.905395],[-117.999455,33.905425],[-117.999454,33.905519],[-117.9994,33.905525],[-117.999332,33.905516],[-117.999302,33.9055],[-117.999311,33.905451],[-117.999335,33.905395]]]}},{"type":"Feature","properties":{"k":"bunker"},"geometry":{"type":"Polygon","coordinates":[[[-117.999059,33.905581],[-117.999111,33.905571],[-117.999154,33.905605],[-117.999114,33.905686],[-117.999076,33.90573],[-117.999013,33.90574],[-117.998964,33.905721],[-117.998965,33.905678],[-117.999059,33.905581]]]}},{"type":"Feature","properties":{"k":"bunker"},"geometry":{"type":"Polygon","coordinates":[[[-117.998565,33.905544],[-117.99853,33.905586],[-117.998547,33.90564],[-117.998594,33.905657],[-117.998634,33.905629],[-117.998638,33.905597],[-117.998665,33.905557],[-117.998679,33.905508],[-117.998666,33.905451],[-117.998604,33.905438],[-117.998576,33.905452],[-117.998584,33.905533],[-117.998565,33.905544]]]}},{"type":"Feature","properties":{"k":"tee"},"geometry":{"type":"Polygon","coordinates":[[[-117.999111,33.905048],[-117.999207,33.905066],[-117.999185,33.905139],[-117.99915,33.905181],[-117.999063,33.905168],[-117.999034,33.905148],[-117.999076,33.905072],[-117.999111,33.905048]]]}},{"type":"Feature","properties":{"k":"tee"},"geometry":{"type":"Polygon","coordinates":[[[-117.999376,33.905198],[-117.999512,33.905219],[-117.999561,33.905215],[-117.999555,33.905284],[-117.99954,33.90532],[-117.99934,33.905278],[-117.999376,33.905198]]]}},{"type":"Feature","properties":{"k":"tee"},"geometry":{"type":"Polygon","coordinates":[[[-118.000328,33.903564],[-118.000429,33.903559],[-118.000508,33.903568],[-118.000469,33.903819],[-118.000454,33.903837],[-118.000415,33.903827],[-118.000355,33.903823],[-118.000281,33.903803],[-118.000328,33.903564]]]}},{"type":"Feature","properties":{"k":"green"},"geometry":{"type":"Polygon","coordinates":[[[-117.999989,33.903584],[-118.00005,33.903605],[-118.00011,33.903614],[-118.000169,33.903574],[-118.000188,33.903514],[-118.000153,33.903439],[-118.000095,33.903403],[-117.999992,33.903425],[-117.999962,33.903505],[-117.999989,33.903584]]]}},{"type":"Feature","properties":{"k":"bunker"},"geometry":{"type":"Polygon","coordinates":[[[-118.000016,33.903642],[-118.000073,33.90367],[-118.000069,33.903706],[-118.000042,33.903723],[-117.99998,33.903693],[-117.999978,33.90366],[-118.000016,33.903642]]]}},{"type":"Feature","properties":{"k":"bunker"},"geometry":{"type":"Polygon","coordinates":[[[-117.999389,33.903311],[-117.999451,33.903337],[-117.999453,33.903387],[-117.999439,33.903432],[-117.999383,33.903445],[-117.999346,33.903414],[-117.999341,33.903376],[-117.999358,33.903334],[-117.999389,33.903311]]]}},{"type":"Feature","properties":{"k":"bunker"},"geometry":{"type":"Polygon","coordinates":[[[-117.999527,33.903343],[-117.99958,33.903345],[-117.999593,33.903393],[-117.999571,33.903439],[-117.999493,33.903424],[-117.999497,33.903373],[-117.99951,33.903348],[-117.999527,33.903343]]]}},{"type":"Feature","properties":{"k":"green"},"geometry":{"type":"Polygon","coordinates":[[[-117.999473,33.90316],[-117.999548,33.90314],[-117.99961,33.903138],[-117.999674,33.903158],[-117.999732,33.903215],[-117.999737,33.903254],[-117.999723,33.903293],[-117.999669,33.903318],[-117.999584,33.903318],[-117.999512,33.903308],[-117.999458,33.90329],[-117.999431,33.903261],[-117.999427,33.90321],[-117.999473,33.90316]]]}},{"type":"Feature","properties":{"k":"green"},"geometry":{"type":"Polygon","coordinates":[[[-117.999615,33.904153],[-117.999576,33.904123],[-117.999552,33.904058],[-117.999555,33.903978],[-117.99959,33.90393],[-117.999653,33.903907],[-117.999741,33.903912],[-117.999791,33.903944],[-117.999806,33.903994],[-117.999784,33.904046],[-117.999738,33.904105],[-117.999691,33.904138],[-117.999655,33.904155],[-117.999615,33.904153]]]}},{"type":"Feature","properties":{"k":"bunker"},"geometry":{"type":"Polygon","coordinates":[[[-117.999444,33.904057],[-117.999493,33.904053],[-117.999534,33.904084],[-117.999536,33.904137],[-117.999515,33.904177],[-117.99947,33.904183],[-117.999431,33.904155],[-117.999409,33.904101],[-117.999444,33.904057]]]}},{"type":"Feature","properties":{"k":"bunker"},"geometry":{"type":"Polygon","coordinates":[[[-117.999828,33.904089],[-117.999859,33.904113],[-117.999867,33.904203],[-117.999823,33.904216],[-117.999778,33.904181],[-117.999764,33.904141],[-117.999788,33.904098],[-117.999828,33.904089]]]}},{"type":"Feature","properties":{"k":"bunker"},"geometry":{"type":"Polygon","coordinates":[[[-117.998678,33.904074],[-117.998727,33.904055],[-117.998796,33.904056],[-117.998807,33.904087],[-117.998793,33.904131],[-117.998754,33.904155],[-117.998702,33.90416],[-117.998667,33.90413],[-117.998678,33.904074]]]}},{"type":"Feature","properties":{"k":"tee"},"geometry":{"type":"Polygon","coordinates":[[[-117.998422,33.90469],[-117.998466,33.904615],[-117.998532,33.904534],[-117.998674,33.904322],[-117.998749,33.904356],[-117.998627,33.904539],[-117.998596,33.904603],[-117.998499,33.904725],[-117.998447,33.904721],[-117.998422,33.90469]]]}},{"type":"Feature","properties":{"k":"bunker"},"geometry":{"type":"Polygon","coordinates":[[[-117.997125,33.905263],[-117.997118,33.905297],[-117.997197,33.905309],[-117.997251,33.905292],[-117.997261,33.905267],[-117.997243,33.905226],[-117.997162,33.905228],[-117.997125,33.905263]]]}},{"type":"Feature","properties":{"k":"bunker"},"geometry":{"type":"Polygon","coordinates":[[[-117.997144,33.90557],[-117.997173,33.905614],[-117.997221,33.90562],[-117.997277,33.905597],[-117.997313,33.90556],[-117.997336,33.905523],[-117.997331,33.905486],[-117.997291,33.905478],[-117.997208,33.905505],[-117.997163,33.90551],[-117.997142,33.905537],[-117.997144,33.90557]]]}},{"type":"Feature","properties":{"k":"green"},"geometry":{"type":"Polygon","coordinates":[[[-117.997071,33.905446],[-117.997055,33.905407],[-117.997054,33.905375],[-117.997102,33.905344],[-117.997221,33.905314],[-117.997292,33.905308],[-117.997331,33.905333],[-117.997339,33.905381],[-117.997325,33.905424],[-117.997282,33.90545],[-117.997144,33.905486],[-117.997087,33.905476],[-117.997071,33.905446]]]}},{"type":"Feature","properties":{"k":"bunker"},"geometry":{"type":"Polygon","coordinates":[[[-117.995745,33.90723],[-117.995672,33.907259],[-117.99563,33.907233],[-117.995622,33.907188],[-117.995698,33.907162],[-117.995773,33.907154],[-117.995813,33.907178],[-117.995796,33.907223],[-117.995745,33.90723]]]}},{"type":"Feature","properties":{"k":"tee"},"geometry":{"type":"Polygon","coordinates":[[[-117.994911,33.908723],[-117.995012,33.908744],[-117.995041,33.908767],[-117.995015,33.908823],[-117.994929,33.908929],[-117.994874,33.90902],[-117.994783,33.909006],[-117.994757,33.908994],[-117.994751,33.908979],[-117.994766,33.908927],[-117.994886,33.90874],[-117.994911,33.908723]]]}},{"type":"Feature","properties":{"k":"bunker"},"geometry":{"type":"Polygon","coordinates":[[[-117.995604,33.9087],[-117.995625,33.908688],[-117.995649,33.908724],[-117.99564,33.908759],[-117.995622,33.908806],[-117.995596,33.908815],[-117.995563,33.908811],[-117.99555,33.908787],[-117.995574,33.908707],[-117.995604,33.9087]]]}},{"type":"Feature","properties":{"k":"bunker"},"geometry":{"type":"Polygon","coordinates":[[[-117.995528,33.908964],[-117.995566,33.908961],[-117.99558,33.908989],[-117.995568,33.909033],[-117.995538,33.909049],[-117.995506,33.90905],[-117.995479,33.909028],[-117.995472,33.909004],[-117.995504,33.908968],[-117.995528,33.908964]]]}},{"type":"Feature","properties":{"k":"green"},"geometry":{"type":"Polygon","coordinates":[[[-117.995424,33.908754],[-117.995484,33.908785],[-117.995529,33.908839],[-117.995545,33.908875],[-117.995534,33.908918],[-117.99548,33.908935],[-117.995438,33.908965],[-117.995368,33.908982],[-117.995321,33.908979],[-117.99527,33.908961],[-117.995271,33.90887],[-117.995318,33.908793],[-117.995358,33.908773],[-117.995424,33.908754]]]}},{"type":"Feature","properties":{"k":"tee"},"geometry":{"type":"Polygon","coordinates":[[[-117.997126,33.909072],[-117.997264,33.909084],[-117.997456,33.909128],[-117.99745,33.909199],[-117.997412,33.909226],[-117.99715,33.909184],[-117.997098,33.909166],[-117.997082,33.90916],[-117.997126,33.909072]]]}},{"type":"Feature","properties":{"k":"green"},"geometry":{"type":"Polygon","coordinates":[[[-117.995423,33.909341],[-117.995446,33.909407],[-117.995377,33.90946],[-117.995321,33.909491],[-117.995249,33.90949],[-117.995196,33.90946],[-117.995171,33.909419],[-117.995195,33.909353],[-117.995245,33.9093],[-117.995291,33.909285],[-117.995368,33.909299],[-117.995423,33.909341]]]}},{"type":"Feature","properties":{"k":"bunker"},"geometry":{"type":"Polygon","coordinates":[[[-117.995413,33.909492],[-117.995475,33.909484],[-117.995535,33.909498],[-117.995548,33.909532],[-117.995538,33.90956],[-117.995498,33.909572],[-117.995439,33.909559],[-117.995412,33.909571],[-117.995377,33.909574],[-117.995349,33.909559],[-117.995368,33.90951],[-117.995413,33.909492]]]}},{"type":"Feature","properties":{"k":"tee"},"geometry":{"type":"Polygon","coordinates":[[[-117.998341,33.909664],[-117.998486,33.909678],[-117.998652,33.909715],[-117.998716,33.909717],[-117.998708,33.909782],[-117.998549,33.909782],[-117.998317,33.909756],[-117.998341,33.909664]]]}},{"type":"Feature","properties":{"k":"bunker"},"geometry":{"type":"Polygon","coordinates":[[[-117.998711,33.909222],[-117.998639,33.90923],[-117.998565,33.909249],[-117.998524,33.909272],[-117.998539,33.909317],[-117.998573,33.909354],[-117.998615,33.90936],[-117.998667,33.909299],[-117.998738,33.90928],[-117.99875,33.90924],[-117.998711,33.909222]]]}},{"type":"Feature","properties":{"k":"bunker"},"geometry":{"type":"Polygon","coordinates":[[[-117.99861,33.909547],[-117.998581,33.909565],[-117.998593,33.909596],[-117.998676,33.909625],[-117.998696,33.909597],[-117.998695,33.90957],[-117.998634,33.909543],[-117.99861,33.909547]]]}},{"type":"Feature","properties":{"k":"tee"},"geometry":{"type":"Polygon","coordinates":[[[-117.997773,33.909244],[-117.99769,33.909225],[-117.997653,33.909247],[-117.99766,33.909276],[-117.997705,33.909299],[-117.997768,33.909308],[-117.997791,33.909303],[-117.997773,33.909244]]]}},{"type":"Feature","properties":{"k":"green"},"geometry":{"type":"Polygon","coordinates":[[[-117.998672,33.909331],[-117.998622,33.909431],[-117.998634,33.90948],[-117.998689,33.909507],[-117.998746,33.90951],[-117.998816,33.909497],[-117.998833,33.909472],[-117.998857,33.909349],[-117.998807,33.909302],[-117.998706,33.909305],[-117.998672,33.909331]]]}},{"type":"Feature","properties":{"k":"tee"},"geometry":{"type":"Polygon","coordinates":[[[-117.994561,33.908713],[-117.994636,33.908714],[-117.994706,33.908736],[-117.994708,33.908789],[-117.994616,33.909029],[-117.994553,33.909035],[-117.99451,33.909021],[-117.994505,33.908943],[-117.99452,33.908841],[-117.994561,33.908713]]]}},{"type":"Feature","properties":{"k":"fairway"},"geometry":{"type":"Polygon","coordinates":[[[-117.995523,33.904682],[-117.995647,33.904632],[-117.995722,33.904631],[-117.995765,33.904674],[-117.995727,33.904757],[-117.995367,33.905013],[-117.995241,33.905139],[-117.995149,33.905284],[-117.995118,33.905412],[-117.994962,33.905553],[-117.994673,33.906038],[-117.994626,33.906179],[-117.994529,33.90641],[-117.994484,33.906376],[-117.994474,33.906246],[-117.994503,33.906137],[-117.994583,33.905991],[-117.994843,33.905403],[-117.995068,33.905112],[-117.995186,33.904942],[-117.995305,33.904818],[-117.995523,33.904682]]]}},{"type":"Feature","properties":{"k":"bunker"},"geometry":{"type":"Polygon","coordinates":[[[-117.995543,33.903711],[-117.995598,33.903726],[-117.99563,33.903776],[-117.995619,33.903821],[-117.995577,33.90384],[-117.995532,33.903834],[-117.995495,33.903788],[-117.99547,33.90377],[-117.99547,33.903731],[-117.995543,33.903711]]]}},{"type":"Feature","properties":{"k":"green"},"geometry":{"type":"Polygon","coordinates":[[[-117.998812,33.903893],[-117.998873,33.903868],[-117.998949,33.903866],[-117.999006,33.903897],[-117.999025,33.90393],[-117.999023,33.903979],[-117.998996,33.904004],[-117.998919,33.904014],[-117.998851,33.904008],[-117.9988,33.903989],[-117.998787,33.903923],[-117.998812,33.903893]]]}},{"type":"Feature","properties":{"k":"tee"},"geometry":{"type":"Polygon","coordinates":[[[-117.997043,33.904888],[-117.997358,33.904716],[-117.997447,33.904753],[-117.997453,33.904782],[-117.997403,33.904825],[-117.997306,33.904872],[-117.997093,33.904998],[-117.997062,33.90498],[-117.997043,33.904888]]]}},{"type":"Feature","properties":{"k":"bunker"},"geometry":{"type":"Polygon","coordinates":[[[-117.996077,33.905347],[-117.996026,33.905369],[-117.995973,33.905409],[-117.995955,33.905469],[-117.995998,33.905489],[-117.996046,33.905465],[-117.99608,33.905436],[-117.996107,33.905401],[-117.996106,33.905365],[-117.996088,33.905361],[-117.996077,33.905347]]]}},{"type":"Feature","properties":{"k":"tee"},"geometry":{"type":"Polygon","coordinates":[[[-117.995692,33.905224],[-117.995737,33.905243],[-117.995811,33.905305],[-117.995759,33.905369],[-117.995633,33.905492],[-117.995602,33.905498],[-117.995533,33.905465],[-117.995491,33.905434],[-117.995486,33.905419],[-117.995624,33.905276],[-117.995692,33.905224]]]}},{"type":"Feature","properties":{"k":"green"},"geometry":{"type":"Polygon","coordinates":[[[-117.996208,33.905442],[-117.996144,33.905436],[-117.996079,33.905473],[-117.996053,33.905508],[-117.996045,33.905558],[-117.996059,33.905597],[-117.996118,33.905619],[-117.996154,33.905625],[-117.99624,33.90552],[-117.996238,33.905448],[-117.996208,33.905442]]]}},{"type":"Feature","properties":{"k":"bunker"},"geometry":{"type":"Polygon","coordinates":[[[-117.996335,33.90554],[-117.99627,33.90556],[-117.996244,33.905621],[-117.996247,33.905648],[-117.996291,33.90567],[-117.996353,33.905668],[-117.996397,33.90563],[-117.996402,33.905571],[-117.996335,33.90554]]]}},{"type":"Feature","properties":{"k":"bunker"},"geometry":{"type":"Polygon","coordinates":[[[-117.995705,33.90645],[-117.995707,33.906531],[-117.995647,33.906537],[-117.995625,33.906561],[-117.995625,33.906614],[-117.995672,33.90663],[-117.99572,33.906614],[-117.995772,33.906532],[-117.995791,33.906485],[-117.995762,33.906437],[-117.995729,33.906435],[-117.995705,33.90645]]]}},{"type":"Feature","properties":{"k":"bunker"},"geometry":{"type":"Polygon","coordinates":[[[-117.995388,33.906308],[-117.995359,33.906326],[-117.995338,33.906391],[-117.995299,33.906425],[-117.995297,33.906466],[-117.995322,33.906484],[-117.995388,33.906465],[-117.995442,33.906404],[-117.995456,33.906357],[-117.995435,33.906317],[-117.995388,33.906308]]]}},{"type":"Feature","properties":{"k":"green"},"geometry":{"type":"Polygon","coordinates":[[[-117.995564,33.906482],[-117.995514,33.906457],[-117.995496,33.906431],[-117.995512,33.906267],[-117.995543,33.906239],[-117.995585,33.906243],[-117.995673,33.906286],[-117.995687,33.906317],[-117.995691,33.9064],[-117.995621,33.906475],[-117.995564,33.906482]]]}},{"type":"Feature","properties":{"k":"tee"},"geometry":{"type":"Polygon","coordinates":[[[-117.994544,33.907142],[-117.994584,33.907135],[-117.994688,33.907171],[-117.994606,33.907439],[-117.994589,33.907484],[-117.994573,33.907498],[-117.994491,33.907495],[-117.994529,33.907192],[-117.994544,33.907142]]]}},{"type":"Feature","properties":{"k":"tee"},"geometry":{"type":"Polygon","coordinates":[[[-117.994638,33.906748],[-117.994756,33.906755],[-117.994757,33.906808],[-117.994691,33.906956],[-117.994689,33.906977],[-117.994581,33.906965],[-117.99458,33.906916],[-117.994638,33.906748]]]}},{"type":"Feature","properties":{"k":"tee"},"geometry":{"type":"Polygon","coordinates":[[[-117.994822,33.903134],[-117.994651,33.903131],[-117.99457,33.903119],[-117.994552,33.903169],[-117.994538,33.903264],[-117.994616,33.903287],[-117.994734,33.903289],[-117.994814,33.903299],[-117.994824,33.903243],[-117.994822,33.903134]]]}},{"type":"Feature","properties":{"k":"bunker"},"geometry":{"type":"Polygon","coordinates":[[[-117.995532,33.903111],[-117.995481,33.903152],[-117.995509,33.90318],[-117.995588,33.90321],[-117.995684,33.903186],[-117.995687,33.903151],[-117.995672,33.903124],[-117.995615,33.903111],[-117.995532,33.903111]]]}},{"type":"Feature","properties":{"k":"tee"},"geometry":{"type":"Polygon","coordinates":[[[-117.996183,33.903466],[-117.99611,33.903477],[-117.996038,33.903499],[-117.995938,33.903509],[-117.995861,33.903505],[-117.995855,33.903563],[-117.995978,33.903563],[-117.996201,33.903545],[-117.99621,33.903531],[-117.996199,33.903475],[-117.996183,33.903466]]]}},{"type":"Feature","properties":{"k":"bunker"},"geometry":{"type":"Polygon","coordinates":[[[-117.99591,33.903339],[-117.995849,33.903319],[-117.995748,33.903307],[-117.995704,33.903338],[-117.995707,33.903374],[-117.995742,33.903388],[-117.995787,33.903419],[-117.995836,33.903428],[-117.995908,33.903408],[-117.995932,33.903364],[-117.99591,33.903339]]]}},{"type":"Feature","properties":{"k":"green"},"geometry":{"type":"Polygon","coordinates":[[[-117.996,33.903196],[-117.996026,33.903221],[-117.99603,33.90325],[-117.996016,33.903291],[-117.995986,33.9033],[-117.995888,33.903296],[-117.995836,33.90328],[-117.995793,33.903254],[-117.995771,33.903229],[-117.995779,33.903196],[-117.995833,33.903152],[-117.995875,33.903137],[-117.995922,33.903143],[-117.995966,33.903165],[-117.996,33.903196]]]}},{"type":"Feature","properties":{"k":"tee"},"geometry":{"type":"Polygon","coordinates":[[[-117.996265,33.903462],[-117.996335,33.90345],[-117.996392,33.903453],[-117.996418,33.903506],[-117.996377,33.903526],[-117.996303,33.903527],[-117.996265,33.903535],[-117.996252,33.903524],[-117.996248,33.903476],[-117.996265,33.903462]]]}},{"type":"Feature","properties":{"k":"green"},"geometry":{"type":"Polygon","coordinates":[[[-117.995176,33.903529],[-117.995224,33.903537],[-117.995254,33.903561],[-117.995315,33.903584],[-117.995368,33.903678],[-117.995369,33.903723],[-117.995298,33.903745],[-117.995198,33.90372],[-117.995168,33.903685],[-117.995152,33.90365],[-117.995133,33.903637],[-117.995123,33.903584],[-117.995176,33.903529]]]}},{"type":"Feature","properties":{"k":"green"},"geometry":{"type":"Polygon","coordinates":[[[-117.998837,33.905632],[-117.99892,33.905625],[-117.998964,33.905592],[-117.998992,33.905558],[-117.99901,33.905487],[-117.999,33.90545],[-117.998936,33.905402],[-117.998872,33.905399],[-117.998825,33.905412],[-117.998779,33.905439],[-117.998744,33.905473],[-117.998734,33.905562],[-117.998755,33.905604],[-117.998837,33.905632]]]}}]}