{"type":"FeatureCollection","features":[{"type":"Feature","properties":{"k":"hole","ref":"1","par":4,"hcp":11},"geometry":{"type":"LineString","coordinates":[[-115.20042,36.183946],[-115.19969,36.182261],[-115.199241,36.181551]]}},{"type":"Feature","properties":{"k":"hole","ref":"2","par":5},"geometry":{"type":"LineString","coordinates":[[-115.19935,36.181219],[-115.202418,36.181462],[-115.204418,36.181312]]}},{"type":"Feature","properties":{"k":"hole","ref":"3","par":3},"geometry":{"type":"LineString","coordinates":[[-115.204623,36.181923],[-115.205356,36.181371]]}},{"type":"Feature","properties":{"k":"hole","ref":"4","par":4},"geometry":{"type":"LineString","coordinates":[[-115.205797,36.181313],[-115.205317,36.182916],[-115.205627,36.184254]]}},{"type":"Feature","properties":{"k":"hole","ref":"5","par":4},"geometry":{"type":"LineString","coordinates":[[-115.205279,36.184644],[-115.204484,36.182838],[-115.204131,36.181827]]}},{"type":"Feature","properties":{"k":"hole","ref":"6","par":3},"geometry":{"type":"LineString","coordinates":[[-115.203494,36.181828],[-115.203899,36.183363]]}},{"type":"Feature","properties":{"k":"hole","ref":"7","par":4},"geometry":{"type":"LineString","coordinates":[[-115.203428,36.183427],[-115.201655,36.182141],[-115.200294,36.181784]]}},{"type":"Feature","properties":{"k":"hole","ref":"8","par":4},"geometry":{"type":"LineString","coordinates":[[-115.200378,36.182234],[-115.202093,36.183508],[-115.2042,36.183883]]}},{"type":"Feature","properties":{"k":"hole","ref":"9","par":5},"geometry":{"type":"LineString","coordinates":[[-115.20492,36.184678],[-115.202245,36.184317],[-115.200381,36.184455]]}},{"type":"Feature","properties":{"k":"hole","ref":"10","par":4},"geometry":{"type":"LineString","coordinates":[[-115.199793,36.184605],[-115.198693,36.186763],[-115.198869,36.187924]]}},{"type":"Feature","properties":{"k":"hole","ref":"11","par":4},"geometry":{"type":"LineString","coordinates":[[-115.198227,36.188099],[-115.198018,36.186413],[-115.198476,36.185525]]}},{"type":"Feature","properties":{"k":"hole","ref":"12","par":3},"geometry":{"type":"LineString","coordinates":[[-115.198049,36.185469],[-115.196836,36.185773]]}},{"type":"Feature","properties":{"k":"hole","ref":"13","par":5},"geometry":{"type":"LineString","coordinates":[[-115.197539,36.18607],[-115.194642,36.186415],[-115.193206,36.187171]]}},{"type":"Feature","properties":{"k":"hole","ref":"14","par":4},"geometry":{"type":"LineString","coordinates":[[-115.193191,36.187539],[-115.195772,36.186943],[-115.197187,36.186578]]}},{"type":"Feature","properties":{"k":"hole","ref":"15","par":5},"geometry":{"type":"LineString","coordinates":[[-115.197685,36.18777],[-115.195147,36.187951],[-115.192998,36.18798]]}},{"type":"Feature","properties":{"k":"hole","ref":"16","par":4},"geometry":{"type":"LineString","coordinates":[[-115.192532,36.188242],[-115.192823,36.185954],[-115.192745,36.185079]]}},{"type":"Feature","properties":{"k":"hole","ref":"17","par":3},"geometry":{"type":"LineString","coordinates":[[-115.193203,36.184992],[-115.195194,36.185224]]}},{"type":"Feature","properties":{"k":"hole","ref":"18","par":4},"geometry":{"type":"LineString","coordinates":[[-115.194983,36.18566],[-115.197216,36.185003],[-115.198917,36.184952]]}},{"type":"Feature","properties":{"k":"water"},"geometry":{"type":"Polygon","coordinates":[[[-115.205012,36.181727],[-115.20504,36.181716],[-115.205088,36.181681],[-115.205158,36.18162],[-115.205193,36.181569],[-115.205195,36.181535],[-115.205253,36.181468],[-115.205246,36.181418],[-115.205205,36.181384],[-115.205161,36.181365],[-115.20512,36.181363],[-115.205031,36.181406],[-115.204879,36.181453],[-115.204835,36.181488],[-115.204805,36.181538],[-115.204795,36.181591],[-115.204797,36.181646],[-115.204804,36.181672],[-115.204825,36.181695],[-115.204864,36.181723],[-115.204926,36.181735],[-115.205012,36.181727]]]}},{"type":"Feature","properties":{"k":"range"},"geometry":{"type":"Polygon","coordinates":[[[-115.198912,36.184616],[-115.198923,36.184287],[-115.198827,36.183889],[-115.198569,36.18343],[-115.195018,36.183447],[-115.195053,36.18466],[-115.198912,36.184616]]]}},{"type":"Feature","properties":{"k":"path"},"geometry":{"type":"LineString","coordinates":[[-115.20487,36.184009],[-115.204801,36.183977],[-115.204754,36.183928],[-115.204577,36.183584],[-115.204508,36.183402],[-115.204384,36.183181],[-115.204228,36.182813],[-115.204084,36.182209],[-115.20395,36.182044],[-115.203826,36.181854],[-115.20374,36.181782],[-115.20366,36.181743],[-115.203569,36.181711],[-115.203494,36.181705],[-115.203367,36.18175],[-115.203325,36.181795],[-115.203306,36.181849],[-115.203311,36.181908],[-115.203349,36.181971],[-115.203346,36.18209],[-115.203376,36.182183],[-115.203357,36.182352],[-115.203381,36.182475],[-115.203397,36.18269],[-115.203445,36.182843],[-115.203464,36.182958],[-115.203545,36.183127],[-115.203555,36.183229],[-115.203566,36.183454],[-115.203526,36.183512],[-115.203453,36.183525],[-115.203376,36.183506],[-115.203266,36.183436],[-115.203161,36.183352],[-115.203078,36.183183],[-115.203049,36.183043],[-115.203016,36.182932],[-115.20293,36.182878],[-115.202842,36.182854],[-115.202654,36.182871],[-115.202504,36.182869],[-115.202268,36.182763],[-115.202083,36.182657],[-115.201935,36.182529],[-115.201807,36.182479],[-115.201592,36.182425],[-115.201444,36.182378],[-115.201367,36.18233],[-115.201155,36.182168],[-115.200908,36.182042],[-115.20076,36.181997],[-115.200656,36.181975],[-115.200546,36.181979],[-115.200479,36.18201],[-115.200358,36.182116],[-115.20027,36.182207],[-115.200267,36.182248],[-115.200366,36.182391],[-115.200441,36.182428],[-115.200541,36.182501],[-115.200597,36.182674],[-115.200605,36.182739],[-115.200685,36.182804],[-115.201182,36.183088],[-115.201407,36.183259],[-115.201785,36.183504],[-115.201876,36.183597],[-115.201986,36.183752],[-115.202061,36.183828],[-115.202155,36.183863],[-115.202263,36.183872],[-115.202388,36.183869],[-115.202641,36.18385],[-115.202761,36.183852],[-115.202984,36.183878],[-115.20326,36.183941],[-115.20374,36.183991],[-115.204234,36.184114],[-115.204499,36.184129],[-115.204596,36.184127],[-115.204703,36.184183],[-115.204843,36.184378],[-115.204942,36.184456],[-115.20502,36.18453],[-115.205049,36.18461],[-115.205052,36.184681],[-115.205009,36.184737],[-115.204902,36.18477],[-115.204395,36.184733],[-115.204129,36.184737],[-115.203979,36.184725],[-115.203781,36.184672],[-115.202976,36.184551],[-115.202759,36.18454],[-115.202523,36.184553],[-115.202362,36.184573],[-115.202158,36.18454],[-115.201976,36.184545],[-115.201533,36.184573],[-115.201184,36.184649],[-115.200948,36.18469],[-115.200715,36.184783],[-115.200575,36.1848],[-115.200406,36.184813],[-115.200251,36.184794],[-115.200063,36.184729]]}},{"type":"Feature","properties":{"k":"path"},"geometry":{"type":"LineString","coordinates":[[-115.199956,36.184031],[-115.200194,36.184027],[-115.200245,36.184006],[-115.200237,36.183941],[-115.200138,36.183675],[-115.200044,36.183517],[-115.199838,36.183267],[-115.199779,36.183161],[-115.199757,36.182999],[-115.199602,36.182757],[-115.19946,36.182425],[-115.199427,36.182239],[-115.199291,36.182018],[-115.199114,36.181826],[-115.198993,36.181674],[-115.198955,36.181592],[-115.198966,36.181423],[-115.199006,36.181365],[-115.199084,36.181334],[-115.199202,36.181321],[-115.199264,36.181302],[-115.199393,36.181293],[-115.199502,36.181293],[-115.199687,36.18133],[-115.200009,36.181356],[-115.200506,36.18136],[-115.200688,36.181406],[-115.201037,36.181572],[-115.20119,36.181592],[-115.201571,36.181579],[-115.201884,36.181622],[-115.202818,36.181603],[-115.203751,36.18151],[-115.20396,36.181523],[-115.20417,36.181575],[-115.204263,36.181627],[-115.204349,36.18172],[-115.204414,36.181774],[-115.204483,36.181774],[-115.204633,36.181733],[-115.204693,36.181674],[-115.204744,36.181551],[-115.204835,36.181369],[-115.204934,36.181256],[-115.205055,36.181178],[-115.205224,36.181129],[-115.205355,36.181107],[-115.205508,36.181096],[-115.205594,36.181111],[-115.20565,36.181144],[-115.205674,36.181187],[-115.205674,36.18128],[-115.205605,36.181544],[-115.205548,36.181867],[-115.205548,36.182021],[-115.205575,36.182118],[-115.205634,36.182207],[-115.205672,36.182296],[-115.205672,36.182393],[-115.205567,36.182772],[-115.205529,36.18299],[-115.205524,36.183135],[-115.205774,36.1839],[-115.205886,36.184166],[-115.205897,36.184263],[-115.20584,36.184419],[-115.2058,36.184463],[-115.205532,36.184605],[-115.205462,36.184599],[-115.205398,36.184549],[-115.205358,36.184454],[-115.205261,36.18427],[-115.205089,36.184101],[-115.204964,36.184036],[-115.20487,36.184009],[-115.204729,36.184058],[-115.204668,36.184165]]}},{"type":"Feature","properties":{"k":"path"},"geometry":{"type":"LineString","coordinates":[[-115.197134,36.185474],[-115.197467,36.185391],[-115.197826,36.185344],[-115.198223,36.185322],[-115.198612,36.185331],[-115.198904,36.185328],[-115.199068,36.185316],[-115.199371,36.185255],[-115.199571,36.185246],[-115.1997,36.185228],[-115.199824,36.185229],[-115.200013,36.185264],[-115.200097,36.185271],[-115.200282,36.185271],[-115.200532,36.185261],[-115.200609,36.185248],[-115.20072,36.185205],[-115.200766,36.185175],[-115.200792,36.185133],[-115.200791,36.185047],[-115.200767,36.185013],[-115.200711,36.185],[-115.200651,36.184997]]}},{"type":"Feature","properties":{"k":"path"},"geometry":{"type":"LineString","coordinates":[[-115.197826,36.185344],[-115.197786,36.185499],[-115.197746,36.18556],[-115.197641,36.185653],[-115.19729,36.185779],[-115.197217,36.185824],[-115.197193,36.185859],[-115.197185,36.185913],[-115.197206,36.185958],[-115.197252,36.185989],[-115.197553,36.18598],[-115.197622,36.185984],[-115.197681,36.186002],[-115.197692,36.186039],[-115.197692,36.186101],[-115.197668,36.186132],[-115.197614,36.186149],[-115.197386,36.186173],[-115.19719,36.186242],[-115.197032,36.186262],[-115.196284,36.18629],[-115.195627,36.186368],[-115.195329,36.186463],[-115.195206,36.186487],[-115.195015,36.186502],[-115.194911,36.186521],[-115.194688,36.186636],[-115.194613,36.18666],[-115.194355,36.186703],[-115.194208,36.186751],[-115.193816,36.18695],[-115.193714,36.187026],[-115.193569,36.187197],[-115.193478,36.18729],[-115.193395,36.187346],[-115.193097,36.187415],[-115.19302,36.187446],[-115.192987,36.187489],[-115.192969,36.18756],[-115.192974,36.187623],[-115.193006,36.187651],[-115.193097,36.18766],[-115.193599,36.187569],[-115.193819,36.187569],[-115.194036,36.187601],[-115.194149,36.187586],[-115.194519,36.187418],[-115.194776,36.187363],[-115.194959,36.187303],[-115.195173,36.187242],[-115.19545,36.187212],[-115.19575,36.187097],[-115.196115,36.187043],[-115.19626,36.187004],[-115.196523,36.186883],[-115.196836,36.186798],[-115.197064,36.186759],[-115.197343,36.186746],[-115.19741,36.186755],[-115.197442,36.186816],[-115.197687,36.187435],[-115.197727,36.187621],[-115.197797,36.18774],[-115.19781,36.187779],[-115.197791,36.187818],[-115.197593,36.188006],[-115.197515,36.188039],[-115.197287,36.188037],[-115.197059,36.188086],[-115.196675,36.188117],[-115.196418,36.188089],[-115.19582,36.188128],[-115.195576,36.188106],[-115.195361,36.188104],[-115.194484,36.188132],[-115.19417,36.188123],[-115.19383,36.188184],[-115.193569,36.188186],[-115.193355,36.188177],[-115.193234,36.18819],[-115.193014,36.188249],[-115.19281,36.188277],[-115.192722,36.188275],[-115.19266,36.18824],[-115.192633,36.188179],[-115.192647,36.18805],[-115.192749,36.187461],[-115.19288,36.187114],[-115.192923,36.186809],[-115.192939,36.186623],[-115.192971,36.186487],[-115.193004,36.186285],[-115.192985,36.186082],[-115.193011,36.185876],[-115.193025,36.185645],[-115.192974,36.185471],[-115.192953,36.18514],[-115.192966,36.185097],[-115.193004,36.185077],[-115.193089,36.185066],[-115.193194,36.185073],[-115.193462,36.18514],[-115.19372,36.185188],[-115.194009,36.185222],[-115.194232,36.185279],[-115.194473,36.1853],[-115.19461,36.18532],[-115.194728,36.185352],[-115.194983,36.18546],[-115.195326,36.185508],[-115.195409,36.185513],[-115.195466,36.185497],[-115.195541,36.18546],[-115.1956,36.185398],[-115.195715,36.185246],[-115.195785,36.185123],[-115.195847,36.18508],[-115.195906,36.185062],[-115.196397,36.184967],[-115.196684,36.184867],[-115.196858,36.184841],[-115.197046,36.184835],[-115.197161,36.184818],[-115.197335,36.184774],[-115.19744,36.184759],[-115.197727,36.184772],[-115.198561,36.184768],[-115.198666,36.184733],[-115.198746,36.184718],[-115.198868,36.184732],[-115.198931,36.184722],[-115.198967,36.184679],[-115.198965,36.18463],[-115.199039,36.184458],[-115.199111,36.184404],[-115.199218,36.184385],[-115.199296,36.184385],[-115.199546,36.184425],[-115.199704,36.184506],[-115.199963,36.184537]]}},{"type":"Feature","properties":{"k":"path"},"geometry":{"type":"LineString","coordinates":[[-115.198223,36.185322],[-115.198188,36.18548],[-115.198121,36.185666],[-115.198073,36.185768],[-115.19803,36.185898],[-115.197963,36.186036],[-115.197901,36.186218],[-115.19789,36.186361],[-115.197815,36.186554],[-115.197772,36.186695],[-115.197823,36.187153],[-115.197877,36.187415],[-115.19796,36.187599],[-115.198019,36.187703],[-115.198078,36.187755],[-115.198191,36.187805],[-115.198245,36.187846],[-115.198344,36.187963],[-115.198371,36.188009],[-115.198384,36.188082],[-115.198427,36.188112],[-115.19847,36.18811],[-115.198521,36.188067],[-115.198566,36.187987],[-115.198607,36.187879],[-115.198617,36.187742],[-115.198548,36.18756],[-115.198529,36.187454],[-115.198534,36.187262],[-115.198497,36.187093],[-115.198494,36.186855],[-115.198545,36.186521],[-115.198585,36.186346],[-115.19862,36.186264],[-115.198749,36.186086],[-115.198954,36.185767],[-115.199261,36.185437],[-115.199371,36.185255],[-115.199398,36.18516],[-115.199559,36.184995],[-115.199604,36.184865],[-115.199675,36.184762],[-115.199686,36.184729],[-115.199687,36.184698],[-115.199669,36.184635],[-115.199704,36.184506]]}},{"type":"Feature","properties":{"k":"path"},"geometry":{"type":"LineString","coordinates":[[-115.199565,36.184315],[-115.199546,36.184425]]}},{"type":"Feature","properties":{"k":"path"},"geometry":{"type":"LineString","coordinates":[[-115.198537,36.183354],[-115.198682,36.183547],[-115.198829,36.183811],[-115.198912,36.184032],[-115.198947,36.184241],[-115.198955,36.184417],[-115.198939,36.184579],[-115.198965,36.18463]]}},{"type":"Feature","properties":{"k":"path"},"geometry":{"type":"LineString","coordinates":[[-115.198947,36.184241],[-115.199365,36.184245],[-115.199565,36.184315],[-115.199943,36.184322]]}},{"type":"Feature","properties":{"k":"bunker"},"geometry":{"type":"Polygon","coordinates":[[[-115.199739,36.181508],[-115.199743,36.181493],[-115.199722,36.181465],[-115.199698,36.181458],[-115.199681,36.181464],[-115.199676,36.181489],[-115.199694,36.181514],[-115.199726,36.181519],[-115.199739,36.181508]]]}},{"type":"Feature","properties":{"k":"bunker"},"geometry":{"type":"Polygon","coordinates":[[[-115.199789,36.181547],[-115.199801,36.181536],[-115.199801,36.181522],[-115.199787,36.181512],[-115.199771,36.181512],[-115.199758,36.181521],[-115.199757,36.181539],[-115.199765,36.181546],[-115.199789,36.181547]]]}},{"type":"Feature","properties":{"k":"bunker"},"geometry":{"type":"Polygon","coordinates":[[[-115.199583,36.181537],[-115.199602,36.181519],[-115.199603,36.181495],[-115.199585,36.181481],[-115.199565,36.181481],[-115.199544,36.181492],[-115.199538,36.18152],[-115.199556,36.181536],[-115.199583,36.181537]]]}},{"type":"Feature","properties":{"k":"bunker"},"geometry":{"type":"Polygon","coordinates":[[[-115.199478,36.181508],[-115.199513,36.181505],[-115.199526,36.181485],[-115.19951,36.181462],[-115.199482,36.181451],[-115.199458,36.181457],[-115.199446,36.181474],[-115.199456,36.181495],[-115.199478,36.181508]]]}},{"type":"Feature","properties":{"k":"bunker"},"geometry":{"type":"Polygon","coordinates":[[[-115.199382,36.181464],[-115.199404,36.181463],[-115.199416,36.181454],[-115.199419,36.181429],[-115.199388,36.181418],[-115.199353,36.18142],[-115.199343,36.181432],[-115.199346,36.181447],[-115.199382,36.181464]]]}},{"type":"Feature","properties":{"k":"tee"},"geometry":{"type":"Polygon","coordinates":[[[-115.200191,36.183577],[-115.200215,36.183605],[-115.200259,36.183602],[-115.200276,36.183574],[-115.20026,36.18353],[-115.200231,36.183518],[-115.200204,36.183523],[-115.200188,36.183544],[-115.200191,36.183577]]]}},{"type":"Feature","properties":{"k":"tee"},"geometry":{"type":"Polygon","coordinates":[[[-115.200361,36.183819],[-115.200381,36.183806],[-115.200393,36.183785],[-115.200385,36.183738],[-115.200355,36.1837],[-115.200324,36.183689],[-115.2003,36.18369],[-115.200273,36.183703],[-115.200262,36.183718],[-115.200268,36.183772],[-115.200304,36.183814],[-115.200335,36.183823],[-115.200361,36.183819]]]}},{"type":"Feature","properties":{"k":"tee"},"geometry":{"type":"Polygon","coordinates":[[[-115.200443,36.183994],[-115.200481,36.183966],[-115.200485,36.183929],[-115.200476,36.183911],[-115.200448,36.183895],[-115.200399,36.183893],[-115.200357,36.183922],[-115.200347,36.183947],[-115.200352,36.183971],[-115.200388,36.183997],[-115.200443,36.183994]]]}},{"type":"Feature","properties":{"k":"tee"},"geometry":{"type":"Polygon","coordinates":[[[-115.200263,36.181444],[-115.20031,36.181432],[-115.200318,36.181409],[-115.200304,36.18139],[-115.200282,36.181381],[-115.20023,36.181378],[-115.200199,36.181381],[-115.20018,36.181392],[-115.200175,36.181413],[-115.20019,36.181435],[-115.200263,36.181444]]]}},{"type":"Feature","properties":{"k":"tee"},"geometry":{"type":"Polygon","coordinates":[[[-115.199612,36.181261],[-115.19985,36.181297],[-115.199881,36.181282],[-115.19989,36.181246],[-115.199881,36.181215],[-115.19987,36.181206],[-115.199859,36.181199],[-115.199818,36.181195],[-115.199295,36.181195],[-115.199277,36.1812],[-115.199267,36.181218],[-115.199272,36.181244],[-115.199293,36.181255],[-115.199473,36.181249],[-115.199612,36.181261]]]}},{"type":"Feature","properties":{"k":"green"},"geometry":{"type":"Polygon","coordinates":[[[-115.204458,36.181368],[-115.204584,36.181316],[-115.204598,36.181283],[-115.204583,36.181255],[-115.204536,36.181237],[-115.204461,36.181242],[-115.204301,36.181281],[-115.20427,36.1813],[-115.204258,36.181318],[-115.204251,36.181348],[-115.204257,36.181368],[-115.204276,36.181388],[-115.204306,36.181404],[-115.204374,36.181409],[-115.204458,36.181368]]]}},{"type":"Feature","properties":{"k":"bunker"},"geometry":{"type":"Polygon","coordinates":[[[-115.204403,36.181229],[-115.204483,36.181192],[-115.204489,36.181179],[-115.204483,36.181162],[-115.204458,36.181155],[-115.204383,36.181176],[-115.204286,36.181175],[-115.204256,36.181188],[-115.204247,36.1812],[-115.204256,36.181226],[-115.204288,36.181243],[-115.204343,36.181231],[-115.204403,36.181229]]]}},{"type":"Feature","properties":{"k":"tee"},"geometry":{"type":"Polygon","coordinates":[[[-115.204537,36.181699],[-115.20459,36.181685],[-115.204624,36.18166],[-115.204633,36.181632],[-115.204622,36.1816],[-115.204591,36.181585],[-115.204541,36.181582],[-115.204462,36.181591],[-115.204431,36.181604],[-115.20441,36.181639],[-115.204414,36.18167],[-115.204428,36.181691],[-115.204465,36.181706],[-115.204537,36.181699]]]}},{"type":"Feature","properties":{"k":"green"},"geometry":{"type":"Polygon","coordinates":[[[-115.204165,36.181964],[-115.204185,36.181941],[-115.204221,36.181857],[-115.204232,36.181782],[-115.204224,36.181752],[-115.204202,36.181725],[-115.204169,36.181706],[-115.204114,36.181701],[-115.20407,36.181723],[-115.204047,36.18177],[-115.204062,36.181923],[-115.204071,36.181956],[-115.204094,36.181978],[-115.204141,36.18198],[-115.204165,36.181964]]]}},{"type":"Feature","properties":{"k":"bunker"},"geometry":{"type":"Polygon","coordinates":[[[-115.205552,36.181423],[-115.205557,36.181397],[-115.205538,36.181388],[-115.205529,36.181395],[-115.205529,36.181417],[-115.205539,36.181425],[-115.205552,36.181423]]]}},{"type":"Feature","properties":{"k":"green"},"geometry":{"type":"Polygon","coordinates":[[[-115.20541,36.18152],[-115.205451,36.181482],[-115.205466,36.181448],[-115.205471,36.181397],[-115.205459,36.18136],[-115.205423,36.181319],[-115.205364,36.181278],[-115.2053,36.181249],[-115.205257,36.181246],[-115.205222,36.181274],[-115.205213,36.181322],[-115.205298,36.181392],[-115.205324,36.181513],[-115.205364,36.18153],[-115.20541,36.18152]]]}},{"type":"Feature","properties":{"k":"bunker"},"geometry":{"type":"Polygon","coordinates":[[[-115.20548,36.181285],[-115.205507,36.181269],[-115.205512,36.181249],[-115.205499,36.181232],[-115.205465,36.181226],[-115.205439,36.18124],[-115.205434,36.181264],[-115.205452,36.181283],[-115.20548,36.181285]]]}},{"type":"Feature","properties":{"k":"bunker"},"geometry":{"type":"Polygon","coordinates":[[[-115.205398,36.181239],[-115.205413,36.181227],[-115.205412,36.181206],[-115.205388,36.181198],[-115.205367,36.181204],[-115.205358,36.18122],[-115.205362,36.181236],[-115.205379,36.181243],[-115.205398,36.181239]]]}},{"type":"Feature","properties":{"k":"bunker"},"geometry":{"type":"Polygon","coordinates":[[[-115.205103,36.181283],[-115.205123,36.181273],[-115.205129,36.181258],[-115.205119,36.181244],[-115.205099,36.18124],[-115.205078,36.18125],[-115.205069,36.181267],[-115.205076,36.18128],[-115.205103,36.181283]]]}},{"type":"Feature","properties":{"k":"tee"},"geometry":{"type":"Polygon","coordinates":[[[-115.203524,36.181882],[-115.203606,36.181849],[-115.20362,36.181822],[-115.203614,36.181804],[-115.203597,36.181789],[-115.203531,36.181774],[-115.203468,36.181781],[-115.203417,36.181802],[-115.203384,36.181832],[-115.203382,36.181865],[-115.203412,36.181889],[-115.203449,36.181893],[-115.203524,36.181882]]]}},{"type":"Feature","properties":{"k":"tee"},"geometry":{"type":"Polygon","coordinates":[[[-115.203586,36.182106],[-115.203637,36.182077],[-115.203657,36.182044],[-115.20365,36.182013],[-115.203625,36.181998],[-115.20359,36.181996],[-115.203517,36.182012],[-115.203456,36.182033],[-115.203425,36.18206],[-115.203426,36.182091],[-115.203455,36.182117],[-115.203508,36.18212],[-115.203586,36.182106]]]}},{"type":"Feature","properties":{"k":"tee"},"geometry":{"type":"Polygon","coordinates":[[[-115.203516,36.182321],[-115.203539,36.182304],[-115.203544,36.182276],[-115.203524,36.182252],[-115.203488,36.182246],[-115.203463,36.182263],[-115.203459,36.182292],[-115.203478,36.182316],[-115.203516,36.182321]]]}},{"type":"Feature","properties":{"k":"tee"},"geometry":{"type":"Polygon","coordinates":[[[-115.205745,36.181568],[-115.205807,36.181571],[-115.205832,36.181561],[-115.20585,36.181317],[-115.205843,36.181244],[-115.205826,36.18123],[-115.205768,36.181231],[-115.205755,36.181238],[-115.205737,36.181377],[-115.20568,36.181524],[-115.205679,36.181543],[-115.20569,36.181557],[-115.205745,36.181568]]]}},{"type":"Feature","properties":{"k":"green"},"geometry":{"type":"Polygon","coordinates":[[[-115.199349,36.181631],[-115.199375,36.18161],[-115.199387,36.181565],[-115.199378,36.181535],[-115.199351,36.18151],[-115.19927,36.181479],[-115.199171,36.181461],[-115.199116,36.181468],[-115.199092,36.181487],[-115.199084,36.181512],[-115.199089,36.181531],[-115.199142,36.181577],[-115.199271,36.18163],[-115.199313,36.181638],[-115.199349,36.181631]]]}},{"type":"Feature","properties":{"k":"green"},"geometry":{"type":"Polygon","coordinates":[[[-115.200378,36.18192],[-115.200422,36.181896],[-115.200439,36.181853],[-115.200431,36.181831],[-115.200332,36.181738],[-115.200299,36.181662],[-115.200254,36.181638],[-115.20021,36.181638],[-115.200195,36.181647],[-115.200176,36.181681],[-115.200219,36.181777],[-115.200221,36.181837],[-115.200238,36.181876],[-115.200254,36.181894],[-115.200305,36.181917],[-115.200378,36.18192]]]}},{"type":"Feature","properties":{"k":"bunker"},"geometry":{"type":"Polygon","coordinates":[[[-115.200437,36.181748],[-115.200472,36.181736],[-115.200483,36.181706],[-115.200464,36.181677],[-115.200444,36.181666],[-115.200405,36.181663],[-115.200374,36.181678],[-115.200358,36.181712],[-115.200383,36.18174],[-115.200437,36.181748]]]}},{"type":"Feature","properties":{"k":"bunker"},"geometry":{"type":"Polygon","coordinates":[[[-115.200571,36.181692],[-115.200598,36.181665],[-115.200598,36.181636],[-115.200581,36.181616],[-115.20055,36.181607],[-115.200539,36.181595],[-115.200527,36.18156],[-115.200512,36.181543],[-115.20048,36.181531],[-115.200464,36.181534],[-115.200421,36.181564],[-115.200366,36.181561],[-115.200333,36.181572],[-115.200321,36.181598],[-115.200337,36.181627],[-115.200374,36.181639],[-115.200465,36.181638],[-115.200523,36.181689],[-115.200555,36.181696],[-115.200571,36.181692]]]}},{"type":"Feature","properties":{"k":"green"},"geometry":{"type":"Polygon","coordinates":[[[-115.203959,36.183465],[-115.203992,36.183448],[-115.204039,36.183406],[-115.204066,36.183353],[-115.204066,36.183331],[-115.204035,36.183293],[-115.203988,36.183267],[-115.203893,36.183237],[-115.203832,36.183237],[-115.203791,36.183262],[-115.203773,36.183287],[-115.203757,36.183338],[-115.203754,36.183385],[-115.203805,36.183443],[-115.203859,36.18347],[-115.203892,36.183478],[-115.203959,36.183465]]]}},{"type":"Feature","properties":{"k":"green"},"geometry":{"type":"Polygon","coordinates":[[[-115.19934,36.184676],[-115.199407,36.18465],[-115.199428,36.18463],[-115.199471,36.18457],[-115.199481,36.184529],[-115.199476,36.18451],[-115.199445,36.184478],[-115.19931,36.18444],[-115.199221,36.184432],[-115.19917,36.184443],[-115.199136,36.184466],[-115.199108,36.184516],[-115.199102,36.184574],[-115.199117,36.184604],[-115.199144,36.18463],[-115.199196,36.18465],[-115.199286,36.184675],[-115.19934,36.184676]]]}},{"type":"Feature","properties":{"k":"green"},"geometry":{"type":"Polygon","coordinates":[[[-115.200423,36.184634],[-115.200456,36.184604],[-115.200451,36.184517],[-115.200473,36.184443],[-115.200433,36.184389],[-115.200403,36.184322],[-115.200365,36.184296],[-115.200334,36.184291],[-115.200307,36.184297],[-115.20029,36.184311],[-115.200266,36.184345],[-115.200271,36.18439],[-115.200309,36.184455],[-115.200296,36.184571],[-115.200317,36.184609],[-115.200357,36.184637],[-115.200406,36.184641],[-115.200423,36.184634]]]}},{"type":"Feature","properties":{"k":"bunker"},"geometry":{"type":"Polygon","coordinates":[[[-115.20054,36.184558],[-115.200558,36.184555],[-115.200587,36.184529],[-115.200594,36.184504],[-115.200578,36.184472],[-115.200561,36.184469],[-115.200517,36.184477],[-115.200492,36.184503],[-115.200487,36.184519],[-115.200498,36.184547],[-115.20054,36.184558]]]}},{"type":"Feature","properties":{"k":"bunker"},"geometry":{"type":"Polygon","coordinates":[[[-115.200513,36.184411],[-115.200541,36.184428],[-115.200574,36.184429],[-115.200592,36.184421],[-115.200603,36.184396],[-115.200601,36.18438],[-115.200547,36.18432],[-115.200541,36.184286],[-115.200518,36.184264],[-115.200495,36.184257],[-115.200453,36.184269],[-115.200442,36.184294],[-115.200464,36.184371],[-115.200513,36.184411]]]}},{"type":"Feature","properties":{"k":"bunker"},"geometry":{"type":"Polygon","coordinates":[[[-115.202608,36.184157],[-115.202652,36.184149],[-115.202696,36.184155],[-115.202713,36.184145],[-115.202728,36.184131],[-115.202724,36.184093],[-115.20269,36.184064],[-115.202661,36.184053],[-115.202601,36.184039],[-115.202552,36.184041],[-115.202536,36.18405],[-115.202515,36.184082],[-115.202518,36.184123],[-115.202549,36.184154],[-115.202568,36.184162],[-115.202589,36.184164],[-115.202608,36.184157]]]}},{"type":"Feature","properties":{"k":"bunker"},"geometry":{"type":"Polygon","coordinates":[[[-115.202141,36.183775],[-115.202175,36.183741],[-115.202227,36.183752],[-115.202245,36.183749],[-115.202261,36.183735],[-115.202267,36.183702],[-115.202253,36.183669],[-115.202234,36.183659],[-115.20219,36.183653],[-115.20216,36.183671],[-115.202082,36.183681],[-115.202067,36.18369],[-115.202052,36.183732],[-115.202058,36.183768],[-115.202082,36.183784],[-115.202114,36.18379],[-115.202141,36.183775]]]}},{"type":"Feature","properties":{"k":"green"},"geometry":{"type":"Polygon","coordinates":[[[-115.204242,36.183971],[-115.204303,36.183977],[-115.20433,36.183965],[-115.204343,36.183927],[-115.20429,36.183841],[-115.204246,36.183799],[-115.204214,36.18379],[-115.204175,36.183792],[-115.204089,36.18382],[-115.204038,36.183847],[-115.204028,36.183862],[-115.20403,36.183884],[-115.204048,36.183916],[-115.20407,36.183927],[-115.204191,36.183947],[-115.204242,36.183971]]]}},{"type":"Feature","properties":{"k":"green"},"geometry":{"type":"Polygon","coordinates":[[[-115.20569,36.184356],[-115.205722,36.184333],[-115.205738,36.184301],[-115.205736,36.184269],[-115.205716,36.184217],[-115.20569,36.184171],[-115.205656,36.184138],[-115.205618,36.184124],[-115.205577,36.184127],[-115.205545,36.184148],[-115.205519,36.184205],[-115.205522,36.184244],[-115.205556,36.184327],[-115.20558,36.184357],[-115.205613,36.18437],[-115.20565,36.18437],[-115.20569,36.184356]]]}},{"type":"Feature","properties":{"k":"bunker"},"geometry":{"type":"Polygon","coordinates":[[[-115.205443,36.184346],[-115.205491,36.184347],[-115.20551,36.184333],[-115.205517,36.184312],[-115.205511,36.184295],[-115.205488,36.184272],[-115.205434,36.184256],[-115.205404,36.18427],[-115.205395,36.184295],[-115.205406,36.184322],[-115.205443,36.184346]]]}},{"type":"Feature","properties":{"k":"bunker"},"geometry":{"type":"Polygon","coordinates":[[[-115.205459,36.184207],[-115.205488,36.184189],[-115.2055,36.18416],[-115.205499,36.184134],[-115.205479,36.184109],[-115.205435,36.184105],[-115.205406,36.184118],[-115.205395,36.18417],[-115.205414,36.184201],[-115.205459,36.184207]]]}},{"type":"Feature","properties":{"k":"bunker"},"geometry":{"type":"Polygon","coordinates":[[[-115.204735,36.182742],[-115.204806,36.182727],[-115.204816,36.182708],[-115.204806,36.18269],[-115.204768,36.182677],[-115.204725,36.182677],[-115.204678,36.182654],[-115.204658,36.182655],[-115.204631,36.182668],[-115.204626,36.182699],[-115.204642,36.182725],[-115.204679,36.18274],[-115.204735,36.182742]]]}},{"type":"Feature","properties":{"k":"bunker"},"geometry":{"type":"Polygon","coordinates":[[[-115.204326,36.182043],[-115.20434,36.182045],[-115.204358,36.182032],[-115.204362,36.182011],[-115.204351,36.18199],[-115.204376,36.181952],[-115.204361,36.1819],[-115.204361,36.181858],[-115.204348,36.181837],[-115.20433,36.181832],[-115.204301,36.181837],[-115.204283,36.181852],[-115.204243,36.181933],[-115.204298,36.182021],[-115.204326,36.182043]]]}},{"type":"Feature","properties":{"k":"bunker"},"geometry":{"type":"Polygon","coordinates":[[[-115.204046,36.183176],[-115.204082,36.183143],[-115.204084,36.183122],[-115.204076,36.183116],[-115.20405,36.183113],[-115.203996,36.183135],[-115.203919,36.183125],[-115.203887,36.183132],[-115.20388,36.183139],[-115.203879,36.183161],[-115.203904,36.183191],[-115.203953,36.183208],[-115.203988,36.183209],[-115.204046,36.183176]]]}},{"type":"Feature","properties":{"k":"bunker"},"geometry":{"type":"Polygon","coordinates":[[[-115.203677,36.183374],[-115.203714,36.183355],[-115.20372,36.183342],[-115.203725,36.18324],[-115.203714,36.183218],[-115.203701,36.183213],[-115.203673,36.183218],[-115.203647,36.183243],[-115.20363,36.183326],[-115.203643,36.183372],[-115.203677,36.183374]]]}},{"type":"Feature","properties":{"k":"tee"},"geometry":{"type":"Polygon","coordinates":[[[-115.205313,36.184758],[-115.205355,36.184714],[-115.205369,36.184677],[-115.205338,36.18455],[-115.205293,36.184427],[-115.205272,36.184396],[-115.205224,36.184381],[-115.205181,36.184386],[-115.205142,36.184407],[-115.205134,36.184431],[-115.205188,36.184583],[-115.205191,36.184622],[-115.205175,36.184649],[-115.205123,36.184697],[-115.20512,36.184732],[-115.20513,36.184751],[-115.20515,36.184766],[-115.205212,36.184781],[-115.205273,36.184776],[-115.205313,36.184758]]]}},{"type":"Feature","properties":{"k":"tee"},"geometry":{"type":"Polygon","coordinates":[[[-115.204882,36.184721],[-115.204953,36.184722],[-115.204982,36.18471],[-115.204998,36.184693],[-115.205,36.184671],[-115.20499,36.184653],[-115.204958,36.18464],[-115.204845,36.184626],[-115.204775,36.184622],[-115.20475,36.184633],[-115.204739,36.184648],[-115.204736,36.18467],[-115.204758,36.1847],[-115.204808,36.184714],[-115.204882,36.184721]]]}},{"type":"Feature","properties":{"k":"tee"},"geometry":{"type":"Polygon","coordinates":[[[-115.204059,36.1847],[-115.204079,36.184688],[-115.20409,36.184665],[-115.204084,36.184642],[-115.204067,36.184625],[-115.204041,36.184616],[-115.204016,36.184615],[-115.203993,36.184624],[-115.203979,36.184644],[-115.203979,36.184666],[-115.203993,36.184692],[-115.204035,36.184706],[-115.204059,36.1847]]]}},{"type":"Feature","properties":{"k":"tee"},"geometry":{"type":"Polygon","coordinates":[[[-115.203342,36.18342],[-115.203412,36.18347],[-115.203451,36.183486],[-115.20348,36.183482],[-115.2035,36.183463],[-115.203493,36.183434],[-115.203462,36.183397],[-115.203398,36.183343],[-115.203329,36.183307],[-115.203294,36.18332],[-115.203273,36.183343],[-115.203272,36.183358],[-115.203279,36.183374],[-115.203342,36.18342]]]}},{"type":"Feature","properties":{"k":"tee"},"geometry":{"type":"Polygon","coordinates":[[[-115.203234,36.1832],[-115.20326,36.18319],[-115.203287,36.183167],[-115.203298,36.183119],[-115.203283,36.183098],[-115.203257,36.183087],[-115.203222,36.183085],[-115.203162,36.183106],[-115.203134,36.183151],[-115.203139,36.183175],[-115.203159,36.183195],[-115.203196,36.183205],[-115.203234,36.1832]]]}},{"type":"Feature","properties":{"k":"tee"},"geometry":{"type":"Polygon","coordinates":[[[-115.200406,36.182284],[-115.200448,36.182255],[-115.200455,36.182233],[-115.200447,36.182214],[-115.200403,36.182189],[-115.200375,36.182184],[-115.200347,36.182191],[-115.200328,36.182203],[-115.20032,36.18222],[-115.200335,36.182261],[-115.200377,36.182285],[-115.200406,36.182284]]]}},{"type":"Feature","properties":{"k":"tee"},"geometry":{"type":"Polygon","coordinates":[[[-115.200517,36.182426],[-115.200558,36.182449],[-115.200581,36.182454],[-115.200619,36.182435],[-115.200634,36.182416],[-115.200631,36.182397],[-115.200538,36.182319],[-115.200514,36.182307],[-115.200486,36.182305],[-115.200447,36.182332],[-115.200435,36.182347],[-115.200435,36.182363],[-115.200517,36.182426]]]}},{"type":"Feature","properties":{"k":"tee"},"geometry":{"type":"Polygon","coordinates":[[[-115.20073,36.182744],[-115.200759,36.182725],[-115.200761,36.182689],[-115.200732,36.182665],[-115.200688,36.182659],[-115.200663,36.182679],[-115.200666,36.182711],[-115.200688,36.182736],[-115.200707,36.182745],[-115.20073,36.182744]]]}},{"type":"Feature","properties":{"k":"tee"},"geometry":{"type":"Polygon","coordinates":[[[-115.199824,36.184668],[-115.199871,36.184644],[-115.199882,36.1846],[-115.199871,36.184582],[-115.199825,36.184556],[-115.199764,36.184559],[-115.199742,36.184573],[-115.199733,36.184592],[-115.199743,36.184637],[-115.199759,36.184654],[-115.199791,36.184666],[-115.199824,36.184668]]]}},{"type":"Feature","properties":{"k":"tee"},"geometry":{"type":"Polygon","coordinates":[[[-115.199708,36.184976],[-115.199734,36.184977],[-115.199781,36.184955],[-115.199833,36.18485],[-115.199837,36.184821],[-115.19983,36.184801],[-115.199786,36.184768],[-115.199754,36.18476],[-115.199733,36.184769],[-115.199714,36.184792],[-115.199653,36.184895],[-115.199644,36.184924],[-115.199678,36.184964],[-115.199708,36.184976]]]}},{"type":"Feature","properties":{"k":"tee"},"geometry":{"type":"Polygon","coordinates":[[[-115.199589,36.185207],[-115.199612,36.185194],[-115.199626,36.185171],[-115.199626,36.185144],[-115.199584,36.185109],[-115.199553,36.185103],[-115.19952,36.185109],[-115.199491,36.185128],[-115.199474,36.185159],[-115.199481,36.185184],[-115.199528,36.185215],[-115.199589,36.185207]]]}},{"type":"Feature","properties":{"k":"green"},"geometry":{"type":"Polygon","coordinates":[[[-115.198938,36.18803],[-115.198982,36.188002],[-115.199001,36.187959],[-115.198995,36.187913],[-115.198982,36.187887],[-115.19897,36.187866],[-115.198924,36.187841],[-115.198869,36.187836],[-115.198842,36.187844],[-115.198817,36.18786],[-115.198756,36.187928],[-115.198748,36.18795],[-115.198752,36.187992],[-115.198783,36.188022],[-115.198833,36.18804],[-115.1989,36.18804],[-115.198938,36.18803]]]}},{"type":"Feature","properties":{"k":"bunker"},"geometry":{"type":"Polygon","coordinates":[[[-115.198913,36.188127],[-115.198968,36.188119],[-115.19899,36.188089],[-115.198987,36.188075],[-115.198953,36.188063],[-115.19885,36.188064],[-115.198833,36.188069],[-115.198818,36.188085],[-115.198816,36.188101],[-115.198826,36.18812],[-115.198848,36.18813],[-115.198913,36.188127]]]}},{"type":"Feature","properties":{"k":"bunker"},"geometry":{"type":"Polygon","coordinates":[[[-115.198723,36.187886],[-115.198765,36.187861],[-115.198773,36.187846],[-115.198762,36.187815],[-115.198731,36.187801],[-115.198712,36.187804],[-115.198681,36.187827],[-115.198657,36.187855],[-115.198648,36.187883],[-115.19865,36.187896],[-115.198669,36.187909],[-115.198699,36.187905],[-115.198723,36.187886]]]}},{"type":"Feature","properties":{"k":"tee"},"geometry":{"type":"Polygon","coordinates":[[[-115.19821,36.188181],[-115.198297,36.18819],[-115.198328,36.188179],[-115.198338,36.188153],[-115.198269,36.187986],[-115.198247,36.187956],[-115.19821,36.187937],[-115.198173,36.187936],[-115.198145,36.187944],[-115.198121,36.187972],[-115.198113,36.188018],[-115.198158,36.188144],[-115.198179,36.188168],[-115.19821,36.188181]]]}},{"type":"Feature","properties":{"k":"tee"},"geometry":{"type":"Polygon","coordinates":[[[-115.198156,36.187745],[-115.198179,36.187737],[-115.198192,36.187703],[-115.19817,36.187673],[-115.198127,36.187667],[-115.198099,36.18769],[-115.198099,36.187722],[-115.198112,36.187737],[-115.198156,36.187745]]]}},{"type":"Feature","properties":{"k":"bunker"},"geometry":{"type":"Polygon","coordinates":[[[-115.198497,36.185749],[-115.198548,36.185717],[-115.198595,36.185701],[-115.198617,36.185667],[-115.19853,36.185599],[-115.198505,36.1856],[-115.198476,36.185622],[-115.198473,36.185643],[-115.19849,36.185673],[-115.198486,36.185679],[-115.198477,36.185682],[-115.198437,36.185657],[-115.198417,36.185659],[-115.198388,36.185678],[-115.198382,36.185693],[-115.198389,36.185724],[-115.19843,36.185752],[-115.198464,36.185758],[-115.198497,36.185749]]]}},{"type":"Feature","properties":{"k":"green"},"geometry":{"type":"Polygon","coordinates":[[[-115.198337,36.185585],[-115.198365,36.185604],[-115.198404,36.18561],[-115.198486,36.18558],[-115.198562,36.185574],[-115.198613,36.185563],[-115.198635,36.185554],[-115.198664,36.185523],[-115.19867,36.185502],[-115.198664,36.185482],[-115.198629,36.185455],[-115.198603,36.185448],[-115.198396,36.185482],[-115.19837,36.185491],[-115.198338,36.185519],[-115.198328,36.185554],[-115.198337,36.185585]]]}},{"type":"Feature","properties":{"k":"tee"},"geometry":{"type":"Polygon","coordinates":[[[-115.197996,36.185558],[-115.198062,36.185538],[-115.198089,36.185522],[-115.198106,36.185496],[-115.198117,36.185443],[-115.198106,36.18542],[-115.198082,36.185404],[-115.198015,36.185391],[-115.197948,36.185394],[-115.197918,36.185404],[-115.197901,36.185423],[-115.197885,36.185494],[-115.197891,36.185553],[-115.197909,36.185564],[-115.197934,36.185565],[-115.197996,36.185558]]]}},{"type":"Feature","properties":{"k":"green"},"geometry":{"type":"Polygon","coordinates":[[[-115.196894,36.185821],[-115.197004,36.185811],[-115.197025,36.185803],[-115.197044,36.185789],[-115.197053,36.185767],[-115.197042,36.18573],[-115.197022,36.185721],[-115.196927,36.185725],[-115.196841,36.185705],[-115.19679,36.185709],[-115.196731,36.18574],[-115.196704,36.185794],[-115.196707,36.18583],[-115.196716,36.185843],[-115.196745,36.185868],[-115.19677,36.185873],[-115.196818,36.18586],[-115.196867,36.185825],[-115.196894,36.185821]]]}},{"type":"Feature","properties":{"k":"bunker"},"geometry":{"type":"Polygon","coordinates":[[[-115.196984,36.185698],[-115.19704,36.185671],[-115.197059,36.185637],[-115.197052,36.185625],[-115.197034,36.185621],[-115.196991,36.185635],[-115.196922,36.185589],[-115.196894,36.185614],[-115.196842,36.185637],[-115.196837,36.185657],[-115.196857,36.185674],[-115.196899,36.185667],[-115.19694,36.185698],[-115.196984,36.185698]]]}},{"type":"Feature","properties":{"k":"tee"},"geometry":{"type":"Polygon","coordinates":[[[-115.197571,36.186121],[-115.19762,36.186111],[-115.197634,36.186099],[-115.197645,36.186078],[-115.197644,36.186059],[-115.197625,36.186036],[-115.197576,36.186028],[-115.197347,36.186047],[-115.197242,36.186068],[-115.19722,36.186076],[-115.19721,36.18609],[-115.197211,36.186123],[-115.197244,36.186154],[-115.197571,36.186121]]]}},{"type":"Feature","properties":{"k":"tee"},"geometry":{"type":"Polygon","coordinates":[[[-115.196975,36.18624],[-115.196999,36.186237],[-115.197033,36.186219],[-115.197041,36.18619],[-115.19703,36.186176],[-115.197014,36.186165],[-115.196971,36.186158],[-115.196908,36.186176],[-115.196896,36.186188],[-115.1969,36.186219],[-115.196924,36.186237],[-115.196975,36.18624]]]}},{"type":"Feature","properties":{"k":"green"},"geometry":{"type":"Polygon","coordinates":[[[-115.193265,36.187242],[-115.193308,36.187189],[-115.193325,36.187142],[-115.193329,36.1871],[-115.19331,36.187063],[-115.193293,36.187049],[-115.193249,36.187036],[-115.193209,36.187059],[-115.193174,36.187109],[-115.193104,36.187161],[-115.193081,36.187196],[-115.193082,36.187217],[-115.193113,36.187246],[-115.193163,36.187263],[-115.193221,36.187265],[-115.193265,36.187242]]]}},{"type":"Feature","properties":{"k":"bunker"},"geometry":{"type":"Polygon","coordinates":[[[-115.193404,36.187232],[-115.193441,36.187167],[-115.193486,36.187124],[-115.193487,36.187112],[-115.193414,36.187043],[-115.193398,36.187041],[-115.193382,36.187043],[-115.19337,36.187064],[-115.193374,36.187088],[-115.193394,36.187122],[-115.193392,36.187137],[-115.193345,36.187211],[-115.193355,36.187236],[-115.193375,36.187242],[-115.193404,36.187232]]]}},{"type":"Feature","properties":{"k":"bunker"},"geometry":{"type":"Polygon","coordinates":[[[-115.193094,36.187128],[-115.193123,36.187115],[-115.19314,36.187088],[-115.193166,36.187021],[-115.193147,36.187005],[-115.193134,36.187003],[-115.193101,36.187017],[-115.193072,36.187036],[-115.193065,36.18705],[-115.19305,36.187107],[-115.193075,36.187128],[-115.193094,36.187128]]]}},{"type":"Feature","properties":{"k":"tee"},"geometry":{"type":"Polygon","coordinates":[[[-115.193353,36.187563],[-115.193456,36.187546],[-115.193493,36.187532],[-115.193507,36.187512],[-115.193506,36.187469],[-115.193487,36.187453],[-115.193459,36.187449],[-115.193144,36.187513],[-115.193124,36.187522],[-115.193115,36.187538],[-115.193125,36.187574],[-115.193163,36.187593],[-115.193353,36.187563]]]}},{"type":"Feature","properties":{"k":"tee"},"geometry":{"type":"Polygon","coordinates":[[[-115.194087,36.187557],[-115.194109,36.187546],[-115.194122,36.187528],[-115.194121,36.187486],[-115.194083,36.187465],[-115.194054,36.187466],[-115.194015,36.187488],[-115.194003,36.187527],[-115.194011,36.187542],[-115.194033,36.187553],[-115.194087,36.187557]]]}},{"type":"Feature","properties":{"k":"green"},"geometry":{"type":"Polygon","coordinates":[[[-115.197212,36.186641],[-115.197268,36.186637],[-115.197301,36.186611],[-115.197314,36.186571],[-115.197309,36.186551],[-115.197297,36.186534],[-115.197272,36.186523],[-115.197212,36.186523],[-115.197107,36.186552],[-115.197062,36.186569],[-115.197041,36.186597],[-115.197052,36.18663],[-115.197088,36.186646],[-115.19716,36.186638],[-115.197212,36.186641]]]}},{"type":"Feature","properties":{"k":"tee"},"geometry":{"type":"Polygon","coordinates":[[[-115.197695,36.187809],[-115.197735,36.187792],[-115.197748,36.187775],[-115.197743,36.187742],[-115.197709,36.187723],[-115.197665,36.187724],[-115.197629,36.187735],[-115.19761,36.187758],[-115.197621,36.187798],[-115.197655,36.18781],[-115.197695,36.187809]]]}},{"type":"Feature","properties":{"k":"tee"},"geometry":{"type":"Polygon","coordinates":[[[-115.197415,36.187986],[-115.19749,36.18799],[-115.197508,36.187985],[-115.197529,36.187963],[-115.197528,36.187934],[-115.1975,36.187913],[-115.197369,36.187902],[-115.197321,36.187908],[-115.197297,36.187925],[-115.197295,36.187958],[-115.19731,36.187973],[-115.197415,36.187986]]]}},{"type":"Feature","properties":{"k":"tee"},"geometry":{"type":"Polygon","coordinates":[[[-115.197207,36.187722],[-115.197238,36.187705],[-115.197235,36.187684],[-115.197205,36.187673],[-115.197164,36.187681],[-115.197155,36.187699],[-115.197163,36.187715],[-115.197207,36.187722]]]}},{"type":"Feature","properties":{"k":"tee"},"geometry":{"type":"Polygon","coordinates":[[[-115.196768,36.188069],[-115.19681,36.188059],[-115.196819,36.18804],[-115.196812,36.188018],[-115.196786,36.188001],[-115.196735,36.188],[-115.196712,36.188015],[-115.196707,36.188047],[-115.196731,36.188064],[-115.196768,36.188069]]]}},{"type":"Feature","properties":{"k":"green"},"geometry":{"type":"Polygon","coordinates":[[[-115.192942,36.18804],[-115.193004,36.188085],[-115.193065,36.188108],[-115.193108,36.188109],[-115.193126,36.188101],[-115.193155,36.188066],[-115.19315,36.188031],[-115.193085,36.18796],[-115.19305,36.187902],[-115.192998,36.187879],[-115.19297,36.187877],[-115.192927,36.187889],[-115.192881,36.187928],[-115.192876,36.18796],[-115.192882,36.187977],[-115.192942,36.18804]]]}},{"type":"Feature","properties":{"k":"bunker"},"geometry":{"type":"Polygon","coordinates":[[[-115.193214,36.188001],[-115.19323,36.187995],[-115.193239,36.187961],[-115.193215,36.187904],[-115.193172,36.187868],[-115.193129,36.187874],[-115.193117,36.187883],[-115.193105,36.187914],[-115.193131,36.187963],[-115.193171,36.187998],[-115.193214,36.188001]]]}},{"type":"Feature","properties":{"k":"bunker"},"geometry":{"type":"Polygon","coordinates":[[[-115.192882,36.188164],[-115.192921,36.188155],[-115.192948,36.188119],[-115.192882,36.18806],[-115.192828,36.188057],[-115.192764,36.188075],[-115.192759,36.188099],[-115.19277,36.188121],[-115.192788,36.188129],[-115.192828,36.18813],[-115.192852,36.188156],[-115.192882,36.188164]]]}},{"type":"Feature","properties":{"k":"bunker"},"geometry":{"type":"Polygon","coordinates":[[[-115.19281,36.188044],[-115.192841,36.188033],[-115.192846,36.188009],[-115.192811,36.18795],[-115.192785,36.187944],[-115.192757,36.187962],[-115.192762,36.188023],[-115.192778,36.188039],[-115.19281,36.188044]]]}},{"type":"Feature","properties":{"k":"tee"},"geometry":{"type":"Polygon","coordinates":[[[-115.192519,36.188297],[-115.192565,36.188293],[-115.192578,36.188264],[-115.192586,36.188149],[-115.192573,36.188119],[-115.192553,36.188115],[-115.192529,36.188115],[-115.192503,36.188136],[-115.192492,36.18826],[-115.192494,36.188275],[-115.192519,36.188297]]]}},{"type":"Feature","properties":{"k":"tee"},"geometry":{"type":"Polygon","coordinates":[[[-115.192565,36.188029],[-115.192588,36.188027],[-115.192604,36.188009],[-115.192614,36.187952],[-115.192594,36.187922],[-115.192574,36.187916],[-115.192539,36.187928],[-115.192528,36.187965],[-115.19253,36.188016],[-115.192565,36.188029]]]}},{"type":"Feature","properties":{"k":"tee"},"geometry":{"type":"Polygon","coordinates":[[[-115.19261,36.187783],[-115.192642,36.187789],[-115.192656,36.187782],[-115.192664,36.187756],[-115.192655,36.187742],[-115.192624,36.187734],[-115.192609,36.18774],[-115.192595,36.187767],[-115.19261,36.187783]]]}},{"type":"Feature","properties":{"k":"bunker"},"geometry":{"type":"Polygon","coordinates":[[[-115.192599,36.186662],[-115.19262,36.186648],[-115.192633,36.186627],[-115.192633,36.186584],[-115.192613,36.18657],[-115.192584,36.186567],[-115.192532,36.186579],[-115.192515,36.186593],[-115.1925,36.186625],[-115.192507,36.186658],[-115.192522,36.186668],[-115.192548,36.186673],[-115.192599,36.186662]]]}},{"type":"Feature","properties":{"k":"bunker"},"geometry":{"type":"Polygon","coordinates":[[[-115.192605,36.185214],[-115.192625,36.185241],[-115.192658,36.185246],[-115.192674,36.185236],[-115.192684,36.185204],[-115.192667,36.185175],[-115.192599,36.185137],[-115.192598,36.185087],[-115.192589,36.185075],[-115.192559,36.185067],[-115.192525,36.185097],[-115.192521,36.185137],[-115.192537,36.185164],[-115.19258,36.185187],[-115.192605,36.185214]]]}},{"type":"Feature","properties":{"k":"green"},"geometry":{"type":"Polygon","coordinates":[[[-115.192775,36.184994],[-115.192723,36.184977],[-115.19267,36.18498],[-115.192636,36.185004],[-115.192627,36.18504],[-115.192635,36.185078],[-115.192697,36.185162],[-115.192747,36.185208],[-115.192791,36.185221],[-115.19281,36.185214],[-115.192834,36.185185],[-115.192854,36.185149],[-115.192863,36.18511],[-115.192852,36.185066],[-115.192822,36.18503],[-115.192775,36.184994]]]}},{"type":"Feature","properties":{"k":"tee"},"geometry":{"type":"Polygon","coordinates":[[[-115.193262,36.185046],[-115.19332,36.18506],[-115.193355,36.185055],[-115.193365,36.185025],[-115.193352,36.184996],[-115.193333,36.184981],[-115.193301,36.18497],[-115.19321,36.18495],[-115.193153,36.184944],[-115.193113,36.18496],[-115.193112,36.184995],[-115.193133,36.185009],[-115.193262,36.185046]]]}},{"type":"Feature","properties":{"k":"tee"},"geometry":{"type":"Polygon","coordinates":[[[-115.193615,36.185112],[-115.193641,36.18508],[-115.193634,36.185044],[-115.193606,36.185025],[-115.193585,36.185021],[-115.193545,36.185032],[-115.193528,36.185043],[-115.193516,36.185072],[-115.19353,36.185102],[-115.193568,36.185117],[-115.193615,36.185112]]]}},{"type":"Feature","properties":{"k":"bunker"},"geometry":{"type":"Polygon","coordinates":[[[-115.195096,36.18512],[-115.195117,36.185119],[-115.195148,36.185092],[-115.195198,36.185093],[-115.195223,36.18508],[-115.195241,36.185044],[-115.195227,36.185012],[-115.19519,36.184998],[-115.195168,36.184999],[-115.195114,36.185027],[-115.19506,36.18504],[-115.195045,36.185089],[-115.195064,36.185111],[-115.195096,36.18512]]]}},{"type":"Feature","properties":{"k":"bunker"},"geometry":{"type":"Polygon","coordinates":[[[-115.195252,36.185401],[-115.195281,36.185407],[-115.195306,36.18539],[-115.195337,36.185407],[-115.195351,36.185404],[-115.195372,36.185386],[-115.195372,36.185342],[-115.195327,36.185317],[-115.195289,36.185325],[-115.195256,36.185344],[-115.195237,36.18537],[-115.195239,36.185394],[-115.195252,36.185401]]]}},{"type":"Feature","properties":{"k":"green"},"geometry":{"type":"Polygon","coordinates":[[[-115.195223,36.185304],[-115.195317,36.185236],[-115.195344,36.185199],[-115.195344,36.18515],[-115.195322,36.185124],[-115.195293,36.185111],[-115.195255,36.185113],[-115.195185,36.185161],[-115.195078,36.185199],[-115.195048,36.185217],[-115.195029,36.185245],[-115.19504,36.185288],[-115.195065,36.185314],[-115.195102,36.185336],[-115.195146,36.185343],[-115.195164,36.185339],[-115.195223,36.185304]]]}},{"type":"Feature","properties":{"k":"tee"},"geometry":{"type":"Polygon","coordinates":[[[-115.19514,36.185654],[-115.195239,36.185626],[-115.195296,36.1856],[-115.195305,36.185582],[-115.195289,36.185555],[-115.195268,36.185549],[-115.195241,36.185551],[-115.195106,36.185586],[-115.194926,36.185644],[-115.194906,36.185654],[-115.194902,36.18567],[-115.194909,36.185694],[-115.194944,36.185708],[-115.19514,36.185654]]]}},{"type":"Feature","properties":{"k":"tee"},"geometry":{"type":"Polygon","coordinates":[[[-115.195897,36.185222],[-115.195935,36.185203],[-115.195939,36.185183],[-115.19592,36.185158],[-115.195884,36.185151],[-115.195855,36.185169],[-115.195841,36.185196],[-115.195854,36.185219],[-115.195897,36.185222]]]}},{"type":"Feature","properties":{"k":"bunker"},"geometry":{"type":"Polygon","coordinates":[[[-115.196956,36.185238],[-115.196994,36.18522],[-115.19701,36.185186],[-115.197006,36.185152],[-115.196967,36.185135],[-115.196919,36.185145],[-115.196905,36.185161],[-115.196896,36.185197],[-115.196911,36.185225],[-115.196932,36.185237],[-115.196956,36.185238]]]}},{"type":"Feature","properties":{"k":"green"},"geometry":{"type":"Polygon","coordinates":[[[-115.198923,36.185078],[-115.198948,36.185104],[-115.198985,36.185117],[-115.19904,36.185113],[-115.199074,36.185096],[-115.199103,36.185063],[-115.19911,36.185049],[-115.199106,36.18502],[-115.199083,36.184993],[-115.199018,36.184951],[-115.198981,36.184888],[-115.198951,36.184859],[-115.198905,36.18484],[-115.198858,36.184833],[-115.198787,36.184845],[-115.198755,36.184868],[-115.198751,36.18492],[-115.198763,36.184936],[-115.198865,36.185001],[-115.198923,36.185078]]]}},{"type":"Feature","properties":{"k":"bunker"},"geometry":{"type":"Polygon","coordinates":[[[-115.198714,36.185275],[-115.198763,36.185254],[-115.198817,36.185251],[-115.198866,36.18523],[-115.198882,36.185212],[-115.198889,36.185193],[-115.198882,36.185161],[-115.198855,36.185141],[-115.198809,36.185136],[-115.198731,36.185157],[-115.198713,36.185156],[-115.198701,36.185147],[-115.198701,36.185135],[-115.19872,36.185119],[-115.198801,36.185119],[-115.198842,36.185108],[-115.198855,36.185094],[-115.198864,36.18508],[-115.198863,36.185047],[-115.19883,36.185013],[-115.198787,36.185003],[-115.198724,36.185011],[-115.198658,36.184998],[-115.198613,36.18501],[-115.19854,36.185066],[-115.198473,36.185074],[-115.19844,36.185094],[-115.198416,36.185138],[-115.19843,36.185166],[-115.198469,36.185179],[-115.198567,36.185169],[-115.198584,36.185174],[-115.198605,36.185194],[-115.19861,36.185233],[-115.198633,36.185257],[-115.198674,36.185279],[-115.198693,36.185282],[-115.198714,36.185275]]]}},{"type":"Feature","properties":{"k":"fairway"},"geometry":{"type":"Polygon","coordinates":[[[-115.198605,36.182743],[-115.19867,36.182742],[-115.198686,36.182733],[-115.198689,36.182719],[-115.198581,36.182623],[-115.198563,36.182625],[-115.198552,36.182637],[-115.198552,36.182709],[-115.198579,36.182737],[-115.198605,36.182743]]]}},{"type":"Feature","properties":{"k":"path"},"geometry":{"type":"LineString","coordinates":[[-115.199445,36.183886],[-115.199375,36.183889],[-115.199343,36.183908],[-115.199317,36.18394],[-115.199314,36.184068]]}},{"type":"Feature","properties":{"k":"path"},"geometry":{"type":"LineString","coordinates":[[-115.204756,36.18393],[-115.204778,36.183978],[-115.204756,36.184048]]}},{"type":"Feature","properties":{"k":"path"},"geometry":{"type":"LineString","coordinates":[[-115.193358,36.187613],[-115.193365,36.187659],[-115.193361,36.187674],[-115.193344,36.187686]]}},{"type":"Feature","properties":{"k":"tee"},"geometry":{"type":"Polygon","coordinates":[[[-115.204626,36.181997],[-115.20465,36.182012],[-115.204685,36.182012],[-115.204723,36.181991],[-115.204732,36.181964],[-115.204713,36.181938],[-115.204634,36.181869],[-115.20461,36.181836],[-115.204586,36.181821],[-115.204561,36.181821],[-115.204519,36.181841],[-115.204513,36.181867],[-115.204626,36.181997]]]}},{"type":"Feature","properties":{"k":"tee"},"geometry":{"type":"Polygon","coordinates":[[[-115.204864,36.183937],[-115.204879,36.183919],[-115.204874,36.183896],[-115.204855,36.183885],[-115.204829,36.183885],[-115.204814,36.1839],[-115.204817,36.183929],[-115.204841,36.183941],[-115.204864,36.183937]]]}},{"type":"Feature","properties":{"k":"path"},"geometry":{"type":"LineString","coordinates":[[-115.199314,36.184068],[-115.19931,36.184245]]}},{"type":"Feature","properties":{"k":"path"},"geometry":{"type":"LineString","coordinates":[[-115.200063,36.184729],[-115.200058,36.184663],[-115.20003,36.184611],[-115.199963,36.184537],[-115.199942,36.18443],[-115.199956,36.184031],[-115.199948,36.183935],[-115.199844,36.183894]]}}]}