{"type":"FeatureCollection","features":[{"type":"Feature","properties":{"k":"hole","ref":"1","par":5,"hcp":8},"geometry":{"type":"LineString","coordinates":[[-83.72477,42.303512],[-83.723352,42.305274],[-83.722812,42.3065],[-83.722469,42.307585]]}},{"type":"Feature","properties":{"k":"hole","ref":"2","par":3,"hcp":4},"geometry":{"type":"LineString","coordinates":[[-83.721384,42.307662],[-83.721994,42.306159]]}},{"type":"Feature","properties":{"k":"hole","ref":"3","par":4,"hcp":18},"geometry":{"type":"LineString","coordinates":[[-83.722484,42.306115],[-83.723041,42.304288],[-83.723928,42.303426]]}},{"type":"Feature","properties":{"k":"hole","ref":"4","par":5,"hcp":6},"geometry":{"type":"LineString","coordinates":[[-83.721844,42.304138],[-83.720156,42.305824],[-83.719949,42.307861]]}},{"type":"Feature","properties":{"k":"hole","ref":"5","par":4,"hcp":10},"geometry":{"type":"LineString","coordinates":[[-83.719455,42.308183],[-83.719366,42.305815],[-83.719585,42.304794]]}},{"type":"Feature","properties":{"k":"hole","ref":"6","par":4,"hcp":2},"geometry":{"type":"LineString","coordinates":[[-83.71872,42.304723],[-83.718529,42.306984],[-83.718339,42.308235]]}},{"type":"Feature","properties":{"k":"hole","ref":"7","par":3,"hcp":16},"geometry":{"type":"LineString","coordinates":[[-83.717317,42.308798],[-83.717655,42.307565]]}},{"type":"Feature","properties":{"k":"hole","ref":"8","par":4,"hcp":12},"geometry":{"type":"LineString","coordinates":[[-83.717242,42.30749],[-83.717543,42.305625],[-83.717667,42.304664]]}},{"type":"Feature","properties":{"k":"hole","ref":"10","par":4,"hcp":1},"geometry":{"type":"LineString","coordinates":[[-83.726063,42.303808],[-83.725058,42.305996],[-83.725136,42.30703]]}},{"type":"Feature","properties":{"k":"hole","ref":"11","par":5,"hcp":3},"geometry":{"type":"LineString","coordinates":[[-83.726463,42.30678],[-83.727617,42.304518],[-83.727527,42.302802]]}},{"type":"Feature","properties":{"k":"hole","ref":"12","par":3,"hcp":9},"geometry":{"type":"LineString","coordinates":[[-83.727387,42.302042],[-83.726076,42.303058]]}},{"type":"Feature","properties":{"k":"hole","ref":"13","par":4,"hcp":5},"geometry":{"type":"LineString","coordinates":[[-83.726707,42.30332],[-83.726195,42.305378],[-83.725709,42.306533]]}},{"type":"Feature","properties":{"k":"hole","ref":"14","par":4,"hcp":15},"geometry":{"type":"LineString","coordinates":[[-83.725478,42.307887],[-83.724642,42.309847],[-83.724717,42.310696]]}},{"type":"Feature","properties":{"k":"hole","ref":"15","par":4,"hcp":17},"geometry":{"type":"LineString","coordinates":[[-83.725286,42.310949],[-83.723853,42.312457],[-83.722654,42.312847]]}},{"type":"Feature","properties":{"k":"hole","ref":"16","par":5,"hcp":7},"geometry":{"type":"LineString","coordinates":[[-83.722213,42.312637],[-83.723931,42.310942],[-83.724005,42.309458],[-83.724138,42.308979]]}},{"type":"Feature","properties":{"k":"hole","ref":"17","par":3,"hcp":13},"geometry":{"type":"LineString","coordinates":[[-83.723164,42.30884],[-83.724306,42.307927]]}},{"type":"Feature","properties":{"k":"hole","ref":"18","par":4,"hcp":11},"geometry":{"type":"LineString","coordinates":[[-83.723643,42.307153],[-83.724374,42.305671],[-83.725443,42.303815]]}},{"type":"Feature","properties":{"k":"stream"},"geometry":{"type":"LineString","coordinates":[[-83.726788,42.302121],[-83.726762,42.301978]]}},{"type":"Feature","properties":{"k":"water"},"geometry":{"type":"Polygon","coordinates":[[[-83.726876,42.302678],[-83.726703,42.302679],[-83.726665,42.30266],[-83.726587,42.302565],[-83.726501,42.302508],[-83.72646,42.302494],[-83.726542,42.302448],[-83.726585,42.30244],[-83.72665,42.302493],[-83.726681,42.302492],[-83.726701,42.302474],[-83.726734,42.302484],[-83.726768,42.30245],[-83.726753,42.302358],[-83.726708,42.302317],[-83.726666,42.302299],[-83.726623,42.30229],[-83.726588,42.302308],[-83.72658,42.302361],[-83.726569,42.302382],[-83.726548,42.302388],[-83.726473,42.30239],[-83.726444,42.302328],[-83.72644,42.302271],[-83.726478,42.302183],[-83.726551,42.302111],[-83.726613,42.30208],[-83.726622,42.302104],[-83.726618,42.302134],[-83.726685,42.302157],[-83.726788,42.302121],[-83.726907,42.302133],[-83.726984,42.302103],[-83.727036,42.302096],[-83.727182,42.302106],[-83.727274,42.302146],[-83.727288,42.30226],[-83.727242,42.302334],[-83.72706,42.302389],[-83.726993,42.302444],[-83.726965,42.3025],[-83.726909,42.302565],[-83.72691,42.302668],[-83.726876,42.302678]]]}},{"type":"Feature","properties":{"k":"stream"},"geometry":{"type":"LineString","coordinates":[[-83.722165,42.310481],[-83.722062,42.310361],[-83.722044,42.310219],[-83.722112,42.310134],[-83.722022,42.310016],[-83.721693,42.309847],[-83.72121,42.309848],[-83.721083,42.309698],[-83.721082,42.309404],[-83.721184,42.309286],[-83.721461,42.309206],[-83.721721,42.308957],[-83.721977,42.308918],[-83.722431,42.308909],[-83.722513,42.308718],[-83.722758,42.308602],[-83.722937,42.308604],[-83.722988,42.308577],[-83.723076,42.30857],[-83.723261,42.308461],[-83.72409,42.307842],[-83.724219,42.307762],[-83.724325,42.30768],[-83.724397,42.307579],[-83.724546,42.307421],[-83.724619,42.307288],[-83.7247,42.307171],[-83.724757,42.307141],[-83.724822,42.307139],[-83.724854,42.3071],[-83.724908,42.307058],[-83.72492,42.307004],[-83.724917,42.30696],[-83.724899,42.30692],[-83.724917,42.306876],[-83.725068,42.306689],[-83.725092,42.306674],[-83.725105,42.306598],[-83.725146,42.306539],[-83.72521,42.306513],[-83.725239,42.306477],[-83.725215,42.30643],[-83.725222,42.306386],[-83.725315,42.306285],[-83.725337,42.306218],[-83.725433,42.306124],[-83.725533,42.306101],[-83.725622,42.3061],[-83.725647,42.306078],[-83.725636,42.305962],[-83.725652,42.305928],[-83.725754,42.305896],[-83.725774,42.305867],[-83.725765,42.30583],[-83.725727,42.305804],[-83.725708,42.305769],[-83.725726,42.30573],[-83.725769,42.305712],[-83.725752,42.305674],[-83.725705,42.305626],[-83.725748,42.305584],[-83.725811,42.305575],[-83.725876,42.305538],[-83.725863,42.305486],[-83.725823,42.305431],[-83.72586,42.305324],[-83.725834,42.305292],[-83.725679,42.305253],[-83.725692,42.305232],[-83.725737,42.305212],[-83.725795,42.305126],[-83.725853,42.30512],[-83.725884,42.305095],[-83.725828,42.304959],[-83.725852,42.304936],[-83.72587,42.304884],[-83.725863,42.304853],[-83.725874,42.304835],[-83.726083,42.304708],[-83.726086,42.304684],[-83.726074,42.304659],[-83.726045,42.304649],[-83.72601,42.304654],[-83.725978,42.304643],[-83.725965,42.304622],[-83.725959,42.304552],[-83.725987,42.304515],[-83.726027,42.304484],[-83.726082,42.304481],[-83.726128,42.30446],[-83.726131,42.304427],[-83.726106,42.304419],[-83.726077,42.304398],[-83.72608,42.304342],[-83.7261,42.304319],[-83.726103,42.304286],[-83.726086,42.304229],[-83.726106,42.304208],[-83.726244,42.304118],[-83.726344,42.304031],[-83.726411,42.30396],[-83.726408,42.303916],[-83.726318,42.30388],[-83.726319,42.30385],[-83.726417,42.303778],[-83.72642,42.303747],[-83.726404,42.303725],[-83.726363,42.303717],[-83.726317,42.303724],[-83.726281,42.303719],[-83.726206,42.303629],[-83.726155,42.303614],[-83.726094,42.303668],[-83.726054,42.30367],[-83.726016,42.303644],[-83.725982,42.303598],[-83.725997,42.303563],[-83.726019,42.303539],[-83.726087,42.303566],[-83.726119,42.303557],[-83.726131,42.303524],[-83.726102,42.303496],[-83.726052,42.303473],[-83.726001,42.303433],[-83.725974,42.303392],[-83.726055,42.303367],[-83.726085,42.303327],[-83.726138,42.303313],[-83.726196,42.303336],[-83.726228,42.303405],[-83.726271,42.303423],[-83.726324,42.303437],[-83.726354,42.303427],[-83.726371,42.30341],[-83.726364,42.303366],[-83.726351,42.303345],[-83.726355,42.303308],[-83.726394,42.30322],[-83.726426,42.303188],[-83.726476,42.303107],[-83.726472,42.303066],[-83.726456,42.303037],[-83.726409,42.30301],[-83.726363,42.302963],[-83.726362,42.302925],[-83.726393,42.302901],[-83.726438,42.302894],[-83.726525,42.302961],[-83.726568,42.302973],[-83.726642,42.302975],[-83.726681,42.302992],[-83.726687,42.303027],[-83.726666,42.303104],[-83.72668,42.303121],[-83.726705,42.303123],[-83.726751,42.303108],[-83.726799,42.303077],[-83.726856,42.303066],[-83.726934,42.303075],[-83.726959,42.303062],[-83.72695,42.303031],[-83.726878,42.302973],[-83.726843,42.30292],[-83.726841,42.3029],[-83.726874,42.302883],[-83.726983,42.302874],[-83.727015,42.302852],[-83.727018,42.302823],[-83.727,42.30279],[-83.726909,42.302743],[-83.726876,42.302678]]}},{"type":"Feature","properties":{"k":"water"},"geometry":{"type":"Polygon","coordinates":[[[-83.723856,42.30849],[-83.724076,42.308293],[-83.724102,42.308198],[-83.724127,42.308199],[-83.724142,42.307967],[-83.724104,42.307792],[-83.724074,42.307792],[-83.723996,42.307768],[-83.723888,42.307693],[-83.723706,42.307622],[-83.723403,42.307562],[-83.723406,42.307503],[-83.723435,42.307445],[-83.723491,42.307421],[-83.723639,42.307395],[-83.723663,42.30734],[-83.723639,42.307294],[-83.723564,42.307274],[-83.723465,42.307306],[-83.723371,42.307318],[-83.723298,42.307409],[-83.723283,42.307474],[-83.723336,42.307513],[-83.72336,42.307562],[-83.723325,42.307596],[-83.723298,42.307661],[-83.723298,42.30778],[-83.723333,42.307879],[-83.72333,42.307983],[-83.723114,42.308276],[-83.723116,42.308427],[-83.723178,42.308585],[-83.72332,42.308558],[-83.723545,42.308558],[-83.723641,42.308567],[-83.723719,42.308558],[-83.723804,42.308531],[-83.723856,42.30849]]]}},{"type":"Feature","properties":{"k":"water"},"geometry":{"type":"Polygon","coordinates":[[[-83.717326,42.305079],[-83.717381,42.30507],[-83.717432,42.305085],[-83.717449,42.305065],[-83.717547,42.305023],[-83.717581,42.304996],[-83.71762,42.304899],[-83.717562,42.3048],[-83.717468,42.304667],[-83.717454,42.304597],[-83.717395,42.304533],[-83.717331,42.304516],[-83.717183,42.304529],[-83.717073,42.30465],[-83.717089,42.305112],[-83.717138,42.305157],[-83.717176,42.305176],[-83.717271,42.305128],[-83.717326,42.305079]]]}},{"type":"Feature","properties":{"k":"clubhouse","name":"Leslie Park Golf Course Clubhouse"},"geometry":{"type":"Polygon","coordinates":[[[-83.724755,42.303155],[-83.724493,42.303059],[-83.724569,42.302945],[-83.724831,42.303041],[-83.724755,42.303155]]]}},{"type":"Feature","properties":{"k":"path"},"geometry":{"type":"LineString","coordinates":[[-83.723068,42.303669],[-83.723175,42.303624],[-83.723325,42.303537],[-83.723462,42.303422],[-83.723563,42.303367],[-83.723662,42.303319],[-83.72379,42.303289]]}},{"type":"Feature","properties":{"k":"path"},"geometry":{"type":"LineString","coordinates":[[-83.722268,42.304688],[-83.722363,42.304692],[-83.722411,42.304718],[-83.722433,42.304754],[-83.722439,42.304787]]}},{"type":"Feature","properties":{"k":"path"},"geometry":{"type":"LineString","coordinates":[[-83.724322,42.303073],[-83.724221,42.303033],[-83.724186,42.303081],[-83.724079,42.303049],[-83.72387,42.303008],[-83.723644,42.303027],[-83.723562,42.303063],[-83.723492,42.303117],[-83.723408,42.303239],[-83.723348,42.303351],[-83.723311,42.303394],[-83.723068,42.303669],[-83.722826,42.303866],[-83.722516,42.304254],[-83.722464,42.304368],[-83.722425,42.304491],[-83.722425,42.304586],[-83.72241,42.30462],[-83.722385,42.304645],[-83.722312,42.304684],[-83.722268,42.304688],[-83.722198,42.304678],[-83.722121,42.304656],[-83.722032,42.304611],[-83.72196,42.304595],[-83.721882,42.304561],[-83.721751,42.304531],[-83.721708,42.304543],[-83.721501,42.304775],[-83.721405,42.304835]]}},{"type":"Feature","properties":{"k":"path"},"geometry":{"type":"LineString","coordinates":[[-83.72229,42.307112],[-83.722311,42.307184],[-83.722277,42.307238],[-83.722201,42.307299],[-83.722139,42.307497],[-83.722147,42.307547],[-83.72221,42.307666],[-83.722197,42.307698],[-83.722163,42.307727],[-83.72211,42.307739],[-83.722046,42.307743],[-83.721969,42.307739],[-83.721741,42.307703],[-83.72159,42.307696],[-83.721429,42.307723],[-83.721362,42.307725],[-83.721316,42.307718],[-83.721252,42.307685],[-83.721231,42.307662],[-83.72122,42.307586],[-83.721275,42.307426],[-83.721272,42.307254],[-83.721353,42.307052],[-83.721402,42.306899],[-83.721507,42.306758],[-83.721549,42.3065],[-83.721612,42.306323],[-83.721647,42.306176],[-83.721798,42.306016],[-83.721877,42.305944],[-83.722001,42.305869],[-83.722072,42.305855],[-83.722131,42.305866],[-83.72217,42.305895],[-83.722198,42.30593],[-83.722271,42.305974],[-83.722295,42.305935],[-83.722314,42.30581],[-83.722292,42.305642],[-83.722183,42.305486],[-83.722166,42.305448],[-83.722162,42.305246]]}},{"type":"Feature","properties":{"k":"path"},"geometry":{"type":"LineString","coordinates":[[-83.727367,42.305424],[-83.727223,42.305515],[-83.727207,42.305557],[-83.727213,42.305615],[-83.727172,42.305671],[-83.727138,42.305697]]}},{"type":"Feature","properties":{"k":"path"},"geometry":{"type":"LineString","coordinates":[[-83.727138,42.305697],[-83.726906,42.30584]]}},{"type":"Feature","properties":{"k":"path"},"geometry":{"type":"LineString","coordinates":[[-83.725695,42.306819],[-83.725715,42.306838],[-83.725846,42.307066],[-83.725854,42.307136],[-83.725873,42.307175],[-83.725919,42.307211],[-83.725997,42.307253],[-83.726037,42.30729],[-83.726031,42.307364],[-83.726008,42.307424],[-83.725951,42.307526],[-83.725902,42.307592],[-83.725722,42.307753],[-83.725653,42.30783],[-83.725627,42.307873],[-83.725599,42.307969],[-83.725589,42.308059],[-83.725562,42.30817],[-83.725345,42.308275],[-83.725263,42.308323],[-83.725185,42.308418],[-83.724991,42.308515],[-83.724959,42.308551],[-83.724858,42.308601]]}},{"type":"Feature","properties":{"k":"path"},"geometry":{"type":"LineString","coordinates":[[-83.725737,42.306812],[-83.725854,42.306701],[-83.725923,42.306663],[-83.726047,42.306624],[-83.72608,42.306581],[-83.726113,42.30645],[-83.726086,42.306293],[-83.726094,42.306259],[-83.726119,42.306221]]}},{"type":"Feature","properties":{"k":"path"},"geometry":{"type":"LineString","coordinates":[[-83.725919,42.306772],[-83.726059,42.30687],[-83.726187,42.306984],[-83.726257,42.307069],[-83.726422,42.3072],[-83.726539,42.307308],[-83.726576,42.307372],[-83.726585,42.307489],[-83.726569,42.307543],[-83.726337,42.307753]]}},{"type":"Feature","properties":{"k":"path"},"geometry":{"type":"LineString","coordinates":[[-83.72362,42.308896],[-83.723647,42.309059],[-83.723672,42.309091],[-83.723747,42.309145],[-83.723792,42.309208],[-83.723805,42.309269],[-83.723783,42.309396]]}},{"type":"Feature","properties":{"k":"path"},"geometry":{"type":"LineString","coordinates":[[-83.724803,42.307455],[-83.724777,42.307353]]}},{"type":"Feature","properties":{"k":"path"},"geometry":{"type":"LineString","coordinates":[[-83.724902,42.307435],[-83.724849,42.307441],[-83.724803,42.307455],[-83.724733,42.307499],[-83.724602,42.307618],[-83.724584,42.307654],[-83.724574,42.307702],[-83.724595,42.307791],[-83.724627,42.307879],[-83.724698,42.30803],[-83.724682,42.308079],[-83.724654,42.308124],[-83.724374,42.308419],[-83.724275,42.308552],[-83.724138,42.308631],[-83.723993,42.308699],[-83.723718,42.308798],[-83.723636,42.308864],[-83.72362,42.308896]]}},{"type":"Feature","properties":{"k":"path"},"geometry":{"type":"LineString","coordinates":[[-83.726906,42.30584],[-83.726825,42.305921],[-83.726791,42.306019],[-83.726841,42.306142],[-83.726858,42.306211],[-83.726838,42.30627],[-83.726766,42.306393],[-83.726698,42.306474],[-83.726637,42.306603],[-83.726571,42.306699],[-83.726525,42.30671],[-83.726424,42.306692],[-83.726364,42.306666],[-83.726236,42.306673],[-83.726121,42.306719],[-83.726039,42.306742],[-83.725695,42.306819],[-83.725552,42.306873],[-83.725356,42.307007],[-83.725345,42.307032],[-83.725396,42.307118],[-83.725407,42.307173],[-83.72539,42.307213],[-83.72534,42.307262],[-83.725279,42.307367],[-83.725071,42.307421],[-83.724902,42.307435],[-83.724815,42.307386],[-83.724777,42.307353],[-83.724746,42.307285],[-83.72472,42.307266]]}},{"type":"Feature","properties":{"k":"path"},"geometry":{"type":"LineString","coordinates":[[-83.724629,42.307198],[-83.724524,42.30712],[-83.724334,42.307078],[-83.724218,42.307076],[-83.724013,42.307027]]}},{"type":"Feature","properties":{"k":"path"},"geometry":{"type":"LineString","coordinates":[[-83.72472,42.307266],[-83.724629,42.307198]]}},{"type":"Feature","properties":{"k":"path"},"geometry":{"type":"LineString","coordinates":[[-83.724598,42.306925],[-83.724524,42.30712]]}},{"type":"Feature","properties":{"k":"path"},"geometry":{"type":"LineString","coordinates":[[-83.72397,42.305954],[-83.723912,42.30601],[-83.723897,42.306054],[-83.723892,42.306471],[-83.723878,42.306587],[-83.723911,42.306641],[-83.724076,42.306767],[-83.724111,42.306806],[-83.724114,42.306851],[-83.724068,42.306957],[-83.724013,42.307027],[-83.723853,42.307167],[-83.723856,42.307214]]}},{"type":"Feature","properties":{"k":"path"},"geometry":{"type":"LineString","coordinates":[[-83.724843,42.305636],[-83.7246,42.305839],[-83.724339,42.305963],[-83.724188,42.306066],[-83.72401,42.306197],[-83.723896,42.30631]]}},{"type":"Feature","properties":{"k":"path"},"geometry":{"type":"LineString","coordinates":[[-83.726652,42.304386],[-83.726642,42.304417],[-83.726645,42.304452],[-83.726687,42.304571],[-83.726696,42.304652],[-83.726637,42.304758],[-83.726562,42.304932],[-83.72636,42.305496],[-83.726437,42.305475],[-83.726675,42.305368],[-83.726849,42.305244]]}},{"type":"Feature","properties":{"k":"path"},"geometry":{"type":"LineString","coordinates":[[-83.726766,42.30424],[-83.726652,42.304386]]}},{"type":"Feature","properties":{"k":"path"},"geometry":{"type":"LineString","coordinates":[[-83.7263,42.303277],[-83.726384,42.303295]]}},{"type":"Feature","properties":{"k":"path"},"geometry":{"type":"LineString","coordinates":[[-83.726384,42.303295],[-83.726458,42.303291],[-83.726613,42.303227],[-83.726648,42.30322],[-83.726724,42.303219],[-83.726806,42.303245],[-83.726824,42.303266],[-83.726821,42.303348],[-83.72679,42.303469],[-83.726796,42.303513],[-83.726774,42.303647],[-83.726735,42.303724],[-83.726722,42.303781],[-83.726729,42.303833],[-83.726761,42.303912],[-83.726775,42.30398],[-83.72679,42.304207],[-83.726766,42.30424]]}},{"type":"Feature","properties":{"k":"path"},"geometry":{"type":"LineString","coordinates":[[-83.726937,42.302689],[-83.726985,42.302682],[-83.727079,42.302647],[-83.727226,42.302553],[-83.727417,42.302409],[-83.727461,42.302385],[-83.727524,42.302359],[-83.727582,42.302362],[-83.727605,42.302372]]}},{"type":"Feature","properties":{"k":"path"},"geometry":{"type":"LineString","coordinates":[[-83.725769,42.303184],[-83.725745,42.30312],[-83.725744,42.303077]]}},{"type":"Feature","properties":{"k":"path"},"geometry":{"type":"LineString","coordinates":[[-83.725643,42.303181],[-83.725714,42.303177],[-83.725769,42.303184],[-83.725796,42.303205],[-83.725877,42.303238],[-83.725985,42.303249],[-83.726128,42.303247],[-83.7263,42.303277]]}},{"type":"Feature","properties":{"k":"path"},"geometry":{"type":"LineString","coordinates":[[-83.725765,42.30304],[-83.725824,42.302944],[-83.725906,42.302839],[-83.725941,42.302809],[-83.726186,42.302689],[-83.726319,42.302641],[-83.726424,42.30261],[-83.726457,42.302608],[-83.726488,42.302612],[-83.726692,42.302709],[-83.726772,42.302713],[-83.726854,42.302705]]}},{"type":"Feature","properties":{"k":"path"},"geometry":{"type":"LineString","coordinates":[[-83.725415,42.303465],[-83.725437,42.303498],[-83.725434,42.303556],[-83.72541,42.303588],[-83.725259,42.303674],[-83.725183,42.303759],[-83.72515,42.303813],[-83.725111,42.303856],[-83.725069,42.303938],[-83.725065,42.303997]]}},{"type":"Feature","properties":{"k":"path"},"geometry":{"type":"LineString","coordinates":[[-83.725359,42.303439],[-83.725454,42.303483],[-83.725542,42.303534],[-83.725636,42.303628],[-83.725692,42.303672],[-83.725858,42.303851],[-83.725868,42.303898],[-83.725863,42.303926],[-83.725796,42.304037],[-83.725677,42.304204],[-83.725524,42.304402],[-83.725358,42.304729],[-83.725206,42.304977],[-83.725055,42.305189],[-83.724934,42.305411],[-83.724841,42.305616],[-83.724864,42.305729]]}},{"type":"Feature","properties":{"k":"path"},"geometry":{"type":"LineString","coordinates":[[-83.724718,42.303359],[-83.724524,42.303203],[-83.724556,42.303157],[-83.724322,42.303073],[-83.724409,42.302947],[-83.724425,42.302905],[-83.724426,42.302824],[-83.724409,42.302774],[-83.72439,42.302662],[-83.724434,42.3026]]}},{"type":"Feature","properties":{"k":"path"},"geometry":{"type":"LineString","coordinates":[[-83.724862,42.303322],[-83.72487,42.303269],[-83.725104,42.302933]]}},{"type":"Feature","properties":{"k":"path"},"geometry":{"type":"LineString","coordinates":[[-83.724786,42.303335],[-83.724753,42.303252],[-83.724752,42.303193],[-83.724761,42.303168]]}},{"type":"Feature","properties":{"k":"path"},"geometry":{"type":"LineString","coordinates":[[-83.725359,42.303439],[-83.725208,42.303376],[-83.725079,42.303336],[-83.724989,42.303325],[-83.724862,42.303322],[-83.724786,42.303335],[-83.724718,42.303359],[-83.724478,42.303539],[-83.724393,42.303631],[-83.724308,42.30375],[-83.724149,42.303887],[-83.724079,42.304005],[-83.723928,42.304099],[-83.723898,42.304185],[-83.723893,42.30423],[-83.723846,42.304279]]}},{"type":"Feature","properties":{"k":"path"},"geometry":{"type":"LineString","coordinates":[[-83.721466,42.304019],[-83.721512,42.303999],[-83.721751,42.303986]]}},{"type":"Feature","properties":{"k":"path"},"geometry":{"type":"LineString","coordinates":[[-83.720921,42.304635],[-83.720996,42.304597],[-83.721123,42.304487],[-83.721273,42.304456],[-83.721343,42.304413],[-83.721438,42.304338],[-83.721688,42.30404],[-83.721751,42.303986],[-83.721843,42.303951],[-83.72201,42.303926],[-83.722118,42.303898],[-83.722173,42.303869],[-83.722208,42.303836],[-83.722282,42.303736],[-83.722327,42.303692],[-83.72237,42.303686],[-83.722432,42.303692],[-83.722488,42.303712],[-83.722679,42.303811],[-83.722826,42.303866]]}},{"type":"Feature","properties":{"k":"path"},"geometry":{"type":"LineString","coordinates":[[-83.718101,42.305111],[-83.718132,42.305069],[-83.718136,42.305033],[-83.71811,42.30491],[-83.718121,42.304819],[-83.718129,42.304798],[-83.718207,42.304722],[-83.718249,42.304657],[-83.718229,42.304546],[-83.718187,42.30449],[-83.718032,42.304439],[-83.717916,42.304386],[-83.717785,42.30428],[-83.717727,42.304243],[-83.717624,42.304194],[-83.71758,42.304153],[-83.717577,42.30413],[-83.717587,42.304086],[-83.717609,42.30406],[-83.717663,42.304027],[-83.717749,42.304013],[-83.717878,42.304013],[-83.718052,42.304039],[-83.718128,42.304062],[-83.718199,42.304127],[-83.718242,42.304203],[-83.718283,42.304243],[-83.718325,42.304268],[-83.718378,42.304286],[-83.718445,42.304298],[-83.718553,42.304283],[-83.71865,42.304281],[-83.718725,42.304293],[-83.718883,42.304295],[-83.719072,42.304355],[-83.719105,42.304358],[-83.719202,42.304337]]}},{"type":"Feature","properties":{"k":"path"},"geometry":{"type":"LineString","coordinates":[[-83.718418,42.306163],[-83.718304,42.305942],[-83.718289,42.305855],[-83.718373,42.305594],[-83.71844,42.305497],[-83.718628,42.305311],[-83.718654,42.305282],[-83.718662,42.305256],[-83.718664,42.305223],[-83.71865,42.305187],[-83.718567,42.305076],[-83.718549,42.304999],[-83.718599,42.304707],[-83.718636,42.30466],[-83.718676,42.304644],[-83.718863,42.30466],[-83.719024,42.304657],[-83.719087,42.304664],[-83.719142,42.304688],[-83.719172,42.304712],[-83.71923,42.304891],[-83.719308,42.305018],[-83.719313,42.305054],[-83.719299,42.305093]]}},{"type":"Feature","properties":{"k":"path"},"geometry":{"type":"LineString","coordinates":[[-83.71803,42.308036],[-83.717952,42.30819],[-83.717832,42.308343],[-83.71781,42.308472],[-83.717673,42.308672],[-83.717636,42.308714],[-83.717608,42.308732],[-83.717537,42.308741],[-83.717483,42.308722],[-83.71747,42.308696],[-83.717501,42.308554],[-83.7175,42.308501],[-83.717486,42.308462],[-83.717289,42.308365],[-83.717251,42.308331],[-83.717163,42.308223],[-83.717133,42.308129],[-83.71716,42.307992],[-83.717262,42.307809],[-83.71729,42.30772],[-83.717291,42.307687],[-83.717264,42.307621],[-83.717237,42.307595],[-83.717134,42.307551],[-83.717105,42.307528],[-83.717089,42.307489],[-83.717089,42.307411],[-83.717103,42.307342],[-83.717114,42.307184],[-83.717189,42.30703],[-83.717191,42.306991],[-83.717167,42.306818],[-83.717146,42.306448],[-83.717141,42.306412],[-83.717105,42.306331]]}},{"type":"Feature","properties":{"k":"path"},"geometry":{"type":"LineString","coordinates":[[-83.719806,42.307476],[-83.719788,42.307518],[-83.719755,42.307559],[-83.719656,42.307643],[-83.719584,42.307727],[-83.719566,42.307774],[-83.719571,42.307837],[-83.719645,42.307963],[-83.719655,42.308004],[-83.719611,42.308098],[-83.719627,42.308222],[-83.719612,42.308252],[-83.719578,42.308287],[-83.719475,42.308315],[-83.719412,42.308306],[-83.719357,42.308287],[-83.719311,42.308259],[-83.719266,42.30822],[-83.719164,42.308097],[-83.719105,42.308051],[-83.71909,42.308014],[-83.719087,42.307967],[-83.719137,42.307733],[-83.719145,42.307562],[-83.71913,42.307513],[-83.719062,42.30739],[-83.719022,42.307289],[-83.718937,42.307141],[-83.718925,42.307094],[-83.718947,42.306978]]}},{"type":"Feature","properties":{"k":"path"},"geometry":{"type":"LineString","coordinates":[[-83.724633,42.31186],[-83.724689,42.311759],[-83.724789,42.311691],[-83.724932,42.31147],[-83.72494,42.311436],[-83.724859,42.311271],[-83.724843,42.311216],[-83.724843,42.311172],[-83.724897,42.311097],[-83.725103,42.31092],[-83.725133,42.310883],[-83.72513,42.310847],[-83.725109,42.310803],[-83.725023,42.31071],[-83.724991,42.310637],[-83.724996,42.310573],[-83.725028,42.310452],[-83.724972,42.310345]]}},{"type":"Feature","properties":{"k":"path"},"geometry":{"type":"LineString","coordinates":[[-83.722413,42.312674],[-83.72246,42.312599],[-83.722503,42.31257],[-83.722517,42.312537],[-83.722544,42.312509],[-83.722792,42.312363],[-83.722854,42.312315],[-83.722897,42.312253],[-83.722946,42.312203],[-83.723104,42.312112],[-83.723232,42.31201],[-83.723304,42.31194]]}},{"type":"Feature","properties":{"k":"path"},"geometry":{"type":"LineString","coordinates":[[-83.722979,42.312549],[-83.722915,42.31258],[-83.722861,42.312596],[-83.722808,42.312599],[-83.72268,42.312595],[-83.722503,42.31257]]}},{"type":"Feature","properties":{"k":"fairway"},"geometry":{"type":"Polygon","coordinates":[[[-83.723764,42.303489],[-83.723757,42.303534],[-83.723742,42.303563],[-83.723705,42.303591],[-83.723661,42.303606],[-83.723563,42.303612],[-83.723505,42.303634],[-83.723463,42.303661],[-83.723081,42.304046],[-83.722892,42.304265],[-83.722605,42.304701],[-83.722454,42.304993],[-83.722479,42.30508],[-83.722503,42.305113],[-83.72254,42.30514],[-83.722592,42.305155],[-83.722644,42.305157],[-83.722743,42.30513],[-83.722795,42.305105],[-83.722868,42.305032],[-83.723184,42.30454],[-83.723191,42.304493],[-83.723174,42.304446],[-83.723152,42.304403],[-83.723106,42.304356],[-83.723106,42.304316],[-83.723123,42.304264],[-83.72318,42.304199],[-83.723292,42.304106],[-83.723366,42.304065],[-83.723568,42.304041],[-83.723629,42.304009],[-83.72367,42.303961],[-83.72378,42.303805],[-83.723807,42.303751],[-83.723809,42.303679],[-83.723793,42.303643],[-83.723795,42.303609],[-83.723803,42.30358],[-83.723829,42.303557],[-83.723859,42.303545],[-83.723822,42.303544],[-83.723795,42.303534],[-83.723764,42.303489]]]}},{"type":"Feature","properties":{"k":"green"},"geometry":{"type":"Polygon","coordinates":[[[-83.723795,42.303534],[-83.723822,42.303544],[-83.723859,42.303545],[-83.723945,42.303529],[-83.723986,42.30351],[-83.724028,42.303485],[-83.72405,42.303457],[-83.724062,42.303409],[-83.724054,42.30339],[-83.72403,42.303374],[-83.723972,42.303354],[-83.723879,42.303364],[-83.723844,42.303377],[-83.723815,42.303394],[-83.723768,42.30344],[-83.723764,42.303489],[-83.723795,42.303534]]]}},{"type":"Feature","properties":{"k":"bunker"},"geometry":{"type":"Polygon","coordinates":[[[-83.722623,42.307466],[-83.722618,42.307492],[-83.722602,42.307499],[-83.722562,42.307502],[-83.722553,42.307493],[-83.72252,42.307418],[-83.722523,42.307392],[-83.722534,42.307382],[-83.722555,42.307379],[-83.722587,42.307393],[-83.722595,42.307404],[-83.722589,42.307443],[-83.722623,42.307466]]]}},{"type":"Feature","properties":{"k":"bunker"},"geometry":{"type":"Polygon","coordinates":[[[-83.72255,42.306802],[-83.722523,42.306757],[-83.722477,42.306736],[-83.722441,42.306738],[-83.722432,42.306768],[-83.722449,42.306788],[-83.722451,42.306812],[-83.722495,42.306857],[-83.722514,42.306861],[-83.722544,42.30685],[-83.722556,42.306813],[-83.72255,42.306802]]]}},{"type":"Feature","properties":{"k":"rough"},"geometry":{"type":"Polygon","coordinates":[[[-83.722235,42.305892],[-83.722129,42.305838],[-83.722038,42.305828],[-83.721943,42.305863],[-83.721859,42.305922],[-83.721712,42.306043],[-83.721666,42.306],[-83.721584,42.305981],[-83.721475,42.305986],[-83.721513,42.305782],[-83.72167,42.305545],[-83.721903,42.305107],[-83.722017,42.304912],[-83.72211,42.304764],[-83.722159,42.30472],[-83.722243,42.304766],[-83.722198,42.304865],[-83.722134,42.304972],[-83.72212,42.3051],[-83.722136,42.30523],[-83.722117,42.305375],[-83.722121,42.305459],[-83.722162,42.305529],[-83.722234,42.305612],[-83.722267,42.305734],[-83.722277,42.305819],[-83.722235,42.305892]]]}},{"type":"Feature","properties":{"k":"fairway"},"geometry":{"type":"Polygon","coordinates":[[[-83.725486,42.304939],[-83.725433,42.304945],[-83.725397,42.304967],[-83.725376,42.304999],[-83.72533,42.305029],[-83.725255,42.305113],[-83.725174,42.305309],[-83.725122,42.305475],[-83.725024,42.305704],[-83.724982,42.305831],[-83.724632,42.306623],[-83.724628,42.306703],[-83.724644,42.306736],[-83.724674,42.306759],[-83.724723,42.306776],[-83.724806,42.306773],[-83.724851,42.306752],[-83.724947,42.306672],[-83.72499,42.306599],[-83.72509,42.306377],[-83.725582,42.305053],[-83.725587,42.305007],[-83.725576,42.30498],[-83.72553,42.304948],[-83.725486,42.304939]]]}},{"type":"Feature","properties":{"k":"path"},"geometry":{"type":"LineString","coordinates":[[-83.725552,42.305133],[-83.725823,42.305195]]}},{"type":"Feature","properties":{"k":"path"},"geometry":{"type":"LineString","coordinates":[[-83.72509,42.306377],[-83.725404,42.306458]]}},{"type":"Feature","properties":{"k":"tee"},"geometry":{"type":"Polygon","coordinates":[[[-83.727116,42.305438],[-83.727118,42.305417],[-83.727091,42.305406],[-83.727065,42.305419],[-83.727052,42.305438],[-83.727054,42.305468],[-83.727071,42.305478],[-83.727102,42.305473],[-83.727116,42.305438]]]}},{"type":"Feature","properties":{"k":"path"},"geometry":{"type":"LineString","coordinates":[[-83.727739,42.303134],[-83.727683,42.303185],[-83.727614,42.303218],[-83.727243,42.303339],[-83.727182,42.303377],[-83.727225,42.303475],[-83.727256,42.303594],[-83.727259,42.304012],[-83.727347,42.304195],[-83.7273,42.304256]]}},{"type":"Feature","properties":{"k":"path"},"geometry":{"type":"LineString","coordinates":[[-83.727062,42.305248],[-83.726849,42.305244]]}},{"type":"Feature","properties":{"k":"path"},"geometry":{"type":"LineString","coordinates":[[-83.724328,42.307738],[-83.724244,42.307668]]}},{"type":"Feature","properties":{"k":"path"},"geometry":{"type":"LineString","coordinates":[[-83.727605,42.302372],[-83.727741,42.302464],[-83.727756,42.302566],[-83.727799,42.302738],[-83.727821,42.302909],[-83.727799,42.303075],[-83.727739,42.303134]]}},{"type":"Feature","properties":{"k":"green"},"geometry":{"type":"Polygon","coordinates":[[[-83.725517,42.303767],[-83.72553,42.303815],[-83.725514,42.303877],[-83.725475,42.303939],[-83.725452,42.303955],[-83.725377,42.30397],[-83.725321,42.303948],[-83.7253,42.303928],[-83.725271,42.303867],[-83.725258,42.303796],[-83.72526,42.303769],[-83.725278,42.303752],[-83.725365,42.303716],[-83.725426,42.303714],[-83.725468,42.303724],[-83.725517,42.303767]]]}},{"type":"Feature","properties":{"k":"green"},"geometry":{"type":"Polygon","coordinates":[[[-83.72591,42.303538],[-83.725895,42.303505],[-83.725871,42.303477],[-83.725812,42.303455],[-83.725767,42.303456],[-83.725742,42.303467],[-83.725716,42.303485],[-83.725685,42.303538],[-83.725691,42.303606],[-83.725706,42.303637],[-83.725789,42.303723],[-83.725811,42.303739],[-83.725847,42.303748],[-83.725895,42.303741],[-83.725925,42.303714],[-83.725941,42.303684],[-83.72591,42.303538]]]}},{"type":"Feature","properties":{"k":"water"},"geometry":{"type":"Polygon","coordinates":[[[-83.726842,42.302636],[-83.726898,42.302747],[-83.72699,42.302797],[-83.727006,42.302819],[-83.727006,42.302841],[-83.726994,42.302859],[-83.726966,42.302871],[-83.726873,42.302869],[-83.726849,42.302877],[-83.726824,42.302898],[-83.726818,42.302922],[-83.726858,42.302969],[-83.726918,42.303026],[-83.726946,42.303038],[-83.726949,42.303054],[-83.72693,42.303068],[-83.726838,42.303057],[-83.726805,42.303061],[-83.726739,42.303102],[-83.726687,42.303114],[-83.726677,42.3031],[-83.72668,42.303076],[-83.726704,42.303029],[-83.726689,42.302985],[-83.726663,42.302968],[-83.726617,42.30296],[-83.726578,42.302964],[-83.726505,42.302931],[-83.726452,42.302891],[-83.726405,42.302891],[-83.726377,42.302902],[-83.726355,42.302925],[-83.726353,42.302963],[-83.726392,42.303015],[-83.726429,42.303045],[-83.726456,42.303096],[-83.726442,42.303126],[-83.726372,42.3032],[-83.726364,42.303239],[-83.726369,42.303257],[-83.726339,42.303328],[-83.726362,42.30341],[-83.72635,42.303421],[-83.726325,42.303429],[-83.726251,42.303409],[-83.726231,42.303395],[-83.726198,42.303327],[-83.726127,42.303307],[-83.726083,42.303322],[-83.726049,42.303363],[-83.725982,42.303376],[-83.725961,42.303358],[-83.725816,42.303339],[-83.725777,42.303341],[-83.725668,42.303392],[-83.725585,42.303406],[-83.725565,42.303428],[-83.725583,42.303443],[-83.725613,42.30344],[-83.725726,42.30338],[-83.725808,42.303356],[-83.725858,42.303359],[-83.725949,42.303393],[-83.726025,42.303468],[-83.726121,42.303528],[-83.726111,42.30355],[-83.726087,42.303558],[-83.726011,42.303534],[-83.725983,42.303572],[-83.725976,42.303604],[-83.726024,42.303663],[-83.726052,42.303678],[-83.726087,42.303678],[-83.726159,42.303627],[-83.726194,42.303643],[-83.726239,42.303702],[-83.726293,42.303735],[-83.726322,42.303737],[-83.726369,42.303723],[-83.726402,42.303735],[-83.726404,42.303773],[-83.726339,42.303818],[-83.726302,42.30386],[-83.726316,42.303901],[-83.726369,42.30391],[-83.726402,42.30393],[-83.726403,42.303961],[-83.726236,42.304116],[-83.726147,42.304175],[-83.72608,42.304208],[-83.72607,42.304223],[-83.726093,42.304305],[-83.72608,42.30433],[-83.726065,42.30434],[-83.726058,42.304385],[-83.726073,42.304414],[-83.726112,42.304432],[-83.726121,42.304446],[-83.726103,42.304466],[-83.726009,42.304481],[-83.725957,42.304518],[-83.725947,42.304549],[-83.725948,42.304611],[-83.725966,42.304652],[-83.725987,42.304664],[-83.726035,42.304658],[-83.726067,42.304664],[-83.726067,42.304699],[-83.726009,42.304743],[-83.725968,42.30476],[-83.725889,42.30482],[-83.725853,42.304839],[-83.725845,42.304855],[-83.72586,42.304887],[-83.725823,42.304947],[-83.725818,42.304986],[-83.725857,42.305043],[-83.725869,42.30509],[-83.725857,42.305102],[-83.725764,42.305135],[-83.725726,42.305206],[-83.725682,42.305232],[-83.725662,42.305257],[-83.725776,42.305281],[-83.72583,42.30531],[-83.725835,42.305363],[-83.725808,42.305422],[-83.725806,42.305449],[-83.725852,42.305487],[-83.72586,42.305518],[-83.725853,42.30554],[-83.725835,42.305555],[-83.725799,42.305571],[-83.725769,42.305565],[-83.725707,42.305601],[-83.725699,42.305616],[-83.725698,42.305636],[-83.725724,42.305655],[-83.725752,42.305699],[-83.725717,42.30572],[-83.725689,42.305777],[-83.725697,42.305803],[-83.72575,42.305836],[-83.725759,42.305855],[-83.725725,42.305894],[-83.725641,42.305925],[-83.725622,42.305957],[-83.72564,42.306073],[-83.725609,42.306091],[-83.725546,42.306094],[-83.725427,42.306119],[-83.725332,42.306213],[-83.725274,42.306323],[-83.725213,42.306384],[-83.725189,42.306424],[-83.72521,42.30645],[-83.725212,42.306475],[-83.725195,42.306499],[-83.725132,42.306534],[-83.725112,42.306557],[-83.725077,42.306622],[-83.725073,42.306671],[-83.725032,42.306704],[-83.724903,42.306876],[-83.724889,42.306918],[-83.72491,42.306984],[-83.724898,42.307054],[-83.724815,42.307135],[-83.724784,42.307136],[-83.724792,42.307094],[-83.724742,42.307066],[-83.724697,42.307072],[-83.724647,42.307104],[-83.724641,42.307136],[-83.724648,42.307157],[-83.724675,42.307178],[-83.724682,42.307198],[-83.724554,42.307432],[-83.724527,42.307468],[-83.724446,42.307519],[-83.724384,42.307581],[-83.724334,42.307653],[-83.724278,42.307706],[-83.724108,42.307814],[-83.724115,42.307851],[-83.724258,42.307755],[-83.72435,42.307681],[-83.724471,42.307559],[-83.724494,42.307522],[-83.724575,42.307452],[-83.72472,42.307195],[-83.724785,42.307148],[-83.724822,42.307145],[-83.724924,42.307054],[-83.724932,42.306994],[-83.724914,42.306908],[-83.725056,42.306728],[-83.725109,42.306679],[-83.725117,42.306603],[-83.72516,42.306545],[-83.725223,42.306515],[-83.725269,42.306462],[-83.725226,42.306421],[-83.725234,42.306384],[-83.725308,42.306326],[-83.725337,42.306291],[-83.725345,42.306231],[-83.725361,42.306205],[-83.725447,42.306131],[-83.725533,42.306108],[-83.725645,42.306104],[-83.72566,42.306079],[-83.725646,42.305975],[-83.725651,42.305955],[-83.725671,42.305928],[-83.725698,42.305918],[-83.725737,42.305916],[-83.725782,42.305889],[-83.725794,42.30587],[-83.725791,42.30584],[-83.725739,42.305804],[-83.725718,42.30577],[-83.725729,42.305746],[-83.72575,42.305728],[-83.725788,42.305718],[-83.725792,42.305697],[-83.725719,42.30563],[-83.725752,42.305592],[-83.725847,42.305569],[-83.725889,42.305534],[-83.72588,42.305484],[-83.725838,42.305426],[-83.725843,42.305405],[-83.725861,42.305395],[-83.725874,42.305322],[-83.725849,42.305291],[-83.725792,42.305267],[-83.725698,42.305257],[-83.725694,42.305249],[-83.725739,42.305219],[-83.725802,42.305133],[-83.725866,42.305122],[-83.725901,42.305104],[-83.725902,42.305083],[-83.725847,42.304987],[-83.725845,42.304966],[-83.725887,42.304882],[-83.725873,42.304856],[-83.725881,42.304839],[-83.725926,42.304827],[-83.72597,42.304785],[-83.726043,42.304747],[-83.726094,42.304706],[-83.726089,42.304657],[-83.726062,42.304643],[-83.726028,42.304645],[-83.725988,42.304634],[-83.725969,42.304562],[-83.725993,42.30452],[-83.72603,42.304491],[-83.726089,42.304492],[-83.726126,42.304479],[-83.72614,42.304464],[-83.726141,42.304425],[-83.726126,42.304407],[-83.726095,42.304407],[-83.726078,42.304375],[-83.726113,42.304301],[-83.726096,42.304233],[-83.72611,42.304215],[-83.726175,42.304183],[-83.726264,42.304117],[-83.726407,42.303994],[-83.726425,42.303962],[-83.726425,42.303924],[-83.726415,42.303905],[-83.726338,42.303872],[-83.726336,42.30386],[-83.726358,42.303829],[-83.726392,42.303813],[-83.726424,42.303785],[-83.726438,42.303748],[-83.726426,42.303732],[-83.726373,42.303706],[-83.726295,42.303712],[-83.726214,42.303623],[-83.726195,42.303613],[-83.726147,42.303613],[-83.726088,42.303662],[-83.726062,42.303663],[-83.726041,42.303656],[-83.725987,42.303597],[-83.726,42.303568],[-83.726018,42.303546],[-83.726077,42.303572],[-83.726119,42.303562],[-83.726136,42.303534],[-83.726132,42.303514],[-83.726025,42.303443],[-83.725987,42.303395],[-83.726057,42.303369],[-83.726087,42.303333],[-83.726133,42.30332],[-83.726185,42.303341],[-83.726207,42.303388],[-83.726245,42.303427],[-83.726324,42.303446],[-83.726369,42.303426],[-83.726382,42.30341],[-83.726358,42.303322],[-83.726404,42.303239],[-83.726444,42.303226],[-83.726496,42.303086],[-83.726461,42.303029],[-83.726376,42.30296],[-83.726377,42.302931],[-83.726407,42.302907],[-83.726433,42.302906],[-83.72646,42.30292],[-83.72652,42.302977],[-83.726544,42.302988],[-83.726618,42.302983],[-83.726665,42.303001],[-83.726671,42.303028],[-83.726657,42.303113],[-83.726675,42.303132],[-83.726734,42.303126],[-83.726818,42.303079],[-83.72693,42.303086],[-83.726964,42.303074],[-83.726975,42.303059],[-83.726971,42.303044],[-83.726889,42.302974],[-83.726856,42.302922],[-83.726856,42.302907],[-83.726892,42.302894],[-83.726995,42.30288],[-83.727031,42.302841],[-83.727027,42.30281],[-83.727019,42.302789],[-83.726919,42.302742],[-83.726905,42.302712],[-83.72691,42.302668],[-83.726862,42.302609],[-83.726834,42.302622],[-83.726842,42.302636]]]}},{"type":"Feature","properties":{"k":"tee"},"geometry":{"type":"Polygon","coordinates":[[[-83.724862,42.303515],[-83.724851,42.30354],[-83.724744,42.303672],[-83.724682,42.303727],[-83.724575,42.303731],[-83.724495,42.303742],[-83.724469,42.303741],[-83.724443,42.303723],[-83.724437,42.303693],[-83.724496,42.303643],[-83.724556,42.303562],[-83.724584,42.303537],[-83.724654,42.303517],[-83.724772,42.303452],[-83.724788,42.303449],[-83.724826,42.303456],[-83.724847,42.303472],[-83.724862,42.303515]]]}},{"type":"Feature","properties":{"k":"tee"},"geometry":{"type":"Polygon","coordinates":[[[-83.724318,42.303889],[-83.724329,42.303919],[-83.724325,42.303935],[-83.724302,42.303956],[-83.724271,42.303962],[-83.724235,42.303951],[-83.724225,42.303926],[-83.724235,42.303902],[-83.724268,42.303885],[-83.724318,42.303889]]]}},{"type":"Feature","properties":{"k":"tee"},"geometry":{"type":"Polygon","coordinates":[[[-83.724072,42.304121],[-83.724086,42.304149],[-83.724061,42.304187],[-83.72404,42.304194],[-83.724001,42.30419],[-83.72398,42.304167],[-83.723995,42.304133],[-83.724036,42.304115],[-83.724072,42.304121]]]}},{"type":"Feature","properties":{"k":"bunker"},"geometry":{"type":"Polygon","coordinates":[[[-83.723692,42.305203],[-83.723713,42.305234],[-83.723709,42.305254],[-83.723704,42.30527],[-83.723671,42.305301],[-83.723695,42.305323],[-83.723695,42.305365],[-83.723678,42.305387],[-83.723648,42.305399],[-83.723631,42.305417],[-83.723617,42.305424],[-83.723589,42.305424],[-83.723541,42.305396],[-83.723521,42.305366],[-83.723528,42.305279],[-83.723583,42.305242],[-83.723611,42.305183],[-83.723649,42.305179],[-83.723684,42.305191],[-83.723692,42.305203]]]}},{"type":"Feature","properties":{"k":"fairway"},"geometry":{"type":"Polygon","coordinates":[[[-83.722354,42.30748],[-83.722371,42.307391],[-83.722334,42.307198],[-83.722344,42.307102],[-83.722403,42.307017],[-83.722527,42.306925],[-83.722593,42.306856],[-83.722603,42.306794],[-83.722564,42.306678],[-83.722569,42.306607],[-83.722611,42.30653],[-83.722811,42.306235],[-83.723096,42.305759],[-83.723111,42.305683],[-83.723098,42.305613],[-83.723106,42.305545],[-83.723123,42.30552],[-83.723224,42.305435],[-83.723241,42.305399],[-83.723251,42.305329],[-83.723229,42.30524],[-83.723234,42.305218],[-83.723327,42.305089],[-83.723686,42.304525],[-83.723723,42.304489],[-83.723779,42.304472],[-83.723845,42.304478],[-83.723941,42.304516],[-83.723987,42.304552],[-83.723995,42.304606],[-83.723963,42.304733],[-83.723743,42.305053],[-83.723645,42.305142],[-83.723491,42.305237],[-83.723474,42.305266],[-83.723378,42.305576],[-83.723222,42.306002],[-83.72317,42.306106],[-83.723016,42.306315],[-83.722892,42.306541],[-83.722786,42.306894],[-83.722791,42.307037],[-83.722784,42.307113],[-83.722738,42.30718],[-83.722625,42.307281],[-83.722486,42.30735],[-83.722452,42.307396],[-83.722483,42.307456],[-83.72249,42.307493],[-83.722463,42.307465],[-83.722414,42.307448],[-83.722368,42.307458],[-83.722354,42.30748]]]}},{"type":"Feature","properties":{"k":"green"},"geometry":{"type":"Polygon","coordinates":[[[-83.722519,42.307523],[-83.722567,42.307572],[-83.722577,42.307621],[-83.72257,42.307646],[-83.722554,42.307658],[-83.72252,42.307669],[-83.722488,42.307668],[-83.722442,42.307648],[-83.722368,42.307587],[-83.72235,42.307547],[-83.722354,42.30748],[-83.722368,42.307458],[-83.722384,42.30745],[-83.722441,42.307453],[-83.722475,42.307475],[-83.722519,42.307523]]]}},{"type":"Feature","properties":{"k":"tee"},"geometry":{"type":"Polygon","coordinates":[[[-83.721392,42.307532],[-83.721367,42.307531],[-83.72134,42.307539],[-83.721328,42.307553],[-83.721315,42.307625],[-83.721331,42.307664],[-83.721362,42.307682],[-83.721384,42.307686],[-83.721426,42.307655],[-83.721447,42.307593],[-83.721438,42.307557],[-83.721392,42.307532]]]}},{"type":"Feature","properties":{"k":"tee"},"geometry":{"type":"Polygon","coordinates":[[[-83.721549,42.307371],[-83.721579,42.307465],[-83.721581,42.307494],[-83.721567,42.307512],[-83.721536,42.307521],[-83.721501,42.307518],[-83.721437,42.307487],[-83.721394,42.307476],[-83.721379,42.307463],[-83.721365,42.307446],[-83.721367,42.307345],[-83.721345,42.307241],[-83.721357,42.307206],[-83.721377,42.30719],[-83.721425,42.307174],[-83.721478,42.307174],[-83.72151,42.307179],[-83.721546,42.3072],[-83.721537,42.307325],[-83.721549,42.307371]]]}},{"type":"Feature","properties":{"k":"tee"},"geometry":{"type":"Polygon","coordinates":[[[-83.72153,42.306899],[-83.721548,42.306908],[-83.721556,42.306928],[-83.721547,42.306959],[-83.721525,42.306981],[-83.721507,42.306987],[-83.721465,42.306982],[-83.721454,42.306956],[-83.721463,42.306926],[-83.721488,42.306905],[-83.72153,42.306899]]]}},{"type":"Feature","properties":{"k":"fairway"},"geometry":{"type":"Polygon","coordinates":[[[-83.722004,42.306279],[-83.721906,42.306283],[-83.721837,42.30624],[-83.721818,42.306205],[-83.721816,42.306243],[-83.721798,42.306277],[-83.721727,42.306346],[-83.721699,42.306392],[-83.721701,42.306414],[-83.721731,42.30646],[-83.721794,42.306507],[-83.721857,42.306517],[-83.72188,42.306509],[-83.721919,42.306478],[-83.721925,42.306451],[-83.721869,42.306381],[-83.721868,42.306366],[-83.721904,42.306315],[-83.722004,42.306279]]]}},{"type":"Feature","properties":{"k":"bunker"},"geometry":{"type":"Polygon","coordinates":[[[-83.722077,42.306312],[-83.722035,42.306343],[-83.722011,42.30634],[-83.721983,42.306326],[-83.721937,42.306334],[-83.721914,42.306354],[-83.721906,42.306373],[-83.721924,42.306391],[-83.721989,42.306393],[-83.722031,42.306419],[-83.722057,42.306422],[-83.722101,42.306392],[-83.722145,42.306377],[-83.722175,42.306337],[-83.72217,42.306318],[-83.722148,42.306308],[-83.722093,42.306305],[-83.722077,42.306312]]]}},{"type":"Feature","properties":{"k":"green"},"geometry":{"type":"Polygon","coordinates":[[[-83.72206,42.306067],[-83.722101,42.306093],[-83.722118,42.30613],[-83.722119,42.306163],[-83.722099,42.306199],[-83.722053,42.30625],[-83.722004,42.306279],[-83.721906,42.306283],[-83.721837,42.30624],[-83.721818,42.306205],[-83.721803,42.306157],[-83.721822,42.306109],[-83.721858,42.306077],[-83.721903,42.306058],[-83.721973,42.306052],[-83.72206,42.306067]]]}},{"type":"Feature","properties":{"k":"tee"},"geometry":{"type":"Polygon","coordinates":[[[-83.722478,42.30608],[-83.722489,42.30608],[-83.722513,42.306098],[-83.722517,42.306129],[-83.722507,42.306149],[-83.722454,42.306158],[-83.722427,42.306145],[-83.722416,42.306113],[-83.722436,42.306084],[-83.722478,42.30608]]]}},{"type":"Feature","properties":{"k":"tee"},"geometry":{"type":"Polygon","coordinates":[[[-83.722506,42.305848],[-83.72255,42.305864],[-83.722563,42.305881],[-83.722527,42.306012],[-83.722497,42.306036],[-83.722449,42.306037],[-83.722409,42.30603],[-83.72237,42.306014],[-83.72235,42.305988],[-83.722347,42.305945],[-83.722359,42.305897],[-83.722379,42.305873],[-83.722415,42.305852],[-83.722459,42.305845],[-83.722506,42.305848]]]}},{"type":"Feature","properties":{"k":"tee"},"geometry":{"type":"Polygon","coordinates":[[[-83.722491,42.30573],[-83.722445,42.305739],[-83.722432,42.30575],[-83.722423,42.30578],[-83.722437,42.305796],[-83.722578,42.30583],[-83.72261,42.305822],[-83.72263,42.305802],[-83.722623,42.305759],[-83.722566,42.305736],[-83.722491,42.30573]]]}},{"type":"Feature","properties":{"k":"tee"},"geometry":{"type":"Polygon","coordinates":[[[-83.72225,42.305379],[-83.722211,42.305391],[-83.722196,42.305413],[-83.722206,42.30544],[-83.722221,42.305447],[-83.722264,42.305442],[-83.722276,42.305427],[-83.722282,42.305409],[-83.722276,42.30539],[-83.72225,42.305379]]]}},{"type":"Feature","properties":{"k":"bunker"},"geometry":{"type":"Polygon","coordinates":[[[-83.72353,42.304217],[-83.72356,42.304222],[-83.723575,42.304241],[-83.723568,42.304257],[-83.72354,42.304276],[-83.72353,42.304312],[-83.723513,42.304322],[-83.723489,42.304315],[-83.723474,42.304296],[-83.72348,42.304222],[-83.723502,42.304209],[-83.72353,42.304217]]]}},{"type":"Feature","properties":{"k":"bunker"},"geometry":{"type":"Polygon","coordinates":[[[-83.723392,42.304148],[-83.723412,42.304177],[-83.723438,42.304196],[-83.723443,42.304218],[-83.723416,42.304238],[-83.723369,42.304243],[-83.723356,42.304255],[-83.723366,42.304263],[-83.723419,42.304268],[-83.723429,42.304287],[-83.723423,42.304303],[-83.723344,42.304325],[-83.723301,42.304312],[-83.723246,42.30435],[-83.723215,42.304362],[-83.72315,42.304336],[-83.723147,42.304307],[-83.723185,42.304278],[-83.72321,42.304243],[-83.723237,42.304225],[-83.723274,42.304214],[-83.723293,42.304183],[-83.723332,42.304171],[-83.723347,42.304155],[-83.723382,42.304145],[-83.723392,42.304148]]]}},{"type":"Feature","properties":{"k":"bunker"},"geometry":{"type":"Polygon","coordinates":[[[-83.724032,42.303537],[-83.724068,42.303532],[-83.724084,42.303537],[-83.724103,42.303565],[-83.72409,42.303587],[-83.724046,42.303601],[-83.724009,42.303623],[-83.723953,42.303624],[-83.723886,42.303655],[-83.723849,42.303654],[-83.723836,42.303644],[-83.723822,42.30361],[-83.723824,42.303599],[-83.723841,42.303587],[-83.723965,42.303572],[-83.724032,42.303537]]]}},{"type":"Feature","properties":{"k":"bunker"},"geometry":{"type":"Polygon","coordinates":[[[-83.72371,42.30353],[-83.723693,42.303554],[-83.723646,42.303567],[-83.723608,42.303562],[-83.723594,42.303529],[-83.723603,42.303519],[-83.723673,42.303494],[-83.7237,42.303501],[-83.72371,42.30353]]]}},{"type":"Feature","properties":{"k":"green"},"geometry":{"type":"Polygon","coordinates":[[[-83.722113,42.30363],[-83.722104,42.303656],[-83.722055,42.303697],[-83.722005,42.303714],[-83.721977,42.303716],[-83.721895,42.303702],[-83.721835,42.303679],[-83.721791,42.303638],[-83.72178,42.303598],[-83.721795,42.303557],[-83.721842,42.303525],[-83.721901,42.303509],[-83.721983,42.303512],[-83.722058,42.303531],[-83.722082,42.303548],[-83.722109,42.303581],[-83.722113,42.30363]]]}},{"type":"Feature","properties":{"k":"bunker"},"geometry":{"type":"Polygon","coordinates":[[[-83.721811,42.303449],[-83.721846,42.303468],[-83.72184,42.30349],[-83.721769,42.303523],[-83.721755,42.303522],[-83.72174,42.303511],[-83.721732,42.303485],[-83.721746,42.303454],[-83.721767,42.303442],[-83.721811,42.303449]]]}},{"type":"Feature","properties":{"k":"bunker"},"geometry":{"type":"Polygon","coordinates":[[[-83.722052,42.303467],[-83.722039,42.303485],[-83.722023,42.30349],[-83.721959,42.303493],[-83.721931,42.303482],[-83.721927,42.303465],[-83.721948,42.30344],[-83.721984,42.303434],[-83.722041,42.303453],[-83.722052,42.303467]]]}},{"type":"Feature","properties":{"k":"bunker"},"geometry":{"type":"Polygon","coordinates":[[[-83.721929,42.303795],[-83.721915,42.303815],[-83.721895,42.303824],[-83.721857,42.303818],[-83.721834,42.303801],[-83.721772,42.30384],[-83.721745,42.303845],[-83.721725,42.303834],[-83.721744,42.303747],[-83.721766,42.303738],[-83.721857,42.303743],[-83.721916,42.303766],[-83.721926,42.303773],[-83.721929,42.303795]]]}},{"type":"Feature","properties":{"k":"tee"},"geometry":{"type":"Polygon","coordinates":[[[-83.721842,42.304092],[-83.721863,42.304094],[-83.721892,42.30411],[-83.721894,42.304133],[-83.721874,42.30416],[-83.721848,42.304172],[-83.721803,42.304172],[-83.721781,42.304155],[-83.72178,42.304131],[-83.721805,42.304105],[-83.721842,42.304092]]]}},{"type":"Feature","properties":{"k":"tee"},"geometry":{"type":"Polygon","coordinates":[[[-83.721739,42.304193],[-83.721784,42.30421],[-83.721794,42.304231],[-83.721781,42.304269],[-83.721661,42.304366],[-83.721595,42.304368],[-83.721564,42.304346],[-83.721562,42.304328],[-83.721582,42.3043],[-83.721636,42.30425],[-83.72167,42.304201],[-83.721688,42.304191],[-83.721739,42.304193]]]}},{"type":"Feature","properties":{"k":"tee"},"geometry":{"type":"Polygon","coordinates":[[[-83.721208,42.304527],[-83.721214,42.304555],[-83.721198,42.304575],[-83.721157,42.304587],[-83.72113,42.304578],[-83.721128,42.304546],[-83.721142,42.30453],[-83.721174,42.30452],[-83.721208,42.304527]]]}},{"type":"Feature","properties":{"k":"fairway"},"geometry":{"type":"Polygon","coordinates":[[[-83.719827,42.307766],[-83.719863,42.307735],[-83.719892,42.307666],[-83.719887,42.307616],[-83.719858,42.307568],[-83.719859,42.307537],[-83.719927,42.307284],[-83.719967,42.307026],[-83.72004,42.306134],[-83.720052,42.30579],[-83.720071,42.305571],[-83.720099,42.305509],[-83.720181,42.305416],[-83.720318,42.305297],[-83.720478,42.305183],[-83.72061,42.305039],[-83.720691,42.304969],[-83.720743,42.304957],[-83.720838,42.304969],[-83.720909,42.305012],[-83.720937,42.305089],[-83.720922,42.305117],[-83.720798,42.305231],[-83.720496,42.305445],[-83.720419,42.305515],[-83.720379,42.305566],[-83.720323,42.30568],[-83.720299,42.305767],[-83.72029,42.30585],[-83.7203,42.306373],[-83.720287,42.306704],[-83.7203,42.307088],[-83.720285,42.307144],[-83.720251,42.307185],[-83.720048,42.307379],[-83.720016,42.307424],[-83.719998,42.307497],[-83.720001,42.307533],[-83.720021,42.307558],[-83.720033,42.307611],[-83.720027,42.307639],[-83.719982,42.307692],[-83.719986,42.307729],[-83.720035,42.307776],[-83.71998,42.307755],[-83.71993,42.307749],[-83.719872,42.307751],[-83.719827,42.307766]]]}},{"type":"Feature","properties":{"k":"bunker"},"geometry":{"type":"Polygon","coordinates":[[[-83.720137,42.307492],[-83.72013,42.307524],[-83.720101,42.307535],[-83.720074,42.307525],[-83.72006,42.307501],[-83.720062,42.30748],[-83.720084,42.307465],[-83.720117,42.307466],[-83.720133,42.307478],[-83.720137,42.307492]]]}},{"type":"Feature","properties":{"k":"bunker"},"geometry":{"type":"Polygon","coordinates":[[[-83.720105,42.307667],[-83.720156,42.307703],[-83.720177,42.307741],[-83.720161,42.307799],[-83.720133,42.307811],[-83.720119,42.307809],[-83.720098,42.307793],[-83.720098,42.307755],[-83.720061,42.307724],[-83.720045,42.30769],[-83.720056,42.307667],[-83.720083,42.307661],[-83.720105,42.307667]]]}},{"type":"Feature","properties":{"k":"green"},"geometry":{"type":"Polygon","coordinates":[[[-83.71993,42.307749],[-83.71998,42.307755],[-83.720035,42.307776],[-83.720071,42.307812],[-83.72008,42.307837],[-83.72007,42.307888],[-83.720055,42.307908],[-83.720036,42.307924],[-83.719979,42.307942],[-83.719929,42.307945],[-83.719846,42.307926],[-83.719794,42.307888],[-83.719775,42.30785],[-83.71978,42.307813],[-83.719809,42.307777],[-83.719872,42.307751],[-83.71993,42.307749]]]}},{"type":"Feature","properties":{"k":"tee"},"geometry":{"type":"Polygon","coordinates":[[[-83.719426,42.308133],[-83.719467,42.308144],[-83.719493,42.30817],[-83.719487,42.308193],[-83.719472,42.308207],[-83.719423,42.308208],[-83.719387,42.308183],[-83.719388,42.308148],[-83.719426,42.308133]]]}},{"type":"Feature","properties":{"k":"tee"},"geometry":{"type":"Polygon","coordinates":[[[-83.719334,42.307762],[-83.719352,42.307787],[-83.71937,42.307911],[-83.719409,42.307981],[-83.719408,42.308004],[-83.719373,42.308041],[-83.719295,42.308061],[-83.719225,42.308046],[-83.719181,42.30801],[-83.719171,42.307987],[-83.71916,42.307928],[-83.719173,42.307784],[-83.719178,42.307757],[-83.71919,42.307737],[-83.719206,42.307731],[-83.719274,42.30773],[-83.719304,42.307737],[-83.719334,42.307762]]]}},{"type":"Feature","properties":{"k":"tee"},"geometry":{"type":"Polygon","coordinates":[[[-83.719176,42.307353],[-83.71919,42.307384],[-83.719176,42.307403],[-83.719149,42.307406],[-83.719123,42.307398],[-83.719114,42.307378],[-83.719124,42.307358],[-83.719148,42.30735],[-83.719176,42.307353]]]}},{"type":"Feature","properties":{"k":"fairway"},"geometry":{"type":"Polygon","coordinates":[[[-83.719508,42.304947],[-83.719536,42.30497],[-83.719565,42.304981],[-83.719609,42.304986],[-83.719635,42.304981],[-83.719607,42.305001],[-83.719583,42.305045],[-83.719583,42.305096],[-83.719605,42.305193],[-83.719606,42.30525],[-83.71952,42.305708],[-83.719435,42.306014],[-83.719428,42.306079],[-83.719431,42.306125],[-83.71945,42.306177],[-83.719516,42.306269],[-83.71953,42.306305],[-83.719539,42.306376],[-83.719514,42.30644],[-83.719431,42.306561],[-83.719369,42.306631],[-83.719366,42.306766],[-83.719348,42.306848],[-83.719323,42.306884],[-83.719274,42.306911],[-83.719212,42.306911],[-83.719135,42.306896],[-83.719101,42.306868],[-83.719083,42.306834],[-83.719077,42.306766],[-83.719252,42.305681],[-83.719351,42.305205],[-83.719382,42.305123],[-83.719406,42.305088],[-83.719509,42.304991],[-83.719508,42.304947]]]}},{"type":"Feature","properties":{"k":"green"},"geometry":{"type":"Polygon","coordinates":[[[-83.719454,42.304791],[-83.719476,42.304763],[-83.719519,42.304744],[-83.71959,42.304743],[-83.719649,42.304761],[-83.719696,42.304809],[-83.719716,42.30487],[-83.719712,42.304919],[-83.719673,42.304965],[-83.719609,42.304986],[-83.719565,42.304981],[-83.719521,42.304961],[-83.719475,42.304912],[-83.719437,42.304846],[-83.719454,42.304791]]]}},{"type":"Feature","properties":{"k":"bunker"},"geometry":{"type":"Polygon","coordinates":[[[-83.719793,42.305012],[-83.719761,42.305025],[-83.719758,42.305033],[-83.719777,42.305061],[-83.719772,42.305085],[-83.719729,42.305097],[-83.719709,42.305114],[-83.719688,42.305115],[-83.719671,42.305099],[-83.719682,42.305056],[-83.719666,42.305023],[-83.719724,42.305001],[-83.719759,42.304966],[-83.719801,42.304973],[-83.719811,42.304981],[-83.71981,42.305005],[-83.719793,42.305012]]]}},{"type":"Feature","properties":{"k":"bunker"},"geometry":{"type":"Polygon","coordinates":[[[-83.719414,42.30492],[-83.719446,42.304953],[-83.719453,42.304983],[-83.719441,42.305003],[-83.719383,42.305007],[-83.719337,42.304985],[-83.719328,42.30496],[-83.719332,42.304937],[-83.71937,42.30492],[-83.719414,42.30492]]]}},{"type":"Feature","properties":{"k":"tee"},"geometry":{"type":"Polygon","coordinates":[[[-83.718772,42.304739],[-83.718761,42.304761],[-83.71874,42.304772],[-83.718699,42.304765],[-83.718673,42.304749],[-83.71867,42.304713],[-83.718691,42.304699],[-83.718727,42.304696],[-83.718768,42.304712],[-83.718772,42.304739]]]}},{"type":"Feature","properties":{"k":"tee"},"geometry":{"type":"Polygon","coordinates":[[[-83.718726,42.304819],[-83.718748,42.304834],[-83.718782,42.304891],[-83.718778,42.305041],[-83.718736,42.305063],[-83.718659,42.305054],[-83.718625,42.305025],[-83.718608,42.304974],[-83.718603,42.30488],[-83.718624,42.304832],[-83.71865,42.304814],[-83.718684,42.30481],[-83.718726,42.304819]]]}},{"type":"Feature","properties":{"k":"tee"},"geometry":{"type":"Polygon","coordinates":[[[-83.718451,42.305672],[-83.718469,42.305683],[-83.718472,42.3057],[-83.718453,42.305731],[-83.718429,42.305739],[-83.71838,42.305735],[-83.718364,42.305707],[-83.718378,42.30568],[-83.71839,42.30567],[-83.718451,42.305672]]]}},{"type":"Feature","properties":{"k":"fairway"},"geometry":{"type":"Polygon","coordinates":[[[-83.718226,42.308143],[-83.718247,42.30811],[-83.718253,42.308076],[-83.718197,42.307941],[-83.718193,42.307866],[-83.718241,42.307601],[-83.718335,42.307188],[-83.718362,42.307008],[-83.718412,42.30683],[-83.718486,42.306471],[-83.71852,42.305999],[-83.718529,42.305965],[-83.718594,42.305928],[-83.718651,42.305918],[-83.718705,42.305923],[-83.718736,42.305937],[-83.718766,42.305967],[-83.718786,42.306055],[-83.718773,42.306141],[-83.718768,42.306322],[-83.718739,42.306678],[-83.718633,42.307242],[-83.718533,42.307615],[-83.718492,42.307862],[-83.718467,42.307951],[-83.718367,42.308067],[-83.718381,42.30809],[-83.718427,42.308116],[-83.718374,42.308106],[-83.7183,42.308108],[-83.718264,42.30812],[-83.718226,42.308143]]]}},{"type":"Feature","properties":{"k":"green"},"geometry":{"type":"Polygon","coordinates":[[[-83.718264,42.30812],[-83.7183,42.308108],[-83.718374,42.308106],[-83.718427,42.308116],[-83.718468,42.308138],[-83.718486,42.308152],[-83.718502,42.308214],[-83.718498,42.308241],[-83.718469,42.30828],[-83.718414,42.308304],[-83.718342,42.308314],[-83.718254,42.308308],[-83.718199,42.308288],[-83.718177,42.308254],[-83.718178,42.308204],[-83.718213,42.308152],[-83.718264,42.30812]]]}},{"type":"Feature","properties":{"k":"tee"},"geometry":{"type":"Polygon","coordinates":[[[-83.717245,42.308746],[-83.717264,42.308661],[-83.717235,42.30854],[-83.71724,42.308518],[-83.717252,42.308499],[-83.717267,42.308492],[-83.717357,42.308489],[-83.717409,42.308509],[-83.717425,42.308541],[-83.717373,42.308662],[-83.717365,42.308766],[-83.71735,42.30881],[-83.717307,42.308825],[-83.71728,42.308822],[-83.71724,42.308802],[-83.717233,42.308774],[-83.717245,42.308746]]]}},{"type":"Feature","properties":{"k":"tee"},"geometry":{"type":"Polygon","coordinates":[[[-83.71754,42.308646],[-83.717572,42.308538],[-83.71756,42.308468],[-83.717529,42.308406],[-83.717534,42.308389],[-83.717559,42.308382],[-83.717634,42.308408],[-83.717667,42.308436],[-83.717672,42.308506],[-83.717658,42.308577],[-83.717607,42.308664],[-83.717583,42.308681],[-83.717547,42.308681],[-83.717535,42.308659],[-83.71754,42.308646]]]}},{"type":"Feature","properties":{"k":"fairway"},"geometry":{"type":"Polygon","coordinates":[[[-83.717621,42.307715],[-83.717545,42.307723],[-83.717515,42.307733],[-83.717496,42.307766],[-83.71752,42.307856],[-83.717575,42.307951],[-83.71758,42.307997],[-83.71756,42.30803],[-83.717527,42.308048],[-83.717507,42.308049],[-83.717456,42.308046],[-83.717405,42.308034],[-83.717338,42.307983],[-83.717354,42.307792],[-83.717408,42.307712],[-83.717469,42.307656],[-83.717489,42.307606],[-83.717494,42.30764],[-83.717523,42.307674],[-83.717596,42.307712],[-83.717621,42.307715]]]}},{"type":"Feature","properties":{"k":"bunker"},"geometry":{"type":"Polygon","coordinates":[[[-83.71772,42.307756],[-83.717741,42.307724],[-83.717776,42.307715],[-83.717798,42.307735],[-83.717807,42.307767],[-83.717794,42.307789],[-83.717774,42.307802],[-83.717677,42.307845],[-83.717658,42.30785],[-83.717618,42.307846],[-83.717607,42.307836],[-83.71755,42.307823],[-83.717538,42.307812],[-83.717576,42.307758],[-83.717591,42.307756],[-83.717636,42.307776],[-83.717705,42.307765],[-83.71772,42.307756]]]}},{"type":"Feature","properties":{"k":"green"},"geometry":{"type":"Polygon","coordinates":[[[-83.717499,42.307569],[-83.717542,42.307497],[-83.717591,42.307469],[-83.717614,42.307461],[-83.717686,42.30746],[-83.717755,42.307497],[-83.717794,42.307584],[-83.717789,42.30763],[-83.717727,42.307682],[-83.717692,42.307697],[-83.717642,42.307712],[-83.717596,42.307712],[-83.717543,42.307688],[-83.717505,42.307658],[-83.717489,42.307606],[-83.717499,42.307569]]]}},{"type":"Feature","properties":{"k":"tee"},"geometry":{"type":"Polygon","coordinates":[[[-83.717235,42.307435],[-83.717262,42.30744],[-83.717274,42.307469],[-83.717252,42.307503],[-83.717222,42.307508],[-83.717191,42.307493],[-83.717187,42.307456],[-83.717213,42.307436],[-83.717235,42.307435]]]}},{"type":"Feature","properties":{"k":"tee"},"geometry":{"type":"Polygon","coordinates":[[[-83.717346,42.30716],[-83.717362,42.307212],[-83.717333,42.307286],[-83.717319,42.307358],[-83.717309,42.307375],[-83.717279,42.307395],[-83.717222,42.307401],[-83.717194,42.307384],[-83.717178,42.30736],[-83.717189,42.307226],[-83.717209,42.307178],[-83.717251,42.307135],[-83.717315,42.307134],[-83.717346,42.30716]]]}},{"type":"Feature","properties":{"k":"tee"},"geometry":{"type":"Polygon","coordinates":[[[-83.717294,42.306544],[-83.717307,42.306556],[-83.717313,42.306596],[-83.717302,42.306606],[-83.717264,42.306609],[-83.717239,42.306592],[-83.717233,42.306566],[-83.717245,42.306549],[-83.717294,42.306544]]]}},{"type":"Feature","properties":{"k":"fairway"},"geometry":{"type":"Polygon","coordinates":[[[-83.717628,42.30477],[-83.717723,42.304763],[-83.717757,42.304741],[-83.717784,42.304707],[-83.717789,42.304782],[-83.71781,42.304826],[-83.717896,42.304928],[-83.717939,42.305027],[-83.717945,42.305096],[-83.717926,42.305166],[-83.717833,42.305366],[-83.717608,42.30576],[-83.717552,42.305986],[-83.717531,42.306136],[-83.717482,42.306186],[-83.717408,42.306191],[-83.717287,42.306157],[-83.717254,42.306134],[-83.717217,42.306091],[-83.717229,42.305842],[-83.717244,42.305744],[-83.717337,42.305535],[-83.71758,42.305174],[-83.717688,42.304981],[-83.717698,42.304949],[-83.717696,42.304836],[-83.717664,42.304795],[-83.717628,42.30477]]]}},{"type":"Feature","properties":{"k":"green"},"geometry":{"type":"Polygon","coordinates":[[[-83.717546,42.304684],[-83.717544,42.304641],[-83.717567,42.304585],[-83.717597,42.304569],[-83.717646,42.304564],[-83.717684,42.30457],[-83.717724,42.304598],[-83.717755,42.304631],[-83.717787,42.304692],[-83.717757,42.304741],[-83.717723,42.304763],[-83.717628,42.30477],[-83.717584,42.304749],[-83.717546,42.304684]]]}},{"type":"Feature","properties":{"k":"tee"},"geometry":{"type":"Polygon","coordinates":[[[-83.717699,42.304067],[-83.717724,42.304074],[-83.717739,42.304087],[-83.717735,42.304113],[-83.717703,42.304132],[-83.71767,42.304126],[-83.717649,42.304087],[-83.717666,42.30407],[-83.717699,42.304067]]]}},{"type":"Feature","properties":{"k":"tee"},"geometry":{"type":"Polygon","coordinates":[[[-83.718079,42.30412],[-83.718096,42.304134],[-83.718106,42.304166],[-83.718087,42.304191],[-83.718052,42.304203],[-83.717861,42.30418],[-83.717818,42.304161],[-83.717808,42.304131],[-83.717837,42.304096],[-83.718079,42.30412]]]}},{"type":"Feature","properties":{"k":"tee"},"geometry":{"type":"Polygon","coordinates":[[[-83.71883,42.304187],[-83.718837,42.304223],[-83.718812,42.304236],[-83.718779,42.304238],[-83.718756,42.304229],[-83.718746,42.304207],[-83.718756,42.304193],[-83.718786,42.304182],[-83.71883,42.304187]]]}},{"type":"Feature","properties":{"k":"tee"},"geometry":{"type":"Polygon","coordinates":[[[-83.718467,42.304169],[-83.718496,42.30417],[-83.718513,42.304185],[-83.718519,42.304203],[-83.718509,42.304222],[-83.718496,42.304227],[-83.71844,42.304223],[-83.718418,42.304209],[-83.718418,42.30418],[-83.718467,42.304169]]]}},{"type":"Feature","properties":{"k":"fairway"},"geometry":{"type":"Polygon","coordinates":[[[-83.721853,42.30369],[-83.721788,42.303688],[-83.721746,42.303696],[-83.721705,42.303715],[-83.721658,42.303756],[-83.721643,42.303837],[-83.721237,42.304035],[-83.721024,42.304127],[-83.720966,42.304143],[-83.720635,42.304172],[-83.719936,42.304273],[-83.719513,42.304307],[-83.719415,42.304303],[-83.719332,42.304289],[-83.719292,42.304264],[-83.719266,42.304232],[-83.719255,42.304199],[-83.71926,42.304163],[-83.719287,42.304128],[-83.719334,42.304115],[-83.719567,42.304098],[-83.719856,42.304103],[-83.720069,42.304093],[-83.720272,42.304097],[-83.720441,42.304084],[-83.720583,42.304055],[-83.720831,42.303986],[-83.72096,42.303942],[-83.721167,42.303855],[-83.721588,42.30366],[-83.721684,42.303632],[-83.721785,42.30358],[-83.72178,42.303598],[-83.721791,42.303638],[-83.721853,42.30369]]]}},{"type":"Feature","properties":{"k":"green"},"geometry":{"type":"Polygon","coordinates":[[[-83.726252,42.302986],[-83.726252,42.30304],[-83.726236,42.303082],[-83.726194,42.303119],[-83.726159,42.303134],[-83.726116,42.303142],[-83.726033,42.303142],[-83.725964,42.303121],[-83.72593,42.303088],[-83.725925,42.303039],[-83.725945,42.302992],[-83.72605,42.302907],[-83.726112,42.302893],[-83.72618,42.302907],[-83.726235,42.302946],[-83.726252,42.302986]]]}},{"type":"Feature","properties":{"k":"bunker"},"geometry":{"type":"Polygon","coordinates":[[[-83.726333,42.302793],[-83.726335,42.302825],[-83.726261,42.302873],[-83.726221,42.302873],[-83.726152,42.302846],[-83.726153,42.302824],[-83.726189,42.3028],[-83.726205,42.302762],[-83.72624,42.302763],[-83.726282,42.302785],[-83.72632,42.302785],[-83.726333,42.302793]]]}},{"type":"Feature","properties":{"k":"tee"},"geometry":{"type":"Polygon","coordinates":[[[-83.727506,42.30211],[-83.727519,42.30218],[-83.727518,42.302241],[-83.727478,42.302288],[-83.727447,42.302297],[-83.727415,42.302289],[-83.727394,42.302274],[-83.727387,42.302252],[-83.727392,42.302137],[-83.727317,42.302044],[-83.727304,42.302022],[-83.727304,42.301997],[-83.727322,42.301981],[-83.727346,42.301975],[-83.727414,42.30198],[-83.727456,42.302008],[-83.727475,42.302033],[-83.727506,42.30211]]]}},{"type":"Feature","properties":{"k":"tee"},"geometry":{"type":"Polygon","coordinates":[[[-83.727157,42.30241],[-83.727232,42.302419],[-83.727246,42.302461],[-83.727235,42.302478],[-83.727164,42.302519],[-83.727119,42.302556],[-83.727092,42.302555],[-83.727071,42.302544],[-83.727057,42.302523],[-83.72706,42.3025],[-83.727113,42.302429],[-83.727157,42.30241]]]}},{"type":"Feature","properties":{"k":"bunker"},"geometry":{"type":"Polygon","coordinates":[[[-83.725658,42.303814],[-83.72568,42.303844],[-83.725657,42.303888],[-83.725644,42.303892],[-83.7256,42.303882],[-83.725577,42.303861],[-83.725582,42.303831],[-83.72562,42.303805],[-83.725658,42.303814]]]}},{"type":"Feature","properties":{"k":"bunker"},"geometry":{"type":"Polygon","coordinates":[[[-83.725592,42.303973],[-83.725518,42.304007],[-83.725515,42.304014],[-83.725535,42.304039],[-83.725524,42.304065],[-83.725489,42.304064],[-83.725455,42.304047],[-83.725411,42.304046],[-83.72539,42.304035],[-83.725386,42.304015],[-83.725403,42.303997],[-83.725451,42.30399],[-83.725484,42.303975],[-83.725537,42.303933],[-83.725582,42.303937],[-83.725597,42.303953],[-83.725592,42.303973]]]}},{"type":"Feature","properties":{"k":"tee"},"geometry":{"type":"Polygon","coordinates":[[[-83.726099,42.303767],[-83.726107,42.30378],[-83.726082,42.303843],[-83.72592,42.304146],[-83.725895,42.304164],[-83.725872,42.304161],[-83.725839,42.304143],[-83.725837,42.304126],[-83.725981,42.30387],[-83.726009,42.303789],[-83.726032,42.303764],[-83.726052,42.303759],[-83.726071,42.303757],[-83.726099,42.303767]]]}},{"type":"Feature","properties":{"k":"tee"},"geometry":{"type":"Polygon","coordinates":[[[-83.725585,42.304458],[-83.725589,42.304487],[-83.725577,42.304498],[-83.725539,42.304496],[-83.725529,42.304475],[-83.725539,42.304458],[-83.725565,42.304452],[-83.725585,42.304458]]]}},{"type":"Feature","properties":{"k":"tee"},"geometry":{"type":"Polygon","coordinates":[[[-83.725151,42.305195],[-83.725134,42.305262],[-83.725103,42.305275],[-83.725081,42.305269],[-83.725073,42.305249],[-83.725095,42.305198],[-83.725118,42.305183],[-83.725151,42.305195]]]}},{"type":"Feature","properties":{"k":"green"},"geometry":{"type":"Polygon","coordinates":[[[-83.725202,42.306924],[-83.725213,42.306978],[-83.725205,42.307061],[-83.725156,42.307116],[-83.725133,42.307129],[-83.725074,42.307131],[-83.725044,42.307108],[-83.725026,42.307052],[-83.725022,42.306964],[-83.725032,42.306911],[-83.725065,42.306876],[-83.725086,42.306868],[-83.725109,42.306869],[-83.725135,42.306872],[-83.725176,42.306891],[-83.725202,42.306924]]]}},{"type":"Feature","properties":{"k":"bunker"},"geometry":{"type":"Polygon","coordinates":[[[-83.725977,42.306393],[-83.72595,42.306439],[-83.725993,42.306476],[-83.726,42.30651],[-83.72598,42.306539],[-83.725946,42.306545],[-83.725909,42.306537],[-83.725884,42.306516],[-83.725887,42.306475],[-83.725849,42.306434],[-83.725849,42.306392],[-83.725859,42.306372],[-83.725902,42.306347],[-83.725957,42.306362],[-83.725977,42.306393]]]}},{"type":"Feature","properties":{"k":"green"},"geometry":{"type":"Polygon","coordinates":[[[-83.725799,42.306458],[-83.725838,42.306527],[-83.725829,42.306588],[-83.725818,42.306606],[-83.725803,42.306621],[-83.725754,42.306644],[-83.725688,42.30665],[-83.725632,42.306633],[-83.72558,42.306593],[-83.725559,42.306547],[-83.725564,42.306501],[-83.725588,42.306452],[-83.725655,42.306416],[-83.725714,42.306412],[-83.725766,42.306424],[-83.725799,42.306458]]]}},{"type":"Feature","properties":{"k":"fairway"},"geometry":{"type":"Polygon","coordinates":[[[-83.725606,42.306438],[-83.725666,42.306381],[-83.725684,42.306352],[-83.725685,42.306318],[-83.725669,42.30626],[-83.725679,42.306214],[-83.725727,42.306124],[-83.725794,42.306029],[-83.725921,42.305888],[-83.725935,42.305857],[-83.725951,42.305637],[-83.725977,42.305519],[-83.726098,42.305152],[-83.726144,42.304977],[-83.726305,42.304511],[-83.726333,42.304464],[-83.726366,42.304435],[-83.726408,42.30442],[-83.726478,42.304425],[-83.72656,42.304464],[-83.726597,42.304509],[-83.726616,42.304559],[-83.726618,42.304611],[-83.7266,42.304729],[-83.726357,42.30539],[-83.725886,42.306314],[-83.725793,42.306399],[-83.725799,42.306458],[-83.725766,42.306424],[-83.725714,42.306412],[-83.725655,42.306416],[-83.725606,42.306438]]]}},{"type":"Feature","properties":{"k":"tee"},"geometry":{"type":"Polygon","coordinates":[[[-83.72672,42.303953],[-83.726744,42.303956],[-83.726764,42.30397],[-83.726768,42.303998],[-83.726739,42.304032],[-83.726702,42.304038],[-83.726675,42.30402],[-83.726672,42.303981],[-83.726691,42.303957],[-83.72672,42.303953]]]}},{"type":"Feature","properties":{"k":"tee"},"geometry":{"type":"Polygon","coordinates":[[[-83.726717,42.303393],[-83.726728,42.303414],[-83.726703,42.303529],[-83.726708,42.303615],[-83.72668,42.303652],[-83.726636,42.303669],[-83.726594,42.303669],[-83.726545,42.303642],[-83.726536,42.303615],[-83.726595,42.30344],[-83.726622,42.303399],[-83.72666,42.303377],[-83.726681,42.303376],[-83.726717,42.303393]]]}},{"type":"Feature","properties":{"k":"tee"},"geometry":{"type":"Polygon","coordinates":[[[-83.726742,42.303298],[-83.72675,42.303311],[-83.726747,42.303329],[-83.72673,42.303351],[-83.726711,42.303355],[-83.726681,42.303346],[-83.726668,42.303309],[-83.726678,42.303292],[-83.72671,42.303284],[-83.726742,42.303298]]]}},{"type":"Feature","properties":{"k":"green"},"geometry":{"type":"Polygon","coordinates":[[[-83.727462,42.302898],[-83.727415,42.302852],[-83.727387,42.302841],[-83.727351,42.302778],[-83.727351,42.302758],[-83.727363,42.302715],[-83.727391,42.302695],[-83.727413,42.302685],[-83.727471,42.302675],[-83.727574,42.302711],[-83.727599,42.302728],[-83.727638,42.302781],[-83.727638,42.302819],[-83.727612,42.302876],[-83.727584,42.302903],[-83.727557,42.302913],[-83.727517,42.302913],[-83.727462,42.302898]]]}},{"type":"Feature","properties":{"k":"bunker"},"geometry":{"type":"Polygon","coordinates":[[[-83.727499,42.302999],[-83.727486,42.30302],[-83.727493,42.303063],[-83.727414,42.30311],[-83.727395,42.303114],[-83.727376,42.303104],[-83.727337,42.303034],[-83.727358,42.302988],[-83.727336,42.302972],[-83.727287,42.302961],[-83.727281,42.302843],[-83.727291,42.302816],[-83.727321,42.30281],[-83.727348,42.302823],[-83.727357,42.302888],[-83.727407,42.30291],[-83.727428,42.30295],[-83.727499,42.302982],[-83.727499,42.302999]]]}},{"type":"Feature","properties":{"k":"fairway"},"geometry":{"type":"Polygon","coordinates":[[[-83.727516,42.303591],[-83.727507,42.303441],[-83.72753,42.303313],[-83.727577,42.303248],[-83.727311,42.303334],[-83.727346,42.303702],[-83.727355,42.304014],[-83.727379,42.304291],[-83.727432,42.304567],[-83.727437,42.304747],[-83.72739,42.304873],[-83.727348,42.304923],[-83.727213,42.305138],[-83.727204,42.305175],[-83.72721,42.305209],[-83.727225,42.305228],[-83.727285,42.305247],[-83.727381,42.30524],[-83.727416,42.305223],[-83.727467,42.305161],[-83.7276,42.304961],[-83.727677,42.304823],[-83.727694,42.304779],[-83.727703,42.304714],[-83.72771,42.304581],[-83.727633,42.304147],[-83.727565,42.303869],[-83.727516,42.303591]]]}},{"type":"Feature","properties":{"k":"tee"},"geometry":{"type":"Polygon","coordinates":[[[-83.726927,42.305996],[-83.726938,42.306007],[-83.726926,42.306041],[-83.726894,42.306052],[-83.726856,42.306047],[-83.72684,42.306022],[-83.726847,42.305998],[-83.72686,42.305988],[-83.726893,42.305986],[-83.726927,42.305996]]]}},{"type":"Feature","properties":{"k":"tee"},"geometry":{"type":"Polygon","coordinates":[[[-83.726648,42.306352],[-83.72666,42.306366],[-83.72666,42.306387],[-83.726647,42.306404],[-83.726615,42.306417],[-83.726574,42.306409],[-83.726522,42.306378],[-83.726521,42.306345],[-83.726555,42.306322],[-83.726598,42.306325],[-83.726648,42.306352]]]}},{"type":"Feature","properties":{"k":"tee"},"geometry":{"type":"Polygon","coordinates":[[[-83.726505,42.30643],[-83.726468,42.306439],[-83.72644,42.306467],[-83.726396,42.306521],[-83.726382,42.306553],[-83.726395,42.306608],[-83.72645,42.306638],[-83.726498,42.306646],[-83.726556,42.306622],[-83.72657,42.306607],[-83.726611,42.306502],[-83.726609,42.30648],[-83.726578,42.306452],[-83.726534,42.306432],[-83.726505,42.30643]]]}},{"type":"Feature","properties":{"k":"tee"},"geometry":{"type":"Polygon","coordinates":[[[-83.726511,42.306749],[-83.726542,42.306754],[-83.726551,42.306762],[-83.726543,42.306793],[-83.726446,42.306795],[-83.72642,42.306777],[-83.726429,42.30675],[-83.726511,42.306749]]]}},{"type":"Feature","properties":{"k":"tee"},"geometry":{"type":"Polygon","coordinates":[[[-83.725575,42.307717],[-83.725588,42.307739],[-83.725568,42.307772],[-83.72552,42.307778],[-83.725493,42.307762],[-83.72549,42.307726],[-83.725513,42.307708],[-83.725546,42.307704],[-83.725575,42.307717]]]}},{"type":"Feature","properties":{"k":"tee"},"geometry":{"type":"Polygon","coordinates":[[[-83.725463,42.307809],[-83.725505,42.307828],[-83.725548,42.307881],[-83.725545,42.307901],[-83.725502,42.307978],[-83.725497,42.308014],[-83.725511,42.308102],[-83.725486,42.308132],[-83.72545,42.308146],[-83.725424,42.308147],[-83.725397,42.308143],[-83.725365,42.308121],[-83.725362,42.308073],[-83.725398,42.307972],[-83.725357,42.307863],[-83.725353,42.307825],[-83.725379,42.307796],[-83.725406,42.307792],[-83.725463,42.307809]]]}},{"type":"Feature","properties":{"k":"tee"},"geometry":{"type":"Polygon","coordinates":[[[-83.725122,42.308531],[-83.725147,42.308554],[-83.72515,42.308568],[-83.725138,42.308596],[-83.725104,42.308612],[-83.725064,42.308608],[-83.725037,42.308587],[-83.725039,42.308547],[-83.725086,42.308525],[-83.725122,42.308531]]]}},{"type":"Feature","properties":{"k":"fairway"},"geometry":{"type":"Polygon","coordinates":[[[-83.724661,42.31057],[-83.72471,42.310548],[-83.724729,42.310532],[-83.724744,42.310496],[-83.724727,42.310455],[-83.724599,42.310327],[-83.724542,42.310114],[-83.724537,42.309667],[-83.724546,42.309472],[-83.724563,42.309327],[-83.724631,42.309081],[-83.724704,42.308936],[-83.724747,42.308892],[-83.724789,42.308873],[-83.724852,42.308866],[-83.72491,42.308878],[-83.724947,42.308914],[-83.724996,42.308974],[-83.725002,42.309024],[-83.724868,42.309269],[-83.724825,42.30938],[-83.724802,42.309491],[-83.724824,42.309913],[-83.724874,42.310472],[-83.724855,42.310532],[-83.724816,42.310603],[-83.724818,42.31065],[-83.724776,42.310606],[-83.724745,42.310586],[-83.724684,42.310569],[-83.724661,42.31057]]]}},{"type":"Feature","properties":{"k":"bunker"},"geometry":{"type":"Polygon","coordinates":[[[-83.72464,42.310455],[-83.724651,42.310466],[-83.724646,42.310495],[-83.724623,42.310508],[-83.72459,42.310513],[-83.724557,42.310547],[-83.724533,42.310556],[-83.724512,42.310552],[-83.7245,42.310536],[-83.724507,42.310505],[-83.724448,42.310509],[-83.724426,42.310485],[-83.724425,42.310473],[-83.724465,42.310424],[-83.724489,42.310412],[-83.724542,42.310411],[-83.724565,42.31042],[-83.724593,42.310449],[-83.72464,42.310455]]]}},{"type":"Feature","properties":{"k":"green"},"geometry":{"type":"Polygon","coordinates":[[[-83.72454,42.310723],[-83.724528,42.310658],[-83.724562,42.310603],[-83.72461,42.31058],[-83.724684,42.310569],[-83.724745,42.310586],[-83.724776,42.310606],[-83.724828,42.310661],[-83.72485,42.310712],[-83.724845,42.310753],[-83.724821,42.310784],[-83.724783,42.310813],[-83.724734,42.310824],[-83.724673,42.310818],[-83.724624,42.310797],[-83.724578,42.310765],[-83.72454,42.310723]]]}},{"type":"Feature","properties":{"k":"tee"},"geometry":{"type":"Polygon","coordinates":[[[-83.725268,42.310921],[-83.725294,42.31093],[-83.725306,42.310958],[-83.725281,42.310982],[-83.725254,42.310984],[-83.725223,42.310964],[-83.725222,42.310943],[-83.72524,42.310926],[-83.725268,42.310921]]]}},{"type":"Feature","properties":{"k":"tee"},"geometry":{"type":"Polygon","coordinates":[[[-83.724963,42.311146],[-83.725084,42.311024],[-83.725134,42.311009],[-83.725165,42.311012],[-83.725193,42.31102],[-83.725216,42.311039],[-83.725221,42.311075],[-83.725214,42.311092],[-83.725061,42.311236],[-83.725027,42.311245],[-83.724993,42.311243],[-83.724961,42.311225],[-83.724941,42.311193],[-83.724941,42.311173],[-83.724963,42.311146]]]}},{"type":"Feature","properties":{"k":"tee"},"geometry":{"type":"Polygon","coordinates":[[[-83.724758,42.31158],[-83.724778,42.311597],[-83.724774,42.311628],[-83.724736,42.311643],[-83.724709,42.311636],[-83.72469,42.311608],[-83.724702,42.311587],[-83.724728,42.311576],[-83.724758,42.31158]]]}},{"type":"Feature","properties":{"k":"fairway"},"geometry":{"type":"Polygon","coordinates":[[[-83.722717,42.312768],[-83.722788,42.312775],[-83.722817,42.312761],[-83.7229,42.312696],[-83.722944,42.312651],[-83.723073,42.31257],[-83.723161,42.312536],[-83.723448,42.312456],[-83.723565,42.312416],[-83.723712,42.312353],[-83.723922,42.312223],[-83.724131,42.31206],[-83.724183,42.312031],[-83.724219,42.312024],[-83.724298,42.312036],[-83.724334,42.312057],[-83.724366,42.312096],[-83.72437,42.312131],[-83.724355,42.312165],[-83.72423,42.312288],[-83.724134,42.312359],[-83.724004,42.31248],[-83.723749,42.312634],[-83.723429,42.312734],[-83.722975,42.312847],[-83.722814,42.312849],[-83.722763,42.312871],[-83.722772,42.312851],[-83.722768,42.31282],[-83.722741,42.31278],[-83.722717,42.312768]]]}},{"type":"Feature","properties":{"k":"bunker"},"geometry":{"type":"Polygon","coordinates":[[[-83.722882,42.312912],[-83.72288,42.312942],[-83.722845,42.312964],[-83.722815,42.312998],[-83.722779,42.312995],[-83.722732,42.312973],[-83.722733,42.312944],[-83.722777,42.312925],[-83.722802,42.31289],[-83.722841,42.312888],[-83.722877,42.312901],[-83.722882,42.312912]]]}},{"type":"Feature","properties":{"k":"green"},"geometry":{"type":"Polygon","coordinates":[[[-83.722613,42.312743],[-83.722577,42.312751],[-83.722517,42.31279],[-83.722503,42.312818],[-83.722498,42.312873],[-83.722503,42.312897],[-83.722529,42.312923],[-83.722551,42.312936],[-83.722626,42.312946],[-83.722682,42.312931],[-83.722726,42.312905],[-83.722763,42.312871],[-83.722773,42.312836],[-83.722741,42.31278],[-83.722709,42.312764],[-83.722613,42.312743]]]}},{"type":"Feature","properties":{"k":"tee"},"geometry":{"type":"Polygon","coordinates":[[[-83.722484,42.312407],[-83.722491,42.31246],[-83.722474,42.312482],[-83.722378,42.312545],[-83.722334,42.312597],[-83.722273,42.312649],[-83.722217,42.312664],[-83.722176,42.312644],[-83.72217,42.312625],[-83.72218,42.312578],[-83.722197,42.312554],[-83.722257,42.312521],[-83.722347,42.31241],[-83.722414,42.312382],[-83.722443,42.312382],[-83.722484,42.312407]]]}},{"type":"Feature","properties":{"k":"tee"},"geometry":{"type":"Polygon","coordinates":[[[-83.722823,42.312221],[-83.722831,42.312246],[-83.722816,42.312269],[-83.722784,42.312281],[-83.722737,42.312266],[-83.722726,42.312243],[-83.722743,42.312213],[-83.722785,42.312203],[-83.722823,42.312221]]]}},{"type":"Feature","properties":{"k":"tee"},"geometry":{"type":"Polygon","coordinates":[[[-83.722985,42.312061],[-83.722995,42.312042],[-83.723037,42.312026],[-83.723067,42.312027],[-83.723086,42.312042],[-83.723071,42.31207],[-83.723044,42.312085],[-83.722998,42.312083],[-83.722985,42.312061]]]}},{"type":"Feature","properties":{"k":"bunker"},"geometry":{"type":"Polygon","coordinates":[[[-83.724111,42.311096],[-83.72411,42.311115],[-83.72408,42.311145],[-83.724078,42.311196],[-83.724062,42.311211],[-83.724017,42.31121],[-83.72397,42.311184],[-83.723961,42.311164],[-83.724,42.311118],[-83.724007,42.31107],[-83.724035,42.311064],[-83.724098,42.311082],[-83.724111,42.311096]]]}},{"type":"Feature","properties":{"k":"bunker"},"geometry":{"type":"Polygon","coordinates":[[[-83.724154,42.310849],[-83.724153,42.310884],[-83.724128,42.310903],[-83.724096,42.310887],[-83.72406,42.310841],[-83.72409,42.310822],[-83.724145,42.310833],[-83.724154,42.310849]]]}},{"type":"Feature","properties":{"k":"bunker"},"geometry":{"type":"Polygon","coordinates":[[[-83.723966,42.309095],[-83.723972,42.309124],[-83.723963,42.309138],[-83.723931,42.309142],[-83.723901,42.309133],[-83.723891,42.309121],[-83.723891,42.309083],[-83.723937,42.309078],[-83.723966,42.309095]]]}},{"type":"Feature","properties":{"k":"bunker"},"geometry":{"type":"Polygon","coordinates":[[[-83.724211,42.309115],[-83.724227,42.309127],[-83.724237,42.30915],[-83.72422,42.309181],[-83.724174,42.309188],[-83.724153,42.309219],[-83.724104,42.309242],[-83.724079,42.309238],[-83.724056,42.309219],[-83.724057,42.309205],[-83.724086,42.309178],[-83.724111,42.309139],[-83.724185,42.309115],[-83.724211,42.309115]]]}},{"type":"Feature","properties":{"k":"green"},"geometry":{"type":"Polygon","coordinates":[[[-83.724039,42.308932],[-83.724005,42.308976],[-83.724002,42.30902],[-83.724018,42.309059],[-83.724057,42.30908],[-83.724095,42.309085],[-83.724146,42.309074],[-83.724208,42.30904],[-83.724253,42.308995],[-83.724255,42.308958],[-83.724243,42.30894],[-83.724217,42.308915],[-83.72419,42.308904],[-83.724166,42.308898],[-83.724098,42.308903],[-83.724039,42.308932]]]}},{"type":"Feature","properties":{"k":"fairway"},"geometry":{"type":"Polygon","coordinates":[[[-83.724018,42.309059],[-83.724028,42.309091],[-83.72402,42.309129],[-83.724,42.309149],[-83.723924,42.309191],[-83.723884,42.309241],[-83.723857,42.309464],[-83.723838,42.309856],[-83.723854,42.310152],[-83.723851,42.310698],[-83.723832,42.31084],[-83.723798,42.310919],[-83.723429,42.311413],[-83.72337,42.311507],[-83.723367,42.311534],[-83.723398,42.311583],[-83.72345,42.311615],[-83.723514,42.311634],[-83.72358,42.311632],[-83.723639,42.311611],[-83.723702,42.311556],[-83.723976,42.311041],[-83.724006,42.31097],[-83.724044,42.310745],[-83.724138,42.309637],[-83.72413,42.309389],[-83.724111,42.309332],[-83.724051,42.309247],[-83.724038,42.309209],[-83.724036,42.309163],[-83.72405,42.309129],[-83.724071,42.309108],[-83.72412,42.309083],[-83.724057,42.30908],[-83.724018,42.309059]]]}},{"type":"Feature","properties":{"k":"tee"},"geometry":{"type":"Polygon","coordinates":[[[-83.723526,42.308659],[-83.723566,42.308691],[-83.723589,42.30874],[-83.723588,42.308789],[-83.723562,42.308821],[-83.723501,42.308836],[-83.723303,42.308842],[-83.723159,42.308862],[-83.723128,42.308863],[-83.723105,42.308855],[-83.723096,42.308843],[-83.723092,42.308826],[-83.723101,42.30881],[-83.723192,42.308719],[-83.723471,42.308653],[-83.723526,42.308659]]]}},{"type":"Feature","properties":{"k":"tee"},"geometry":{"type":"Polygon","coordinates":[[[-83.723739,42.308644],[-83.723792,42.308651],[-83.723813,42.308676],[-83.723808,42.308704],[-83.723781,42.308724],[-83.723742,42.308727],[-83.723724,42.308721],[-83.723701,42.3087],[-83.723701,42.308672],[-83.723739,42.308644]]]}},{"type":"Feature","properties":{"k":"green"},"geometry":{"type":"Polygon","coordinates":[[[-83.724388,42.307837],[-83.724412,42.307859],[-83.724429,42.307897],[-83.72443,42.307947],[-83.724422,42.30797],[-83.724403,42.308],[-83.724313,42.308059],[-83.724278,42.308074],[-83.72424,42.308073],[-83.724211,42.308045],[-83.724213,42.307891],[-83.724233,42.307846],[-83.724244,42.307834],[-83.724279,42.30782],[-83.724358,42.307825],[-83.724388,42.307837]]]}},{"type":"Feature","properties":{"k":"path"},"geometry":{"type":"LineString","coordinates":[[-83.724148,42.307411],[-83.724185,42.307521]]}},{"type":"Feature","properties":{"k":"tee"},"geometry":{"type":"Polygon","coordinates":[[[-83.723637,42.30711],[-83.723665,42.307122],[-83.723676,42.307155],[-83.723645,42.307181],[-83.723614,42.307182],[-83.723579,42.307157],[-83.72358,42.307132],[-83.723604,42.307113],[-83.723637,42.30711]]]}},{"type":"Feature","properties":{"k":"tee"},"geometry":{"type":"Polygon","coordinates":[[[-83.723767,42.306979],[-83.723814,42.306929],[-83.723872,42.306815],[-83.723889,42.306802],[-83.723931,42.306794],[-83.723976,42.306812],[-83.723999,42.306839],[-83.724,42.306859],[-83.723908,42.306998],[-83.723871,42.307036],[-83.723824,42.30705],[-83.723779,42.307039],[-83.723751,42.307007],[-83.723767,42.306979]]]}},{"type":"Feature","properties":{"k":"tee"},"geometry":{"type":"Polygon","coordinates":[[[-83.723712,42.306497],[-83.723743,42.306487],[-83.723776,42.306493],[-83.723795,42.306512],[-83.723788,42.306547],[-83.723744,42.306562],[-83.723714,42.306553],[-83.723697,42.306531],[-83.723712,42.306497]]]}},{"type":"Feature","properties":{"k":"tee"},"geometry":{"type":"Polygon","coordinates":[[[-83.72398,42.306016],[-83.724017,42.306036],[-83.72402,42.306059],[-83.724003,42.306078],[-83.723973,42.306086],[-83.723944,42.306078],[-83.723926,42.306047],[-83.723951,42.30602],[-83.72398,42.306016]]]}},{"type":"Feature","properties":{"k":"fairway"},"geometry":{"type":"Polygon","coordinates":[[[-83.725291,42.303911],[-83.725269,42.30394],[-83.725164,42.304017],[-83.725138,42.304054],[-83.72459,42.304973],[-83.724322,42.305472],[-83.724196,42.305656],[-83.724192,42.305706],[-83.724207,42.305749],[-83.724285,42.305812],[-83.724362,42.305829],[-83.724451,42.305826],[-83.724502,42.305793],[-83.724556,42.305735],[-83.72466,42.305526],[-83.725018,42.304872],[-83.725388,42.304247],[-83.72542,42.304137],[-83.725364,42.304036],[-83.725361,42.304014],[-83.72538,42.303985],[-83.725417,42.303965],[-83.725377,42.30397],[-83.725347,42.30396],[-83.725321,42.303948],[-83.725291,42.303911]]]}},{"type":"Feature","properties":{"k":"path"},"geometry":{"type":"LineString","coordinates":[[-83.725394,42.303455],[-83.725416,42.303452],[-83.725437,42.303439],[-83.725587,42.303222],[-83.725643,42.303181]]}},{"type":"Feature","properties":{"k":"path"},"geometry":{"type":"LineString","coordinates":[[-83.725643,42.303181],[-83.725744,42.303077],[-83.725765,42.30304]]}},{"type":"Feature","properties":{"k":"path"},"geometry":{"type":"LineString","coordinates":[[-83.724366,42.302572],[-83.72439,42.302662]]}},{"type":"Feature","properties":{"k":"path"},"geometry":{"type":"LineString","coordinates":[[-83.724434,42.3026],[-83.724566,42.302377],[-83.724562,42.302353],[-83.724539,42.302342],[-83.724491,42.302359],[-83.724366,42.302572]]}},{"type":"Feature","properties":{"k":"path"},"geometry":{"type":"LineString","coordinates":[[-83.726337,42.307753],[-83.7262,42.307787],[-83.725876,42.307845],[-83.725581,42.3081]]}},{"type":"Feature","properties":{"k":"path"},"geometry":{"type":"LineString","coordinates":[[-83.725876,42.307845],[-83.725627,42.307873]]}},{"type":"Feature","properties":{"k":"path"},"geometry":{"type":"LineString","coordinates":[[-83.724595,42.307791],[-83.724328,42.307738]]}},{"type":"Feature","properties":{"k":"path"},"geometry":{"type":"LineString","coordinates":[[-83.724244,42.307668],[-83.724185,42.307521]]}},{"type":"Feature","properties":{"k":"path"},"geometry":{"type":"LineString","coordinates":[[-83.724148,42.307411],[-83.723979,42.307055]]}},{"type":"Feature","properties":{"k":"path"},"geometry":{"type":"LineString","coordinates":[[-83.72379,42.303289],[-83.723863,42.303274],[-83.723888,42.303261],[-83.723893,42.303245],[-83.723877,42.303229],[-83.723821,42.303229],[-83.723729,42.303302]]}},{"type":"Feature","properties":{"k":"stream"},"geometry":{"type":"LineString","coordinates":[[-83.726876,42.302678],[-83.726788,42.302121]]}}]}