{"type":"FeatureCollection","features":[{"type":"Feature","properties":{"k":"hole","ref":"1","par":4},"geometry":{"type":"LineString","coordinates":[[-122.494779,37.782377],[-122.496635,37.783401],[-122.497319,37.78398]]}},{"type":"Feature","properties":{"k":"hole","ref":"2","par":4},"geometry":{"type":"LineString","coordinates":[[-122.497499,37.783337],[-122.498946,37.785046]]}},{"type":"Feature","properties":{"k":"hole","ref":"3","par":3},"geometry":{"type":"LineString","coordinates":[[-122.5014,37.786837],[-122.503007,37.786396]]}},{"type":"Feature","properties":{"k":"hole","ref":"4","par":4},"geometry":{"type":"LineString","coordinates":[[-122.50167,37.786361],[-122.504274,37.784695]]}},{"type":"Feature","properties":{"k":"hole","ref":"5","par":4},"geometry":{"type":"LineString","coordinates":[[-122.504239,37.784279],[-122.501193,37.786009]]}},{"type":"Feature","properties":{"k":"hole","ref":"6","par":4},"geometry":{"type":"LineString","coordinates":[[-122.501483,37.784185],[-122.500759,37.782958],[-122.50093,37.782018]]}},{"type":"Feature","properties":{"k":"hole","ref":"7","par":4},"geometry":{"type":"LineString","coordinates":[[-122.500921,37.781563],[-122.497573,37.782136]]}},{"type":"Feature","properties":{"k":"hole","ref":"8","par":4},"geometry":{"type":"LineString","coordinates":[[-122.497512,37.78182],[-122.495821,37.782113]]}},{"type":"Feature","properties":{"k":"hole","ref":"9","par":4},"geometry":{"type":"LineString","coordinates":[[-122.49565,37.782462],[-122.497801,37.78249],[-122.498817,37.782533]]}},{"type":"Feature","properties":{"k":"hole","ref":"10","par":4},"geometry":{"type":"LineString","coordinates":[[-122.499419,37.782257],[-122.499921,37.783502],[-122.499952,37.784302]]}},{"type":"Feature","properties":{"k":"hole","ref":"11","par":4},"geometry":{"type":"LineString","coordinates":[[-122.499742,37.784484],[-122.498878,37.783088],[-122.497912,37.782937]]}},{"type":"Feature","properties":{"k":"hole","ref":"12","par":3},"geometry":{"type":"LineString","coordinates":[[-122.497485,37.783711],[-122.49853,37.785159]]}},{"type":"Feature","properties":{"k":"hole","ref":"13","par":5},"geometry":{"type":"LineString","coordinates":[[-122.498761,37.785555],[-122.495904,37.783722],[-122.494671,37.783116]]}},{"type":"Feature","properties":{"k":"hole","ref":"14","par":4},"geometry":{"type":"LineString","coordinates":[[-122.494466,37.783505],[-122.495512,37.784489],[-122.496467,37.784637]]}},{"type":"Feature","properties":{"k":"hole","ref":"15","par":4},"geometry":{"type":"LineString","coordinates":[[-122.496354,37.784882],[-122.498157,37.78573],[-122.498911,37.785983]]}},{"type":"Feature","properties":{"k":"hole","ref":"16","par":3},"geometry":{"type":"LineString","coordinates":[[-122.498071,37.78605],[-122.495902,37.78514]]}},{"type":"Feature","properties":{"k":"hole","ref":"17","par":3},"geometry":{"type":"LineString","coordinates":[[-122.496797,37.786256],[-122.494493,37.786276]]}},{"type":"Feature","properties":{"k":"hole","ref":"18","par":4},"geometry":{"type":"LineString","coordinates":[[-122.49414,37.785825],[-122.49415,37.783865],[-122.494185,37.782688]]}},{"type":"Feature","properties":{"k":"path"},"geometry":{"type":"LineString","coordinates":[[-122.499913,37.78588],[-122.49988,37.785892],[-122.499658,37.785909],[-122.499541,37.785906],[-122.4994,37.78589],[-122.499238,37.785897],[-122.499143,37.785882],[-122.499104,37.785866],[-122.499044,37.785826],[-122.498985,37.785755],[-122.498921,37.785657],[-122.498838,37.785502],[-122.498818,37.78544],[-122.498797,37.785145],[-122.498812,37.785016],[-122.498794,37.784882],[-122.49878,37.784846],[-122.49865,37.784695],[-122.49852,37.78452],[-122.498409,37.784393],[-122.498301,37.784292],[-122.498202,37.784223],[-122.498095,37.784119],[-122.497838,37.783792],[-122.497666,37.783617],[-122.49755,37.783514],[-122.497514,37.783503],[-122.497474,37.78351],[-122.497352,37.783603],[-122.497295,37.783615],[-122.497225,37.783591],[-122.49711,37.783508],[-122.49705,37.783489],[-122.496993,37.783488],[-122.496941,37.783503],[-122.496922,37.783519],[-122.496861,37.78364],[-122.496824,37.783682],[-122.496769,37.783702],[-122.496732,37.783705],[-122.496637,37.783686],[-122.496494,37.783618],[-122.496062,37.783448],[-122.495564,37.783222],[-122.495444,37.783136],[-122.495276,37.783034],[-122.495244,37.783005],[-122.495196,37.782938],[-122.495077,37.782721],[-122.494928,37.782583],[-122.49485,37.782528],[-122.494575,37.782377],[-122.494517,37.782329]]}},{"type":"Feature","properties":{"k":"path"},"geometry":{"type":"LineString","coordinates":[[-122.501554,37.786501],[-122.501605,37.78662],[-122.501644,37.786641],[-122.501667,37.786642],[-122.50202,37.786553],[-122.50231,37.786504],[-122.502565,37.786474],[-122.502625,37.786433],[-122.502633,37.786397],[-122.502619,37.786358],[-122.502589,37.786346],[-122.502532,37.786333],[-122.502393,37.786336],[-122.502233,37.786352],[-122.501673,37.786484]]}},{"type":"Feature","properties":{"k":"path"},"geometry":{"type":"LineString","coordinates":[[-122.501099,37.78394],[-122.501113,37.783661],[-122.501174,37.783287],[-122.501176,37.783091],[-122.501139,37.782636],[-122.501086,37.781768],[-122.501047,37.781705],[-122.501008,37.781687],[-122.50067,37.781663],[-122.500335,37.781572],[-122.500156,37.78154],[-122.500014,37.781546],[-122.49986,37.781603],[-122.499818,37.781606],[-122.499658,37.781584],[-122.499519,37.781574],[-122.499363,37.781587],[-122.498627,37.781686],[-122.498415,37.781722],[-122.49799,37.78184],[-122.496951,37.782016],[-122.496916,37.782029],[-122.496897,37.782046],[-122.496846,37.782134],[-122.496772,37.782174],[-122.496494,37.782212],[-122.496189,37.782274],[-122.496084,37.782302],[-122.495988,37.782338]]}},{"type":"Feature","properties":{"k":"path"},"geometry":{"type":"LineString","coordinates":[[-122.495112,37.782379],[-122.495249,37.782357],[-122.495445,37.782414],[-122.495551,37.782392],[-122.495615,37.782339],[-122.495733,37.782311],[-122.495988,37.782338],[-122.496108,37.782371],[-122.496218,37.782377],[-122.496709,37.782365],[-122.497035,37.782324],[-122.497224,37.78231],[-122.497816,37.782304],[-122.498125,37.782331],[-122.498391,37.782337],[-122.498657,37.78229],[-122.498906,37.782331],[-122.499267,37.782247],[-122.499421,37.782473],[-122.499593,37.782785],[-122.499679,37.782914],[-122.499867,37.783009],[-122.499988,37.783118],[-122.500099,37.783308],[-122.500167,37.783457],[-122.50026,37.783798],[-122.500262,37.78383],[-122.500163,37.78401],[-122.500121,37.78412],[-122.500134,37.784323],[-122.500153,37.784428]]}},{"type":"Feature","properties":{"k":"path"},"geometry":{"type":"LineString","coordinates":[[-122.497327,37.783067],[-122.49734,37.783032],[-122.497367,37.78301],[-122.497572,37.783057],[-122.49779,37.783098],[-122.498017,37.783117],[-122.498052,37.783133],[-122.498191,37.783265],[-122.498463,37.783358],[-122.49858,37.783416],[-122.498838,37.783649],[-122.499374,37.784052],[-122.499438,37.784108],[-122.499506,37.784196],[-122.499588,37.784338],[-122.49962,37.784399],[-122.499661,37.784524],[-122.499695,37.784575]]}},{"type":"Feature","properties":{"k":"path"},"geometry":{"type":"LineString","coordinates":[[-122.498851,37.785528],[-122.498814,37.785495],[-122.498599,37.785378],[-122.498391,37.785245],[-122.498108,37.785096],[-122.498028,37.785077],[-122.49763,37.78501],[-122.497472,37.784959],[-122.497289,37.784854],[-122.496825,37.78453],[-122.496056,37.78414],[-122.495533,37.783798],[-122.495309,37.783661],[-122.49485,37.783459],[-122.494656,37.783358],[-122.494618,37.783344],[-122.494584,37.783344],[-122.49457,37.783351],[-122.494557,37.783381],[-122.49458,37.783464],[-122.494632,37.783571],[-122.494767,37.783797],[-122.494781,37.784009],[-122.494803,37.784065],[-122.494849,37.784125],[-122.494941,37.784212],[-122.495255,37.784429],[-122.495316,37.784491],[-122.495395,37.784593],[-122.495453,37.784644],[-122.495605,37.784726],[-122.495679,37.784749],[-122.4961,37.784786],[-122.496388,37.784796],[-122.496431,37.784807],[-122.496702,37.784918],[-122.49674,37.78494],[-122.496749,37.78496],[-122.496713,37.785085],[-122.496718,37.785142],[-122.496742,37.785193],[-122.496777,37.785224],[-122.49738,37.785526],[-122.497422,37.785555],[-122.497517,37.785657],[-122.497577,37.785691],[-122.497709,37.785732],[-122.497829,37.785794],[-122.49799,37.785862],[-122.498255,37.785935],[-122.498379,37.785991],[-122.49841,37.786017],[-122.4984,37.786031],[-122.498373,37.786033],[-122.498172,37.785998],[-122.497701,37.785857],[-122.497458,37.785773],[-122.49736,37.785722],[-122.497117,37.785546],[-122.49701,37.78548],[-122.496797,37.785361],[-122.496682,37.785307],[-122.496621,37.785288],[-122.496591,37.785286],[-122.496529,37.785305],[-122.496382,37.785425],[-122.496327,37.78545],[-122.496207,37.785486],[-122.496159,37.785512],[-122.496141,37.785555],[-122.496145,37.785579],[-122.49622,37.785739]]}},{"type":"Feature","properties":{"k":"path"},"geometry":{"type":"LineString","coordinates":[[-122.500014,37.781546],[-122.500003,37.78213],[-122.500039,37.782365],[-122.500099,37.782487],[-122.500216,37.782602],[-122.500266,37.782676],[-122.500289,37.782756],[-122.500337,37.783025],[-122.50039,37.783406],[-122.500416,37.783482],[-122.50045,37.783545],[-122.500503,37.78361],[-122.500584,37.783685],[-122.500767,37.783805],[-122.500942,37.783869],[-122.500988,37.783906]]}},{"type":"Feature","properties":{"k":"path"},"geometry":{"type":"LineString","coordinates":[[-122.494317,37.786129],[-122.494343,37.786153],[-122.494469,37.786075],[-122.494696,37.786088],[-122.495094,37.78605],[-122.495503,37.786037],[-122.495987,37.786037],[-122.496274,37.786052],[-122.496443,37.786088],[-122.496733,37.786168],[-122.496801,37.786179],[-122.496824,37.786172],[-122.496828,37.786156],[-122.496811,37.786126],[-122.496657,37.785967],[-122.496506,37.785922],[-122.49626,37.785871],[-122.496249,37.785836]]}},{"type":"Feature","properties":{"k":"path"},"geometry":{"type":"LineString","coordinates":[[-122.503108,37.785854],[-122.503188,37.785817],[-122.503229,37.78579],[-122.503413,37.785621],[-122.503498,37.785567],[-122.503655,37.785488],[-122.503923,37.785393],[-122.504007,37.785335],[-122.504123,37.785222],[-122.504288,37.784999],[-122.504457,37.784831],[-122.504481,37.784776],[-122.504598,37.78471]]}},{"type":"Feature","properties":{"k":"path"},"geometry":{"type":"LineString","coordinates":[[-122.504481,37.784776],[-122.504464,37.784682],[-122.504378,37.784557],[-122.504306,37.784495],[-122.504275,37.784456],[-122.504161,37.784269],[-122.504106,37.784228],[-122.504058,37.784227],[-122.50403,37.784236],[-122.503752,37.784348],[-122.503185,37.784549],[-122.503111,37.784596],[-122.503066,37.784658],[-122.503025,37.78475],[-122.502878,37.78517],[-122.502846,37.785224],[-122.50282,37.785249],[-122.502702,37.785314],[-122.502449,37.78543],[-122.502255,37.785532],[-122.502131,37.785623],[-122.501958,37.785779],[-122.501733,37.785954],[-122.50159,37.786047],[-122.501476,37.786096],[-122.50145,37.786116],[-122.501369,37.78622],[-122.501308,37.786245],[-122.501272,37.786248],[-122.501204,37.786232]]}},{"type":"Feature","properties":{"k":"green"},"geometry":{"type":"Polygon","coordinates":[[[-122.494667,37.782474],[-122.494828,37.782567],[-122.494849,37.782611],[-122.494849,37.782627],[-122.494826,37.78265],[-122.494792,37.782659],[-122.494748,37.782654],[-122.494615,37.782598],[-122.494481,37.782581],[-122.494451,37.782567],[-122.494441,37.782553],[-122.49444,37.782515],[-122.494481,37.782466],[-122.494511,37.782447],[-122.494577,37.782438],[-122.494667,37.782474]]]}},{"type":"Feature","properties":{"k":"tee"},"geometry":{"type":"Polygon","coordinates":[[[-122.495223,37.78261],[-122.495214,37.782632],[-122.495192,37.782649],[-122.495146,37.782652],[-122.494734,37.782397],[-122.494718,37.782377],[-122.494726,37.782343],[-122.494753,37.782325],[-122.494799,37.782322],[-122.495219,37.782592],[-122.495223,37.78261]]]}},{"type":"Feature","properties":{"k":"fairway"},"geometry":{"type":"Polygon","coordinates":[[[-122.4967,37.78353],[-122.496648,37.783584],[-122.496298,37.783453],[-122.495819,37.783251],[-122.495804,37.783203],[-122.495811,37.783154],[-122.495897,37.782982],[-122.496679,37.783239],[-122.496731,37.783262],[-122.496754,37.783286],[-122.496755,37.783398],[-122.496749,37.783428],[-122.4967,37.78353]]]}},{"type":"Feature","properties":{"k":"green"},"geometry":{"type":"Polygon","coordinates":[[[-122.497409,37.783966],[-122.497406,37.784028],[-122.497384,37.78406],[-122.497332,37.784095],[-122.497305,37.784102],[-122.497278,37.784104],[-122.497231,37.78409],[-122.497187,37.784055],[-122.497171,37.784032],[-122.497166,37.783981],[-122.497189,37.783938],[-122.497227,37.783904],[-122.497263,37.783891],[-122.497295,37.783889],[-122.497359,37.783906],[-122.497397,37.783936],[-122.497409,37.783966]]]}},{"type":"Feature","properties":{"k":"tee"},"geometry":{"type":"Polygon","coordinates":[[[-122.497627,37.783519],[-122.497463,37.783358],[-122.497455,37.783327],[-122.497464,37.783308],[-122.497481,37.783299],[-122.497504,37.7833],[-122.497527,37.783313],[-122.497666,37.783404],[-122.497734,37.783459],[-122.49771,37.783498],[-122.497627,37.783519]]]}},{"type":"Feature","properties":{"k":"bunker"},"geometry":{"type":"Polygon","coordinates":[[[-122.499129,37.784916],[-122.49911,37.784961],[-122.499079,37.784964],[-122.499068,37.784925],[-122.499075,37.784901],[-122.499096,37.784888],[-122.499116,37.78489],[-122.499129,37.784916]]]}},{"type":"Feature","properties":{"k":"green"},"geometry":{"type":"Polygon","coordinates":[[[-122.499047,37.785088],[-122.499026,37.785104],[-122.498976,37.785121],[-122.498919,37.78511],[-122.498873,37.78508],[-122.49886,37.785047],[-122.498863,37.785015],[-122.498886,37.78497],[-122.498915,37.784946],[-122.498958,37.784932],[-122.498999,37.784944],[-122.499028,37.78497],[-122.499063,37.78503],[-122.499061,37.78507],[-122.499047,37.785088]]]}},{"type":"Feature","properties":{"k":"tee"},"geometry":{"type":"Polygon","coordinates":[[[-122.501431,37.786763],[-122.501452,37.786768],[-122.501488,37.786882],[-122.50141,37.786896],[-122.501388,37.786892],[-122.501374,37.78688],[-122.501354,37.786798],[-122.501358,37.786782],[-122.501375,37.786773],[-122.501431,37.786763]]]}},{"type":"Feature","properties":{"k":"tee"},"geometry":{"type":"Polygon","coordinates":[[[-122.501619,37.786729],[-122.501653,37.786833],[-122.501597,37.786856],[-122.501561,37.786861],[-122.501553,37.786855],[-122.501517,37.786752],[-122.501529,37.786741],[-122.501596,37.786724],[-122.501619,37.786729]]]}},{"type":"Feature","properties":{"k":"green"},"geometry":{"type":"Polygon","coordinates":[[[-122.503068,37.786352],[-122.503062,37.786391],[-122.503048,37.786412],[-122.502951,37.786478],[-122.50291,37.786489],[-122.502868,37.786489],[-122.50282,37.786464],[-122.502804,37.786428],[-122.502814,37.786383],[-122.502842,37.786348],[-122.502898,37.786312],[-122.502945,37.786297],[-122.502988,37.786295],[-122.503021,37.786302],[-122.50306,37.78633],[-122.503068,37.786352]]]}},{"type":"Feature","properties":{"k":"tee"},"geometry":{"type":"Polygon","coordinates":[[[-122.5016,37.786351],[-122.501673,37.786295],[-122.501739,37.786268],[-122.501772,37.78629],[-122.501822,37.786351],[-122.501706,37.786432],[-122.501684,37.786434],[-122.501624,37.78642],[-122.5016,37.786351]]]}},{"type":"Feature","properties":{"k":"bunker"},"geometry":{"type":"Polygon","coordinates":[[[-122.504169,37.784886],[-122.504203,37.784897],[-122.504206,37.784909],[-122.504205,37.784917],[-122.504178,37.784934],[-122.504142,37.784913],[-122.504144,37.784894],[-122.504169,37.784886]]]}},{"type":"Feature","properties":{"k":"green"},"geometry":{"type":"Polygon","coordinates":[[[-122.504338,37.784691],[-122.504367,37.784736],[-122.504369,37.784763],[-122.504358,37.784806],[-122.504336,37.784827],[-122.504267,37.784841],[-122.504201,37.784835],[-122.504159,37.784822],[-122.504139,37.784799],[-122.504134,37.784765],[-122.504148,37.784727],[-122.504179,37.784695],[-122.504232,37.78467],[-122.504276,37.784665],[-122.504324,37.784678],[-122.504338,37.784691]]]}},{"type":"Feature","properties":{"k":"tee"},"geometry":{"type":"Polygon","coordinates":[[[-122.504151,37.784343],[-122.50403,37.784387],[-122.503994,37.784383],[-122.503955,37.784322],[-122.5041,37.784266],[-122.504142,37.784292],[-122.504155,37.784326],[-122.504151,37.784343]]]}},{"type":"Feature","properties":{"k":"bunker"},"geometry":{"type":"Polygon","coordinates":[[[-122.501465,37.785983],[-122.501417,37.78603],[-122.501401,37.78603],[-122.501372,37.785965],[-122.501372,37.785945],[-122.501392,37.785935],[-122.501409,37.785936],[-122.501449,37.785954],[-122.501465,37.785983]]]}},{"type":"Feature","properties":{"k":"green"},"geometry":{"type":"Polygon","coordinates":[[[-122.501335,37.786005],[-122.501326,37.78604],[-122.501294,37.786061],[-122.501254,37.786067],[-122.5012,37.786052],[-122.501165,37.786021],[-122.501147,37.785985],[-122.501144,37.785948],[-122.501158,37.785903],[-122.501197,37.785884],[-122.50124,37.785887],[-122.501261,37.785896],[-122.501302,37.785928],[-122.50132,37.785953],[-122.501335,37.786005]]]}},{"type":"Feature","properties":{"k":"tee"},"geometry":{"type":"Polygon","coordinates":[[[-122.501337,37.783981],[-122.501552,37.784193],[-122.501577,37.78422],[-122.501573,37.784234],[-122.501533,37.784254],[-122.501498,37.784252],[-122.501274,37.784042],[-122.501276,37.784021],[-122.501337,37.783981]]]}},{"type":"Feature","properties":{"k":"green"},"geometry":{"type":"Polygon","coordinates":[[[-122.501024,37.78206],[-122.500987,37.782108],[-122.500958,37.782127],[-122.500896,37.782146],[-122.500845,37.782142],[-122.500821,37.782131],[-122.500795,37.782088],[-122.5008,37.782034],[-122.500824,37.782],[-122.500848,37.781983],[-122.500896,37.781965],[-122.500954,37.781965],[-122.500983,37.781973],[-122.501006,37.781988],[-122.501028,37.782021],[-122.501024,37.78206]]]}},{"type":"Feature","properties":{"k":"tee"},"geometry":{"type":"Polygon","coordinates":[[[-122.500971,37.7816],[-122.50097,37.781613],[-122.50096,37.781618],[-122.500797,37.781626],[-122.500782,37.781616],[-122.50077,37.78154],[-122.500789,37.78153],[-122.500957,37.781522],[-122.500978,37.78154],[-122.500971,37.7816]]]}},{"type":"Feature","properties":{"k":"green"},"geometry":{"type":"Polygon","coordinates":[[[-122.497691,37.782143],[-122.497646,37.782201],[-122.497594,37.782223],[-122.497546,37.782226],[-122.497502,37.782212],[-122.497485,37.782195],[-122.497454,37.782137],[-122.497453,37.7821],[-122.497477,37.782067],[-122.497505,37.782047],[-122.497541,37.782035],[-122.497586,37.782032],[-122.497614,37.782039],[-122.497666,37.782073],[-122.497692,37.78211],[-122.497691,37.782143]]]}},{"type":"Feature","properties":{"k":"tee"},"geometry":{"type":"Polygon","coordinates":[[[-122.497579,37.78186],[-122.497566,37.781883],[-122.497348,37.78192],[-122.49733,37.781916],[-122.497319,37.781903],[-122.497294,37.781813],[-122.497309,37.781799],[-122.497532,37.781752],[-122.497546,37.781756],[-122.497556,37.78177],[-122.497579,37.78186]]]}},{"type":"Feature","properties":{"k":"bunker"},"geometry":{"type":"Polygon","coordinates":[[[-122.496019,37.781978],[-122.495961,37.782049],[-122.495939,37.782048],[-122.495925,37.782018],[-122.495964,37.78198],[-122.495963,37.78195],[-122.495981,37.781939],[-122.496001,37.78194],[-122.496017,37.781958],[-122.496019,37.781978]]]}},{"type":"Feature","properties":{"k":"bunker"},"geometry":{"type":"Polygon","coordinates":[[[-122.495736,37.782041],[-122.495714,37.782051],[-122.495685,37.78205],[-122.495668,37.782042],[-122.495665,37.782028],[-122.495687,37.782002],[-122.495711,37.781996],[-122.495738,37.782023],[-122.495736,37.782041]]]}},{"type":"Feature","properties":{"k":"bunker"},"geometry":{"type":"Polygon","coordinates":[[[-122.496072,37.782189],[-122.496079,37.782205],[-122.496066,37.782219],[-122.495996,37.782233],[-122.495981,37.782193],[-122.49599,37.782173],[-122.496035,37.782167],[-122.496072,37.782189]]]}},{"type":"Feature","properties":{"k":"green"},"geometry":{"type":"Polygon","coordinates":[[[-122.495917,37.78215],[-122.495863,37.782186],[-122.495798,37.782188],[-122.495752,37.782167],[-122.495721,37.782144],[-122.495711,37.782099],[-122.495719,37.782084],[-122.495767,37.782052],[-122.495836,37.782042],[-122.495878,37.782059],[-122.49592,37.782097],[-122.495927,37.782127],[-122.495917,37.78215]]]}},{"type":"Feature","properties":{"k":"tee"},"geometry":{"type":"Polygon","coordinates":[[[-122.495898,37.782411],[-122.495888,37.782503],[-122.495861,37.782523],[-122.495631,37.782513],[-122.495761,37.782596],[-122.495601,37.782494],[-122.495569,37.782439],[-122.495572,37.782414],[-122.495609,37.782395],[-122.495874,37.782399],[-122.495898,37.782411]]]}},{"type":"Feature","properties":{"k":"green"},"geometry":{"type":"Polygon","coordinates":[[[-122.498913,37.782526],[-122.498896,37.782555],[-122.498851,37.782573],[-122.498798,37.782578],[-122.498729,37.782568],[-122.498646,37.782536],[-122.498608,37.782496],[-122.498604,37.782465],[-122.498619,37.782441],[-122.49867,37.782415],[-122.498735,37.782411],[-122.498768,37.782416],[-122.498843,37.782439],[-122.498894,37.78247],[-122.498913,37.782508],[-122.498913,37.782526]]]}},{"type":"Feature","properties":{"k":"tee"},"geometry":{"type":"Polygon","coordinates":[[[-122.49951,37.782309],[-122.499391,37.782335],[-122.499347,37.782246],[-122.499352,37.782237],[-122.499372,37.782222],[-122.499405,37.782215],[-122.499431,37.782215],[-122.499463,37.782225],[-122.499482,37.782237],[-122.49951,37.782309]]]}},{"type":"Feature","properties":{"k":"fairway"},"geometry":{"type":"Polygon","coordinates":[[[-122.499844,37.783786],[-122.499742,37.783478],[-122.499702,37.783179],[-122.499706,37.783122],[-122.499732,37.783072],[-122.499752,37.783049],[-122.499787,37.783031],[-122.49984,37.783041],[-122.499885,37.783082],[-122.500031,37.783757],[-122.500012,37.783805],[-122.499973,37.783855],[-122.49994,37.783874],[-122.499903,37.783874],[-122.499867,37.783856],[-122.499856,37.783842],[-122.499844,37.783786]]]}},{"type":"Feature","properties":{"k":"green"},"geometry":{"type":"Polygon","coordinates":[[[-122.500044,37.784187],[-122.500067,37.784216],[-122.500078,37.784272],[-122.500072,37.784315],[-122.500055,37.784348],[-122.500044,37.78436],[-122.500006,37.784373],[-122.49994,37.784368],[-122.499901,37.784345],[-122.499881,37.784315],[-122.499877,37.78426],[-122.499898,37.784211],[-122.499927,37.784179],[-122.499967,37.784161],[-122.500011,37.784165],[-122.500044,37.784187]]]}},{"type":"Feature","properties":{"k":"tee"},"geometry":{"type":"Polygon","coordinates":[[[-122.499847,37.784483],[-122.499846,37.784498],[-122.499814,37.784513],[-122.499701,37.784529],[-122.499667,37.784448],[-122.499663,37.784419],[-122.499684,37.784407],[-122.499759,37.784393],[-122.499769,37.784425],[-122.49978,37.784434],[-122.499802,37.784425],[-122.499828,37.784428],[-122.499847,37.784483]]]}},{"type":"Feature","properties":{"k":"green"},"geometry":{"type":"Polygon","coordinates":[[[-122.498036,37.782852],[-122.49806,37.782876],[-122.498073,37.78292],[-122.498056,37.782971],[-122.498036,37.78299],[-122.497969,37.783019],[-122.497935,37.78302],[-122.497872,37.783006],[-122.497828,37.782972],[-122.497815,37.782935],[-122.497817,37.782898],[-122.497856,37.782852],[-122.497909,37.782834],[-122.497976,37.78283],[-122.498009,37.782836],[-122.498036,37.782852]]]}},{"type":"Feature","properties":{"k":"tee"},"geometry":{"type":"Polygon","coordinates":[[[-122.497492,37.783651],[-122.497698,37.783856],[-122.497687,37.783879],[-122.497631,37.7839],[-122.497604,37.783901],[-122.497568,37.783878],[-122.497395,37.783706],[-122.497492,37.783651]]]}},{"type":"Feature","properties":{"k":"green"},"geometry":{"type":"Polygon","coordinates":[[[-122.49844,37.78511],[-122.498441,37.785081],[-122.498465,37.785041],[-122.498517,37.785013],[-122.498567,37.78501],[-122.498604,37.785021],[-122.49866,37.785064],[-122.498672,37.785083],[-122.498678,37.785129],[-122.498653,37.785179],[-122.498614,37.785205],[-122.49853,37.785212],[-122.498511,37.785206],[-122.498469,37.78517],[-122.49844,37.78511]]]}},{"type":"Feature","properties":{"k":"tee"},"geometry":{"type":"Polygon","coordinates":[[[-122.498802,37.785619],[-122.498711,37.785577],[-122.498621,37.785525],[-122.498615,37.785511],[-122.498649,37.785463],[-122.498671,37.78546],[-122.498757,37.7855],[-122.498835,37.785559],[-122.498843,37.785583],[-122.498829,37.785609],[-122.498802,37.785619]]]}},{"type":"Feature","properties":{"k":"fairway"},"geometry":{"type":"Polygon","coordinates":[[[-122.49608,37.783711],[-122.496531,37.783978],[-122.496994,37.784193],[-122.497105,37.784209],[-122.49721,37.784248],[-122.497214,37.784283],[-122.497162,37.784311],[-122.496732,37.784358],[-122.496349,37.784189],[-122.496091,37.784031],[-122.495805,37.783881],[-122.495049,37.783457],[-122.494535,37.783222],[-122.494501,37.783195],[-122.494484,37.783164],[-122.494491,37.7831],[-122.494571,37.783054],[-122.494622,37.783034],[-122.494681,37.783026],[-122.494751,37.783041],[-122.494795,37.783075],[-122.494807,37.783173],[-122.495042,37.783268],[-122.495108,37.783274],[-122.495147,37.783269],[-122.495227,37.78323],[-122.495302,37.783156],[-122.49535,37.783158],[-122.495527,37.783285],[-122.49608,37.783711]]]}},{"type":"Feature","properties":{"k":"bunker"},"geometry":{"type":"Polygon","coordinates":[[[-122.495119,37.783215],[-122.495108,37.783235],[-122.495091,37.783242],[-122.495064,37.78324],[-122.495023,37.783224],[-122.494999,37.783188],[-122.495009,37.783154],[-122.495047,37.783139],[-122.495091,37.783151],[-122.495115,37.783168],[-122.495119,37.783215]]]}},{"type":"Feature","properties":{"k":"tee"},"geometry":{"type":"Polygon","coordinates":[[[-122.494552,37.783526],[-122.494488,37.783571],[-122.494399,37.783513],[-122.494384,37.783482],[-122.494393,37.783454],[-122.494433,37.78346],[-122.494552,37.783526]]]}},{"type":"Feature","properties":{"k":"green"},"geometry":{"type":"Polygon","coordinates":[[[-122.496478,37.784553],[-122.496516,37.784563],[-122.496562,37.78459],[-122.496604,37.784645],[-122.496606,37.784691],[-122.496598,37.784712],[-122.496578,37.78473],[-122.496534,37.784747],[-122.496492,37.784745],[-122.49643,37.784723],[-122.496347,37.784681],[-122.496325,37.784652],[-122.496322,37.784637],[-122.496334,37.78461],[-122.496363,37.784584],[-122.496441,37.784557],[-122.496478,37.784553]]]}},{"type":"Feature","properties":{"k":"tee"},"geometry":{"type":"Polygon","coordinates":[[[-122.49643,37.784849],[-122.496439,37.784854],[-122.496444,37.784905],[-122.496397,37.784962],[-122.496282,37.784925],[-122.496282,37.78491],[-122.496317,37.784832],[-122.496328,37.784825],[-122.496372,37.784825],[-122.49643,37.784849]]]}},{"type":"Feature","properties":{"k":"bunker"},"geometry":{"type":"Polygon","coordinates":[[[-122.498719,37.786035],[-122.498725,37.786051],[-122.498683,37.78606],[-122.498658,37.786052],[-122.498656,37.786036],[-122.498675,37.786018],[-122.498693,37.786019],[-122.498719,37.786035]]]}},{"type":"Feature","properties":{"k":"green"},"geometry":{"type":"Polygon","coordinates":[[[-122.498882,37.786086],[-122.498817,37.786069],[-122.498768,37.786027],[-122.498763,37.786004],[-122.49878,37.785959],[-122.498805,37.785941],[-122.498835,37.785928],[-122.498881,37.785922],[-122.498967,37.785948],[-122.498992,37.785972],[-122.499008,37.786001],[-122.499005,37.786028],[-122.498975,37.786066],[-122.498949,37.786079],[-122.498882,37.786086]]]}},{"type":"Feature","properties":{"k":"tee"},"geometry":{"type":"Polygon","coordinates":[[[-122.49816,37.786051],[-122.498146,37.786076],[-122.498114,37.786095],[-122.498046,37.786079],[-122.497946,37.786043],[-122.497944,37.785986],[-122.497957,37.785974],[-122.49815,37.78604],[-122.49816,37.786051]]]}},{"type":"Feature","properties":{"k":"green"},"geometry":{"type":"Polygon","coordinates":[[[-122.495969,37.785053],[-122.496012,37.78508],[-122.496034,37.785108],[-122.496047,37.785147],[-122.496047,37.78519],[-122.496029,37.785219],[-122.496,37.785231],[-122.495932,37.785234],[-122.495862,37.785209],[-122.495836,37.785191],[-122.495811,37.785166],[-122.495797,37.785117],[-122.495805,37.785093],[-122.495842,37.785057],[-122.495901,37.78504],[-122.495953,37.785044],[-122.495969,37.785053]]]}},{"type":"Feature","properties":{"k":"bunker"},"geometry":{"type":"Polygon","coordinates":[[[-122.49598,37.785316],[-122.495949,37.785337],[-122.495925,37.785342],[-122.495886,37.785328],[-122.495879,37.785313],[-122.495965,37.785299],[-122.495979,37.785303],[-122.49598,37.785316]]]}},{"type":"Feature","properties":{"k":"tee"},"geometry":{"type":"Polygon","coordinates":[[[-122.496798,37.786216],[-122.496932,37.786262],[-122.496927,37.78629],[-122.496903,37.786299],[-122.496777,37.786307],[-122.496748,37.786255],[-122.496743,37.786222],[-122.496762,37.786211],[-122.496798,37.786216]]]}},{"type":"Feature","properties":{"k":"tee"},"geometry":{"type":"Polygon","coordinates":[[[-122.496151,37.786159],[-122.496112,37.78616],[-122.496058,37.786148],[-122.496034,37.786131],[-122.496027,37.786106],[-122.49604,37.786097],[-122.496103,37.786094],[-122.49619,37.786108],[-122.496207,37.786123],[-122.496201,37.786141],[-122.496177,37.786158],[-122.496151,37.786159]]]}},{"type":"Feature","properties":{"k":"bunker"},"geometry":{"type":"Polygon","coordinates":[[[-122.494381,37.786222],[-122.494343,37.786278],[-122.494342,37.786295],[-122.494331,37.786303],[-122.494304,37.786299],[-122.494305,37.786255],[-122.494322,37.786221],[-122.494367,37.786201],[-122.494383,37.78621],[-122.494381,37.786222]]]}},{"type":"Feature","properties":{"k":"tee"},"geometry":{"type":"Polygon","coordinates":[[[-122.494205,37.785912],[-122.494182,37.785921],[-122.494135,37.785922],[-122.4941,37.785909],[-122.494084,37.785881],[-122.494071,37.785842],[-122.49408,37.785771],[-122.494108,37.785719],[-122.49413,37.785712],[-122.494176,37.785712],[-122.494205,37.785721],[-122.494229,37.785746],[-122.494233,37.785781],[-122.4942,37.785839],[-122.494205,37.785912]]]}},{"type":"Feature","properties":{"k":"bunker"},"geometry":{"type":"Polygon","coordinates":[[[-122.493975,37.782694],[-122.493986,37.782701],[-122.493985,37.782727],[-122.493963,37.782736],[-122.493938,37.782767],[-122.493924,37.782802],[-122.493906,37.782806],[-122.493896,37.782776],[-122.493912,37.782725],[-122.493944,37.782694],[-122.493975,37.782694]]]}},{"type":"Feature","properties":{"k":"path"},"geometry":{"type":"LineString","coordinates":[[-122.504091,37.785838],[-122.503933,37.785806],[-122.503852,37.785797],[-122.503547,37.785798],[-122.503329,37.785815],[-122.502884,37.785894],[-122.502719,37.785948],[-122.502666,37.785978],[-122.502481,37.786111],[-122.502399,37.786154],[-122.501977,37.786327],[-122.501728,37.786464],[-122.501673,37.786484],[-122.501554,37.786501]]}},{"type":"Feature","properties":{"k":"path"},"geometry":{"type":"LineString","coordinates":[[-122.493796,37.783122],[-122.493827,37.783207],[-122.493847,37.783299],[-122.493861,37.78363],[-122.493859,37.78383],[-122.493888,37.784031],[-122.493912,37.784343],[-122.493957,37.78464],[-122.493985,37.785169],[-122.494032,37.785511],[-122.494034,37.785599],[-122.494017,37.785788],[-122.494027,37.785952],[-122.494045,37.785988],[-122.49406,37.786],[-122.494098,37.786013],[-122.494195,37.786027],[-122.494243,37.786058]]}},{"type":"Feature","properties":{"k":"path"},"geometry":{"type":"LineString","coordinates":[[-122.498797,37.785145],[-122.49878,37.78509],[-122.49863,37.784898],[-122.498544,37.78475],[-122.498479,37.784665],[-122.4984,37.784587],[-122.498187,37.784429],[-122.498127,37.784374],[-122.497973,37.784148],[-122.497616,37.783673],[-122.497589,37.783648],[-122.497471,37.783578],[-122.497358,37.783485],[-122.497329,37.78345],[-122.49727,37.783344],[-122.49726,37.783268],[-122.497267,37.7832]]}},{"type":"Feature","properties":{"k":"path"},"geometry":{"type":"LineString","coordinates":[[-122.501554,37.786501],[-122.501493,37.786442],[-122.501327,37.786318],[-122.500871,37.786003],[-122.500818,37.785971],[-122.500686,37.785916],[-122.50063,37.7859],[-122.500464,37.785874],[-122.50038,37.785837],[-122.500321,37.785792],[-122.500096,37.785935],[-122.500081,37.785931]]}},{"type":"Feature","properties":{"k":"green"},"geometry":{"type":"Polygon","coordinates":[[[-122.494257,37.782766],[-122.494286,37.782699],[-122.494282,37.782673],[-122.494262,37.782642],[-122.494236,37.782624],[-122.494184,37.782603],[-122.494113,37.782606],[-122.494066,37.782641],[-122.494037,37.782681],[-122.494032,37.782739],[-122.494055,37.782784],[-122.494095,37.782813],[-122.49415,37.782821],[-122.494208,37.782809],[-122.494257,37.782766]]]}},{"type":"Feature","properties":{"k":"green"},"geometry":{"type":"Polygon","coordinates":[[[-122.494661,37.786368],[-122.494701,37.786331],[-122.494702,37.786305],[-122.494679,37.786233],[-122.494648,37.786211],[-122.494494,37.786184],[-122.494428,37.786196],[-122.494381,37.786235],[-122.494364,37.786262],[-122.494367,37.786293],[-122.494394,37.786324],[-122.494463,37.786366],[-122.494502,37.786379],[-122.494604,37.786391],[-122.494661,37.786368]]]}},{"type":"Feature","properties":{"k":"fairway"},"geometry":{"type":"Polygon","coordinates":[[[-122.494661,37.786368],[-122.494701,37.786331],[-122.494698,37.786285],[-122.494721,37.786306],[-122.494803,37.786319],[-122.494861,37.786318],[-122.494879,37.786312],[-122.494895,37.786288],[-122.49493,37.786275],[-122.495025,37.786261],[-122.495141,37.786274],[-122.495162,37.786304],[-122.495168,37.786335],[-122.495168,37.786378],[-122.495084,37.786438],[-122.495016,37.786455],[-122.494926,37.786462],[-122.494846,37.786453],[-122.494816,37.786392],[-122.494783,37.786393],[-122.494681,37.786366],[-122.494661,37.786368]]]}}]}