{"type":"FeatureCollection","features":[{"type":"Feature","properties":{"k":"hole","ref":"1","par":5},"geometry":{"type":"LineString","coordinates":[[-118.878903,34.175631],[-118.881403,34.177248],[-118.882543,34.177948]]}},{"type":"Feature","properties":{"k":"hole","ref":"2","par":3},"geometry":{"type":"LineString","coordinates":[[-118.882788,34.178299],[-118.884062,34.179047]]}},{"type":"Feature","properties":{"k":"hole","ref":"3","par":4},"geometry":{"type":"LineString","coordinates":[[-118.884345,34.179332],[-118.886302,34.179972],[-118.887856,34.180459]]}},{"type":"Feature","properties":{"k":"hole","ref":"4","par":4},"geometry":{"type":"LineString","coordinates":[[-118.888941,34.180723],[-118.889123,34.179154],[-118.889021,34.1782]]}},{"type":"Feature","properties":{"k":"hole","ref":"5","par":4},"geometry":{"type":"LineString","coordinates":[[-118.889482,34.177985],[-118.889861,34.179882],[-118.889688,34.180941]]}},{"type":"Feature","properties":{"k":"hole","ref":"6","par":3},"geometry":{"type":"LineString","coordinates":[[-118.889837,34.181542],[-118.888609,34.181125],[-118.888206,34.180905]]}},{"type":"Feature","properties":{"k":"hole","ref":"7","par":4},"geometry":{"type":"LineString","coordinates":[[-118.888596,34.179707],[-118.886485,34.179626],[-118.884501,34.178924]]}},{"type":"Feature","properties":{"k":"hole","ref":"8","par":3},"geometry":{"type":"LineString","coordinates":[[-118.884287,34.178676],[-118.883411,34.178226],[-118.883054,34.177953]]}},{"type":"Feature","properties":{"k":"hole","ref":"9","par":4},"geometry":{"type":"LineString","coordinates":[[-118.882672,34.178475],[-118.881355,34.177832],[-118.880195,34.177221]]}},{"type":"Feature","properties":{"k":"hole","ref":"10","par":5},"geometry":{"type":"LineString","coordinates":[[-118.879036,34.175507],[-118.881987,34.176828],[-118.882776,34.177516]]}},{"type":"Feature","properties":{"k":"hole","ref":"11","par":3},"geometry":{"type":"LineString","coordinates":[[-118.882576,34.17655],[-118.883547,34.177597],[-118.883603,34.177782]]}},{"type":"Feature","properties":{"k":"hole","ref":"12","par":5},"geometry":{"type":"LineString","coordinates":[[-118.88399,34.178115],[-118.887264,34.178899],[-118.88838,34.178891]]}},{"type":"Feature","properties":{"k":"hole","ref":"13","par":4},"geometry":{"type":"LineString","coordinates":[[-118.888128,34.178385],[-118.88962,34.177044],[-118.889817,34.176055]]}},{"type":"Feature","properties":{"k":"hole","ref":"14","par":5},"geometry":{"type":"LineString","coordinates":[[-118.889224,34.176324],[-118.887153,34.178154],[-118.88418,34.177709]]}},{"type":"Feature","properties":{"k":"hole","ref":"15","par":4},"geometry":{"type":"LineString","coordinates":[[-118.88351,34.177194],[-118.886458,34.17742],[-118.887759,34.177084]]}},{"type":"Feature","properties":{"k":"hole","ref":"16","par":3},"geometry":{"type":"LineString","coordinates":[[-118.888469,34.176629],[-118.886841,34.176832],[-118.886685,34.176815]]}},{"type":"Feature","properties":{"k":"hole","ref":"17","par":4},"geometry":{"type":"LineString","coordinates":[[-118.886127,34.177051],[-118.882606,34.176248],[-118.88185,34.175829]]}},{"type":"Feature","properties":{"k":"hole","ref":"18","par":4},"geometry":{"type":"LineString","coordinates":[[-118.881974,34.176339],[-118.879613,34.175177],[-118.878793,34.175246]]}},{"type":"Feature","properties":{"k":"range"},"geometry":{"type":"Polygon","coordinates":[[[-118.879784,34.176668],[-118.879738,34.176652],[-118.879775,34.176558],[-118.877325,34.175432],[-118.877154,34.175703],[-118.877179,34.17621],[-118.879368,34.177219],[-118.87947,34.177141],[-118.879602,34.176996],[-118.879711,34.176834],[-118.879784,34.176668]]]}},{"type":"Feature","properties":{"k":"path"},"geometry":{"type":"LineString","coordinates":[[-118.879016,34.174737],[-118.879017,34.174762],[-118.878928,34.174974],[-118.878928,34.174999],[-118.878937,34.175023],[-118.878974,34.17506],[-118.879023,34.175086],[-118.879108,34.175119],[-118.879163,34.175122],[-118.879272,34.175104],[-118.879332,34.175084],[-118.879388,34.175046],[-118.879464,34.174929],[-118.879501,34.174898],[-118.879537,34.174884],[-118.879609,34.174874],[-118.879864,34.174885],[-118.87994,34.174914],[-118.880056,34.175008],[-118.880165,34.175056],[-118.880376,34.175267],[-118.88051,34.175475],[-118.880625,34.175571],[-118.881467,34.175958],[-118.881934,34.176203],[-118.882264,34.176356],[-118.882686,34.176516],[-118.882873,34.176528],[-118.883054,34.176598],[-118.883161,34.176691],[-118.88339,34.176786],[-118.883781,34.176859],[-118.883947,34.176932],[-118.884074,34.176955],[-118.884363,34.176935],[-118.884659,34.176941],[-118.884884,34.176892],[-118.885044,34.176833],[-118.885272,34.176724],[-118.88537,34.176721],[-118.885472,34.176778],[-118.88559,34.176822],[-118.885735,34.176818]]}},{"type":"Feature","properties":{"k":"tee"},"geometry":{"type":"Polygon","coordinates":[[[-118.879318,34.175935],[-118.879283,34.175939],[-118.879226,34.175917],[-118.878943,34.175731],[-118.878851,34.175653],[-118.878836,34.175615],[-118.878841,34.175589],[-118.878866,34.175575],[-118.87893,34.175596],[-118.87933,34.175848],[-118.879353,34.175871],[-118.879359,34.175899],[-118.879318,34.175935]]]}},{"type":"Feature","properties":{"k":"green"},"geometry":{"type":"Polygon","coordinates":[[[-118.882618,34.178094],[-118.882563,34.178091],[-118.88248,34.178072],[-118.882442,34.178048],[-118.882418,34.177875],[-118.882427,34.177849],[-118.882469,34.177821],[-118.882537,34.177812],[-118.882579,34.177825],[-118.882604,34.177852],[-118.882652,34.177939],[-118.882689,34.177985],[-118.882692,34.178019],[-118.882682,34.178047],[-118.882645,34.178084],[-118.882618,34.178094]]]}},{"type":"Feature","properties":{"k":"tee"},"geometry":{"type":"Polygon","coordinates":[[[-118.883041,34.178482],[-118.882981,34.178465],[-118.882764,34.178358],[-118.882726,34.178333],[-118.882715,34.178302],[-118.882742,34.178259],[-118.882777,34.178235],[-118.882804,34.178236],[-118.882979,34.178329],[-118.883066,34.178385],[-118.883087,34.178411],[-118.883087,34.178455],[-118.883062,34.17848],[-118.883041,34.178482]]]}},{"type":"Feature","properties":{"k":"path"},"geometry":{"type":"LineString","coordinates":[[-118.882449,34.176426],[-118.882444,34.176462],[-118.88247,34.176595],[-118.882676,34.176846],[-118.882806,34.177065],[-118.882829,34.177117],[-118.882823,34.177138],[-118.882794,34.177139],[-118.88264,34.177037],[-118.882515,34.176986],[-118.882389,34.176917],[-118.881957,34.176549],[-118.88184,34.176463],[-118.881531,34.176268],[-118.880985,34.176052],[-118.880328,34.175811],[-118.880304,34.175811],[-118.880285,34.175822],[-118.880067,34.176005],[-118.880008,34.176025],[-118.879947,34.176024],[-118.879901,34.176004],[-118.879569,34.175808],[-118.879316,34.175673],[-118.879238,34.175647],[-118.879154,34.175636],[-118.879087,34.175617],[-118.878923,34.17554],[-118.878848,34.175535],[-118.878788,34.175545],[-118.878783,34.175591],[-118.878791,34.175649],[-118.87881,34.175692],[-118.87885,34.175749],[-118.879128,34.175988],[-118.879338,34.17618],[-118.879447,34.176334],[-118.879569,34.176421],[-118.879674,34.176467],[-118.879749,34.176485],[-118.880024,34.176657],[-118.880142,34.176722],[-118.88041,34.176858],[-118.880743,34.177008],[-118.880896,34.177101],[-118.881135,34.177301],[-118.881824,34.177743],[-118.882022,34.177857],[-118.882296,34.178075],[-118.882472,34.178202],[-118.882621,34.178288],[-118.882643,34.178321],[-118.882713,34.178396],[-118.882929,34.178581],[-118.883181,34.178657],[-118.883343,34.178728],[-118.883544,34.178837],[-118.883702,34.178988],[-118.883873,34.179181],[-118.884305,34.1794]]}},{"type":"Feature","properties":{"k":"green"},"geometry":{"type":"Polygon","coordinates":[[[-118.887905,34.180576],[-118.887868,34.180574],[-118.88782,34.180552],[-118.887738,34.180459],[-118.887732,34.180418],[-118.887745,34.180396],[-118.887769,34.180378],[-118.887814,34.180372],[-118.887961,34.180397],[-118.888,34.18042],[-118.888006,34.180449],[-118.88799,34.180501],[-118.887953,34.180549],[-118.887905,34.180576]]]}},{"type":"Feature","properties":{"k":"tee"},"geometry":{"type":"Polygon","coordinates":[[[-118.889077,34.180569],[-118.88904,34.180704],[-118.889019,34.18075],[-118.888988,34.180769],[-118.88893,34.180773],[-118.888896,34.180764],[-118.888867,34.180744],[-118.888857,34.180686],[-118.888871,34.180593],[-118.888907,34.180487],[-118.888931,34.180471],[-118.888957,34.180468],[-118.889052,34.180493],[-118.889073,34.180513],[-118.889077,34.180569]]]}},{"type":"Feature","properties":{"k":"green"},"geometry":{"type":"Polygon","coordinates":[[[-118.889172,34.178203],[-118.889158,34.178232],[-118.889145,34.178241],[-118.889063,34.178256],[-118.888949,34.178311],[-118.888919,34.178314],[-118.888891,34.178307],[-118.888862,34.178286],[-118.888852,34.178269],[-118.888861,34.178217],[-118.888888,34.178191],[-118.889061,34.178118],[-118.889104,34.178118],[-118.889153,34.178134],[-118.88917,34.178154],[-118.889172,34.178203]]]}},{"type":"Feature","properties":{"k":"bunker"},"geometry":{"type":"Polygon","coordinates":[[[-118.889381,34.179022],[-118.889327,34.179017],[-118.889304,34.179022],[-118.889315,34.178994],[-118.88931,34.178976],[-118.889296,34.178967],[-118.88927,34.178977],[-118.889237,34.178952],[-118.88925,34.178926],[-118.889228,34.178914],[-118.889231,34.178893],[-118.889255,34.17889],[-118.889258,34.178857],[-118.889268,34.178845],[-118.889318,34.178821],[-118.889336,34.178824],[-118.889364,34.178846],[-118.8894,34.17891],[-118.889381,34.179022]]]}},{"type":"Feature","properties":{"k":"bunker"},"geometry":{"type":"Polygon","coordinates":[[[-118.889019,34.178526],[-118.888995,34.178554],[-118.888995,34.178577],[-118.888974,34.178584],[-118.888938,34.178576],[-118.888892,34.178554],[-118.888879,34.178541],[-118.888876,34.178511],[-118.888899,34.178488],[-118.888983,34.178485],[-118.888996,34.178502],[-118.88902,34.178504],[-118.889014,34.178517],[-118.889019,34.178526]]]}},{"type":"Feature","properties":{"k":"bunker"},"geometry":{"type":"Polygon","coordinates":[[[-118.889104,34.17831],[-118.889118,34.178357],[-118.889103,34.178379],[-118.889074,34.178382],[-118.889064,34.178374],[-118.889075,34.178354],[-118.88906,34.178317],[-118.889064,34.178311],[-118.889104,34.17831]]]}},{"type":"Feature","properties":{"k":"tee"},"geometry":{"type":"Polygon","coordinates":[[[-118.88956,34.177983],[-118.889552,34.178018],[-118.889537,34.178026],[-118.889447,34.178027],[-118.889419,34.178015],[-118.889411,34.178003],[-118.889409,34.177957],[-118.889446,34.177938],[-118.889482,34.177935],[-118.889527,34.177945],[-118.889548,34.177959],[-118.88956,34.177983]]]}},{"type":"Feature","properties":{"k":"bunker"},"geometry":{"type":"Polygon","coordinates":[[[-118.88969,34.180748],[-118.889677,34.180757],[-118.88968,34.18077],[-118.889672,34.180776],[-118.889649,34.180787],[-118.889639,34.180781],[-118.889595,34.180794],[-118.889581,34.180812],[-118.889583,34.180826],[-118.889571,34.180824],[-118.889561,34.180833],[-118.889521,34.18083],[-118.889507,34.18082],[-118.889513,34.180769],[-118.889556,34.180738],[-118.889609,34.180723],[-118.889644,34.180731],[-118.889664,34.180725],[-118.889683,34.180736],[-118.88969,34.180748]]]}},{"type":"Feature","properties":{"k":"green"},"geometry":{"type":"Polygon","coordinates":[[[-118.889677,34.181032],[-118.889607,34.18099],[-118.889594,34.180942],[-118.889613,34.180896],[-118.889645,34.180856],[-118.889675,34.180836],[-118.889706,34.180828],[-118.889734,34.180837],[-118.889756,34.180856],[-118.889776,34.180919],[-118.889818,34.180988],[-118.88982,34.181014],[-118.889805,34.181039],[-118.88978,34.181052],[-118.889738,34.18105],[-118.889677,34.181032]]]}},{"type":"Feature","properties":{"k":"bunker"},"geometry":{"type":"Polygon","coordinates":[[[-118.889869,34.180914],[-118.889828,34.180912],[-118.889819,34.180887],[-118.889852,34.180872],[-118.889875,34.180876],[-118.889877,34.180908],[-118.889869,34.180914]]]}},{"type":"Feature","properties":{"k":"bunker"},"geometry":{"type":"Polygon","coordinates":[[[-118.890044,34.180112],[-118.890002,34.180114],[-118.89,34.180101],[-118.889979,34.180105],[-118.889976,34.180096],[-118.889965,34.180092],[-118.889963,34.180062],[-118.889982,34.180039],[-118.890046,34.180041],[-118.890051,34.180046],[-118.890063,34.180061],[-118.890065,34.180092],[-118.890061,34.180112],[-118.890044,34.180112]]]}},{"type":"Feature","properties":{"k":"bunker"},"geometry":{"type":"Polygon","coordinates":[[[-118.890011,34.179761],[-118.890014,34.17977],[-118.890062,34.179777],[-118.890076,34.179759],[-118.890087,34.179697],[-118.890074,34.17965],[-118.890057,34.179636],[-118.890016,34.179644],[-118.89001,34.179655],[-118.889988,34.179663],[-118.889969,34.179689],[-118.889967,34.179702],[-118.889984,34.179703],[-118.889983,34.179724],[-118.890011,34.179761]]]}},{"type":"Feature","properties":{"k":"tee"},"geometry":{"type":"Polygon","coordinates":[[[-118.889946,34.181548],[-118.889918,34.181601],[-118.889869,34.181615],[-118.889827,34.181612],[-118.88972,34.181574],[-118.889776,34.181443],[-118.889945,34.181496],[-118.889951,34.181512],[-118.889946,34.181548]]]}},{"type":"Feature","properties":{"k":"bunker"},"geometry":{"type":"Polygon","coordinates":[[[-118.888374,34.181101],[-118.888377,34.18108],[-118.888393,34.181055],[-118.888385,34.181013],[-118.888369,34.181004],[-118.88835,34.181024],[-118.888332,34.181028],[-118.888304,34.181026],[-118.888294,34.181009],[-118.888273,34.18101],[-118.888259,34.181069],[-118.888243,34.181072],[-118.888255,34.181097],[-118.888293,34.181113],[-118.888374,34.181101]]]}},{"type":"Feature","properties":{"k":"bunker"},"geometry":{"type":"Polygon","coordinates":[[[-118.888434,34.18079],[-118.888436,34.180822],[-118.888423,34.180859],[-118.888396,34.180848],[-118.88839,34.18083],[-118.888352,34.180818],[-118.88833,34.180792],[-118.888358,34.180779],[-118.88836,34.180762],[-118.888417,34.180777],[-118.888434,34.18079]]]}},{"type":"Feature","properties":{"k":"green"},"geometry":{"type":"Polygon","coordinates":[[[-118.88819,34.18076],[-118.888157,34.180766],[-118.888138,34.180782],[-118.888125,34.18089],[-118.888149,34.18096],[-118.888174,34.180979],[-118.888205,34.180986],[-118.888288,34.180966],[-118.88833,34.180941],[-118.88835,34.180917],[-118.888353,34.180884],[-118.888339,34.180858],[-118.8883,34.180823],[-118.88823,34.180773],[-118.88819,34.18076]]]}},{"type":"Feature","properties":{"k":"tee"},"geometry":{"type":"Polygon","coordinates":[[[-118.888666,34.179709],[-118.888644,34.179736],[-118.888584,34.179746],[-118.888485,34.179739],[-118.888456,34.179726],[-118.888442,34.179703],[-118.888458,34.179669],[-118.888498,34.179661],[-118.888638,34.179676],[-118.888663,34.179692],[-118.888666,34.179709]]]}},{"type":"Feature","properties":{"k":"green"},"geometry":{"type":"Polygon","coordinates":[[[-118.884612,34.179013],[-118.884576,34.179036],[-118.884543,34.179038],[-118.884499,34.179028],[-118.884451,34.179004],[-118.884413,34.178961],[-118.884381,34.178898],[-118.884383,34.178878],[-118.8844,34.178854],[-118.884447,34.178825],[-118.88448,34.178821],[-118.884507,34.178828],[-118.884602,34.178877],[-118.884623,34.178906],[-118.884633,34.178947],[-118.88463,34.178984],[-118.884612,34.179013]]]}},{"type":"Feature","properties":{"k":"green"},"geometry":{"type":"Polygon","coordinates":[[[-118.883131,34.178049],[-118.883105,34.178088],[-118.883076,34.178097],[-118.883027,34.178077],[-118.882994,34.178037],[-118.882974,34.177941],[-118.882973,34.177888],[-118.883008,34.177848],[-118.883053,34.177829],[-118.883094,34.177828],[-118.883125,34.177836],[-118.88315,34.177852],[-118.883164,34.177873],[-118.883167,34.177897],[-118.883138,34.177972],[-118.883131,34.178049]]]}},{"type":"Feature","properties":{"k":"bunker"},"geometry":{"type":"Polygon","coordinates":[[[-118.880087,34.17709],[-118.880097,34.177093],[-118.880077,34.177107],[-118.880072,34.17713],[-118.880058,34.177136],[-118.88006,34.177147],[-118.880041,34.177157],[-118.880049,34.17718],[-118.880037,34.177198],[-118.880056,34.177225],[-118.880045,34.177245],[-118.880031,34.177246],[-118.880028,34.177256],[-118.880015,34.177259],[-118.879981,34.177259],[-118.879962,34.177247],[-118.879962,34.177231],[-118.879954,34.17723],[-118.879939,34.177242],[-118.87993,34.177186],[-118.879934,34.17716],[-118.879966,34.177099],[-118.87997,34.177077],[-118.880001,34.177051],[-118.880028,34.177082],[-118.880045,34.177081],[-118.880052,34.177069],[-118.880087,34.17709]]]}},{"type":"Feature","properties":{"k":"green"},"geometry":{"type":"Polygon","coordinates":[[[-118.880289,34.177185],[-118.880252,34.177144],[-118.880198,34.177106],[-118.880171,34.177102],[-118.880139,34.177114],[-118.880114,34.177138],[-118.880104,34.177173],[-118.880109,34.177268],[-118.880122,34.177294],[-118.880151,34.177317],[-118.880192,34.177328],[-118.880235,34.177326],[-118.880271,34.177312],[-118.880288,34.177295],[-118.880307,34.177257],[-118.880305,34.177217],[-118.880289,34.177185]]]}},{"type":"Feature","properties":{"k":"path"},"geometry":{"type":"LineString","coordinates":[[-118.887239,34.180481],[-118.887319,34.180533],[-118.887412,34.180562],[-118.887438,34.180577],[-118.887542,34.180697],[-118.887599,34.18072],[-118.887797,34.180714],[-118.888054,34.180675],[-118.888354,34.180552],[-118.888416,34.180514],[-118.888487,34.180482],[-118.888523,34.180499],[-118.888712,34.180547],[-118.888762,34.180544],[-118.888776,34.180527],[-118.888799,34.180475],[-118.888792,34.180297],[-118.888815,34.180096],[-118.888824,34.179648],[-118.888841,34.179534],[-118.888806,34.179086],[-118.888882,34.178925],[-118.888879,34.178883],[-118.88885,34.178805],[-118.888751,34.178686],[-118.88874,34.17866],[-118.888747,34.178632],[-118.888801,34.178575],[-118.888809,34.178552],[-118.888806,34.178524],[-118.888717,34.17838],[-118.888638,34.178328],[-118.888606,34.17829],[-118.888601,34.178244],[-118.888611,34.178197],[-118.888636,34.178165],[-118.888677,34.178137],[-118.888847,34.178052],[-118.888985,34.177965],[-118.889068,34.177938],[-118.889142,34.177931],[-118.889206,34.177946],[-118.889255,34.177969],[-118.889321,34.178035],[-118.889392,34.178069],[-118.889399,34.178113],[-118.88946,34.178229],[-118.889442,34.178339],[-118.889425,34.178367],[-118.889422,34.178393],[-118.889427,34.178421],[-118.889483,34.178504],[-118.889491,34.178537],[-118.889509,34.178736],[-118.889512,34.178878],[-118.889526,34.178953],[-118.889521,34.179188],[-118.88951,34.179318],[-118.889527,34.179446]]}},{"type":"Feature","properties":{"k":"path"},"geometry":{"type":"LineString","coordinates":[[-118.890161,34.180418],[-118.890116,34.180508],[-118.890052,34.180598],[-118.890013,34.18067],[-118.89,34.180718],[-118.890002,34.180757],[-118.890023,34.180879],[-118.890005,34.180949],[-118.889874,34.181171],[-118.889842,34.181248],[-118.889828,34.18133],[-118.889816,34.181354],[-118.889781,34.181375],[-118.889395,34.181284],[-118.889355,34.181265],[-118.889326,34.181243],[-118.889202,34.181097],[-118.889174,34.181075],[-118.888996,34.181002],[-118.888951,34.180965],[-118.88886,34.180858],[-118.888823,34.180833],[-118.888772,34.180811],[-118.888609,34.180772],[-118.888493,34.180735],[-118.888378,34.180673],[-118.888358,34.180641],[-118.888371,34.180613],[-118.88847,34.180553],[-118.888487,34.180482]]}},{"type":"Feature","properties":{"k":"path"},"geometry":{"type":"LineString","coordinates":[[-118.888487,34.180482],[-118.888526,34.180379],[-118.888552,34.180265],[-118.888628,34.180061],[-118.888649,34.179953],[-118.888637,34.179814],[-118.888625,34.179798],[-118.888566,34.179792],[-118.888501,34.179774],[-118.888177,34.17983],[-118.888119,34.179833],[-118.888087,34.179847],[-118.888135,34.179944],[-118.888133,34.180011],[-118.888106,34.180038],[-118.888051,34.180044],[-118.887957,34.180036],[-118.887789,34.180007],[-118.887768,34.179998],[-118.887694,34.179919],[-118.887508,34.179934],[-118.887331,34.179909],[-118.887096,34.179818],[-118.887044,34.179789],[-118.887007,34.179758],[-118.88689,34.17959],[-118.886802,34.179511],[-118.88648,34.179424],[-118.886452,34.179394],[-118.886377,34.179265],[-118.886315,34.179235],[-118.886099,34.179196],[-118.885783,34.179107],[-118.885494,34.179086],[-118.885363,34.179058],[-118.885153,34.178959],[-118.884999,34.178858],[-118.884919,34.178818],[-118.884671,34.17871],[-118.884367,34.178616],[-118.884001,34.178379],[-118.883925,34.178364],[-118.883785,34.178357],[-118.883719,34.178347],[-118.883672,34.178317],[-118.883625,34.178246],[-118.883579,34.178206],[-118.883512,34.17818],[-118.883442,34.17817],[-118.8833,34.178184],[-118.883178,34.178211],[-118.8831,34.178212],[-118.883031,34.178199],[-118.882942,34.178164],[-118.88288,34.178148],[-118.882819,34.178157],[-118.882695,34.178241],[-118.882643,34.178321]]}},{"type":"Feature","properties":{"k":"path"},"geometry":{"type":"LineString","coordinates":[[-118.888552,34.180265],[-118.888505,34.180191],[-118.888234,34.180092],[-118.88816,34.180044],[-118.888106,34.180038]]}},{"type":"Feature","properties":{"k":"path"},"geometry":{"type":"LineString","coordinates":[[-118.882794,34.178471],[-118.882766,34.178503],[-118.88271,34.178543],[-118.882681,34.178547],[-118.88262,34.178531],[-118.882466,34.178448],[-118.882337,34.178344],[-118.882292,34.178316],[-118.882216,34.178285],[-118.882126,34.178251],[-118.881439,34.178049],[-118.881247,34.177985],[-118.881149,34.177946],[-118.880928,34.177834],[-118.880096,34.177502],[-118.879948,34.177475],[-118.879806,34.177419],[-118.879759,34.177367],[-118.879682,34.177335],[-118.879652,34.177297],[-118.879644,34.177255],[-118.87965,34.177206],[-118.879688,34.177145],[-118.879751,34.177071],[-118.879796,34.177045],[-118.879832,34.177009],[-118.879881,34.176891],[-118.879955,34.176823],[-118.87998,34.176788],[-118.880024,34.176657]]}},{"type":"Feature","properties":{"k":"path"},"geometry":{"type":"LineString","coordinates":[[-118.878193,34.175222],[-118.878015,34.175365],[-118.878007,34.175422],[-118.878026,34.175444],[-118.878046,34.175444],[-118.878127,34.175421],[-118.87819,34.175417],[-118.878247,34.175433],[-118.87834,34.175486],[-118.878402,34.175492],[-118.87864,34.17548],[-118.878683,34.175489],[-118.878754,34.175521],[-118.878788,34.175545]]}},{"type":"Feature","properties":{"k":"path"},"geometry":{"type":"LineString","coordinates":[[-118.882676,34.176846],[-118.882998,34.17695],[-118.883398,34.177251],[-118.883596,34.177333],[-118.883766,34.177608],[-118.883888,34.177763],[-118.883956,34.177827],[-118.883993,34.177926],[-118.883984,34.17797],[-118.883859,34.178032],[-118.883753,34.178152],[-118.883749,34.178215],[-118.883857,34.178323],[-118.883861,34.178357]]}},{"type":"Feature","properties":{"k":"path"},"geometry":{"type":"LineString","coordinates":[[-118.883984,34.17797],[-118.884243,34.178091],[-118.884371,34.178178],[-118.884479,34.178289],[-118.884557,34.178348],[-118.884755,34.178404],[-118.884848,34.178438],[-118.884892,34.178487],[-118.884882,34.178691],[-118.884927,34.178781],[-118.884992,34.178827],[-118.885677,34.178917],[-118.885881,34.17898],[-118.887126,34.179146],[-118.887267,34.179149],[-118.887687,34.179114],[-118.887862,34.179111],[-118.888029,34.179121],[-118.88841,34.179191],[-118.888506,34.179186],[-118.888597,34.179155],[-118.888665,34.179093],[-118.888695,34.179032],[-118.888722,34.178857],[-118.888701,34.178798],[-118.888649,34.178739],[-118.888575,34.178688],[-118.888447,34.178638],[-118.888314,34.1786],[-118.888294,34.178466],[-118.88834,34.178374],[-118.888366,34.17823],[-118.888409,34.178161],[-118.888502,34.17808],[-118.888593,34.177981],[-118.888665,34.177864],[-118.888856,34.177448],[-118.888987,34.177208],[-118.88914,34.17701],[-118.88924,34.176927],[-118.889323,34.176821],[-118.889377,34.176661],[-118.889441,34.17632],[-118.889437,34.176241],[-118.889406,34.176195],[-118.889301,34.176177],[-118.889212,34.176193],[-118.889009,34.176432],[-118.888918,34.176634],[-118.888751,34.176805],[-118.888541,34.177058],[-118.88831,34.177242],[-118.887961,34.177475],[-118.887892,34.177502],[-118.887596,34.177575],[-118.887481,34.177642],[-118.88729,34.177775],[-118.886928,34.177911],[-118.886864,34.177912],[-118.886797,34.177889],[-118.886646,34.177863],[-118.886512,34.177873],[-118.886415,34.177839],[-118.886333,34.177774],[-118.88623,34.177714],[-118.886003,34.177684],[-118.885832,34.177612],[-118.885607,34.177589],[-118.885305,34.177571],[-118.884772,34.177488],[-118.884227,34.177414],[-118.883912,34.177457]]}},{"type":"Feature","properties":{"k":"path"},"geometry":{"type":"LineString","coordinates":[[-118.883918,34.177791],[-118.883874,34.177624],[-118.883874,34.177515],[-118.883994,34.177352],[-118.884019,34.177303],[-118.884029,34.17718],[-118.884055,34.177141],[-118.884124,34.177131],[-118.884537,34.177145],[-118.884665,34.177195],[-118.884824,34.177301],[-118.884931,34.177348],[-118.885131,34.17738],[-118.885297,34.177431],[-118.885482,34.177452],[-118.885653,34.177495],[-118.885844,34.177481],[-118.886171,34.177614],[-118.886295,34.177629],[-118.886423,34.17759],[-118.88656,34.177525],[-118.887051,34.177495],[-118.887135,34.177469],[-118.887358,34.177343],[-118.887454,34.17732],[-118.887617,34.177321],[-118.887753,34.177281],[-118.887966,34.177188],[-118.888094,34.177101],[-118.888145,34.177005],[-118.888127,34.176909],[-118.888037,34.176849],[-118.887911,34.176828],[-118.8877,34.176834],[-118.887645,34.1768],[-118.887625,34.176755],[-118.887623,34.17667],[-118.887669,34.176612],[-118.887714,34.176576]]}},{"type":"Feature","properties":{"k":"path"},"geometry":{"type":"LineString","coordinates":[[-118.888175,34.176475],[-118.888343,34.176505],[-118.888412,34.176472],[-118.888412,34.176401],[-118.888362,34.176381],[-118.888244,34.17643],[-118.888175,34.176475],[-118.887714,34.176576],[-118.887372,34.176679],[-118.887223,34.176743],[-118.887118,34.176714],[-118.886991,34.176615],[-118.886847,34.176605],[-118.886575,34.176615],[-118.886481,34.176672],[-118.886402,34.176822],[-118.886298,34.176926],[-118.886071,34.176993],[-118.885918,34.176953],[-118.885821,34.17686],[-118.885647,34.176775],[-118.885514,34.176724],[-118.88537,34.176721]]}},{"type":"Feature","properties":{"k":"tee"},"geometry":{"type":"Polygon","coordinates":[[[-118.888006,34.179959],[-118.887958,34.179959],[-118.887827,34.179933],[-118.887821,34.179893],[-118.887854,34.179862],[-118.887894,34.179859],[-118.888001,34.179886],[-118.888036,34.179904],[-118.888038,34.179937],[-118.888006,34.179959]]]}},{"type":"Feature","properties":{"k":"tee"},"geometry":{"type":"Polygon","coordinates":[[[-118.888404,34.180086],[-118.888317,34.18006],[-118.888297,34.180015],[-118.888303,34.179985],[-118.888394,34.179965],[-118.888471,34.179983],[-118.888505,34.180004],[-118.888522,34.180043],[-118.888506,34.180079],[-118.888481,34.180094],[-118.888447,34.180101],[-118.888404,34.180086]]]}},{"type":"Feature","properties":{"k":"water"},"geometry":{"type":"Polygon","coordinates":[[[-118.887763,34.179822],[-118.8877,34.179835],[-118.887642,34.179863],[-118.887585,34.179876],[-118.887386,34.179867],[-118.887284,34.179834],[-118.88708,34.179736],[-118.887004,34.17967],[-118.886989,34.179607],[-118.886993,34.179561],[-118.887017,34.179502],[-118.887043,34.179469],[-118.88705,34.179431],[-118.887072,34.179394],[-118.88713,34.179388],[-118.887231,34.17943],[-118.887315,34.179434],[-118.887361,34.179474],[-118.887383,34.179559],[-118.887429,34.179616],[-118.887483,34.179647],[-118.887582,34.179654],[-118.88765,34.179641],[-118.887717,34.179584],[-118.887766,34.17948],[-118.887821,34.179444],[-118.888065,34.179417],[-118.888215,34.179429],[-118.888345,34.179408],[-118.888389,34.179438],[-118.888397,34.179493],[-118.888372,34.179536],[-118.88832,34.17958],[-118.888297,34.179634],[-118.888293,34.179665],[-118.888253,34.179713],[-118.888186,34.179762],[-118.88808,34.179796],[-118.888017,34.179806],[-118.887838,34.179808],[-118.887763,34.179822]]]}},{"type":"Feature","properties":{"k":"tee"},"geometry":{"type":"Polygon","coordinates":[[[-118.879083,34.175537],[-118.879051,34.17554],[-118.879001,34.175516],[-118.878991,34.175497],[-118.878993,34.17548],[-118.879018,34.175465],[-118.879068,34.17547],[-118.879086,34.17548],[-118.8791,34.175528],[-118.879083,34.175537]]]}},{"type":"Feature","properties":{"k":"tee"},"geometry":{"type":"Polygon","coordinates":[[[-118.879343,34.175619],[-118.879264,34.175601],[-118.879166,34.175557],[-118.879156,34.175536],[-118.87918,34.175488],[-118.87925,34.175475],[-118.879288,34.175481],[-118.87933,34.175496],[-118.879411,34.175549],[-118.879411,34.175588],[-118.879396,34.175605],[-118.879343,34.175619]]]}},{"type":"Feature","properties":{"k":"green"},"geometry":{"type":"Polygon","coordinates":[[[-118.878889,34.175319],[-118.878785,34.175349],[-118.878736,34.175348],[-118.878685,34.175328],[-118.878644,34.175271],[-118.878646,34.175208],[-118.878694,34.175179],[-118.878768,34.175158],[-118.878829,34.175148],[-118.878913,34.175158],[-118.878948,34.175174],[-118.878972,34.175195],[-118.878978,34.175222],[-118.878963,34.175275],[-118.878935,34.175301],[-118.878889,34.175319]]]}},{"type":"Feature","properties":{"k":"water"},"geometry":{"type":"Polygon","coordinates":[[[-118.879571,34.175549],[-118.879521,34.175527],[-118.879483,34.175473],[-118.879347,34.175413],[-118.879339,34.1754],[-118.879281,34.175405],[-118.879209,34.175372],[-118.879263,34.17535],[-118.879317,34.175357],[-118.879384,34.17533],[-118.879482,34.175345],[-118.879606,34.17531],[-118.879638,34.175311],[-118.879661,34.175321],[-118.879702,34.175351],[-118.879721,34.17542],[-118.879717,34.175452],[-118.879695,34.175488],[-118.879622,34.175542],[-118.879596,34.175551],[-118.879571,34.175549]]]}},{"type":"Feature","properties":{"k":"tee"},"geometry":{"type":"Polygon","coordinates":[[[-118.879713,34.17581],[-118.879944,34.17591],[-118.879973,34.175904],[-118.880013,34.175838],[-118.880001,34.175817],[-118.879884,34.175752],[-118.879752,34.175694],[-118.879709,34.175679],[-118.879682,34.175681],[-118.879655,34.175706],[-118.879639,34.175733],[-118.879645,34.175756],[-118.879667,34.175779],[-118.879713,34.17581]]]}},{"type":"Feature","properties":{"k":"bunker"},"geometry":{"type":"Polygon","coordinates":[[[-118.881893,34.176608],[-118.881828,34.176588],[-118.881803,34.176566],[-118.881802,34.176521],[-118.88184,34.176513],[-118.881869,34.176518],[-118.881899,34.176528],[-118.881916,34.176543],[-118.881931,34.176561],[-118.881926,34.176586],[-118.881908,34.176606],[-118.881893,34.176608]]]}},{"type":"Feature","properties":{"k":"green"},"geometry":{"type":"Polygon","coordinates":[[[-118.882854,34.177611],[-118.882752,34.177614],[-118.882695,34.177599],[-118.882671,34.177586],[-118.882616,34.177515],[-118.882612,34.17744],[-118.882634,34.177417],[-118.882726,34.177388],[-118.882803,34.177374],[-118.882834,34.177382],[-118.882883,34.177418],[-118.882904,34.17744],[-118.882919,34.177564],[-118.882896,34.177594],[-118.882854,34.177611]]]}},{"type":"Feature","properties":{"k":"tee"},"geometry":{"type":"Polygon","coordinates":[[[-118.882844,34.17671],[-118.882721,34.176778],[-118.882614,34.176653],[-118.882551,34.176614],[-118.882489,34.176558],[-118.882475,34.176525],[-118.882482,34.17651],[-118.882496,34.176496],[-118.882521,34.176493],[-118.882561,34.176503],[-118.882682,34.176558],[-118.882764,34.176612],[-118.882808,34.176657],[-118.882844,34.17671]]]}},{"type":"Feature","properties":{"k":"tee"},"geometry":{"type":"Polygon","coordinates":[[[-118.88289,34.176884],[-118.882827,34.176799],[-118.882832,34.176769],[-118.882866,34.176754],[-118.882902,34.176749],[-118.88293,34.176769],[-118.882957,34.176806],[-118.88297,34.176843],[-118.882949,34.17687],[-118.882899,34.176887],[-118.88289,34.176884]]]}},{"type":"Feature","properties":{"k":"green"},"geometry":{"type":"Polygon","coordinates":[[[-118.883706,34.177922],[-118.883667,34.177928],[-118.883602,34.1779],[-118.883547,34.177851],[-118.883509,34.177797],[-118.883499,34.177767],[-118.883498,34.177694],[-118.883514,34.177668],[-118.883554,34.177644],[-118.883583,34.177639],[-118.883647,34.17765],[-118.883674,34.177667],[-118.883694,34.177691],[-118.883705,34.177736],[-118.883698,34.177777],[-118.883737,34.177865],[-118.883728,34.177906],[-118.883706,34.177922]]]}},{"type":"Feature","properties":{"k":"bunker"},"geometry":{"type":"Polygon","coordinates":[[[-118.883441,34.177758],[-118.883448,34.17775],[-118.883444,34.177728],[-118.883454,34.177706],[-118.883453,34.177682],[-118.883437,34.177677],[-118.883397,34.1777],[-118.883378,34.177728],[-118.883305,34.177705],[-118.88327,34.177721],[-118.883281,34.177738],[-118.883333,34.177749],[-118.883326,34.177763],[-118.883339,34.177773],[-118.883326,34.177797],[-118.88334,34.177802],[-118.883363,34.177779],[-118.883369,34.177789],[-118.883347,34.177823],[-118.883353,34.177831],[-118.883378,34.17782],[-118.883381,34.177832],[-118.883409,34.177826],[-118.883419,34.177808],[-118.883399,34.177801],[-118.883397,34.177782],[-118.883408,34.177761],[-118.883418,34.177763],[-118.883423,34.177755],[-118.883441,34.177758]]]}},{"type":"Feature","properties":{"k":"bunker"},"geometry":{"type":"Polygon","coordinates":[[[-118.88379,34.177752],[-118.883771,34.17777],[-118.88376,34.17777],[-118.883741,34.177755],[-118.883742,34.177745],[-118.883727,34.177743],[-118.883721,34.177683],[-118.883675,34.177628],[-118.883718,34.177602],[-118.883736,34.177608],[-118.883754,34.177626],[-118.883827,34.177729],[-118.883829,34.177742],[-118.883815,34.177751],[-118.88379,34.177752]]]}},{"type":"Feature","properties":{"k":"tee"},"geometry":{"type":"Polygon","coordinates":[[[-118.884247,34.178294],[-118.884149,34.178249],[-118.883926,34.178168],[-118.883891,34.178132],[-118.883894,34.178094],[-118.883911,34.178066],[-118.883958,34.178045],[-118.88402,34.178042],[-118.884155,34.178091],[-118.884272,34.178158],[-118.884307,34.178192],[-118.884322,34.178223],[-118.884318,34.178255],[-118.884304,34.178284],[-118.884283,34.178293],[-118.884247,34.178294]]]}},{"type":"Feature","properties":{"k":"tee"},"geometry":{"type":"Polygon","coordinates":[[[-118.884756,34.17855],[-118.8847,34.178545],[-118.884675,34.17853],[-118.884669,34.178491],[-118.88468,34.178475],[-118.884711,34.178461],[-118.884755,34.178464],[-118.884781,34.178479],[-118.884792,34.178498],[-118.884789,34.178529],[-118.884756,34.17855]]]}},{"type":"Feature","properties":{"k":"green"},"geometry":{"type":"Polygon","coordinates":[[[-118.888415,34.178992],[-118.888364,34.178989],[-118.888315,34.178951],[-118.888299,34.178927],[-118.888223,34.17886],[-118.888216,34.178848],[-118.888225,34.178808],[-118.888283,34.178785],[-118.888318,34.178789],[-118.888378,34.178803],[-118.88845,34.178835],[-118.888468,34.178855],[-118.888482,34.178887],[-118.888486,34.178941],[-118.888481,34.178961],[-118.888462,34.178979],[-118.888439,34.17899],[-118.888415,34.178992]]]}},{"type":"Feature","properties":{"k":"bunker"},"geometry":{"type":"Polygon","coordinates":[[[-118.888277,34.178728],[-118.888267,34.178742],[-118.888246,34.17875],[-118.888216,34.178733],[-118.888203,34.178701],[-118.888225,34.178668],[-118.888236,34.178667],[-118.888256,34.178684],[-118.888274,34.17867],[-118.888294,34.178668],[-118.888307,34.178678],[-118.888302,34.178711],[-118.888277,34.178728]]]}},{"type":"Feature","properties":{"k":"bunker"},"geometry":{"type":"Polygon","coordinates":[[[-118.888278,34.179114],[-118.888232,34.179113],[-118.888178,34.179091],[-118.888115,34.178976],[-118.888132,34.178952],[-118.888126,34.178944],[-118.888137,34.178916],[-118.888186,34.178883],[-118.888225,34.178931],[-118.888234,34.178961],[-118.888305,34.179006],[-118.888324,34.179066],[-118.888302,34.179082],[-118.888299,34.179101],[-118.888278,34.179114]]]}},{"type":"Feature","properties":{"k":"path"},"geometry":{"type":"LineString","coordinates":[[-118.888314,34.1786],[-118.888143,34.178593],[-118.887976,34.178577],[-118.887858,34.178535]]}},{"type":"Feature","properties":{"k":"bunker"},"geometry":{"type":"Polygon","coordinates":[[[-118.885245,34.178757],[-118.885177,34.178784],[-118.885081,34.17879],[-118.885,34.178762],[-118.884955,34.17872],[-118.884934,34.178654],[-118.884934,34.178581],[-118.884988,34.178448],[-118.885053,34.17832],[-118.885187,34.178283],[-118.885243,34.178303],[-118.885292,34.178365],[-118.885315,34.178448],[-118.885282,34.178662],[-118.88528,34.17873],[-118.885245,34.178757]]]}},{"type":"Feature","properties":{"k":"bunker"},"geometry":{"type":"Polygon","coordinates":[[[-118.885628,34.178212],[-118.885665,34.178125],[-118.885663,34.178027],[-118.8856,34.177984],[-118.885537,34.177965],[-118.88545,34.177971],[-118.885383,34.178044],[-118.88535,34.178131],[-118.885336,34.178216],[-118.885462,34.178272],[-118.885586,34.178281],[-118.885628,34.178212]]]}},{"type":"Feature","properties":{"k":"bunker"},"geometry":{"type":"Polygon","coordinates":[[[-118.884381,34.177794],[-118.884339,34.177783],[-118.884338,34.177755],[-118.88441,34.177757],[-118.884431,34.177768],[-118.884443,34.177765],[-118.88443,34.177788],[-118.884381,34.177794]]]}},{"type":"Feature","properties":{"k":"green"},"geometry":{"type":"Polygon","coordinates":[[[-118.884251,34.17783],[-118.884202,34.177835],[-118.884181,34.177823],[-118.884108,34.177748],[-118.884051,34.177704],[-118.884014,34.177655],[-118.884011,34.177609],[-118.884028,34.177579],[-118.88405,34.177574],[-118.884105,34.17758],[-118.88414,34.177608],[-118.884289,34.17768],[-118.884312,34.177711],[-118.884316,34.17774],[-118.884308,34.177799],[-118.884284,34.177818],[-118.884251,34.17783]]]}},{"type":"Feature","properties":{"k":"bunker"},"geometry":{"type":"Polygon","coordinates":[[[-118.88431,34.17763],[-118.884248,34.177638],[-118.884206,34.177621],[-118.884234,34.177586],[-118.884316,34.177569],[-118.884324,34.177574],[-118.884326,34.177596],[-118.88431,34.17763]]]}},{"type":"Feature","properties":{"k":"path"},"geometry":{"type":"LineString","coordinates":[[-118.88415,34.178048],[-118.884269,34.178027],[-118.88452,34.177997],[-118.884726,34.178013]]}},{"type":"Feature","properties":{"k":"tee"},"geometry":{"type":"Polygon","coordinates":[[[-118.888344,34.178201],[-118.888302,34.178216],[-118.888265,34.178207],[-118.888238,34.178179],[-118.888231,34.178129],[-118.888293,34.178059],[-118.888436,34.17798],[-118.888468,34.177983],[-118.888497,34.178043],[-118.888477,34.178071],[-118.888344,34.178201]]]}},{"type":"Feature","properties":{"k":"green"},"geometry":{"type":"Polygon","coordinates":[[[-118.889805,34.176141],[-118.889748,34.17617],[-118.889688,34.17618],[-118.88964,34.17615],[-118.88963,34.176105],[-118.889639,34.176064],[-118.88982,34.175978],[-118.889879,34.175961],[-118.889932,34.175973],[-118.889957,34.175998],[-118.889961,34.176039],[-118.889954,34.176055],[-118.88993,34.176079],[-118.889859,34.176109],[-118.889805,34.176141]]]}},{"type":"Feature","properties":{"k":"bunker"},"geometry":{"type":"Polygon","coordinates":[[[-118.890015,34.176446],[-118.88997,34.176396],[-118.889947,34.176383],[-118.889928,34.176389],[-118.889901,34.176384],[-118.88989,34.176372],[-118.889911,34.176331],[-118.889923,34.176274],[-118.889896,34.176254],[-118.889912,34.176204],[-118.889877,34.176195],[-118.889866,34.176184],[-118.889872,34.176151],[-118.889893,34.176126],[-118.889915,34.17613],[-118.889919,34.176113],[-118.889938,34.176103],[-118.889958,34.176113],[-118.889961,34.176128],[-118.889949,34.176156],[-118.889961,34.176167],[-118.88998,34.176162],[-118.889991,34.176148],[-118.890021,34.176178],[-118.890042,34.176166],[-118.890069,34.176174],[-118.890083,34.176187],[-118.89009,34.176222],[-118.890061,34.176224],[-118.890067,34.176247],[-118.890107,34.176282],[-118.890122,34.176325],[-118.890129,34.17638],[-118.890111,34.17641],[-118.89007,34.176437],[-118.890034,34.17645],[-118.890015,34.176446]]]}},{"type":"Feature","properties":{"k":"bunker"},"geometry":{"type":"Polygon","coordinates":[[[-118.889718,34.176277],[-118.889676,34.176297],[-118.889641,34.176289],[-118.889632,34.176293],[-118.88961,34.176282],[-118.889579,34.176284],[-118.889488,34.17631],[-118.889464,34.176312],[-118.889451,34.176304],[-118.889454,34.176252],[-118.889465,34.17623],[-118.889557,34.17617],[-118.889573,34.176167],[-118.889604,34.176195],[-118.889623,34.1762],[-118.889646,34.176197],[-118.889663,34.176207],[-118.889684,34.176239],[-118.889689,34.17623],[-118.889703,34.17623],[-118.889719,34.176257],[-118.889718,34.176277]]]}},{"type":"Feature","properties":{"k":"path"},"geometry":{"type":"LineString","coordinates":[[-118.889437,34.176241],[-118.889505,34.176164],[-118.889406,34.176195]]}},{"type":"Feature","properties":{"k":"tee"},"geometry":{"type":"Polygon","coordinates":[[[-118.88921,34.176443],[-118.8892,34.176484],[-118.889167,34.176507],[-118.889136,34.176512],[-118.889098,34.176508],[-118.889061,34.176487],[-118.889067,34.176456],[-118.889089,34.17642],[-118.88913,34.176377],[-118.889212,34.176265],[-118.889252,34.176255],[-118.889281,34.17627],[-118.88929,34.176299],[-118.88923,34.176382],[-118.88921,34.176443]]]}},{"type":"Feature","properties":{"k":"tee"},"geometry":{"type":"Polygon","coordinates":[[[-118.889021,34.176775],[-118.888935,34.176833],[-118.888905,34.176832],[-118.888871,34.176819],[-118.888837,34.176794],[-118.888837,34.176767],[-118.888984,34.176628],[-118.889022,34.176637],[-118.88905,34.176669],[-118.889036,34.176742],[-118.889021,34.176775]]]}},{"type":"Feature","properties":{"k":"tee"},"geometry":{"type":"Polygon","coordinates":[[[-118.888795,34.176981],[-118.88874,34.177003],[-118.88871,34.176991],[-118.888699,34.176969],[-118.8887,34.176946],[-118.888716,34.176925],[-118.888744,34.17691],[-118.888791,34.176909],[-118.888808,34.176925],[-118.888814,34.176948],[-118.888811,34.176971],[-118.888795,34.176981]]]}},{"type":"Feature","properties":{"k":"bunker"},"geometry":{"type":"Polygon","coordinates":[[[-118.887166,34.177941],[-118.887129,34.177968],[-118.887038,34.177975],[-118.886999,34.177968],[-118.886953,34.177937],[-118.886942,34.177917],[-118.887115,34.177856],[-118.887152,34.17786],[-118.887185,34.177892],[-118.887185,34.177921],[-118.887166,34.177941]]]}},{"type":"Feature","properties":{"k":"tee"},"geometry":{"type":"Polygon","coordinates":[[[-118.884492,34.177293],[-118.884289,34.177252],[-118.884231,34.177247],[-118.884135,34.177261],[-118.884102,34.177238],[-118.8841,34.177204],[-118.884122,34.177184],[-118.884164,34.177174],[-118.884323,34.177186],[-118.884492,34.177187],[-118.884538,34.177203],[-118.884552,34.177234],[-118.884548,34.177263],[-118.884528,34.177284],[-118.884492,34.177293]]]}},{"type":"Feature","properties":{"k":"green"},"geometry":{"type":"Polygon","coordinates":[[[-118.887822,34.177124],[-118.88775,34.177192],[-118.88771,34.177202],[-118.88764,34.177193],[-118.887606,34.177176],[-118.887565,34.177129],[-118.88757,34.177085],[-118.88759,34.177064],[-118.887655,34.177052],[-118.887777,34.176982],[-118.88781,34.176974],[-118.887845,34.176975],[-118.887872,34.176992],[-118.887898,34.177057],[-118.887886,34.177081],[-118.887835,34.177109],[-118.887822,34.177124]]]}},{"type":"Feature","properties":{"k":"bunker"},"geometry":{"type":"Polygon","coordinates":[[[-118.887745,34.176856],[-118.887739,34.176888],[-118.88764,34.176907],[-118.887619,34.176918],[-118.8876,34.176913],[-118.887517,34.176952],[-118.887455,34.176953],[-118.887388,34.176937],[-118.887349,34.17691],[-118.887362,34.176871],[-118.887397,34.17686],[-118.887439,34.176858],[-118.887491,34.176834],[-118.887561,34.176837],[-118.887631,34.17682],[-118.887668,34.176839],[-118.887745,34.176856]]]}},{"type":"Feature","properties":{"k":"bunker"},"geometry":{"type":"Polygon","coordinates":[[[-118.886822,34.176945],[-118.886811,34.17696],[-118.886793,34.176962],[-118.886774,34.176957],[-118.886769,34.176943],[-118.886811,34.176905],[-118.886829,34.176909],[-118.886846,34.176929],[-118.886842,34.176938],[-118.886822,34.176945]]]}},{"type":"Feature","properties":{"k":"green"},"geometry":{"type":"Polygon","coordinates":[[[-118.886756,34.176904],[-118.886697,34.176915],[-118.886639,34.176913],[-118.886605,34.1769],[-118.886574,34.176874],[-118.886548,34.176816],[-118.886553,34.176785],[-118.886584,34.176733],[-118.886647,34.176709],[-118.886689,34.176705],[-118.886743,34.176718],[-118.886785,34.176754],[-118.886801,34.176772],[-118.886818,34.176822],[-118.886814,34.17685],[-118.886785,34.176893],[-118.886756,34.176904]]]}},{"type":"Feature","properties":{"k":"tee"},"geometry":{"type":"Polygon","coordinates":[[[-118.888607,34.176656],[-118.888554,34.17667],[-118.888299,34.176696],[-118.888259,34.176681],[-118.888246,34.176629],[-118.888255,34.176607],[-118.888283,34.176591],[-118.88858,34.176568],[-118.8886,34.176589],[-118.888607,34.176656]]]}},{"type":"Feature","properties":{"k":"tee"},"geometry":{"type":"Polygon","coordinates":[[[-118.888009,34.176681],[-118.887896,34.176698],[-118.887871,34.17669],[-118.887859,34.176665],[-118.887868,34.176632],[-118.887898,34.176615],[-118.887953,34.176599],[-118.888021,34.176598],[-118.888065,34.176608],[-118.888071,34.176638],[-118.888063,34.176667],[-118.888009,34.176681]]]}},{"type":"Feature","properties":{"k":"tee"},"geometry":{"type":"Polygon","coordinates":[[[-118.885633,34.176959],[-118.885613,34.176971],[-118.885582,34.176973],[-118.885545,34.176946],[-118.885539,34.176917],[-118.885544,34.176891],[-118.885562,34.176866],[-118.88562,34.176844],[-118.885642,34.17685],[-118.885664,34.176913],[-118.885653,34.176941],[-118.885633,34.176959]]]}},{"type":"Feature","properties":{"k":"tee"},"geometry":{"type":"Polygon","coordinates":[[[-118.885341,34.176908],[-118.885276,34.176902],[-118.885238,34.176877],[-118.885237,34.176853],[-118.885257,34.176823],[-118.885333,34.176822],[-118.885365,34.176835],[-118.885378,34.176854],[-118.88538,34.17688],[-118.885366,34.176904],[-118.885341,34.176908]]]}},{"type":"Feature","properties":{"k":"green"},"geometry":{"type":"Polygon","coordinates":[[[-118.881958,34.175941],[-118.881892,34.175949],[-118.881864,34.175944],[-118.881816,34.17592],[-118.881767,34.175864],[-118.881741,34.17585],[-118.881719,34.17582],[-118.88171,34.175788],[-118.88172,34.175763],[-118.881751,34.175737],[-118.881825,34.175729],[-118.882002,34.175812],[-118.88202,34.175832],[-118.88202,34.175882],[-118.882014,34.175899],[-118.881986,34.175928],[-118.881958,34.175941]]]}},{"type":"Feature","properties":{"k":"tee"},"geometry":{"type":"Polygon","coordinates":[[[-118.882024,34.176409],[-118.881876,34.176341],[-118.881922,34.176262],[-118.882075,34.176329],[-118.882024,34.176409]]]}},{"type":"Feature","properties":{"k":"tee"},"geometry":{"type":"Polygon","coordinates":[[[-118.881782,34.176277],[-118.881754,34.176283],[-118.881589,34.176198],[-118.881574,34.176169],[-118.881599,34.176139],[-118.881622,34.176127],[-118.881807,34.17622],[-118.881814,34.176247],[-118.881782,34.176277]]]}},{"type":"Feature","properties":{"k":"tee"},"geometry":{"type":"Polygon","coordinates":[[[-118.881458,34.176135],[-118.881422,34.176131],[-118.881373,34.17611],[-118.881346,34.176088],[-118.881357,34.176049],[-118.881374,34.176039],[-118.881396,34.176039],[-118.881477,34.176081],[-118.881488,34.176122],[-118.881475,34.176132],[-118.881458,34.176135]]]}},{"type":"Feature","properties":{"k":"bunker"},"geometry":{"type":"Polygon","coordinates":[[[-118.880019,34.175163],[-118.879995,34.175163],[-118.879912,34.175126],[-118.879907,34.175115],[-118.879864,34.1751],[-118.879835,34.175105],[-118.879824,34.175096],[-118.879798,34.175102],[-118.879775,34.175092],[-118.879755,34.175097],[-118.879738,34.175085],[-118.87971,34.175091],[-118.879682,34.175079],[-118.879668,34.175085],[-118.879633,34.175062],[-118.879598,34.175057],[-118.879595,34.175017],[-118.879564,34.175007],[-118.879496,34.175015],[-118.879469,34.17501],[-118.879457,34.174995],[-118.879546,34.174937],[-118.879672,34.174899],[-118.879787,34.174905],[-118.879858,34.174899],[-118.879853,34.174962],[-118.879838,34.174989],[-118.87986,34.175031],[-118.879898,34.175074],[-118.879914,34.175078],[-118.879927,34.175071],[-118.879938,34.175079],[-118.87994,34.175095],[-118.879965,34.175097],[-118.879973,34.175112],[-118.879985,34.175115],[-118.879997,34.175105],[-118.880001,34.175116],[-118.880015,34.175115],[-118.880028,34.175137],[-118.880015,34.175153],[-118.880019,34.175163]]]}},{"type":"Feature","properties":{"k":"green"},"geometry":{"type":"Polygon","coordinates":[[[-118.878,34.175277],[-118.877964,34.175279],[-118.877925,34.175292],[-118.877885,34.175288],[-118.877856,34.175269],[-118.877842,34.175242],[-118.877837,34.175202],[-118.877862,34.175169],[-118.877908,34.17514],[-118.877971,34.175077],[-118.878048,34.175046],[-118.878078,34.17506],[-118.878097,34.175099],[-118.878098,34.175193],[-118.878079,34.175225],[-118.878053,34.175249],[-118.878,34.175277]]]}},{"type":"Feature","properties":{"k":"tee"},"geometry":{"type":"Polygon","coordinates":[[[-118.886198,34.177061],[-118.88615,34.177076],[-118.886035,34.17707],[-118.885912,34.177036],[-118.885837,34.176997],[-118.885848,34.176959],[-118.885981,34.177006],[-118.886182,34.177036],[-118.886198,34.177061]]]}},{"type":"Feature","properties":{"k":"tee"},"geometry":{"type":"Polygon","coordinates":[[[-118.889669,34.181527],[-118.889614,34.181527],[-118.889553,34.181503],[-118.889541,34.18146],[-118.889565,34.181421],[-118.889581,34.181409],[-118.889673,34.181436],[-118.889699,34.181456],[-118.889711,34.18148],[-118.889691,34.181517],[-118.889669,34.181527]]]}},{"type":"Feature","properties":{"k":"tee"},"geometry":{"type":"Polygon","coordinates":[[[-118.889499,34.181466],[-118.88954,34.181382],[-118.889466,34.181352],[-118.889442,34.181349],[-118.889425,34.181376],[-118.889414,34.181436],[-118.889456,34.181459],[-118.889499,34.181466]]]}},{"type":"Feature","properties":{"k":"tee"},"geometry":{"type":"Polygon","coordinates":[[[-118.889372,34.181435],[-118.88932,34.18144],[-118.889289,34.181433],[-118.889271,34.18142],[-118.889268,34.181398],[-118.889282,34.181371],[-118.889315,34.181354],[-118.889336,34.181354],[-118.889369,34.181367],[-118.889384,34.181382],[-118.889385,34.181409],[-118.889372,34.181435]]]}},{"type":"Feature","properties":{"k":"fairway"},"geometry":{"type":"Polygon","coordinates":[[[-118.888852,34.181277],[-118.888813,34.18128],[-118.888766,34.181264],[-118.888732,34.181236],[-118.888688,34.181224],[-118.888576,34.181229],[-118.88852,34.181207],[-118.888518,34.181177],[-118.888426,34.181132],[-118.888414,34.1811],[-118.888426,34.181006],[-118.888487,34.181006],[-118.888514,34.180983],[-118.888528,34.180955],[-118.888505,34.180912],[-118.888461,34.180889],[-118.888441,34.180869],[-118.888451,34.180828],[-118.888474,34.180803],[-118.888513,34.180794],[-118.888552,34.180801],[-118.888591,34.180829],[-118.888628,34.18099],[-118.888658,34.181038],[-118.888716,34.181085],[-118.888803,34.181103],[-118.888913,34.181214],[-118.888904,34.181255],[-118.888852,34.181277]]]}},{"type":"Feature","properties":{"k":"bunker"},"geometry":{"type":"Polygon","coordinates":[[[-118.883898,34.179095],[-118.883886,34.179105],[-118.883854,34.179102],[-118.883835,34.179086],[-118.88383,34.179062],[-118.883783,34.179031],[-118.883805,34.179016],[-118.883826,34.178989],[-118.883881,34.179006],[-118.883886,34.179023],[-118.883879,34.17903],[-118.883903,34.179056],[-118.883898,34.179095]]]}},{"type":"Feature","properties":{"k":"bunker"},"geometry":{"type":"Polygon","coordinates":[[[-118.884313,34.179046],[-118.8843,34.179058],[-118.884272,34.179059],[-118.884258,34.179034],[-118.884262,34.179023],[-118.884231,34.178995],[-118.88421,34.178955],[-118.884229,34.178928],[-118.884277,34.178929],[-118.884293,34.178938],[-118.884331,34.179019],[-118.884313,34.179046]]]}},{"type":"Feature","properties":{"k":"green"},"geometry":{"type":"Polygon","coordinates":[[[-118.884149,34.179115],[-118.884172,34.179083],[-118.88418,34.179035],[-118.88414,34.178953],[-118.88412,34.178937],[-118.884074,34.17892],[-118.88403,34.178919],[-118.884008,34.178928],[-118.883972,34.178963],[-118.88395,34.179031],[-118.883951,34.179083],[-118.883973,34.179125],[-118.884006,34.179143],[-118.884054,34.179153],[-118.884107,34.179145],[-118.884149,34.179115]]]}},{"type":"Feature","properties":{"k":"green"},"geometry":{"type":"Polygon","coordinates":[[[-118.87894,34.176092],[-118.878864,34.176082],[-118.878795,34.176045],[-118.878797,34.175989],[-118.878811,34.175969],[-118.878838,34.175958],[-118.878905,34.175972],[-118.878935,34.175986],[-118.878951,34.176007],[-118.878968,34.176064],[-118.87894,34.176092]]]}},{"type":"Feature","properties":{"k":"bunker"},"geometry":{"type":"Polygon","coordinates":[[[-118.882447,34.177774],[-118.882436,34.177781],[-118.882401,34.177759],[-118.882401,34.177748],[-118.882423,34.177737],[-118.882428,34.177723],[-118.882378,34.177661],[-118.882474,34.177643],[-118.882489,34.177656],[-118.882521,34.177658],[-118.882537,34.177711],[-118.88252,34.177727],[-118.88247,34.177746],[-118.882461,34.177773],[-118.882447,34.177774]]]}},{"type":"Feature","properties":{"k":"bunker"},"geometry":{"type":"Polygon","coordinates":[[[-118.882305,34.178069],[-118.882247,34.178011],[-118.882181,34.177972],[-118.88217,34.177956],[-118.882187,34.177918],[-118.882204,34.177915],[-118.882249,34.177924],[-118.88227,34.177914],[-118.882261,34.177896],[-118.882264,34.177873],[-118.882281,34.177861],[-118.882336,34.177896],[-118.882352,34.177894],[-118.882359,34.177912],[-118.882353,34.177924],[-118.88239,34.177936],[-118.882406,34.177979],[-118.882389,34.177991],[-118.882366,34.177982],[-118.88236,34.177986],[-118.882363,34.178023],[-118.882341,34.178067],[-118.882323,34.178074],[-118.882305,34.178069]]]}},{"type":"Feature","properties":{"k":"bunker"},"geometry":{"type":"Polygon","coordinates":[[[-118.887872,34.180609],[-118.887853,34.180592],[-118.887822,34.18059],[-118.887812,34.180568],[-118.887777,34.180571],[-118.887766,34.180563],[-118.887764,34.18054],[-118.887717,34.18052],[-118.887717,34.180495],[-118.887711,34.180484],[-118.887697,34.180481],[-118.887648,34.180496],[-118.887623,34.180552],[-118.887547,34.180552],[-118.887498,34.180572],[-118.88749,34.180582],[-118.887513,34.180638],[-118.887558,34.180677],[-118.887577,34.180683],[-118.887632,34.18066],[-118.887693,34.180678],[-118.88774,34.180682],[-118.88773,34.18063],[-118.88774,34.180597],[-118.88782,34.180625],[-118.887872,34.180609]]]}},{"type":"Feature","properties":{"k":"tee"},"geometry":{"type":"Polygon","coordinates":[[[-118.884373,34.179363],[-118.884338,34.179367],[-118.884303,34.179352],[-118.884294,34.179331],[-118.884309,34.179307],[-118.884347,34.179298],[-118.884384,34.179312],[-118.884397,34.17933],[-118.884395,34.179341],[-118.884373,34.179363]]]}},{"type":"Feature","properties":{"k":"tee"},"geometry":{"type":"Polygon","coordinates":[[[-118.884558,34.179344],[-118.884523,34.179362],[-118.884509,34.179388],[-118.88452,34.179425],[-118.884545,34.179447],[-118.884624,34.179479],[-118.884789,34.179526],[-118.884825,34.179524],[-118.884841,34.179511],[-118.884861,34.179473],[-118.884862,34.179453],[-118.884856,34.179432],[-118.884841,34.179419],[-118.88468,34.179366],[-118.884558,34.179344]]]}},{"type":"Feature","properties":{"k":"tee"},"geometry":{"type":"Polygon","coordinates":[[[-118.889544,34.1781],[-118.889563,34.178138],[-118.88957,34.178205],[-118.889519,34.178237],[-118.889558,34.178264],[-118.889559,34.178278],[-118.889537,34.178303],[-118.889537,34.178319],[-118.889478,34.178321],[-118.889464,34.178316],[-118.889455,34.17828],[-118.889468,34.178218],[-118.889425,34.178114],[-118.88943,34.178099],[-118.889446,34.178086],[-118.889518,34.178089],[-118.889544,34.1781]]]}},{"type":"Feature","properties":{"k":"path"},"geometry":{"type":"LineString","coordinates":[[-118.889392,34.178069],[-118.889566,34.178076],[-118.889597,34.178166],[-118.889628,34.178193],[-118.889683,34.178201],[-118.889791,34.178201]]}},{"type":"Feature","properties":{"k":"bunker"},"geometry":{"type":"Polygon","coordinates":[[[-118.884769,34.179175],[-118.88471,34.179179],[-118.884662,34.179165],[-118.88463,34.179145],[-118.884682,34.179129],[-118.884694,34.179107],[-118.884708,34.179099],[-118.884706,34.179073],[-118.88473,34.179065],[-118.884756,34.179088],[-118.884763,34.179115],[-118.884753,34.179135],[-118.884769,34.179175]]]}},{"type":"Feature","properties":{"k":"bunker"},"geometry":{"type":"Polygon","coordinates":[[[-118.884679,34.178834],[-118.884653,34.178852],[-118.884639,34.178852],[-118.884593,34.178823],[-118.884589,34.178799],[-118.884563,34.178787],[-118.884579,34.178757],[-118.884577,34.178744],[-118.884667,34.178778],[-118.884675,34.178811],[-118.884699,34.178806],[-118.884707,34.178811],[-118.884701,34.178826],[-118.884679,34.178834]]]}},{"type":"Feature","properties":{"k":"tee"},"geometry":{"type":"Polygon","coordinates":[[[-118.884321,34.178741],[-118.884343,34.178728],[-118.884383,34.178682],[-118.884368,34.178652],[-118.884246,34.178595],[-118.884218,34.178599],[-118.884167,34.178663],[-118.884182,34.178678],[-118.884271,34.178728],[-118.884321,34.178741]]]}},{"type":"Feature","properties":{"k":"tee"},"geometry":{"type":"Polygon","coordinates":[[[-118.884004,34.178549],[-118.883995,34.178556],[-118.883963,34.178557],[-118.883858,34.178503],[-118.883822,34.178474],[-118.883815,34.178451],[-118.883847,34.178416],[-118.883895,34.178412],[-118.883921,34.178419],[-118.884057,34.178488],[-118.884042,34.178529],[-118.884004,34.178549]]]}},{"type":"Feature","properties":{"k":"bunker"},"geometry":{"type":"Polygon","coordinates":[[[-118.883268,34.177999],[-118.883226,34.178],[-118.883209,34.177985],[-118.883204,34.177977],[-118.883219,34.177953],[-118.883213,34.177932],[-118.883225,34.177922],[-118.883239,34.177919],[-118.883286,34.177942],[-118.883268,34.177999]]]}},{"type":"Feature","properties":{"k":"tee"},"geometry":{"type":"Polygon","coordinates":[[[-118.882726,34.178479],[-118.882706,34.178514],[-118.882662,34.178517],[-118.882625,34.178503],[-118.882555,34.178451],[-118.88244,34.178394],[-118.882362,34.178341],[-118.882286,34.17828],[-118.882265,34.178254],[-118.882273,34.178222],[-118.882286,34.178208],[-118.882348,34.178217],[-118.882565,34.178337],[-118.882726,34.17846],[-118.882726,34.178479]]]}},{"type":"Feature","properties":{"k":"tee"},"geometry":{"type":"Polygon","coordinates":[[[-118.882152,34.178186],[-118.882181,34.178168],[-118.882188,34.178136],[-118.882154,34.178086],[-118.882095,34.178073],[-118.882052,34.178084],[-118.882033,34.178105],[-118.88204,34.178152],[-118.882085,34.17818],[-118.882113,34.178188],[-118.882152,34.178186]]]}},{"type":"Feature","properties":{"k":"bunker"},"geometry":{"type":"Polygon","coordinates":[[[-118.880353,34.17731],[-118.880339,34.177316],[-118.880325,34.177343],[-118.88031,34.177347],[-118.880302,34.177326],[-118.88032,34.177318],[-118.880327,34.177302],[-118.880353,34.17731]]]}},{"type":"Feature","properties":{"k":"bunker"},"geometry":{"type":"Polygon","coordinates":[[[-118.880481,34.177602],[-118.880513,34.177582],[-118.880565,34.177519],[-118.880584,34.177464],[-118.880582,34.177442],[-118.880548,34.17738],[-118.880473,34.177329],[-118.88042,34.177323],[-118.880401,34.177344],[-118.880369,34.177326],[-118.880339,34.177354],[-118.880339,34.177364],[-118.880365,34.177369],[-118.880366,34.177378],[-118.880341,34.177383],[-118.880327,34.177416],[-118.880296,34.177424],[-118.880284,34.177423],[-118.880273,34.177368],[-118.880253,34.177357],[-118.880201,34.177378],[-118.880197,34.177405],[-118.880125,34.17744],[-118.880127,34.177466],[-118.880145,34.177479],[-118.880151,34.177508],[-118.880238,34.177484],[-118.880269,34.177492],[-118.880294,34.177519],[-118.880323,34.177531],[-118.880355,34.17754],[-118.880415,34.177537],[-118.880428,34.177572],[-118.88045,34.177585],[-118.880462,34.177604],[-118.880481,34.177602]]]}},{"type":"Feature","properties":{"k":"bunker"},"geometry":{"type":"Polygon","coordinates":[[[-118.880854,34.177362],[-118.880821,34.177368],[-118.88081,34.177361],[-118.880788,34.177333],[-118.880795,34.177317],[-118.880709,34.177303],[-118.880712,34.177286],[-118.880697,34.177285],[-118.880691,34.177277],[-118.8807,34.177257],[-118.880722,34.17725],[-118.880721,34.177241],[-118.880705,34.177236],[-118.880697,34.17724],[-118.880676,34.177227],[-118.880679,34.17722],[-118.880716,34.177215],[-118.880778,34.177226],[-118.880851,34.177271],[-118.880873,34.177306],[-118.880854,34.177362]]]}},{"type":"Feature","properties":{"k":"bunker"},"geometry":{"type":"Polygon","coordinates":[[[-118.882723,34.177353],[-118.882712,34.177367],[-118.882698,34.177369],[-118.882682,34.177356],[-118.88269,34.177316],[-118.882672,34.177304],[-118.882677,34.177281],[-118.88267,34.177272],[-118.882686,34.177252],[-118.88269,34.17723],[-118.882734,34.177219],[-118.882725,34.177197],[-118.882746,34.177182],[-118.882773,34.177189],[-118.882802,34.177222],[-118.882782,34.177259],[-118.882772,34.177263],[-118.882771,34.17729],[-118.88276,34.17731],[-118.882724,34.177321],[-118.882739,34.177342],[-118.882723,34.177353]]]}},{"type":"Feature","properties":{"k":"tee"},"geometry":{"type":"Polygon","coordinates":[[[-118.88358,34.177235],[-118.883487,34.177237],[-118.883472,34.1772],[-118.883475,34.177169],[-118.883514,34.177156],[-118.88357,34.17716],[-118.883591,34.177175],[-118.883597,34.177204],[-118.88358,34.177235]]]}},{"type":"Feature","properties":{"k":"tee"},"geometry":{"type":"Polygon","coordinates":[[[-118.883773,34.177231],[-118.883756,34.177243],[-118.883729,34.177249],[-118.8837,34.177246],[-118.883659,34.177226],[-118.883652,34.177189],[-118.883669,34.177148],[-118.883714,34.17713],[-118.883771,34.177141],[-118.883795,34.177164],[-118.883792,34.177201],[-118.883773,34.177231]]]}},{"type":"Feature","properties":{"k":"tee"},"geometry":{"type":"Polygon","coordinates":[[[-118.883937,34.177245],[-118.883929,34.177255],[-118.883872,34.177268],[-118.883831,34.177247],[-118.883823,34.177199],[-118.883831,34.177163],[-118.883881,34.17714],[-118.883926,34.177156],[-118.883939,34.177174],[-118.883948,34.177212],[-118.883937,34.177245]]]}},{"type":"Feature","properties":{"k":"tee"},"geometry":{"type":"Polygon","coordinates":[[[-118.888248,34.178365],[-118.888188,34.178412],[-118.888124,34.17844],[-118.888048,34.178437],[-118.888019,34.178424],[-118.888002,34.1784],[-118.888003,34.178367],[-118.888035,34.178342],[-118.888104,34.178296],[-118.888157,34.178283],[-118.888216,34.178283],[-118.888252,34.178304],[-118.888267,34.178346],[-118.888248,34.178365]]]}}]}