{"type":"FeatureCollection","features":[{"type":"Feature","properties":{"k":"hole","ref":"1","par":4,"hcp":5},"geometry":{"type":"LineString","coordinates":[[-119.256497,34.436803],[-119.258079,34.435184],[-119.259304,34.434829]]}},{"type":"Feature","properties":{"k":"hole","ref":"2","par":4,"hcp":9},"geometry":{"type":"LineString","coordinates":[[-119.259309,34.434544],[-119.256844,34.434701],[-119.256141,34.434036]]}},{"type":"Feature","properties":{"k":"hole","ref":"3","par":3,"hcp":17},"geometry":{"type":"LineString","coordinates":[[-119.255671,34.433207],[-119.256638,34.433659]]}},{"type":"Feature","properties":{"k":"hole","ref":"4","par":4,"hcp":13},"geometry":{"type":"LineString","coordinates":[[-119.256948,34.433682],[-119.259491,34.434347]]}},{"type":"Feature","properties":{"k":"hole","ref":"5","par":4,"hcp":3},"geometry":{"type":"LineString","coordinates":[[-119.259857,34.433412],[-119.257812,34.432207],[-119.256127,34.43165]]}},{"type":"Feature","properties":{"k":"hole","ref":"6","par":4,"hcp":11},"geometry":{"type":"LineString","coordinates":[[-119.256049,34.431355],[-119.258182,34.431158],[-119.258842,34.430808]]}},{"type":"Feature","properties":{"k":"hole","ref":"7","par":4,"hcp":1},"geometry":{"type":"LineString","coordinates":[[-119.259167,34.429831],[-119.259941,34.43174],[-119.259458,34.4328]]}},{"type":"Feature","properties":{"k":"hole","ref":"8","par":3,"hcp":15},"geometry":{"type":"LineString","coordinates":[[-119.260271,34.432756],[-119.260363,34.433745]]}},{"type":"Feature","properties":{"k":"hole","ref":"9","par":5,"hcp":7},"geometry":{"type":"LineString","coordinates":[[-119.260228,34.434322],[-119.258461,34.438297]]}},{"type":"Feature","properties":{"k":"hole","ref":"10","par":4,"hcp":8},"geometry":{"type":"LineString","coordinates":[[-119.256136,34.438256],[-119.257084,34.440132],[-119.258028,34.441112]]}},{"type":"Feature","properties":{"k":"path"},"geometry":{"type":"LineString","coordinates":[[-119.258126,34.438394],[-119.258155,34.438294],[-119.258149,34.438143],[-119.258165,34.438094],[-119.258247,34.437996],[-119.258287,34.437844],[-119.258408,34.437558],[-119.258682,34.436953],[-119.25877,34.436779],[-119.258949,34.436362],[-119.259019,34.436163],[-119.259083,34.436083],[-119.259115,34.436028],[-119.259171,34.435894],[-119.259257,34.435636],[-119.25931,34.435578],[-119.259436,34.435475],[-119.259535,34.435414],[-119.259708,34.435251],[-119.259767,34.435215],[-119.260001,34.435174],[-119.260071,34.43515],[-119.260152,34.435107],[-119.260186,34.435072],[-119.260227,34.434985],[-119.26028,34.43482],[-119.260253,34.434714],[-119.260195,34.434633],[-119.260083,34.434565],[-119.260037,34.43451],[-119.260013,34.434453],[-119.260008,34.434268],[-119.259984,34.434205],[-119.259951,34.43416],[-119.25967,34.433975],[-119.259671,34.433928],[-119.259636,34.433743],[-119.259633,34.433594],[-119.259616,34.433564],[-119.259471,34.433451],[-119.259383,34.433425],[-119.259256,34.433399],[-119.259201,34.433379],[-119.259137,34.433345],[-119.259048,34.433248],[-119.258835,34.433068],[-119.258712,34.432947],[-119.258584,34.432851],[-119.258537,34.432785],[-119.258516,34.432736],[-119.258521,34.432686],[-119.258658,34.432269],[-119.258663,34.432198],[-119.258628,34.432048],[-119.258561,34.431877],[-119.258561,34.431829],[-119.258578,34.431754],[-119.258671,34.431522],[-119.25871,34.431456],[-119.258872,34.43124],[-119.258925,34.431135],[-119.259014,34.431041],[-119.259152,34.430923],[-119.259183,34.430861],[-119.259173,34.430783],[-119.259224,34.430442],[-119.259214,34.430368],[-119.259191,34.430331],[-119.259172,34.430267],[-119.259193,34.430165],[-119.259175,34.430112],[-119.259135,34.430089]]}},{"type":"Feature","properties":{"k":"path"},"geometry":{"type":"LineString","coordinates":[[-119.258925,34.431135],[-119.258759,34.431255],[-119.258616,34.431307],[-119.258468,34.431412],[-119.258353,34.431458],[-119.258253,34.431479],[-119.257965,34.431511],[-119.257818,34.431574],[-119.25774,34.431584],[-119.257598,34.431592],[-119.257489,34.431584],[-119.257324,34.43156],[-119.256871,34.431473],[-119.256819,34.43147],[-119.256684,34.431503],[-119.256628,34.4315],[-119.256399,34.431424],[-119.256223,34.431408],[-119.255865,34.431464]]}},{"type":"Feature","properties":{"k":"path"},"geometry":{"type":"LineString","coordinates":[[-119.256454,34.43144],[-119.25651,34.431531],[-119.256548,34.431546],[-119.256682,34.431565],[-119.256818,34.431571],[-119.257131,34.431601],[-119.25721,34.431622],[-119.257403,34.431692],[-119.257606,34.431774],[-119.257721,34.431807],[-119.25789,34.431894],[-119.258025,34.431934],[-119.258096,34.431998],[-119.258227,34.432066],[-119.258266,34.432095],[-119.258328,34.432182],[-119.258374,34.432217],[-119.258429,34.432246],[-119.258547,34.432284],[-119.258616,34.432316],[-119.258631,34.43235]]}},{"type":"Feature","properties":{"k":"path"},"geometry":{"type":"LineString","coordinates":[[-119.259183,34.430861],[-119.259191,34.430912],[-119.259239,34.430951],[-119.259276,34.43113],[-119.259353,34.431343],[-119.259429,34.431476],[-119.259481,34.431679],[-119.259798,34.43202],[-119.259933,34.432116],[-119.259969,34.432173],[-119.259978,34.432257],[-119.259938,34.43236]]}},{"type":"Feature","properties":{"k":"path"},"geometry":{"type":"LineString","coordinates":[[-119.259938,34.43236],[-119.259888,34.432431]]}},{"type":"Feature","properties":{"k":"path"},"geometry":{"type":"LineString","coordinates":[[-119.259888,34.432431],[-119.25981,34.432519],[-119.259811,34.432614],[-119.259822,34.432685],[-119.259881,34.432734],[-119.260077,34.432753],[-119.260163,34.4328],[-119.260201,34.432853],[-119.260209,34.432939],[-119.260204,34.43302],[-119.260261,34.433174],[-119.260282,34.43329],[-119.260286,34.433442],[-119.260273,34.433505],[-119.260103,34.433707],[-119.260093,34.4338],[-119.260111,34.433886],[-119.260325,34.434079],[-119.260426,34.434243],[-119.26048,34.434415],[-119.260486,34.434517],[-119.260476,34.434563],[-119.260436,34.434583],[-119.260268,34.434567],[-119.260229,34.434585],[-119.260182,34.434625]]}},{"type":"Feature","properties":{"k":"path"},"geometry":{"type":"LineString","coordinates":[[-119.260128,34.439482],[-119.260306,34.439514],[-119.260385,34.439518],[-119.260516,34.4395],[-119.260697,34.439458]]}},{"type":"Feature","properties":{"k":"path"},"geometry":{"type":"LineString","coordinates":[[-119.260697,34.439458],[-119.260741,34.439368],[-119.260741,34.439286],[-119.260724,34.439218],[-119.260472,34.438597],[-119.260418,34.438522],[-119.260312,34.438411],[-119.260265,34.438344],[-119.26023,34.438238],[-119.260242,34.438189],[-119.260297,34.438118],[-119.260468,34.437833],[-119.260425,34.437749],[-119.260463,34.437507],[-119.260459,34.437422],[-119.260419,34.437259],[-119.260369,34.437149],[-119.260377,34.437055],[-119.260431,34.436931],[-119.260436,34.436844],[-119.260429,34.436768],[-119.260443,34.436698],[-119.260512,34.436516],[-119.26076,34.436431],[-119.260851,34.43636],[-119.260913,34.436232],[-119.26105,34.43616],[-119.261122,34.436104],[-119.261105,34.435874],[-119.26111,34.435806],[-119.261171,34.435725],[-119.261309,34.435631],[-119.261415,34.435585],[-119.261523,34.435579],[-119.26168,34.435608],[-119.261789,34.43567],[-119.261811,34.435736],[-119.261826,34.435925],[-119.261853,34.437199]]}},{"type":"Feature","properties":{"k":"path"},"geometry":{"type":"LineString","coordinates":[[-119.261747,34.435646],[-119.261799,34.435597],[-119.261832,34.435547],[-119.261834,34.435495],[-119.261823,34.435434],[-119.261832,34.435387],[-119.26186,34.435346],[-119.261902,34.435314],[-119.261945,34.435241],[-119.26195,34.435172],[-119.261926,34.43511],[-119.26197,34.434942],[-119.261956,34.434888],[-119.261911,34.434822],[-119.261861,34.434778],[-119.261826,34.434705],[-119.26181,34.434632],[-119.261808,34.434547],[-119.26183,34.434461],[-119.261836,34.434391],[-119.261779,34.434201],[-119.261756,34.434073],[-119.26175,34.433965],[-119.261733,34.433904],[-119.261646,34.433743],[-119.261646,34.43369],[-119.261659,34.433625],[-119.261674,34.433597],[-119.26158,34.433491],[-119.261521,34.433409],[-119.261474,34.43337],[-119.261275,34.433248],[-119.261235,34.433202],[-119.261227,34.43314],[-119.261278,34.432967],[-119.261233,34.432715],[-119.261233,34.43261],[-119.261206,34.432533],[-119.261155,34.432451],[-119.261148,34.432416],[-119.26116,34.432363],[-119.261195,34.432303],[-119.261242,34.432265],[-119.261266,34.432257],[-119.261317,34.432264],[-119.261364,34.432285],[-119.261419,34.432331],[-119.262084,34.43314],[-119.262128,34.433256],[-119.262139,34.433364],[-119.262333,34.433666],[-119.262376,34.433774],[-119.262373,34.433824],[-119.262327,34.433868],[-119.262223,34.43392],[-119.26219,34.433962],[-119.262192,34.434006],[-119.262221,34.434061],[-119.262232,34.434121],[-119.262212,34.434192],[-119.262174,34.434257],[-119.262142,34.434369],[-119.262074,34.434508],[-119.26206,34.43456],[-119.262066,34.434606],[-119.262129,34.434709],[-119.262129,34.434764],[-119.262105,34.43484],[-119.261939,34.43505]]}},{"type":"Feature","properties":{"k":"path"},"geometry":{"type":"LineString","coordinates":[[-119.261674,34.433597],[-119.261734,34.433598],[-119.261903,34.433623],[-119.261963,34.433619],[-119.262014,34.433604],[-119.262053,34.433576],[-119.262093,34.433525],[-119.26213,34.433431],[-119.262139,34.433364]]}},{"type":"Feature","properties":{"k":"path"},"geometry":{"type":"LineString","coordinates":[[-119.261266,34.432257],[-119.26125,34.432222],[-119.26115,34.432133],[-119.261137,34.43205],[-119.261101,34.431992],[-119.261075,34.431962],[-119.260991,34.431927],[-119.260946,34.431899],[-119.260914,34.43183]]}},{"type":"Feature","properties":{"k":"path"},"geometry":{"type":"LineString","coordinates":[[-119.25967,34.433975],[-119.259649,34.434007],[-119.259613,34.43404],[-119.259532,34.434077],[-119.259497,34.434086],[-119.259434,34.434087],[-119.259372,34.434077],[-119.259177,34.43398],[-119.259072,34.433911],[-119.258916,34.433834],[-119.258871,34.433823],[-119.258818,34.43383],[-119.258729,34.433863],[-119.258658,34.433877],[-119.258479,34.433886],[-119.258303,34.433882],[-119.258249,34.433902],[-119.257957,34.434086],[-119.257876,34.434096],[-119.257736,34.434136],[-119.257688,34.434133],[-119.257611,34.434108]]}},{"type":"Feature","properties":{"k":"path"},"geometry":{"type":"LineString","coordinates":[[-119.257611,34.434108],[-119.257095,34.433937]]}},{"type":"Feature","properties":{"k":"path"},"geometry":{"type":"LineString","coordinates":[[-119.257095,34.433937],[-119.256985,34.43391],[-119.256847,34.433889],[-119.256668,34.433881],[-119.256554,34.433861],[-119.256498,34.433849],[-119.256406,34.433805],[-119.255907,34.433728],[-119.255817,34.433698],[-119.255789,34.433659],[-119.255753,34.433577],[-119.255717,34.433457],[-119.255694,34.433412],[-119.25566,34.433381],[-119.255629,34.433371],[-119.25562,34.433345],[-119.255637,34.433289]]}},{"type":"Feature","properties":{"k":"path"},"geometry":{"type":"LineString","coordinates":[[-119.255817,34.433698],[-119.255684,34.433846],[-119.255675,34.433875],[-119.255731,34.43397],[-119.255937,34.434194],[-119.256063,34.434294],[-119.256292,34.434517],[-119.256482,34.434681],[-119.256544,34.434749],[-119.256569,34.434789],[-119.256535,34.434925],[-119.256537,34.43496],[-119.256552,34.435],[-119.256609,34.435043],[-119.256636,34.435053],[-119.256843,34.435091],[-119.257007,34.435149],[-119.257163,34.435183],[-119.25714,34.435252],[-119.257189,34.435545],[-119.25718,34.435635],[-119.257164,34.435685],[-119.257124,34.435747],[-119.257023,34.435855],[-119.256991,34.435907],[-119.256949,34.436137],[-119.256901,34.436316],[-119.256878,34.436354],[-119.256776,34.436453],[-119.256709,34.436537],[-119.256651,34.436579],[-119.256607,34.436597],[-119.256411,34.436623],[-119.256182,34.436683],[-119.25609,34.436734]]}},{"type":"Feature","properties":{"k":"path"},"geometry":{"type":"LineString","coordinates":[[-119.257163,34.435183],[-119.257426,34.435154],[-119.257462,34.435144],[-119.257626,34.434988],[-119.257678,34.434957],[-119.257752,34.434929],[-119.257855,34.434836],[-119.257918,34.434814],[-119.257975,34.434808],[-119.258058,34.434823],[-119.258217,34.434876],[-119.258534,34.434782],[-119.258844,34.434708],[-119.259088,34.434677],[-119.2591,34.43466],[-119.259094,34.434637],[-119.259065,34.434624],[-119.25893,34.434603],[-119.258878,34.434601],[-119.258693,34.434625],[-119.25834,34.434595],[-119.258265,34.434581],[-119.258193,34.434553],[-119.258084,34.434486],[-119.258061,34.434482],[-119.258033,34.434503]]}},{"type":"Feature","properties":{"k":"path"},"geometry":{"type":"LineString","coordinates":[[-119.258033,34.434503],[-119.257921,34.434641]]}},{"type":"Feature","properties":{"k":"path"},"geometry":{"type":"LineString","coordinates":[[-119.257921,34.434641],[-119.257897,34.434675],[-119.257855,34.434836]]}},{"type":"Feature","properties":{"k":"path"},"geometry":{"type":"LineString","coordinates":[[-119.25619,34.43812],[-119.256232,34.438237],[-119.256339,34.438372],[-119.256362,34.43854],[-119.25634,34.438625],[-119.256303,34.438717],[-119.256209,34.438846],[-119.256189,34.438905],[-119.256193,34.438975],[-119.256237,34.439165],[-119.256263,34.439245],[-119.256311,34.439349],[-119.256408,34.439657],[-119.256548,34.439865],[-119.256601,34.439971],[-119.25665,34.440082],[-119.256702,34.440234],[-119.256776,34.440364],[-119.256792,34.440435],[-119.256812,34.440485],[-119.256866,34.440546],[-119.257126,34.440733],[-119.257251,34.440763],[-119.257328,34.440798],[-119.257417,34.440859],[-119.25758,34.440996],[-119.257651,34.441051],[-119.257698,34.441074],[-119.257737,34.441153],[-119.257871,34.441289],[-119.258059,34.44139],[-119.258115,34.441439],[-119.258135,34.441469],[-119.258234,34.441485],[-119.258322,34.441486],[-119.258393,34.441477],[-119.258459,34.441425],[-119.258571,34.441311],[-119.258637,34.441294],[-119.2588,34.441202],[-119.258883,34.441145],[-119.258991,34.441106],[-119.25914,34.441088],[-119.259422,34.441032],[-119.259865,34.440917],[-119.260142,34.440858],[-119.260249,34.440852],[-119.260487,34.440892],[-119.260556,34.44089],[-119.260618,34.440863],[-119.260671,34.440827],[-119.260909,34.440619],[-119.260963,34.440549],[-119.261002,34.44047],[-119.261104,34.440219]]}},{"type":"Feature","properties":{"k":"path"},"geometry":{"type":"LineString","coordinates":[[-119.258579,34.44131],[-119.258528,34.441281],[-119.258498,34.441253],[-119.258486,34.441215],[-119.258485,34.441096],[-119.258417,34.440984],[-119.258068,34.44056],[-119.25789,34.440378],[-119.257613,34.440019],[-119.257347,34.439712],[-119.256917,34.439166],[-119.256703,34.438859],[-119.256609,34.438756],[-119.256564,34.438673],[-119.256564,34.43861],[-119.256593,34.438531],[-119.256591,34.438441],[-119.256517,34.438277],[-119.256356,34.438072]]}},{"type":"Feature","properties":{"k":"path"},"geometry":{"type":"LineString","coordinates":[[-119.2556,34.438059],[-119.255504,34.43813],[-119.255486,34.438177],[-119.25548,34.438273],[-119.255481,34.438362],[-119.255502,34.43845],[-119.255505,34.438524],[-119.255483,34.438801],[-119.255502,34.439149],[-119.255475,34.439366],[-119.255467,34.440383],[-119.255454,34.440524],[-119.255464,34.440817],[-119.255458,34.441146],[-119.25548,34.441189],[-119.255626,34.441361],[-119.255635,34.441418],[-119.255629,34.44148],[-119.25559,34.441537],[-119.255579,34.441589],[-119.255568,34.44179],[-119.255545,34.441937],[-119.255545,34.442098],[-119.255517,34.442197],[-119.255503,34.442278],[-119.25551,34.442319],[-119.255539,34.442348],[-119.255577,34.442366],[-119.255672,34.442384],[-119.255745,34.442357],[-119.255819,34.442317],[-119.255857,34.44228],[-119.255902,34.442195],[-119.255983,34.44198],[-119.256114,34.441688],[-119.256255,34.441569],[-119.256319,34.441543],[-119.25639,34.441537],[-119.256463,34.441541],[-119.256607,34.441609],[-119.256647,34.441623],[-119.256696,34.441621],[-119.256878,34.441556],[-119.256983,34.441528],[-119.257099,34.441516],[-119.257387,34.441534],[-119.257602,34.441506],[-119.257814,34.441503],[-119.257998,34.441488],[-119.258135,34.441469]]}},{"type":"Feature","properties":{"k":"green"},"geometry":{"type":"Polygon","coordinates":[[[-119.258864,34.430913],[-119.258901,34.430903],[-119.258913,34.430886],[-119.258929,34.430791],[-119.258931,34.43075],[-119.258922,34.430725],[-119.258886,34.430698],[-119.258855,34.430698],[-119.258805,34.430725],[-119.258785,34.43075],[-119.258749,34.430838],[-119.258755,34.430857],[-119.258771,34.43087],[-119.258839,34.43091],[-119.258864,34.430913]]]}},{"type":"Feature","properties":{"k":"bunker"},"geometry":{"type":"Polygon","coordinates":[[[-119.258649,34.430805],[-119.258657,34.430822],[-119.258674,34.430832],[-119.258715,34.430827],[-119.25873,34.430808],[-119.258719,34.430794],[-119.258701,34.430788],[-119.258701,34.430781],[-119.258739,34.43078],[-119.258747,34.430771],[-119.25875,34.430743],[-119.258712,34.430734],[-119.258707,34.430711],[-119.258696,34.430701],[-119.25866,34.430709],[-119.258652,34.430723],[-119.258659,34.430766],[-119.258645,34.430792],[-119.258649,34.430805]]]}},{"type":"Feature","properties":{"k":"bunker"},"geometry":{"type":"Polygon","coordinates":[[[-119.257935,34.430958],[-119.257918,34.430998],[-119.257925,34.431011],[-119.257953,34.43102],[-119.257974,34.431004],[-119.258013,34.431005],[-119.258018,34.430996],[-119.258011,34.430979],[-119.257985,34.430982],[-119.257976,34.430977],[-119.257978,34.43095],[-119.257948,34.430951],[-119.257935,34.430958]]]}},{"type":"Feature","properties":{"k":"bunker"},"geometry":{"type":"Polygon","coordinates":[[[-119.258751,34.430964],[-119.258751,34.430954],[-119.258773,34.430939],[-119.258773,34.430924],[-119.258738,34.430908],[-119.258717,34.430913],[-119.258696,34.430963],[-119.258633,34.430981],[-119.258642,34.43102],[-119.258638,34.431036],[-119.25859,34.43105],[-119.258573,34.431066],[-119.25857,34.431087],[-119.258589,34.431104],[-119.258569,34.431124],[-119.258564,34.431149],[-119.258595,34.431154],[-119.258603,34.431134],[-119.258619,34.431129],[-119.258639,34.43117],[-119.258636,34.43118],[-119.258616,34.431187],[-119.258559,34.431176],[-119.258546,34.43118],[-119.258543,34.431212],[-119.25856,34.431237],[-119.258596,34.431243],[-119.258623,34.431233],[-119.25863,34.431209],[-119.258638,34.431205],[-119.258663,34.431214],[-119.258685,34.431203],[-119.258688,34.431189],[-119.258676,34.431165],[-119.258687,34.431145],[-119.258682,34.431114],[-119.258665,34.431106],[-119.258622,34.431109],[-119.258616,34.431097],[-119.258651,34.431088],[-119.258645,34.431059],[-119.258662,34.431047],[-119.258671,34.431051],[-119.258673,34.431089],[-119.258702,34.431097],[-119.258712,34.431089],[-119.258709,34.431061],[-119.258738,34.431053],[-119.258743,34.431043],[-119.258706,34.431017],[-119.258721,34.431003],[-119.258759,34.431023],[-119.25879,34.431015],[-119.258801,34.430999],[-119.258798,34.430965],[-119.258777,34.430953],[-119.258751,34.430964]]]}},{"type":"Feature","properties":{"k":"green"},"geometry":{"type":"Polygon","coordinates":[[[-119.256166,34.431588],[-119.25613,34.431567],[-119.256097,34.431566],[-119.256009,34.43161],[-119.255986,34.431634],[-119.255984,34.431652],[-119.255995,34.431669],[-119.256137,34.431726],[-119.256207,34.431732],[-119.256246,34.431721],[-119.256267,34.431707],[-119.256277,34.431682],[-119.256266,34.431661],[-119.256166,34.431588]]]}},{"type":"Feature","properties":{"k":"bunker"},"geometry":{"type":"Polygon","coordinates":[[[-119.256303,34.43155],[-119.256271,34.43154],[-119.256244,34.431509],[-119.256226,34.43151],[-119.256197,34.431546],[-119.256199,34.431562],[-119.256213,34.431573],[-119.256228,34.431577],[-119.256251,34.431569],[-119.25626,34.431574],[-119.256276,34.43159],[-119.256265,34.431605],[-119.256269,34.431617],[-119.256285,34.431627],[-119.256324,34.43163],[-119.25634,34.431621],[-119.256346,34.431591],[-119.256372,34.431568],[-119.256373,34.431552],[-119.256353,34.431534],[-119.256303,34.43155]]]}},{"type":"Feature","properties":{"k":"green"},"geometry":{"type":"Polygon","coordinates":[[[-119.259379,34.432736],[-119.259429,34.432744],[-119.259459,34.432739],[-119.259497,34.432717],[-119.259516,34.432682],[-119.259513,34.432605],[-119.25953,34.432596],[-119.259557,34.432607],[-119.259573,34.432651],[-119.259576,34.432788],[-119.259573,34.432825],[-119.259545,34.432855],[-119.259437,34.432897],[-119.259392,34.432894],[-119.25935,34.432866],[-119.259307,34.432833],[-119.259291,34.4328],[-119.259294,34.432774],[-119.259308,34.43275],[-119.259343,34.432734],[-119.259379,34.432736]]]}},{"type":"Feature","properties":{"k":"bunker"},"geometry":{"type":"Polygon","coordinates":[[[-119.259362,34.43271],[-119.25941,34.432713],[-119.259421,34.432702],[-119.259421,34.432671],[-119.259454,34.432654],[-119.259464,34.43266],[-119.259438,34.432689],[-119.259436,34.432705],[-119.259465,34.432711],[-119.259485,34.432699],[-119.259502,34.432674],[-119.259504,34.432653],[-119.259491,34.432611],[-119.259466,34.432602],[-119.259448,34.432604],[-119.259422,34.43264],[-119.2594,34.432646],[-119.259388,34.432663],[-119.259377,34.432666],[-119.259366,34.432659],[-119.259379,34.432633],[-119.259375,34.432624],[-119.259354,34.432617],[-119.25931,34.432623],[-119.259314,34.432645],[-119.259347,34.432654],[-119.259342,34.432676],[-119.259317,34.432666],[-119.259305,34.432673],[-119.2593,34.432688],[-119.259308,34.432701],[-119.259318,34.43271],[-119.259362,34.43271]]]}},{"type":"Feature","properties":{"k":"bunker"},"geometry":{"type":"Polygon","coordinates":[[[-119.259533,34.4329],[-119.259489,34.432913],[-119.259485,34.432929],[-119.259495,34.432945],[-119.259514,34.432951],[-119.259541,34.432948],[-119.259576,34.432929],[-119.25957,34.432904],[-119.259533,34.4329]]]}},{"type":"Feature","properties":{"k":"green"},"geometry":{"type":"Polygon","coordinates":[[[-119.256187,34.442017],[-119.256209,34.442029],[-119.25624,34.442034],[-119.256283,34.442027],[-119.256328,34.442011],[-119.256388,34.441974],[-119.256464,34.441918],[-119.256499,34.441881],[-119.256507,34.441835],[-119.256486,34.441799],[-119.256446,34.441777],[-119.256392,34.441774],[-119.256345,34.441786],[-119.256304,34.441814],[-119.256224,34.441899],[-119.256167,34.441941],[-119.25616,34.441967],[-119.256166,34.441997],[-119.256187,34.442017]]]}},{"type":"Feature","properties":{"k":"bunker"},"geometry":{"type":"Polygon","coordinates":[[[-119.256232,34.442095],[-119.256267,34.442123],[-119.256312,34.442131],[-119.256338,34.442121],[-119.256346,34.442159],[-119.256371,34.442172],[-119.256417,34.442167],[-119.256438,34.442152],[-119.256445,34.442135],[-119.256487,34.442146],[-119.2565,34.442142],[-119.256514,34.442113],[-119.256525,34.442106],[-119.25655,34.442119],[-119.256566,34.442118],[-119.25661,34.442093],[-119.256617,34.442073],[-119.256593,34.442062],[-119.256567,34.442065],[-119.256553,34.442058],[-119.256561,34.442047],[-119.25658,34.442048],[-119.256579,34.442036],[-119.256563,34.442022],[-119.256569,34.442009],[-119.256583,34.442007],[-119.256597,34.442032],[-119.256615,34.442042],[-119.256641,34.442037],[-119.256655,34.442006],[-119.256651,34.441992],[-119.256596,34.44193],[-119.256569,34.441923],[-119.2565,34.441937],[-119.25648,34.441957],[-119.256482,34.441977],[-119.256463,34.441972],[-119.256433,34.441979],[-119.256439,34.442007],[-119.256422,34.442003],[-119.256419,34.44201],[-119.25646,34.442031],[-119.256483,34.442025],[-119.256495,34.442037],[-119.256474,34.442053],[-119.256475,34.442062],[-119.256446,34.442061],[-119.256444,34.442084],[-119.256432,34.442084],[-119.256436,34.442062],[-119.256429,34.442054],[-119.2564,34.442052],[-119.256391,34.442062],[-119.256374,34.442063],[-119.256375,34.442036],[-119.256351,34.442028],[-119.256322,34.442043],[-119.256308,34.442067],[-119.256279,34.442057],[-119.256257,34.442076],[-119.256238,34.442067],[-119.256226,34.442083],[-119.256232,34.442095]]]}},{"type":"Feature","properties":{"k":"green"},"geometry":{"type":"Polygon","coordinates":[[[-119.258073,34.441233],[-119.258131,34.441215],[-119.258161,34.441196],[-119.258168,34.441169],[-119.258158,34.441144],[-119.258135,34.441114],[-119.258062,34.441067],[-119.25804,34.441041],[-119.258008,34.440972],[-119.25798,34.440958],[-119.25795,34.440959],[-119.257928,34.440981],[-119.25791,34.441041],[-119.257919,34.441137],[-119.257932,34.441173],[-119.257966,34.4412],[-119.258013,34.441223],[-119.258046,34.441234],[-119.258073,34.441233]]]}},{"type":"Feature","properties":{"k":"bunker"},"geometry":{"type":"Polygon","coordinates":[[[-119.257816,34.441134],[-119.257837,34.441131],[-119.257851,34.441119],[-119.257862,34.441078],[-119.25785,34.441065],[-119.257799,34.441066],[-119.257785,34.441077],[-119.25778,34.441094],[-119.257787,34.441113],[-119.257816,34.441134]]]}},{"type":"Feature","properties":{"k":"bunker"},"geometry":{"type":"Polygon","coordinates":[[[-119.25817,34.44111],[-119.258199,34.441134],[-119.258213,34.441137],[-119.25826,34.441124],[-119.258268,34.441108],[-119.258267,34.441087],[-119.258239,34.44105],[-119.258262,34.441032],[-119.258267,34.441014],[-119.258241,34.440995],[-119.258201,34.440998],[-119.258188,34.440951],[-119.25814,34.44093],[-119.258112,34.440928],[-119.258095,34.440933],[-119.258077,34.440956],[-119.258062,34.440987],[-119.258064,34.441017],[-119.258096,34.441052],[-119.258114,34.441058],[-119.258132,34.441035],[-119.258136,34.440997],[-119.258147,34.44099],[-119.258159,34.440996],[-119.258175,34.44106],[-119.25817,34.44111]]]}},{"type":"Feature","properties":{"k":"green"},"geometry":{"type":"Polygon","coordinates":[[[-119.25862,34.441017],[-119.258647,34.44101],[-119.258668,34.440991],[-119.258751,34.440845],[-119.258754,34.440818],[-119.258733,34.440793],[-119.25866,34.440748],[-119.258626,34.440753],[-119.258607,34.440772],[-119.258599,34.440792],[-119.258603,34.440819],[-119.258542,34.440917],[-119.258538,34.440946],[-119.258601,34.441012],[-119.25862,34.441017]]]}},{"type":"Feature","properties":{"k":"bunker"},"geometry":{"type":"Polygon","coordinates":[[[-119.258433,34.440858],[-119.258423,34.440874],[-119.258447,34.440892],[-119.258454,34.440909],[-119.258472,34.440914],[-119.258493,34.440906],[-119.258503,34.440886],[-119.258468,34.440852],[-119.258475,34.440847],[-119.258518,34.440861],[-119.258535,34.440856],[-119.258542,34.440835],[-119.258534,34.440815],[-119.258509,34.440803],[-119.258452,34.440799],[-119.258426,34.440805],[-119.258411,34.440838],[-119.258433,34.440858]]]}},{"type":"Feature","properties":{"k":"bunker"},"geometry":{"type":"Polygon","coordinates":[[[-119.25877,34.441012],[-119.258734,34.441014],[-119.258712,34.441004],[-119.258706,34.440984],[-119.258721,34.440934],[-119.258734,34.440924],[-119.258745,34.440899],[-119.258758,34.440891],[-119.258783,34.440892],[-119.258809,34.440906],[-119.258835,34.440948],[-119.258795,34.440959],[-119.258815,34.440994],[-119.258807,34.441006],[-119.258794,34.441015],[-119.25877,34.441012]]]}},{"type":"Feature","properties":{"k":"fairway"},"geometry":{"type":"Polygon","coordinates":[[[-119.257583,34.435658],[-119.25786,34.43545],[-119.258205,34.435266],[-119.25849,34.435179],[-119.258819,34.435061],[-119.25901,34.435001],[-119.259128,34.434977],[-119.259165,34.434917],[-119.259132,34.434897],[-119.259051,34.434883],[-119.259006,34.43484],[-119.258909,34.43487],[-119.258795,34.43485],[-119.25864,34.43486],[-119.258323,34.434987],[-119.25812,34.434981],[-119.257929,34.43489],[-119.257851,34.434942],[-119.257802,34.435174],[-119.257702,34.435299],[-119.257592,34.43537],[-119.257417,34.43545],[-119.25725,34.435668],[-119.257055,34.43599],[-119.256982,34.436195],[-119.257002,34.436355],[-119.257116,34.436429],[-119.257262,34.436379],[-119.257348,34.436315],[-119.257429,34.436158],[-119.257575,34.43604],[-119.25762,34.435876],[-119.257567,34.435769],[-119.257583,34.435658]]]}},{"type":"Feature","properties":{"k":"fairway"},"geometry":{"type":"Polygon","coordinates":[[[-119.256715,34.434582],[-119.256675,34.434663],[-119.256701,34.434742],[-119.256808,34.434819],[-119.256874,34.434908],[-119.256941,34.434981],[-119.257082,34.435023],[-119.257304,34.435004],[-119.257488,34.434956],[-119.257565,34.4349],[-119.257584,34.434798],[-119.25749,34.434733],[-119.257364,34.434661],[-119.257238,34.434608],[-119.256991,34.434571],[-119.256893,34.434519],[-119.256799,34.434498],[-119.256743,34.434531],[-119.256715,34.434582]]]}},{"type":"Feature","properties":{"k":"fairway"},"geometry":{"type":"Polygon","coordinates":[[[-119.258614,34.432632],[-119.258766,34.43272],[-119.258926,34.432778],[-119.259032,34.432726],[-119.259081,34.432638],[-119.259057,34.432562],[-119.258922,34.432507],[-119.258625,34.432463],[-119.258483,34.432419],[-119.258342,34.432338],[-119.258207,34.432232],[-119.258066,34.432139],[-119.257945,34.432084],[-119.25779,34.43204],[-119.257662,34.432043],[-119.25751,34.431981],[-119.257206,34.431789],[-119.257064,34.431719],[-119.256859,34.431692],[-119.256643,34.431652],[-119.256307,34.431663],[-119.256286,34.431718],[-119.256312,34.43176],[-119.256452,34.431882],[-119.256668,34.431943],[-119.256859,34.431984],[-119.256983,34.432046],[-119.257149,34.432145],[-119.257283,34.432241],[-119.257464,34.432323],[-119.257627,34.432323],[-119.257839,34.432405],[-119.258105,34.432486],[-119.258267,34.432553],[-119.258462,34.432586],[-119.258614,34.432632]]]}},{"type":"Feature","properties":{"k":"fairway"},"geometry":{"type":"Polygon","coordinates":[[[-119.257612,34.431414],[-119.257933,34.431324],[-119.258258,34.43121],[-119.258433,34.431139],[-119.258567,34.430971],[-119.258697,34.430884],[-119.258636,34.430834],[-119.258518,34.430807],[-119.258372,34.430854],[-119.258173,34.430941],[-119.258014,34.431049],[-119.257868,34.431065],[-119.257701,34.431022],[-119.257502,34.431065],[-119.25734,34.431132],[-119.257217,34.431253],[-119.25723,34.431397],[-119.25734,34.431454],[-119.257482,34.431454],[-119.257612,34.431414]]]}},{"type":"Feature","properties":{"k":"green"},"geometry":{"type":"Polygon","coordinates":[[[-119.256767,34.438159],[-119.256977,34.438192],[-119.257005,34.438225],[-119.257012,34.438257],[-119.256995,34.438278],[-119.256954,34.438282],[-119.256849,34.438274],[-119.256766,34.438285],[-119.25672,34.438268],[-119.256694,34.438232],[-119.256693,34.438192],[-119.256717,34.438165],[-119.256767,34.438159]]]}},{"type":"Feature","properties":{"k":"fairway"},"geometry":{"type":"Polygon","coordinates":[[[-119.261532,34.439143],[-119.261518,34.438916],[-119.261598,34.438769],[-119.26163,34.43855],[-119.26163,34.438292],[-119.261645,34.437957],[-119.261612,34.43731],[-119.261565,34.437113],[-119.261607,34.436944],[-119.261691,34.436728],[-119.261691,34.436505],[-119.26163,34.436316],[-119.261509,34.436112],[-119.261488,34.436038],[-119.261439,34.436056],[-119.261384,34.436051],[-119.261405,34.436146],[-119.26139,34.43628],[-119.261319,34.43663],[-119.261308,34.436843],[-119.261317,34.437305],[-119.261351,34.437542],[-119.261395,34.437671],[-119.26141,34.437798],[-119.261369,34.437937],[-119.261304,34.438049],[-119.261247,34.438171],[-119.261247,34.438281],[-119.261285,34.438439],[-119.261353,34.438571],[-119.261371,34.438679],[-119.261337,34.438789],[-119.261159,34.438987],[-119.261115,34.439098],[-119.261138,34.439206],[-119.261198,34.439268],[-119.261286,34.439295],[-119.26141,34.439279],[-119.26149,34.439217],[-119.261532,34.439143]]]}},{"type":"Feature","properties":{"k":"bunker"},"geometry":{"type":"Polygon","coordinates":[[[-119.258213,34.44042],[-119.258199,34.44043],[-119.258208,34.440452],[-119.2582,34.440475],[-119.258213,34.440484],[-119.25826,34.44047],[-119.258266,34.44045],[-119.258283,34.44044],[-119.258289,34.440426],[-119.258216,34.440382],[-119.258207,34.440349],[-119.258178,34.440349],[-119.258157,34.440367],[-119.258153,34.440388],[-119.258168,34.4404],[-119.258212,34.440413],[-119.258213,34.44042]]]}},{"type":"Feature","properties":{"k":"bunker"},"geometry":{"type":"Polygon","coordinates":[[[-119.257947,34.440176],[-119.257958,34.440206],[-119.257987,34.440216],[-119.258013,34.440195],[-119.258027,34.44017],[-119.257969,34.44014],[-119.257951,34.440109],[-119.25793,34.440106],[-119.257902,34.440125],[-119.257897,34.440154],[-119.257947,34.440176]]]}},{"type":"Feature","properties":{"k":"bunker"},"geometry":{"type":"Polygon","coordinates":[[[-119.257045,34.440498],[-119.257045,34.440529],[-119.25701,34.440551],[-119.257043,34.440619],[-119.257066,34.440628],[-119.257098,34.440619],[-119.257123,34.440624],[-119.257128,34.440633],[-119.257109,34.440656],[-119.257154,34.44068],[-119.257189,34.440676],[-119.257222,34.440687],[-119.25724,34.440663],[-119.257269,34.440657],[-119.257264,34.440634],[-119.257229,34.440611],[-119.257185,34.440623],[-119.257179,34.440616],[-119.257192,34.440573],[-119.257175,34.440548],[-119.257156,34.440537],[-119.25714,34.440535],[-119.257123,34.440546],[-119.257125,34.440565],[-119.257138,34.440585],[-119.257133,34.440597],[-119.257117,34.440596],[-119.257098,34.440578],[-119.257068,34.440586],[-119.257069,34.44056],[-119.25709,34.44055],[-119.257102,34.440512],[-119.257083,34.440496],[-119.257045,34.440498]]]}},{"type":"Feature","properties":{"k":"bunker"},"geometry":{"type":"Polygon","coordinates":[[[-119.256048,34.439315],[-119.256079,34.439291],[-119.256088,34.439296],[-119.256096,34.439321],[-119.25607,34.439352],[-119.256032,34.439357],[-119.256001,34.439336],[-119.256,34.439313],[-119.255987,34.43929],[-119.255986,34.439279],[-119.256006,34.439251],[-119.256016,34.439257],[-119.256047,34.439254],[-119.256066,34.439263],[-119.256065,34.439278],[-119.256042,34.439305],[-119.256048,34.439315]]]}},{"type":"Feature","properties":{"k":"bunker"},"geometry":{"type":"Polygon","coordinates":[[[-119.258261,34.43988],[-119.258328,34.43994],[-119.25835,34.439939],[-119.258376,34.439916],[-119.25838,34.439902],[-119.258363,34.439875],[-119.258322,34.439853],[-119.258301,34.439857],[-119.258293,34.439851],[-119.258304,34.439819],[-119.258281,34.439786],[-119.258243,34.43977],[-119.258225,34.439771],[-119.258206,34.439782],[-119.2582,34.439805],[-119.25823,34.439831],[-119.258261,34.43988]]]}},{"type":"Feature","properties":{"k":"bunker"},"geometry":{"type":"Polygon","coordinates":[[[-119.255553,34.438746],[-119.255531,34.43877],[-119.255532,34.438781],[-119.255589,34.438826],[-119.255615,34.438821],[-119.255633,34.438796],[-119.255681,34.438805],[-119.255704,34.438766],[-119.255694,34.438742],[-119.255667,34.438732],[-119.255632,34.438758],[-119.255616,34.438759],[-119.255604,34.438751],[-119.255603,34.438719],[-119.255594,34.438714],[-119.255559,34.438721],[-119.255553,34.438746]]]}},{"type":"Feature","properties":{"k":"bunker"},"geometry":{"type":"Polygon","coordinates":[[[-119.255882,34.438614],[-119.255851,34.438597],[-119.255837,34.438562],[-119.255841,34.438548],[-119.25586,34.438536],[-119.255888,34.43854],[-119.255911,34.438556],[-119.255905,34.438592],[-119.255882,34.438614]]]}},{"type":"Feature","properties":{"k":"bunker"},"geometry":{"type":"Polygon","coordinates":[[[-119.25593,34.438498],[-119.255916,34.438479],[-119.255926,34.438459],[-119.255915,34.438439],[-119.255918,34.438417],[-119.255954,34.438411],[-119.255958,34.438432],[-119.255971,34.438443],[-119.256011,34.438439],[-119.256022,34.438457],[-119.256004,34.438486],[-119.255945,34.438486],[-119.25593,34.438498]]]}},{"type":"Feature","properties":{"k":"bunker"},"geometry":{"type":"Polygon","coordinates":[[[-119.255891,34.438317],[-119.255906,34.438329],[-119.255936,34.438334],[-119.255938,34.438356],[-119.255903,34.438367],[-119.25588,34.438361],[-119.25584,34.43831],[-119.25578,34.438314],[-119.255768,34.438298],[-119.255771,34.438286],[-119.255797,34.438254],[-119.255848,34.43825],[-119.255861,34.438253],[-119.255904,34.438293],[-119.255891,34.438317]]]}},{"type":"Feature","properties":{"k":"tee"},"geometry":{"type":"Polygon","coordinates":[[[-119.256438,34.436761],[-119.256484,34.43676],[-119.256532,34.436772],[-119.256551,34.436787],[-119.25657,34.436817],[-119.256552,34.436852],[-119.256529,34.436861],[-119.256506,34.436853],[-119.256416,34.436806],[-119.256427,34.436787],[-119.256423,34.436776],[-119.256438,34.436761]]]}},{"type":"Feature","properties":{"k":"green"},"geometry":{"type":"Polygon","coordinates":[[[-119.259204,34.434954],[-119.259222,34.434959],[-119.259292,34.43495],[-119.259326,34.434939],[-119.259347,34.434919],[-119.259412,34.434766],[-119.259417,34.434733],[-119.259395,34.434715],[-119.259364,34.434715],[-119.259275,34.434754],[-119.259237,34.434779],[-119.259218,34.43484],[-119.259182,34.434914],[-119.259185,34.434936],[-119.259204,34.434954]]]}},{"type":"Feature","properties":{"k":"bunker"},"geometry":{"type":"Polygon","coordinates":[[[-119.259152,34.434876],[-119.259119,34.434873],[-119.259079,34.434855],[-119.259064,34.434816],[-119.259066,34.434807],[-119.259088,34.434801],[-119.259078,34.43478],[-119.259088,34.434769],[-119.259154,34.434765],[-119.259158,34.434788],[-119.25911,34.434798],[-119.2591,34.434815],[-119.259111,34.434826],[-119.259165,34.434821],[-119.259175,34.434827],[-119.259175,34.434854],[-119.259166,34.434872],[-119.259152,34.434876]]]}},{"type":"Feature","properties":{"k":"tee"},"geometry":{"type":"Polygon","coordinates":[[[-119.259329,34.434563],[-119.259341,34.434547],[-119.259335,34.434524],[-119.259311,34.434518],[-119.259285,34.434524],[-119.259275,34.434538],[-119.259278,34.434555],[-119.259292,34.434565],[-119.259329,34.434563]]]}},{"type":"Feature","properties":{"k":"bunker"},"geometry":{"type":"Polygon","coordinates":[[[-119.256759,34.434956],[-119.256747,34.434951],[-119.256713,34.43499],[-119.256695,34.434991],[-119.256676,34.434977],[-119.256673,34.434936],[-119.256631,34.434931],[-119.256605,34.434915],[-119.256608,34.434896],[-119.256643,34.434885],[-119.256643,34.434855],[-119.256654,34.434839],[-119.256675,34.43484],[-119.256692,34.434858],[-119.256693,34.434874],[-119.256713,34.434868],[-119.25674,34.434886],[-119.256733,34.434898],[-119.256709,34.434892],[-119.256705,34.434897],[-119.256715,34.434926],[-119.256753,34.434903],[-119.25678,34.434915],[-119.256797,34.434941],[-119.256795,34.434971],[-119.256772,34.434991],[-119.256755,34.434994],[-119.256745,34.434981],[-119.256759,34.434956]]]}},{"type":"Feature","properties":{"k":"green"},"geometry":{"type":"Polygon","coordinates":[[[-119.256187,34.434194],[-119.256242,34.434174],[-119.256259,34.434151],[-119.256266,34.434123],[-119.256255,34.434087],[-119.256212,34.434032],[-119.256184,34.433963],[-119.256164,34.43394],[-119.256139,34.433929],[-119.256101,34.433932],[-119.256055,34.433952],[-119.256028,34.433973],[-119.256029,34.434016],[-119.256042,34.434037],[-119.256099,34.434078],[-119.256122,34.434106],[-119.256139,34.434176],[-119.25616,34.43419],[-119.256187,34.434194]]]}},{"type":"Feature","properties":{"k":"bunker"},"geometry":{"type":"Polygon","coordinates":[[[-119.255978,34.433948],[-119.255958,34.433982],[-119.255935,34.433989],[-119.255919,34.433983],[-119.255908,34.433967],[-119.255915,34.433932],[-119.255963,34.433912],[-119.256011,34.433903],[-119.256024,34.433919],[-119.256019,34.433928],[-119.255978,34.433948]]]}},{"type":"Feature","properties":{"k":"bunker"},"geometry":{"type":"Polygon","coordinates":[[[-119.256069,34.433903],[-119.25616,34.433886],[-119.256171,34.433877],[-119.256172,34.433855],[-119.256147,34.433846],[-119.256115,34.433856],[-119.256062,34.433889],[-119.256069,34.433903]]]}},{"type":"Feature","properties":{"k":"tee"},"geometry":{"type":"Polygon","coordinates":[[[-119.255663,34.433288],[-119.255723,34.433318],[-119.255754,34.433315],[-119.255786,34.433295],[-119.255809,34.433263],[-119.255812,34.433239],[-119.255758,34.433175],[-119.255699,34.433153],[-119.255661,34.433148],[-119.25563,34.433153],[-119.255604,34.433173],[-119.255595,34.433196],[-119.255606,34.433243],[-119.255663,34.433288]]]}},{"type":"Feature","properties":{"k":"green"},"geometry":{"type":"Polygon","coordinates":[[[-119.256634,34.433755],[-119.25667,34.433745],[-119.256746,34.433669],[-119.25676,34.433644],[-119.256748,34.433614],[-119.256719,34.433594],[-119.256634,34.433594],[-119.256601,34.433604],[-119.256572,34.433625],[-119.256473,34.433658],[-119.256467,34.433679],[-119.256475,34.433694],[-119.256634,34.433755]]]}},{"type":"Feature","properties":{"k":"bunker"},"geometry":{"type":"Polygon","coordinates":[[[-119.256502,34.433799],[-119.256556,34.433794],[-119.256578,34.43378],[-119.256584,34.433768],[-119.256574,34.433751],[-119.25653,34.433742],[-119.256501,34.433746],[-119.256461,34.433726],[-119.256435,34.433729],[-119.256428,34.433742],[-119.256438,34.433768],[-119.256502,34.433799]]]}},{"type":"Feature","properties":{"k":"bunker"},"geometry":{"type":"Polygon","coordinates":[[[-119.256486,34.433618],[-119.256511,34.433627],[-119.256537,34.433621],[-119.256565,34.433607],[-119.256565,34.433595],[-119.256555,34.433587],[-119.256516,34.433588],[-119.256489,34.433607],[-119.256486,34.433618]]]}},{"type":"Feature","properties":{"k":"tee"},"geometry":{"type":"Polygon","coordinates":[[[-119.256939,34.433768],[-119.256967,34.433777],[-119.256998,34.433768],[-119.257016,34.433742],[-119.257009,34.433686],[-119.256978,34.433627],[-119.256955,34.433605],[-119.256929,34.433594],[-119.256901,34.433607],[-119.25689,34.433634],[-119.256913,34.433737],[-119.256939,34.433768]]]}},{"type":"Feature","properties":{"k":"green"},"geometry":{"type":"Polygon","coordinates":[[[-119.259364,34.434347],[-119.259436,34.434406],[-119.259505,34.434428],[-119.259575,34.434408],[-119.259595,34.434385],[-119.259598,34.43436],[-119.259584,34.43433],[-119.259522,34.434288],[-119.25949,34.434277],[-119.259457,34.434277],[-119.259424,34.434293],[-119.259371,34.434323],[-119.259364,34.434347]]]}},{"type":"Feature","properties":{"k":"bunker"},"geometry":{"type":"Polygon","coordinates":[[[-119.259377,34.434259],[-119.259362,34.43428],[-119.259346,34.43428],[-119.25933,34.43427],[-119.259319,34.434246],[-119.259274,34.434233],[-119.259265,34.434204],[-119.259274,34.434187],[-119.259299,34.434189],[-119.259315,34.434169],[-119.259342,34.434181],[-119.259344,34.434199],[-119.259352,34.434204],[-119.259408,34.434215],[-119.25941,34.434245],[-119.259377,34.434259]]]}},{"type":"Feature","properties":{"k":"tee"},"geometry":{"type":"Polygon","coordinates":[[[-119.259853,34.433359],[-119.25982,34.433363],[-119.259783,34.433414],[-119.259794,34.433436],[-119.259817,34.433455],[-119.259845,34.43346],[-119.259879,34.433457],[-119.259902,34.433437],[-119.259912,34.433408],[-119.259902,34.433375],[-119.259853,34.433359]]]}},{"type":"Feature","properties":{"k":"tee"},"geometry":{"type":"Polygon","coordinates":[[[-119.255871,34.431384],[-119.255889,34.43137],[-119.256051,34.431316],[-119.256143,34.431267],[-119.25618,34.431265],[-119.256201,34.431282],[-119.256208,34.431309],[-119.25618,34.431343],[-119.25613,34.431368],[-119.255891,34.431421],[-119.255873,34.431411],[-119.255871,34.431384]]]}},{"type":"Feature","properties":{"k":"tee"},"geometry":{"type":"Polygon","coordinates":[[[-119.259141,34.429906],[-119.259182,34.429917],[-119.259253,34.429886],[-119.259249,34.429841],[-119.259193,34.429772],[-119.259137,34.429729],[-119.259097,34.429737],[-119.259081,34.429769],[-119.2591,34.429831],[-119.259141,34.429906]]]}},{"type":"Feature","properties":{"k":"fairway"},"geometry":{"type":"Polygon","coordinates":[[[-119.259493,34.430328],[-119.259346,34.430399],[-119.259295,34.4305],[-119.259314,34.430592],[-119.259385,34.430699],[-119.259508,34.430859],[-119.259585,34.431049],[-119.259652,34.431455],[-119.259751,34.431751],[-119.259774,34.431867],[-119.259824,34.431925],[-119.259922,34.431931],[-119.259993,34.431881],[-119.259985,34.431766],[-119.259965,34.431654],[-119.260023,34.431441],[-119.260051,34.431191],[-119.26001,34.43102],[-119.259916,34.430885],[-119.259787,34.430731],[-119.259716,34.430566],[-119.259624,34.430399],[-119.259542,34.430325],[-119.259493,34.430328]]]}},{"type":"Feature","properties":{"k":"tee"},"geometry":{"type":"Polygon","coordinates":[[[-119.260256,34.432657],[-119.260307,34.432654],[-119.260343,34.432665],[-119.260356,34.4327],[-119.260287,34.432966],[-119.260292,34.433019],[-119.26027,34.433048],[-119.260238,34.43304],[-119.260228,34.432998],[-119.260224,34.432821],[-119.260188,34.432713],[-119.260205,34.432675],[-119.260256,34.432657]]]}},{"type":"Feature","properties":{"k":"green"},"geometry":{"type":"Polygon","coordinates":[[[-119.260309,34.433653],[-119.260329,34.433639],[-119.260367,34.433643],[-119.260409,34.433687],[-119.260465,34.433749],[-119.260474,34.433793],[-119.26046,34.433814],[-119.260296,34.433838],[-119.260259,34.433814],[-119.260248,34.433791],[-119.260256,34.433762],[-119.260295,34.433702],[-119.260298,34.433668],[-119.260309,34.433653]]]}},{"type":"Feature","properties":{"k":"bunker"},"geometry":{"type":"Polygon","coordinates":[[[-119.260218,34.433647],[-119.260162,34.433709],[-119.26015,34.433797],[-119.260162,34.433814],[-119.260184,34.43382],[-119.260203,34.433811],[-119.260203,34.43377],[-119.260228,34.433755],[-119.26023,34.433739],[-119.260214,34.433728],[-119.260217,34.433717],[-119.260249,34.433698],[-119.260257,34.433684],[-119.260259,34.433664],[-119.260249,34.433651],[-119.260218,34.433647]]]}},{"type":"Feature","properties":{"k":"tee"},"geometry":{"type":"Polygon","coordinates":[[[-119.260255,34.43423],[-119.260226,34.434217],[-119.260199,34.434227],[-119.260158,34.434357],[-119.260103,34.434455],[-119.260091,34.434494],[-119.260103,34.434528],[-119.260127,34.434542],[-119.260155,34.434547],[-119.26018,34.434539],[-119.260193,34.434523],[-119.260286,34.434326],[-119.260283,34.434285],[-119.26027,34.434246],[-119.260255,34.43423]]]}},{"type":"Feature","properties":{"k":"path"},"geometry":{"type":"LineString","coordinates":[[-119.260186,34.435072],[-119.260032,34.435594],[-119.259992,34.435757],[-119.259986,34.435944],[-119.259961,34.436046],[-119.259977,34.436085],[-119.260036,34.436126],[-119.260081,34.436173],[-119.260132,34.436207],[-119.260199,34.436225],[-119.260273,34.436218],[-119.260298,34.436234],[-119.260305,34.436271],[-119.260295,34.43634],[-119.260299,34.436386],[-119.26032,34.43642],[-119.260512,34.436516]]}},{"type":"Feature","properties":{"k":"path"},"geometry":{"type":"LineString","coordinates":[[-119.259977,34.436085],[-119.259923,34.436245],[-119.259867,34.436297],[-119.259668,34.436433],[-119.259638,34.436539]]}},{"type":"Feature","properties":{"k":"green"},"geometry":{"type":"Polygon","coordinates":[[[-119.258435,34.43841],[-119.258473,34.438406],[-119.258515,34.438384],[-119.258572,34.438285],[-119.258574,34.438255],[-119.258548,34.438205],[-119.258511,34.438185],[-119.258474,34.438186],[-119.258441,34.43822],[-119.258408,34.438271],[-119.258358,34.438298],[-119.25833,34.438324],[-119.258338,34.438349],[-119.258385,34.43839],[-119.258435,34.43841]]]}},{"type":"Feature","properties":{"k":"bunker"},"geometry":{"type":"Polygon","coordinates":[[[-119.258314,34.438197],[-119.258304,34.438232],[-119.258311,34.438253],[-119.258327,34.438254],[-119.258377,34.438234],[-119.258394,34.438204],[-119.25838,34.438193],[-119.258314,34.438197]]]}},{"type":"Feature","properties":{"k":"bunker"},"geometry":{"type":"Polygon","coordinates":[[[-119.258366,34.438149],[-119.258388,34.438161],[-119.258409,34.438154],[-119.258428,34.438144],[-119.258437,34.438132],[-119.258434,34.438121],[-119.258416,34.438123],[-119.258396,34.438096],[-119.258377,34.438094],[-119.258368,34.438098],[-119.258371,34.438118],[-119.258353,34.438119],[-119.258346,34.438112],[-119.258338,34.438117],[-119.258343,34.43814],[-119.258366,34.438149]]]}},{"type":"Feature","properties":{"k":"bunker"},"geometry":{"type":"Polygon","coordinates":[[[-119.258656,34.438189],[-119.258669,34.438227],[-119.258638,34.438246],[-119.258613,34.438241],[-119.258587,34.438219],[-119.258596,34.438195],[-119.25857,34.438179],[-119.258568,34.438166],[-119.258576,34.438152],[-119.258603,34.438136],[-119.258603,34.438117],[-119.25867,34.438092],[-119.258681,34.438079],[-119.258703,34.438074],[-119.258731,34.438091],[-119.258736,34.438115],[-119.258704,34.438119],[-119.258698,34.438139],[-119.258677,34.438146],[-119.25871,34.438151],[-119.25872,34.438157],[-119.258721,34.438169],[-119.258704,34.438193],[-119.258691,34.438197],[-119.258668,34.438186],[-119.258656,34.438189]]]}},{"type":"Feature","properties":{"k":"bunker"},"geometry":{"type":"Polygon","coordinates":[[[-119.258456,34.437932],[-119.258436,34.437934],[-119.258425,34.437947],[-119.258432,34.437972],[-119.258418,34.437987],[-119.258434,34.438017],[-119.258461,34.438021],[-119.258476,34.438013],[-119.25847,34.437991],[-119.258475,34.437986],[-119.25852,34.437983],[-119.258531,34.437995],[-119.258561,34.437975],[-119.258555,34.437953],[-119.258526,34.437946],[-119.258492,34.437953],[-119.258456,34.437932]]]}},{"type":"Feature","properties":{"k":"range"},"geometry":{"type":"Polygon","coordinates":[[[-119.257716,34.437795],[-119.257545,34.437616],[-119.257472,34.437492],[-119.257572,34.436752],[-119.258179,34.435778],[-119.258513,34.435711],[-119.258471,34.435807],[-119.258991,34.43581],[-119.259037,34.43595],[-119.258166,34.43788],[-119.258103,34.437971],[-119.258021,34.438007],[-119.257946,34.437982],[-119.257856,34.437938],[-119.257716,34.437795]]]}},{"type":"Feature","properties":{"k":"tee"},"geometry":{"type":"Polygon","coordinates":[[[-119.257524,34.43747],[-119.257544,34.437447],[-119.257576,34.43745],[-119.257959,34.437603],[-119.258078,34.437644],[-119.258125,34.437673],[-119.258142,34.437706],[-119.258127,34.437807],[-119.25811,34.437885],[-119.258078,34.437947],[-119.258032,34.437953],[-119.257937,34.437919],[-119.25783,34.437869],[-119.257689,34.437746],[-119.257624,34.437673],[-119.257512,34.437501],[-119.257524,34.43747]]]}},{"type":"Feature","properties":{"k":"path"},"geometry":{"type":"LineString","coordinates":[[-119.258223,34.438024],[-119.258165,34.438008],[-119.258114,34.438005],[-119.258029,34.438017],[-119.258004,34.438009],[-119.25797,34.437986],[-119.25795,34.438]]}},{"type":"Feature","properties":{"k":"bunker"},"geometry":{"type":"Polygon","coordinates":[[[-119.257337,34.436813],[-119.257351,34.436804],[-119.257368,34.436749],[-119.257343,34.436724],[-119.257318,34.436724],[-119.257302,34.436739],[-119.257284,34.43679],[-119.257289,34.436805],[-119.257304,34.436814],[-119.257337,34.436813]]]}},{"type":"Feature","properties":{"k":"fairway"},"geometry":{"type":"Polygon","coordinates":[[[-119.25795,34.440912],[-119.257849,34.440966],[-119.257577,34.440776],[-119.25725,34.440519],[-119.257021,34.440401],[-119.25697,34.440317],[-119.256922,34.440155],[-119.256809,34.439959],[-119.256665,34.439819],[-119.256573,34.439646],[-119.256477,34.439352],[-119.256397,34.439159],[-119.256317,34.439073],[-119.256305,34.438989],[-119.256372,34.438918],[-119.256477,34.438895],[-119.256579,34.438923],[-119.256637,34.439022],[-119.256782,34.439324],[-119.257025,34.439776],[-119.257404,34.440312],[-119.25777,34.440533],[-119.257853,34.440649],[-119.257887,34.440794],[-119.25795,34.440912]]]}},{"type":"Feature","properties":{"k":"tee"},"geometry":{"type":"Polygon","coordinates":[[[-119.256124,34.438167],[-119.256152,34.438175],[-119.256192,34.438235],[-119.256216,34.438296],[-119.256216,34.438324],[-119.256188,34.438346],[-119.256128,34.438355],[-119.256099,34.438344],[-119.256048,34.438239],[-119.25604,34.438204],[-119.256048,34.438183],[-119.256084,34.438167],[-119.256124,34.438167]]]}},{"type":"Feature","properties":{"k":"tee"},"geometry":{"type":"Polygon","coordinates":[[[-119.258563,34.441545],[-119.258572,34.441559],[-119.258572,34.441581],[-119.258552,34.441595],[-119.258499,34.441604],[-119.258101,34.441576],[-119.257995,34.441581],[-119.257855,34.441604],[-119.257829,34.441598],[-119.257819,34.441582],[-119.257818,34.441566],[-119.257834,34.441551],[-119.257868,34.441539],[-119.258105,34.441518],[-119.258371,34.441545],[-119.25854,34.441537],[-119.258563,34.441545]]]}},{"type":"Feature","properties":{"k":"tee"},"geometry":{"type":"Polygon","coordinates":[[[-119.255605,34.442318],[-119.255635,34.442313],[-119.255658,34.44229],[-119.255664,34.442228],[-119.255655,34.4422],[-119.255638,34.442183],[-119.255614,34.442182],[-119.255587,34.442194],[-119.25557,34.442228],[-119.255569,34.442298],[-119.255583,34.442313],[-119.255605,34.442318]]]}},{"type":"Feature","properties":{"k":"fairway"},"geometry":{"type":"Polygon","coordinates":[[[-119.255712,34.441507],[-119.25576,34.441533],[-119.255803,34.44153],[-119.255858,34.441483],[-119.255867,34.441373],[-119.255837,34.441257],[-119.255876,34.441201],[-119.255899,34.441059],[-119.255947,34.440999],[-119.255958,34.440893],[-119.255956,34.440729],[-119.256071,34.440403],[-119.256037,34.440268],[-119.255916,34.440104],[-119.255891,34.440009],[-119.256111,34.439707],[-119.256088,34.439591],[-119.25591,34.439301],[-119.255967,34.439162],[-119.255995,34.439067],[-119.255893,34.438865],[-119.25588,34.438711],[-119.255831,34.438635],[-119.255775,34.438669],[-119.255789,34.438787],[-119.255605,34.43907],[-119.255716,34.43946],[-119.25573,34.439701],[-119.255646,34.439899],[-119.255628,34.440165],[-119.255589,34.441218],[-119.255686,34.441271],[-119.25572,34.441316],[-119.255686,34.441399],[-119.255712,34.441507]]]}},{"type":"Feature","properties":{"k":"green"},"geometry":{"type":"Polygon","coordinates":[[[-119.255773,34.438593],[-119.255802,34.438582],[-119.255825,34.43854],[-119.255865,34.438501],[-119.255883,34.438457],[-119.255863,34.438393],[-119.255803,34.438357],[-119.255759,34.438356],[-119.255663,34.438437],[-119.25566,34.438464],[-119.255669,34.438489],[-119.2557,34.438519],[-119.255741,34.438582],[-119.255773,34.438593]]]}},{"type":"Feature","properties":{"k":"tee"},"geometry":{"type":"Polygon","coordinates":[[[-119.256495,34.438566],[-119.256525,34.438555],[-119.256549,34.438511],[-119.256554,34.438446],[-119.256533,34.438397],[-119.256492,34.438377],[-119.256457,34.438392],[-119.256433,34.438424],[-119.256425,34.438512],[-119.256444,34.438543],[-119.256495,34.438566]]]}},{"type":"Feature","properties":{"k":"fairway"},"geometry":{"type":"Polygon","coordinates":[[[-119.257201,34.4389],[-119.257048,34.43889],[-119.256923,34.43894],[-119.256903,34.439017],[-119.257007,34.439134],[-119.257323,34.439366],[-119.257642,34.439629],[-119.257859,34.439994],[-119.258021,34.440085],[-119.258291,34.440353],[-119.258511,34.44064],[-119.258534,34.440714],[-119.258639,34.44069],[-119.258644,34.440537],[-119.258601,34.44041],[-119.258572,34.440245],[-119.258418,34.440123],[-119.258213,34.439932],[-119.258018,34.439674],[-119.257885,34.439516],[-119.257665,34.439342],[-119.257381,34.439022],[-119.257201,34.4389]]]}},{"type":"Feature","properties":{"k":"tee"},"geometry":{"type":"Polygon","coordinates":[[[-119.258836,34.441283],[-119.258872,34.441347],[-119.258889,34.441359],[-119.258914,34.441363],[-119.258976,34.441343],[-119.258975,34.441325],[-119.258949,34.441275],[-119.258902,34.441219],[-119.258879,34.441221],[-119.258838,34.44124],[-119.258829,34.44127],[-119.258836,34.441283]]]}},{"type":"Feature","properties":{"k":"green"},"geometry":{"type":"Polygon","coordinates":[[[-119.260299,34.440403],[-119.260269,34.440406],[-119.260226,34.440429],[-119.260184,34.440475],[-119.260174,34.440514],[-119.260188,34.440539],[-119.260217,34.440556],[-119.260346,34.440567],[-119.260388,34.440561],[-119.260406,34.440549],[-119.260464,34.440477],[-119.260464,34.440451],[-119.26044,34.440433],[-119.260369,34.440426],[-119.260299,34.440403]]]}},{"type":"Feature","properties":{"k":"bunker"},"geometry":{"type":"Polygon","coordinates":[[[-119.260181,34.440337],[-119.2602,34.440339],[-119.260206,34.440349],[-119.260204,34.440397],[-119.260176,34.440417],[-119.260144,34.44041],[-119.260121,34.44042],[-119.260115,34.440432],[-119.260118,34.440438],[-119.260148,34.440438],[-119.260155,34.440445],[-119.260142,34.440485],[-119.260123,34.440496],[-119.260098,34.440497],[-119.260069,34.440472],[-119.260038,34.440478],[-119.260026,34.440465],[-119.260036,34.440444],[-119.260086,34.440445],[-119.26009,34.440438],[-119.260073,34.44042],[-119.260076,34.440372],[-119.260105,34.440373],[-119.260125,34.440348],[-119.260163,34.440351],[-119.260181,34.440337]]]}},{"type":"Feature","properties":{"k":"bunker"},"geometry":{"type":"Polygon","coordinates":[[[-119.260319,34.440598],[-119.260286,34.440583],[-119.260254,34.440603],[-119.260261,34.440645],[-119.260277,34.44066],[-119.260292,34.440664],[-119.260323,34.440644],[-119.260336,34.440648],[-119.260354,34.440667],[-119.260371,34.440668],[-119.260387,34.440659],[-119.260396,34.440643],[-119.260389,34.440609],[-119.260353,34.440592],[-119.260319,34.440598]]]}},{"type":"Feature","properties":{"k":"bunker"},"geometry":{"type":"Polygon","coordinates":[[[-119.260531,34.44059],[-119.260538,34.440599],[-119.260533,34.440609],[-119.260517,34.440615],[-119.26049,34.440609],[-119.260467,34.440594],[-119.260446,34.440553],[-119.260465,34.44052],[-119.260487,34.440508],[-119.260536,34.4405],[-119.26056,34.440522],[-119.260587,34.440525],[-119.260598,34.440546],[-119.26058,34.440566],[-119.260558,34.440568],[-119.260514,34.440553],[-119.260509,34.440566],[-119.260531,34.44059]]]}},{"type":"Feature","properties":{"k":"tee"},"geometry":{"type":"Polygon","coordinates":[[[-119.261235,34.439853],[-119.261258,34.43983],[-119.261282,34.439825],[-119.261305,34.439834],[-119.261318,34.439848],[-119.261313,34.43989],[-119.261252,34.440019],[-119.26122,34.440063],[-119.261198,34.440117],[-119.261167,34.440136],[-119.261141,34.440135],[-119.261117,34.440121],[-119.261109,34.440106],[-119.261112,34.440084],[-119.261162,34.440022],[-119.261235,34.439853]]]}},{"type":"Feature","properties":{"k":"green"},"geometry":{"type":"Polygon","coordinates":[[[-119.26143,34.436037],[-119.261459,34.436036],[-119.261516,34.435998],[-119.261587,34.435975],[-119.261558,34.43585],[-119.261532,34.435818],[-119.261494,34.435816],[-119.261438,34.435836],[-119.261392,34.43586],[-119.261363,34.435891],[-119.261358,34.435935],[-119.261366,34.43598],[-119.261388,34.436015],[-119.26143,34.436037]]]}},{"type":"Feature","properties":{"k":"bunker"},"geometry":{"type":"Polygon","coordinates":[[[-119.261624,34.435839],[-119.261663,34.435838],[-119.261687,34.435853],[-119.261678,34.435885],[-119.261695,34.435901],[-119.261672,34.43592],[-119.261667,34.435934],[-119.261685,34.435944],[-119.261707,34.435926],[-119.261719,34.435925],[-119.261726,34.435933],[-119.261727,34.435952],[-119.261697,34.435978],[-119.261658,34.435986],[-119.261628,34.435978],[-119.261642,34.435949],[-119.261617,34.435939],[-119.261618,34.435928],[-119.261637,34.435899],[-119.261628,34.435888],[-119.261597,34.435886],[-119.261591,34.435862],[-119.261599,34.435843],[-119.261624,34.435839]]]}},{"type":"Feature","properties":{"k":"bunker"},"geometry":{"type":"Polygon","coordinates":[[[-119.261547,34.436036],[-119.261578,34.436013],[-119.261604,34.436027],[-119.261601,34.436105],[-119.261578,34.43611],[-119.261557,34.436102],[-119.261535,34.436075],[-119.26151,34.436064],[-119.261503,34.436052],[-119.261508,34.436039],[-119.261529,34.436029],[-119.261547,34.436036]]]}},{"type":"Feature","properties":{"k":"bunker"},"geometry":{"type":"Polygon","coordinates":[[[-119.261346,34.436078],[-119.261363,34.436071],[-119.261372,34.436057],[-119.261325,34.435983],[-119.261309,34.435943],[-119.261311,34.435921],[-119.261283,34.435894],[-119.261263,34.43589],[-119.261226,34.435913],[-119.261222,34.435928],[-119.261227,34.435965],[-119.261278,34.435982],[-119.261288,34.436003],[-119.261294,34.436023],[-119.261286,34.436034],[-119.261261,34.436042],[-119.26127,34.436071],[-119.26128,34.436079],[-119.261302,34.436082],[-119.261346,34.436078]]]}},{"type":"Feature","properties":{"k":"tee"},"geometry":{"type":"Polygon","coordinates":[[[-119.262445,34.434125],[-119.262497,34.434119],[-119.26252,34.434133],[-119.262552,34.434189],[-119.262546,34.434216],[-119.262522,34.434236],[-119.262431,34.434269],[-119.262404,34.434261],[-119.262377,34.434235],[-119.262358,34.434206],[-119.262357,34.434182],[-119.262366,34.434162],[-119.262445,34.434125]]]}},{"type":"Feature","properties":{"k":"fairway"},"geometry":{"type":"Polygon","coordinates":[[[-119.261532,34.433236],[-119.261565,34.433199],[-119.261743,34.433188],[-119.261854,34.433206],[-119.261932,34.433252],[-119.261961,34.433322],[-119.262058,34.433367],[-119.262097,34.433409],[-119.26209,34.433471],[-119.262007,34.433552],[-119.261935,34.433584],[-119.261864,34.433588],[-119.261798,34.433548],[-119.261736,34.433448],[-119.261545,34.433287],[-119.261532,34.433236]]]}},{"type":"Feature","properties":{"k":"bunker"},"geometry":{"type":"Polygon","coordinates":[[[-119.262036,34.433279],[-119.261996,34.433275],[-119.261984,34.433285],[-119.261996,34.433317],[-119.262031,34.433342],[-119.262074,34.433338],[-119.262084,34.433328],[-119.262083,34.433295],[-119.262062,34.433287],[-119.262046,34.433304],[-119.262037,34.433302],[-119.262036,34.433279]]]}},{"type":"Feature","properties":{"k":"bunker"},"geometry":{"type":"Polygon","coordinates":[[[-119.262016,34.433197],[-119.26203,34.433174],[-119.262042,34.433174],[-119.262061,34.43319],[-119.26206,34.433209],[-119.262031,34.433241],[-119.262007,34.433243],[-119.261954,34.433213],[-119.261894,34.433208],[-119.261866,34.433186],[-119.261859,34.433172],[-119.261862,34.433152],[-119.26188,34.433127],[-119.261882,34.433098],[-119.261916,34.433056],[-119.261931,34.433048],[-119.261955,34.433057],[-119.261975,34.43309],[-119.261977,34.433109],[-119.261974,34.433121],[-119.261943,34.433144],[-119.261939,34.433162],[-119.26196,34.433163],[-119.261972,34.433142],[-119.262007,34.433138],[-119.262026,34.433158],[-119.262027,34.433166],[-119.262003,34.433188],[-119.262016,34.433197]]]}},{"type":"Feature","properties":{"k":"bunker"},"geometry":{"type":"Polygon","coordinates":[[[-119.261669,34.433118],[-119.261679,34.4331],[-119.261667,34.433068],[-119.261656,34.433064],[-119.261594,34.433088],[-119.261588,34.433107],[-119.261597,34.433124],[-119.261668,34.433164],[-119.261683,34.433167],[-119.261732,34.433155],[-119.261776,34.433158],[-119.261807,34.433144],[-119.261808,34.43311],[-119.261781,34.433106],[-119.261777,34.433089],[-119.261821,34.433079],[-119.261837,34.43306],[-119.261866,34.433045],[-119.261886,34.433019],[-119.261889,34.433],[-119.261876,34.432983],[-119.261847,34.433],[-119.261837,34.432997],[-119.261837,34.432989],[-119.261861,34.432973],[-119.261863,34.432956],[-119.261838,34.432928],[-119.261816,34.432929],[-119.261801,34.432975],[-119.261787,34.432989],[-119.261785,34.43301],[-119.261797,34.433016],[-119.261796,34.433024],[-119.261733,34.433017],[-119.261682,34.433053],[-119.261679,34.433065],[-119.261687,34.433079],[-119.261722,34.43309],[-119.261732,34.433105],[-119.261694,34.433096],[-119.261689,34.433121],[-119.261669,34.433118]]]}},{"type":"Feature","properties":{"k":"bunker"},"geometry":{"type":"Polygon","coordinates":[[[-119.261737,34.432971],[-119.261731,34.432986],[-119.261738,34.432998],[-119.261768,34.432998],[-119.26178,34.432984],[-119.261791,34.432929],[-119.261774,34.432918],[-119.261728,34.432916],[-119.261708,34.432947],[-119.261712,34.43296],[-119.261737,34.432971]]]}},{"type":"Feature","properties":{"k":"bunker"},"geometry":{"type":"Polygon","coordinates":[[[-119.261639,34.432993],[-119.261647,34.432993],[-119.261652,34.432963],[-119.261681,34.432959],[-119.261695,34.432964],[-119.261704,34.43298],[-119.261703,34.433011],[-119.261629,34.433049],[-119.261598,34.433054],[-119.261574,34.433048],[-119.261553,34.43301],[-119.261579,34.432955],[-119.261595,34.432944],[-119.261632,34.432952],[-119.261647,34.432969],[-119.261634,34.432984],[-119.261639,34.432993]]]}},{"type":"Feature","properties":{"k":"bunker"},"geometry":{"type":"Polygon","coordinates":[[[-119.261464,34.432988],[-119.261489,34.432984],[-119.26151,34.432997],[-119.261522,34.433019],[-119.261507,34.433039],[-119.261533,34.43305],[-119.261545,34.433077],[-119.261541,34.433116],[-119.261548,34.433155],[-119.261536,34.433176],[-119.261518,34.433177],[-119.261505,34.433169],[-119.261455,34.433124],[-119.261454,34.433088],[-119.261471,34.433083],[-119.261488,34.433101],[-119.261495,34.433098],[-119.261472,34.433066],[-119.261455,34.433055],[-119.261448,34.433037],[-119.261464,34.432988]]]}},{"type":"Feature","properties":{"k":"green"},"geometry":{"type":"Polygon","coordinates":[[[-119.261493,34.432868],[-119.261504,34.432889],[-119.261538,34.432887],[-119.261597,34.432872],[-119.261645,34.432855],[-119.261679,34.432831],[-119.261689,34.432802],[-119.261673,34.432775],[-119.261616,34.432746],[-119.261584,34.432705],[-119.261518,34.432582],[-119.261495,34.432575],[-119.261455,34.432589],[-119.261404,34.43264],[-119.261403,34.43266],[-119.261493,34.432868]]]}},{"type":"Feature","properties":{"k":"tee"},"geometry":{"type":"Polygon","coordinates":[[[-119.260813,34.432067],[-119.260879,34.432085],[-119.260931,34.432114],[-119.260944,34.432136],[-119.260942,34.43217],[-119.260925,34.432202],[-119.260896,34.432215],[-119.260837,34.432206],[-119.260771,34.432172],[-119.260733,34.432136],[-119.260717,34.432105],[-119.260727,34.432076],[-119.260751,34.43206],[-119.260783,34.432059],[-119.260813,34.432067]]]}},{"type":"Feature","properties":{"k":"fairway"},"geometry":{"type":"Polygon","coordinates":[[[-119.261352,34.433399],[-119.261237,34.433439],[-119.261268,34.433548],[-119.261237,34.433711],[-119.261215,34.433777],[-119.261308,34.43394],[-119.261352,34.43418],[-119.261294,34.43437],[-119.261321,34.434457],[-119.261471,34.434668],[-119.261607,34.434879],[-119.261651,34.435032],[-119.261599,34.43509],[-119.261726,34.435148],[-119.261793,34.435035],[-119.261801,34.434879],[-119.261744,34.43465],[-119.261572,34.434432],[-119.261625,34.434286],[-119.261687,34.434166],[-119.261524,34.433519],[-119.261431,34.433402],[-119.261352,34.433399]]]}},{"type":"Feature","properties":{"k":"bunker"},"geometry":{"type":"Polygon","coordinates":[[[-119.261172,34.433575],[-119.261183,34.433595],[-119.261202,34.433599],[-119.261222,34.433589],[-119.261228,34.433567],[-119.261221,34.433547],[-119.26117,34.433525],[-119.261149,34.43353],[-119.261111,34.433575],[-119.261116,34.433643],[-119.261128,34.433669],[-119.261147,34.43368],[-119.26119,34.433655],[-119.26119,34.433634],[-119.261166,34.433598],[-119.261164,34.433577],[-119.261172,34.433575]]]}},{"type":"Feature","properties":{"k":"bunker"},"geometry":{"type":"Polygon","coordinates":[[[-119.261054,34.433626],[-119.261078,34.433631],[-119.261091,34.433625],[-119.261082,34.433591],[-119.261031,34.433582],[-119.261018,34.433586],[-119.261007,34.433595],[-119.26101,34.433629],[-119.260994,34.433647],[-119.261024,34.433678],[-119.261068,34.433697],[-119.261085,34.433689],[-119.261094,34.433675],[-119.26109,34.433656],[-119.261058,34.433643],[-119.261054,34.433626]]]}},{"type":"Feature","properties":{"k":"bunker"},"geometry":{"type":"Polygon","coordinates":[[[-119.261032,34.433515],[-119.261029,34.433531],[-119.261042,34.433546],[-119.261073,34.433562],[-119.261103,34.433561],[-119.261121,34.433528],[-119.261113,34.433512],[-119.261079,34.433501],[-119.261079,34.433495],[-119.261106,34.433495],[-119.261116,34.433489],[-119.26112,34.433451],[-119.261128,34.433455],[-119.261138,34.433497],[-119.261178,34.433496],[-119.261199,34.433478],[-119.261207,34.433462],[-119.261203,34.433448],[-119.261146,34.433398],[-119.261111,34.433398],[-119.261046,34.433465],[-119.261032,34.433515]]]}},{"type":"Feature","properties":{"k":"bunker"},"geometry":{"type":"Polygon","coordinates":[[[-119.26172,34.434424],[-119.261778,34.434423],[-119.261789,34.434439],[-119.26178,34.434486],[-119.261758,34.434501],[-119.261736,34.434504],[-119.26171,34.434496],[-119.261699,34.434454],[-119.26172,34.434424]]]}},{"type":"Feature","properties":{"k":"bunker"},"geometry":{"type":"Polygon","coordinates":[[[-119.261718,34.434398],[-119.261768,34.434404],[-119.261788,34.43439],[-119.261788,34.434367],[-119.261759,34.434355],[-119.26176,34.434346],[-119.261776,34.434335],[-119.261776,34.434321],[-119.261749,34.434301],[-119.26171,34.434307],[-119.261687,34.434337],[-119.261647,34.434349],[-119.261617,34.434381],[-119.261613,34.434411],[-119.261636,34.434421],[-119.261625,34.434445],[-119.261644,34.434466],[-119.261669,34.434466],[-119.261698,34.434421],[-119.261698,34.434412],[-119.261668,34.434403],[-119.261665,34.434396],[-119.261699,34.434402],[-119.261718,34.434398]]]}},{"type":"Feature","properties":{"k":"bunker"},"geometry":{"type":"Polygon","coordinates":[[[-119.261534,34.43495],[-119.261567,34.434944],[-119.261573,34.434962],[-119.261555,34.434986],[-119.261525,34.434995],[-119.261495,34.434986],[-119.261471,34.434966],[-119.261463,34.434947],[-119.261471,34.434918],[-119.261489,34.434903],[-119.261529,34.434901],[-119.261545,34.434911],[-119.261548,34.434926],[-119.261534,34.43495]]]}},{"type":"Feature","properties":{"k":"bunker"},"geometry":{"type":"Polygon","coordinates":[[[-119.261374,34.435173],[-119.261425,34.435151],[-119.261443,34.435151],[-119.261454,34.435165],[-119.261454,34.435178],[-119.261427,34.435212],[-119.261405,34.435216],[-119.261373,34.435191],[-119.261374,34.435173]]]}},{"type":"Feature","properties":{"k":"bunker"},"geometry":{"type":"Polygon","coordinates":[[[-119.261376,34.435118],[-119.261353,34.435134],[-119.261363,34.435158],[-119.261379,34.43516],[-119.26141,34.435151],[-119.261434,34.435133],[-119.261449,34.435112],[-119.261436,34.435073],[-119.261401,34.435061],[-119.261373,34.435063],[-119.261332,34.435068],[-119.261313,34.435084],[-119.261271,34.435145],[-119.261214,34.435195],[-119.261223,34.435225],[-119.261242,34.435226],[-119.261263,34.435215],[-119.26125,34.435234],[-119.261264,34.435252],[-119.261247,34.435252],[-119.261233,34.435239],[-119.261203,34.435269],[-119.261203,34.435286],[-119.261219,34.4353],[-119.26128,34.435302],[-119.261331,34.43528],[-119.261343,34.435257],[-119.261323,34.435228],[-119.261344,34.435178],[-119.261336,34.435167],[-119.261302,34.435157],[-119.261329,34.43515],[-119.261351,34.435113],[-119.26137,34.435105],[-119.261376,34.435118]]]}},{"type":"Feature","properties":{"k":"bunker"},"geometry":{"type":"Polygon","coordinates":[[[-119.261646,34.43526],[-119.261658,34.435242],[-119.261675,34.435235],[-119.261692,34.435236],[-119.261728,34.435257],[-119.26173,34.435282],[-119.261696,34.435306],[-119.261702,34.435315],[-119.261726,34.43532],[-119.26173,34.43535],[-119.261701,34.435369],[-119.261678,34.435372],[-119.261657,34.435361],[-119.261648,34.435345],[-119.261635,34.435315],[-119.261647,34.435285],[-119.261646,34.43526]]]}},{"type":"Feature","properties":{"k":"green"},"geometry":{"type":"Polygon","coordinates":[[[-119.261314,34.435373],[-119.261349,34.435399],[-119.261381,34.435407],[-119.261437,34.4354],[-119.261564,34.43541],[-119.26159,34.435399],[-119.261601,34.435369],[-119.261583,34.435285],[-119.261617,34.43521],[-119.261622,34.435177],[-119.261606,34.43515],[-119.261565,34.435142],[-119.261527,34.435156],[-119.261469,34.435224],[-119.261419,34.435268],[-119.261329,34.435315],[-119.261309,34.435346],[-119.261314,34.435373]]]}},{"type":"Feature","properties":{"k":"path"},"geometry":{"type":"LineString","coordinates":[[-119.260036,34.436126],[-119.260054,34.436075],[-119.260059,34.436013],[-119.260041,34.435963],[-119.259986,34.435944]]}},{"type":"Feature","properties":{"k":"tee"},"geometry":{"type":"Polygon","coordinates":[[[-119.260122,34.436165],[-119.260154,34.436181],[-119.260178,34.436175],[-119.260219,34.436015],[-119.260215,34.435983],[-119.260197,34.435961],[-119.260164,34.435953],[-119.260133,34.43596],[-119.260111,34.436003],[-119.260122,34.436165]]]}},{"type":"Feature","properties":{"k":"fairway"},"geometry":{"type":"Polygon","coordinates":[[[-119.260212,34.438974],[-119.260286,34.438995],[-119.26034,34.438932],[-119.260405,34.438804],[-119.260328,34.438615],[-119.260202,34.438355],[-119.260199,34.438121],[-119.260302,34.437906],[-119.260392,34.437587],[-119.260363,34.437443],[-119.260283,34.437164],[-119.260337,34.436954],[-119.26036,34.436811],[-119.260241,34.436702],[-119.260125,34.436699],[-119.260044,34.436747],[-119.260044,34.436941],[-119.26007,34.437373],[-119.260027,34.437619],[-119.259893,34.438028],[-119.259886,34.438137],[-119.260034,34.438291],[-119.260015,34.43848],[-119.26007,34.438631],[-119.26017,34.43873],[-119.260208,34.438855],[-119.260212,34.438974]]]}},{"type":"Feature","properties":{"k":"bunker"},"geometry":{"type":"Polygon","coordinates":[[[-119.260365,34.43906],[-119.260373,34.439029],[-119.260405,34.439017],[-119.26045,34.439017],[-119.260481,34.439025],[-119.260492,34.439036],[-119.260479,34.43908],[-119.260512,34.439105],[-119.26052,34.439127],[-119.260495,34.439138],[-119.260548,34.439174],[-119.260554,34.439213],[-119.260526,34.439247],[-119.260515,34.43925],[-119.260497,34.43924],[-119.260471,34.439214],[-119.26048,34.439183],[-119.260464,34.439191],[-119.260441,34.439178],[-119.260438,34.439121],[-119.260446,34.439099],[-119.260439,34.439085],[-119.260416,34.439091],[-119.260388,34.439126],[-119.260351,34.439118],[-119.260341,34.439087],[-119.260365,34.43906]]]}},{"type":"Feature","properties":{"k":"bunker"},"geometry":{"type":"Polygon","coordinates":[[[-119.260252,34.439127],[-119.260221,34.439109],[-119.260186,34.439107],[-119.260152,34.439113],[-119.26014,34.439125],[-119.260133,34.439155],[-119.260144,34.439195],[-119.260128,34.439228],[-119.260133,34.439243],[-119.260152,34.439256],[-119.260186,34.439252],[-119.260201,34.439236],[-119.260206,34.439205],[-119.260189,34.439183],[-119.260193,34.439174],[-119.260234,34.439177],[-119.260256,34.439145],[-119.260252,34.439127]]]}},{"type":"Feature","properties":{"k":"green"},"geometry":{"type":"Polygon","coordinates":[[[-119.260237,34.439286],[-119.260243,34.439315],[-119.260288,34.439343],[-119.260349,34.439366],[-119.260493,34.439365],[-119.260534,34.439325],[-119.26052,34.4393],[-119.260426,34.439224],[-119.26039,34.43917],[-119.26033,34.439143],[-119.260305,34.439144],[-119.260283,34.439162],[-119.260237,34.439286]]]}},{"type":"Feature","properties":{"k":"path"},"geometry":{"type":"LineString","coordinates":[[-119.260618,34.440863],[-119.260565,34.44091],[-119.260522,34.440966],[-119.260464,34.44101],[-119.260376,34.441055],[-119.260285,34.44109],[-119.260215,34.441091],[-119.260061,34.441075],[-119.259984,34.441086],[-119.259901,34.441115],[-119.259824,34.441164],[-119.259801,34.44119],[-119.259857,34.44126]]}},{"type":"Feature","properties":{"k":"path"},"geometry":{"type":"LineString","coordinates":[[-119.259801,34.44119],[-119.259676,34.441197]]}}]}