{"type":"FeatureCollection","features":[{"type":"Feature","properties":{"k":"hole","ref":"1","par":4,"hcp":10},"geometry":{"type":"LineString","coordinates":[[-122.46238,37.789246],[-122.462754,37.789277],[-122.464848,37.789259],[-122.465838,37.790049]]}},{"type":"Feature","properties":{"k":"hole","ref":"2","par":5,"hcp":16},"geometry":{"type":"LineString","coordinates":[[-122.465676,37.790503],[-122.468043,37.789465],[-122.469523,37.788729]]}},{"type":"Feature","properties":{"k":"hole","ref":"3","par":4,"hcp":2},"geometry":{"type":"LineString","coordinates":[[-122.469942,37.788771],[-122.46822,37.790299],[-122.467282,37.790929]]}},{"type":"Feature","properties":{"k":"hole","ref":"4","par":3,"hcp":18},"geometry":{"type":"LineString","coordinates":[[-122.466869,37.791497],[-122.46782,37.791761],[-122.468101,37.791862]]}},{"type":"Feature","properties":{"k":"hole","ref":"5","par":4,"hcp":14},"geometry":{"type":"LineString","coordinates":[[-122.469411,37.791362],[-122.468338,37.793403],[-122.468267,37.793711]]}},{"type":"Feature","properties":{"k":"hole","ref":"6","par":4,"hcp":4},"geometry":{"type":"LineString","coordinates":[[-122.46845,37.794268],[-122.466164,37.793149],[-122.465004,37.79257]]}},{"type":"Feature","properties":{"k":"hole","ref":"7","par":3,"hcp":6},"geometry":{"type":"LineString","coordinates":[[-122.46579,37.792347],[-122.467654,37.793224],[-122.46782,37.793269]]}},{"type":"Feature","properties":{"k":"hole","ref":"8","par":4,"hcp":8},"geometry":{"type":"LineString","coordinates":[[-122.467872,37.792496],[-122.465625,37.791622],[-122.464572,37.791168]]}},{"type":"Feature","properties":{"k":"hole","ref":"9","par":5,"hcp":12},"geometry":{"type":"LineString","coordinates":[[-122.465559,37.792227],[-122.463173,37.791102],[-122.461431,37.789821],[-122.461176,37.789689]]}},{"type":"Feature","properties":{"k":"hole","ref":"10","par":5,"hcp":9},"geometry":{"type":"LineString","coordinates":[[-122.460561,37.789597],[-122.460616,37.789659],[-122.462533,37.791477],[-122.463703,37.79245],[-122.464167,37.792651]]}},{"type":"Feature","properties":{"k":"hole","ref":"11","par":4,"hcp":3},"geometry":{"type":"LineString","coordinates":[[-122.464425,37.792815],[-122.467111,37.794197],[-122.468275,37.79441]]}},{"type":"Feature","properties":{"k":"hole","ref":"12","par":4,"hcp":1},"geometry":{"type":"LineString","coordinates":[[-122.468797,37.794067],[-122.470638,37.792736],[-122.471856,37.791253]]}},{"type":"Feature","properties":{"k":"hole","ref":"13","par":3,"hcp":13},"geometry":{"type":"LineString","coordinates":[[-122.470803,37.79166],[-122.47207,37.79037]]}},{"type":"Feature","properties":{"k":"hole","ref":"14","par":4,"hcp":11},"geometry":{"type":"LineString","coordinates":[[-122.47219,37.79095],[-122.472535,37.79302],[-122.472939,37.793699]]}},{"type":"Feature","properties":{"k":"hole","ref":"15","par":3,"hcp":17},"geometry":{"type":"LineString","coordinates":[[-122.472434,37.794169],[-122.471921,37.792781]]}},{"type":"Feature","properties":{"k":"hole","ref":"16","par":4,"hcp":7},"geometry":{"type":"LineString","coordinates":[[-122.471822,37.792102],[-122.470171,37.794013],[-122.469298,37.794514]]}},{"type":"Feature","properties":{"k":"hole","ref":"17","par":4,"hcp":5},"geometry":{"type":"LineString","coordinates":[[-122.468552,37.794701],[-122.465797,37.794394],[-122.465275,37.79402]]}},{"type":"Feature","properties":{"k":"hole","ref":"18","par":5,"hcp":15},"geometry":{"type":"LineString","coordinates":[[-122.464027,37.79315],[-122.463677,37.792901],[-122.461839,37.79155],[-122.460613,37.790424],[-122.460272,37.790221]]}},{"type":"Feature","properties":{"k":"green"},"geometry":{"type":"Polygon","coordinates":[[[-122.468307,37.794502],[-122.468376,37.794426],[-122.468384,37.794391],[-122.468362,37.794343],[-122.468333,37.79433],[-122.468268,37.794329],[-122.468117,37.794359],[-122.468101,37.794371],[-122.468103,37.794392],[-122.468118,37.794412],[-122.468181,37.794445],[-122.468229,37.794492],[-122.468268,37.794509],[-122.468307,37.794502]]]}},{"type":"Feature","properties":{"k":"tee"},"geometry":{"type":"Polygon","coordinates":[[[-122.462436,37.789269],[-122.462437,37.789214],[-122.462354,37.789212],[-122.462355,37.789266],[-122.462436,37.789269]]]}},{"type":"Feature","properties":{"k":"tee"},"geometry":{"type":"Polygon","coordinates":[[[-122.462749,37.789168],[-122.462755,37.789277],[-122.462561,37.789269],[-122.462559,37.789162],[-122.462749,37.789168]]]}},{"type":"Feature","properties":{"k":"tee"},"geometry":{"type":"Polygon","coordinates":[[[-122.462951,37.78927],[-122.462907,37.789267],[-122.46291,37.789226],[-122.462957,37.789229],[-122.462951,37.78927]]]}},{"type":"Feature","properties":{"k":"fairway"},"geometry":{"type":"Polygon","coordinates":[[[-122.464051,37.789378],[-122.463933,37.789376],[-122.463848,37.789361],[-122.463806,37.789341],[-122.46378,37.789318],[-122.463767,37.789283],[-122.46377,37.78924],[-122.463788,37.789196],[-122.463817,37.789158],[-122.463847,37.789143],[-122.463905,37.789135],[-122.464312,37.789127],[-122.464639,37.789095],[-122.46472,37.789094],[-122.464869,37.789104],[-122.465045,37.789151],[-122.465143,37.789205],[-122.465237,37.789283],[-122.46526,37.78933],[-122.465283,37.789345],[-122.465295,37.789384],[-122.465303,37.789392],[-122.465352,37.789402],[-122.465369,37.789425],[-122.465374,37.789451],[-122.465392,37.789462],[-122.465415,37.789458],[-122.46544,37.789467],[-122.465602,37.789594],[-122.465658,37.789667],[-122.465673,37.789847],[-122.465712,37.789889],[-122.465731,37.789946],[-122.465759,37.789945],[-122.465778,37.789937],[-122.465776,37.789931],[-122.465912,37.789924],[-122.465954,37.789932],[-122.466005,37.789966],[-122.466029,37.79002],[-122.466026,37.790058],[-122.466001,37.790119],[-122.465971,37.790156],[-122.465941,37.790179],[-122.465903,37.790193],[-122.465814,37.790206],[-122.465713,37.790195],[-122.465617,37.790117],[-122.465583,37.790067],[-122.46557,37.79002],[-122.465535,37.789986],[-122.465433,37.789919],[-122.465295,37.789813],[-122.465097,37.78965],[-122.464982,37.789533],[-122.464927,37.789495],[-122.46479,37.789435],[-122.464628,37.789399],[-122.464541,37.789389],[-122.464051,37.789378]]]}},{"type":"Feature","properties":{"k":"green"},"geometry":{"type":"Polygon","coordinates":[[[-122.465939,37.790141],[-122.465982,37.790111],[-122.465997,37.790087],[-122.466007,37.790033],[-122.466002,37.790004],[-122.465952,37.78996],[-122.465902,37.789952],[-122.465824,37.789964],[-122.465711,37.78996],[-122.46567,37.789979],[-122.465641,37.790025],[-122.465642,37.790053],[-122.465684,37.790114],[-122.465754,37.790162],[-122.465822,37.790167],[-122.465939,37.790141]]]}},{"type":"Feature","properties":{"k":"bunker"},"geometry":{"type":"Polygon","coordinates":[[[-122.46578,37.789935],[-122.46575,37.789947],[-122.465731,37.789946],[-122.465721,37.789925],[-122.465731,37.789904],[-122.465678,37.789859],[-122.465673,37.789847],[-122.465677,37.789827],[-122.465693,37.789815],[-122.465716,37.789809],[-122.465721,37.789798],[-122.465754,37.789791],[-122.465785,37.789804],[-122.465769,37.789822],[-122.465771,37.789831],[-122.465812,37.789838],[-122.465824,37.78985],[-122.465808,37.78987],[-122.465823,37.789886],[-122.465843,37.78988],[-122.46585,37.789864],[-122.465893,37.789896],[-122.465891,37.789914],[-122.465851,37.789927],[-122.465844,37.789916],[-122.465783,37.789889],[-122.46577,37.789901],[-122.465783,37.789924],[-122.46578,37.789935]]]}},{"type":"Feature","properties":{"k":"bunker"},"geometry":{"type":"Polygon","coordinates":[[[-122.465411,37.789458],[-122.465392,37.789462],[-122.465374,37.789451],[-122.465366,37.789428],[-122.465378,37.789406],[-122.465365,37.7894],[-122.465341,37.789401],[-122.465338,37.789378],[-122.465308,37.789392],[-122.465295,37.789384],[-122.465291,37.789368],[-122.465306,37.789357],[-122.465304,37.789345],[-122.465267,37.789338],[-122.465246,37.789306],[-122.465245,37.789293],[-122.46526,37.789293],[-122.465282,37.789269],[-122.4653,37.789274],[-122.465315,37.789264],[-122.465324,37.789267],[-122.46533,37.789281],[-122.465344,37.789286],[-122.465344,37.789294],[-122.465329,37.789298],[-122.465333,37.789315],[-122.465356,37.789316],[-122.465366,37.789306],[-122.465412,37.789324],[-122.465422,37.789338],[-122.465409,37.789365],[-122.465421,37.789387],[-122.465446,37.789385],[-122.465452,37.789369],[-122.465473,37.789362],[-122.46549,37.789376],[-122.465484,37.789402],[-122.465469,37.789419],[-122.465449,37.78941],[-122.465419,37.789412],[-122.465425,37.789439],[-122.465411,37.789458]]]}},{"type":"Feature","properties":{"k":"tee"},"geometry":{"type":"Polygon","coordinates":[[[-122.465726,37.790531],[-122.465667,37.790556],[-122.465616,37.790467],[-122.465674,37.790443],[-122.465726,37.790531]]]}},{"type":"Feature","properties":{"k":"tee"},"geometry":{"type":"Polygon","coordinates":[[[-122.465928,37.790424],[-122.465879,37.790447],[-122.465833,37.790393],[-122.465883,37.790369],[-122.465928,37.790424]]]}},{"type":"Feature","properties":{"k":"tee"},"geometry":{"type":"Polygon","coordinates":[[[-122.466717,37.790412],[-122.466667,37.790453],[-122.466629,37.790421],[-122.466681,37.790381],[-122.466717,37.790412]]]}},{"type":"Feature","properties":{"k":"fairway"},"geometry":{"type":"Polygon","coordinates":[[[-122.468601,37.789349],[-122.468342,37.789445],[-122.468172,37.789526],[-122.467992,37.789676],[-122.467899,37.789719],[-122.467749,37.789828],[-122.467675,37.78986],[-122.467606,37.789918],[-122.467412,37.79002],[-122.46728,37.790107],[-122.467225,37.79013],[-122.467145,37.790145],[-122.467095,37.790134],[-122.467043,37.790095],[-122.467009,37.790059],[-122.466991,37.790014],[-122.467002,37.789977],[-122.467035,37.789944],[-122.467455,37.789658],[-122.467777,37.789465],[-122.467907,37.789413],[-122.468123,37.789351],[-122.468302,37.78929],[-122.468441,37.789215],[-122.468806,37.788916],[-122.468931,37.788842],[-122.468996,37.788832],[-122.469149,37.788792],[-122.469251,37.788747],[-122.469307,37.788744],[-122.469397,37.788753],[-122.469455,37.788717],[-122.469472,37.788748],[-122.469486,37.788758],[-122.469515,37.78876],[-122.469539,37.788751],[-122.469497,37.78878],[-122.469462,37.788792],[-122.469426,37.788842],[-122.469397,37.788919],[-122.469362,37.788951],[-122.469146,37.789062],[-122.468709,37.789302],[-122.468601,37.789349]]]}},{"type":"Feature","properties":{"k":"green"},"geometry":{"type":"Polygon","coordinates":[[[-122.469588,37.788583],[-122.469551,37.788577],[-122.469522,37.788609],[-122.469458,37.788657],[-122.469455,37.788717],[-122.469472,37.788748],[-122.469486,37.788758],[-122.469515,37.78876],[-122.469658,37.788713],[-122.469664,37.788701],[-122.469659,37.788681],[-122.469609,37.78863],[-122.469588,37.788583]]]}},{"type":"Feature","properties":{"k":"green"},"geometry":{"type":"Polygon","coordinates":[[[-122.467477,37.790924],[-122.467462,37.790953],[-122.467378,37.790995],[-122.467304,37.791022],[-122.467233,37.791033],[-122.467199,37.791027],[-122.467131,37.790986],[-122.467105,37.79096],[-122.467096,37.790916],[-122.467102,37.790894],[-122.467126,37.79087],[-122.467211,37.790827],[-122.467243,37.790818],[-122.467306,37.790828],[-122.467437,37.79087],[-122.467457,37.790885],[-122.467477,37.790924]]]}},{"type":"Feature","properties":{"k":"tee"},"geometry":{"type":"Polygon","coordinates":[[[-122.467189,37.79131],[-122.467196,37.791301],[-122.467105,37.791243],[-122.467045,37.791295],[-122.467145,37.791356],[-122.467189,37.79131]]]}},{"type":"Feature","properties":{"k":"tee"},"geometry":{"type":"Polygon","coordinates":[[[-122.467326,37.791344],[-122.467333,37.79135],[-122.467328,37.791357],[-122.467259,37.791427],[-122.467211,37.791396],[-122.467285,37.791319],[-122.467326,37.791344]]]}},{"type":"Feature","properties":{"k":"tee"},"geometry":{"type":"Polygon","coordinates":[[[-122.467418,37.79146],[-122.467392,37.791491],[-122.467347,37.791467],[-122.467381,37.791428],[-122.467422,37.791449],[-122.467418,37.79146]]]}},{"type":"Feature","properties":{"k":"tee"},"geometry":{"type":"Polygon","coordinates":[[[-122.467115,37.791499],[-122.467066,37.791484],[-122.467053,37.791486],[-122.467021,37.791562],[-122.467024,37.791573],[-122.467075,37.791591],[-122.467089,37.791589],[-122.467124,37.791508],[-122.467115,37.791499]]]}},{"type":"Feature","properties":{"k":"tee"},"geometry":{"type":"Polygon","coordinates":[[[-122.466901,37.791466],[-122.466906,37.791472],[-122.466876,37.791535],[-122.466866,37.79154],[-122.466831,37.791529],[-122.466825,37.791523],[-122.466859,37.791459],[-122.46687,37.791456],[-122.466901,37.791466]]]}},{"type":"Feature","properties":{"k":"green"},"geometry":{"type":"Polygon","coordinates":[[[-122.468254,37.791941],[-122.468302,37.79184],[-122.468298,37.791804],[-122.468284,37.791788],[-122.468243,37.791774],[-122.468195,37.791776],[-122.468128,37.791753],[-122.468105,37.791755],[-122.46804,37.791773],[-122.467988,37.791811],[-122.467975,37.791836],[-122.467973,37.791861],[-122.467986,37.791889],[-122.468028,37.791922],[-122.468127,37.791945],[-122.468195,37.791972],[-122.468218,37.79197],[-122.468238,37.79196],[-122.468254,37.791941]]]}},{"type":"Feature","properties":{"k":"green"},"geometry":{"type":"Polygon","coordinates":[[[-122.468214,37.793838],[-122.46816,37.793798],[-122.468133,37.793747],[-122.468133,37.793664],[-122.468104,37.793581],[-122.468117,37.79356],[-122.46814,37.793551],[-122.468245,37.79356],[-122.4683,37.793582],[-122.46834,37.793621],[-122.468367,37.793686],[-122.468354,37.793731],[-122.468305,37.793813],[-122.468261,37.793844],[-122.468214,37.793838]]]}},{"type":"Feature","properties":{"k":"tee"},"geometry":{"type":"Polygon","coordinates":[[[-122.467951,37.792485],[-122.467841,37.792446],[-122.467794,37.792508],[-122.46791,37.792547],[-122.467951,37.792485]]]}},{"type":"Feature","properties":{"k":"green"},"geometry":{"type":"Polygon","coordinates":[[[-122.464774,37.791233],[-122.464745,37.791267],[-122.464715,37.791274],[-122.464622,37.79126],[-122.464512,37.791253],[-122.464479,37.791229],[-122.46447,37.79119],[-122.464476,37.791155],[-122.464507,37.791104],[-122.464536,37.79109],[-122.46462,37.791093],[-122.46466,37.791111],[-122.46471,37.791162],[-122.464759,37.791192],[-122.464771,37.791206],[-122.464774,37.791233]]]}},{"type":"Feature","properties":{"k":"fairway"},"geometry":{"type":"Polygon","coordinates":[[[-122.467208,37.793761],[-122.467163,37.793763],[-122.467099,37.793754],[-122.467032,37.793734],[-122.466648,37.793567],[-122.466305,37.793399],[-122.465944,37.793198],[-122.465778,37.793074],[-122.465614,37.792975],[-122.465479,37.792907],[-122.465238,37.79283],[-122.465173,37.792801],[-122.465123,37.792769],[-122.465091,37.792712],[-122.465057,37.792698],[-122.464978,37.792701],[-122.464938,37.792716],[-122.464843,37.792723],[-122.464795,37.7927],[-122.464767,37.792668],[-122.464764,37.792616],[-122.464904,37.792473],[-122.46497,37.792438],[-122.465027,37.792434],[-122.46508,37.792441],[-122.465109,37.792452],[-122.465203,37.792524],[-122.465368,37.79257],[-122.465508,37.792655],[-122.465915,37.792936],[-122.466032,37.792998],[-122.466108,37.793033],[-122.466252,37.793077],[-122.466488,37.793165],[-122.466723,37.793272],[-122.467276,37.793551],[-122.467308,37.793601],[-122.46731,37.793658],[-122.467298,37.793704],[-122.467259,37.79374],[-122.467208,37.793761]]]}},{"type":"Feature","properties":{"k":"tee"},"geometry":{"type":"Polygon","coordinates":[[[-122.465878,37.792364],[-122.465841,37.792408],[-122.465738,37.792348],[-122.465776,37.792308],[-122.465878,37.792364]]]}},{"type":"Feature","properties":{"k":"tee"},"geometry":{"type":"Polygon","coordinates":[[[-122.466601,37.792544],[-122.466577,37.792568],[-122.466532,37.79254],[-122.466562,37.792516],[-122.466601,37.792544]]]}},{"type":"Feature","properties":{"k":"fairway"},"geometry":{"type":"Polygon","coordinates":[[[-122.467676,37.793374],[-122.467736,37.79344],[-122.467763,37.793448],[-122.46779,37.79345],[-122.467844,37.793433],[-122.467885,37.793393],[-122.467906,37.793364],[-122.467929,37.793304],[-122.467939,37.793236],[-122.467913,37.793181],[-122.467893,37.79316],[-122.467812,37.793151],[-122.467686,37.793189],[-122.467663,37.793177],[-122.467611,37.793114],[-122.467558,37.79308],[-122.467508,37.79307],[-122.46738,37.793019],[-122.467209,37.792967],[-122.46713,37.792921],[-122.467047,37.792849],[-122.466988,37.792833],[-122.466931,37.792844],[-122.466896,37.792882],[-122.46687,37.792939],[-122.466874,37.792987],[-122.466912,37.793025],[-122.467045,37.793084],[-122.46727,37.793201],[-122.467421,37.793308],[-122.467477,37.793319],[-122.467543,37.793291],[-122.467594,37.79329],[-122.467627,37.793306],[-122.467676,37.793374]]]}},{"type":"Feature","properties":{"k":"tee"},"geometry":{"type":"Polygon","coordinates":[[[-122.465417,37.792064],[-122.465351,37.792145],[-122.465204,37.792073],[-122.465262,37.791994],[-122.465417,37.792064]]]}},{"type":"Feature","properties":{"k":"fairway"},"geometry":{"type":"Polygon","coordinates":[[[-122.464092,37.791509],[-122.464136,37.791462],[-122.464144,37.791428],[-122.464117,37.791365],[-122.46409,37.791348],[-122.463719,37.791197],[-122.463599,37.791158],[-122.463486,37.791105],[-122.463152,37.790997],[-122.462951,37.790868],[-122.462901,37.790864],[-122.462868,37.790877],[-122.462838,37.790907],[-122.462796,37.791011],[-122.462805,37.791058],[-122.462858,37.791151],[-122.462986,37.791235],[-122.463323,37.791344],[-122.463751,37.791453],[-122.463967,37.791516],[-122.464037,37.791525],[-122.464092,37.791509]]]}},{"type":"Feature","properties":{"k":"fairway"},"geometry":{"type":"Polygon","coordinates":[[[-122.462496,37.790561],[-122.462498,37.790596],[-122.462538,37.790615],[-122.462564,37.790643],[-122.462587,37.79069],[-122.462592,37.790753],[-122.462571,37.790808],[-122.462545,37.790835],[-122.462525,37.790847],[-122.462491,37.790854],[-122.462456,37.790853],[-122.46241,37.790836],[-122.462247,37.790715],[-122.462179,37.790627],[-122.461942,37.790407],[-122.461722,37.790184],[-122.461561,37.790047],[-122.461451,37.789974],[-122.461321,37.789911],[-122.461271,37.789902],[-122.461173,37.789868],[-122.461097,37.789833],[-122.461042,37.789792],[-122.460993,37.789725],[-122.460979,37.789671],[-122.460987,37.789622],[-122.461016,37.789571],[-122.461068,37.789532],[-122.461124,37.789505],[-122.461228,37.789467],[-122.461371,37.789431],[-122.461453,37.789448],[-122.461494,37.789473],[-122.461568,37.789548],[-122.461624,37.789621],[-122.461664,37.789707],[-122.461709,37.789769],[-122.461738,37.78985],[-122.461953,37.790119],[-122.462311,37.790408],[-122.462412,37.79052],[-122.462496,37.790561]]]}},{"type":"Feature","properties":{"k":"tee"},"geometry":{"type":"Polygon","coordinates":[[[-122.460753,37.789889],[-122.460691,37.789818],[-122.460639,37.78984],[-122.4607,37.789913],[-122.460753,37.789889]]]}},{"type":"Feature","properties":{"k":"tee"},"geometry":{"type":"Polygon","coordinates":[[[-122.460607,37.789613],[-122.460568,37.78963],[-122.460526,37.789584],[-122.46057,37.789566],[-122.460607,37.789613]]]}},{"type":"Feature","properties":{"k":"tee"},"geometry":{"type":"Polygon","coordinates":[[[-122.460697,37.789756],[-122.460624,37.789795],[-122.460545,37.789697],[-122.460616,37.789659],[-122.460697,37.789756]]]}},{"type":"Feature","properties":{"k":"green"},"geometry":{"type":"Polygon","coordinates":[[[-122.464277,37.792611],[-122.464284,37.792645],[-122.464254,37.792679],[-122.464204,37.792698],[-122.464141,37.792705],[-122.464039,37.7927],[-122.463985,37.792682],[-122.463946,37.792648],[-122.463936,37.792612],[-122.463948,37.792582],[-122.463964,37.792569],[-122.46403,37.792559],[-122.464129,37.792562],[-122.464211,37.792575],[-122.464262,37.792595],[-122.464277,37.792611]]]}},{"type":"Feature","properties":{"k":"fairway"},"geometry":{"type":"Polygon","coordinates":[[[-122.464316,37.792617],[-122.464321,37.792635],[-122.46431,37.792672],[-122.464271,37.792699],[-122.464168,37.792738],[-122.464152,37.792758],[-122.464142,37.792798],[-122.464123,37.792811],[-122.464086,37.79281],[-122.464041,37.792798],[-122.463921,37.792738],[-122.463834,37.79267],[-122.463717,37.792536],[-122.463678,37.792516],[-122.46351,37.792357],[-122.463139,37.792091],[-122.462934,37.791919],[-122.462693,37.791703],[-122.462478,37.791479],[-122.462188,37.791249],[-122.461938,37.791062],[-122.461442,37.790661],[-122.461293,37.790523],[-122.461275,37.79049],[-122.461282,37.790449],[-122.461298,37.790421],[-122.461343,37.790388],[-122.46139,37.79037],[-122.461455,37.79037],[-122.4615,37.790391],[-122.461699,37.790577],[-122.461864,37.790712],[-122.462272,37.791006],[-122.462434,37.791102],[-122.462521,37.791176],[-122.462611,37.791297],[-122.4627,37.791371],[-122.463256,37.791787],[-122.463573,37.792041],[-122.463858,37.792283],[-122.463944,37.792345],[-122.464034,37.792395],[-122.464047,37.792407],[-122.464046,37.79242],[-122.463987,37.792453],[-122.463965,37.792482],[-122.463965,37.792521],[-122.463978,37.792542],[-122.464002,37.79255],[-122.464142,37.792552],[-122.46424,37.792566],[-122.464295,37.79259],[-122.464316,37.792617]]]}},{"type":"Feature","properties":{"k":"tee"},"geometry":{"type":"Polygon","coordinates":[[[-122.46491,37.793021],[-122.464668,37.792879],[-122.464601,37.792944],[-122.464833,37.793096],[-122.46491,37.793021]]]}},{"type":"Feature","properties":{"k":"green"},"geometry":{"type":"Polygon","coordinates":[[[-122.469458,37.794506],[-122.469458,37.794545],[-122.469447,37.794563],[-122.469408,37.794583],[-122.469334,37.794585],[-122.469241,37.794551],[-122.469196,37.79451],[-122.46917,37.794437],[-122.469177,37.794392],[-122.469203,37.794349],[-122.469258,37.794332],[-122.469306,37.794345],[-122.469343,37.794414],[-122.469425,37.794461],[-122.469452,37.794487],[-122.469458,37.794506]]]}},{"type":"Feature","properties":{"k":"green"},"geometry":{"type":"Polygon","coordinates":[[[-122.471969,37.791259],[-122.471986,37.79121],[-122.471976,37.791165],[-122.471945,37.791134],[-122.471897,37.791134],[-122.471842,37.791165],[-122.471719,37.791254],[-122.471696,37.791286],[-122.471697,37.791305],[-122.471739,37.791353],[-122.471778,37.791359],[-122.4718,37.791354],[-122.471866,37.791301],[-122.471929,37.791284],[-122.471969,37.791259]]]}},{"type":"Feature","properties":{"k":"tee"},"geometry":{"type":"Polygon","coordinates":[[[-122.472247,37.790998],[-122.472234,37.790902],[-122.472137,37.79092],[-122.472154,37.791012],[-122.472247,37.790998]]]}},{"type":"Feature","properties":{"k":"tee"},"geometry":{"type":"Polygon","coordinates":[[[-122.471142,37.791457],[-122.47103,37.791381],[-122.47086,37.791532],[-122.470969,37.79161],[-122.471142,37.791457]]]}},{"type":"Feature","properties":{"k":"tee"},"geometry":{"type":"Polygon","coordinates":[[[-122.470803,37.791693],[-122.470839,37.791655],[-122.470794,37.791628],[-122.470759,37.791663],[-122.470803,37.791693]]]}},{"type":"Feature","properties":{"k":"green"},"geometry":{"type":"Polygon","coordinates":[[[-122.472219,37.790426],[-122.472161,37.790362],[-122.472109,37.790327],[-122.472075,37.790317],[-122.472046,37.790312],[-122.471984,37.790326],[-122.471958,37.790345],[-122.471946,37.790366],[-122.471946,37.790394],[-122.471977,37.790482],[-122.472013,37.790516],[-122.472096,37.790548],[-122.472153,37.79054],[-122.472209,37.79051],[-122.472226,37.790484],[-122.47223,37.790455],[-122.472219,37.790426]]]}},{"type":"Feature","properties":{"k":"fairway"},"geometry":{"type":"Polygon","coordinates":[[[-122.471744,37.791643],[-122.471775,37.791518],[-122.471798,37.791472],[-122.471816,37.791363],[-122.471872,37.791308],[-122.471959,37.791281],[-122.471992,37.791239],[-122.472,37.791207],[-122.471996,37.791171],[-122.471979,37.79114],[-122.471957,37.791125],[-122.471924,37.791119],[-122.471862,37.791136],[-122.471708,37.791248],[-122.471691,37.791265],[-122.471662,37.791353],[-122.471487,37.791486],[-122.471375,37.79159],[-122.471281,37.791711],[-122.471067,37.79205],[-122.470977,37.792178],[-122.470755,37.792398],[-122.470624,37.792466],[-122.470597,37.792491],[-122.470548,37.792578],[-122.470557,37.792622],[-122.470553,37.792666],[-122.47051,37.792708],[-122.470472,37.792729],[-122.470379,37.792806],[-122.470236,37.792821],[-122.470193,37.792833],[-122.470051,37.792919],[-122.469712,37.793182],[-122.469665,37.793228],[-122.469661,37.793257],[-122.46967,37.793284],[-122.469729,37.793344],[-122.469799,37.79337],[-122.469857,37.793362],[-122.469905,37.793341],[-122.470075,37.793239],[-122.470214,37.793175],[-122.47027,37.793139],[-122.470416,37.793124],[-122.470501,37.793084],[-122.470626,37.793002],[-122.470709,37.792933],[-122.470972,37.792566],[-122.47109,37.792428],[-122.471438,37.792099],[-122.471654,37.79185],[-122.471709,37.791746],[-122.471744,37.791643]]]}},{"type":"Feature","properties":{"k":"green"},"geometry":{"type":"Polygon","coordinates":[[[-122.473057,37.793701],[-122.47306,37.793738],[-122.473046,37.793762],[-122.473018,37.793783],[-122.472965,37.793803],[-122.472851,37.793803],[-122.472768,37.793792],[-122.472741,37.793773],[-122.472729,37.79375],[-122.472731,37.793725],[-122.472744,37.793709],[-122.472789,37.793677],[-122.472882,37.79365],[-122.472924,37.793628],[-122.472969,37.793627],[-122.473008,37.793644],[-122.473057,37.793701]]]}},{"type":"Feature","properties":{"k":"fairway"},"geometry":{"type":"Polygon","coordinates":[[[-122.469509,37.794213],[-122.469598,37.794135],[-122.469686,37.794076],[-122.469969,37.79393],[-122.47005,37.793876],[-122.470231,37.793717],[-122.470479,37.793562],[-122.470713,37.793367],[-122.470926,37.793158],[-122.470982,37.793113],[-122.471043,37.793095],[-122.471078,37.793094],[-122.471114,37.793101],[-122.471152,37.793129],[-122.471167,37.793159],[-122.471168,37.793189],[-122.471156,37.793213],[-122.47112,37.793262],[-122.471081,37.793296],[-122.471018,37.79341],[-122.471009,37.793579],[-122.470988,37.793619],[-122.470952,37.793668],[-122.470743,37.793887],[-122.470641,37.793972],[-122.470557,37.794016],[-122.470399,37.794064],[-122.470244,37.794131],[-122.470055,37.794249],[-122.469721,37.794488],[-122.469683,37.794501],[-122.469622,37.794511],[-122.469533,37.79451],[-122.469495,37.79452],[-122.469453,37.794573],[-122.469365,37.794647],[-122.469313,37.794649],[-122.469263,37.794636],[-122.469229,37.794618],[-122.469162,37.794484],[-122.46915,37.794419],[-122.469156,37.794385],[-122.469199,37.794337],[-122.469261,37.794321],[-122.469307,37.794329],[-122.469331,37.794356],[-122.469336,37.794376],[-122.469354,37.794388],[-122.469386,37.794388],[-122.469415,37.794368],[-122.469461,37.794276],[-122.469509,37.794213]]]}},{"type":"Feature","properties":{"k":"tee"},"geometry":{"type":"Polygon","coordinates":[[[-122.46899,37.79397],[-122.468905,37.793915],[-122.468728,37.794067],[-122.468807,37.794116],[-122.46899,37.79397]]]}},{"type":"Feature","properties":{"k":"tee"},"geometry":{"type":"Polygon","coordinates":[[[-122.468601,37.794747],[-122.468601,37.794661],[-122.468405,37.794666],[-122.468407,37.794754],[-122.468601,37.794747]]]}},{"type":"Feature","properties":{"k":"fairway"},"geometry":{"type":"Polygon","coordinates":[[[-122.467139,37.794851],[-122.467501,37.79486],[-122.46759,37.794845],[-122.467632,37.794827],[-122.467668,37.794797],[-122.467683,37.794771],[-122.467676,37.794703],[-122.467655,37.794671],[-122.467562,37.794627],[-122.466834,37.794538],[-122.466533,37.794485],[-122.466193,37.794414],[-122.466052,37.794362],[-122.465872,37.794269],[-122.465577,37.794055],[-122.465509,37.794032],[-122.465429,37.794031],[-122.465392,37.794017],[-122.465378,37.793955],[-122.465364,37.793938],[-122.465316,37.793914],[-122.465295,37.793834],[-122.465277,37.793803],[-122.465249,37.793792],[-122.465212,37.793793],[-122.465165,37.793839],[-122.465157,37.793863],[-122.46513,37.793889],[-122.465123,37.793918],[-122.465061,37.793984],[-122.465045,37.794044],[-122.465055,37.794065],[-122.465075,37.79408],[-122.465122,37.794089],[-122.465208,37.794074],[-122.465226,37.79408],[-122.465255,37.794101],[-122.465299,37.794179],[-122.465427,37.794327],[-122.465497,37.794386],[-122.465601,37.794456],[-122.465698,37.794506],[-122.46578,37.794537],[-122.465878,37.79454],[-122.46592,37.794549],[-122.465979,37.794611],[-122.466061,37.794671],[-122.466142,37.794711],[-122.466228,37.794742],[-122.466291,37.794752],[-122.466473,37.794811],[-122.466592,37.79483],[-122.467139,37.794851]]]}},{"type":"Feature","properties":{"k":"tee"},"geometry":{"type":"Polygon","coordinates":[[[-122.469519,37.793566],[-122.469459,37.793611],[-122.469374,37.793539],[-122.469432,37.793495],[-122.469519,37.793566]]]}},{"type":"Feature","properties":{"k":"tee"},"geometry":{"type":"Polygon","coordinates":[[[-122.46541,37.793573],[-122.465384,37.793607],[-122.465273,37.79357],[-122.4653,37.793531],[-122.46541,37.793573]]]}},{"type":"Feature","properties":{"k":"green"},"geometry":{"type":"Polygon","coordinates":[[[-122.460437,37.790279],[-122.46045,37.790304],[-122.460435,37.790338],[-122.460393,37.79036],[-122.460345,37.790363],[-122.460309,37.790349],[-122.460279,37.790294],[-122.460243,37.790276],[-122.46021,37.790233],[-122.460162,37.790202],[-122.460153,37.790174],[-122.460165,37.790138],[-122.460188,37.790107],[-122.460245,37.790059],[-122.460263,37.790051],[-122.460305,37.790063],[-122.460323,37.790165],[-122.460437,37.790279]]]}},{"type":"Feature","properties":{"k":"path"},"geometry":{"type":"LineString","coordinates":[[-122.460445,37.789559],[-122.460546,37.789426]]}},{"type":"Feature","properties":{"k":"path"},"geometry":{"type":"LineString","coordinates":[[-122.460445,37.789559],[-122.460375,37.789714],[-122.460306,37.789809],[-122.460246,37.789865],[-122.459961,37.790069],[-122.459955,37.790107],[-122.459963,37.790141],[-122.460001,37.79019],[-122.460006,37.790226],[-122.459964,37.79035],[-122.459928,37.790376],[-122.459884,37.790386],[-122.459652,37.790207],[-122.459614,37.790192],[-122.459544,37.790182]]}},{"type":"Feature","properties":{"k":"path"},"geometry":{"type":"LineString","coordinates":[[-122.460426,37.789448],[-122.460445,37.789559]]}},{"type":"Feature","properties":{"k":"bunker"},"geometry":{"type":"Polygon","coordinates":[[[-122.462708,37.791114],[-122.46271,37.791106],[-122.462726,37.791104],[-122.462714,37.791073],[-122.462692,37.791048],[-122.462699,37.791027],[-122.462672,37.791017],[-122.462686,37.791003],[-122.462667,37.790987],[-122.462601,37.79097],[-122.462574,37.790979],[-122.462576,37.790998],[-122.462535,37.791005],[-122.462527,37.791073],[-122.462575,37.791063],[-122.462587,37.791068],[-122.462601,37.791027],[-122.462614,37.791031],[-122.462612,37.791047],[-122.462621,37.791057],[-122.462608,37.791069],[-122.462612,37.791083],[-122.462649,37.791079],[-122.462645,37.791093],[-122.462611,37.79111],[-122.462623,37.791134],[-122.462614,37.791148],[-122.462625,37.791179],[-122.462614,37.791207],[-122.46262,37.791213],[-122.462592,37.791249],[-122.462597,37.791266],[-122.462614,37.791268],[-122.462611,37.791297],[-122.462662,37.791334],[-122.462697,37.791327],[-122.462717,37.791308],[-122.46271,37.791294],[-122.462667,37.79129],[-122.462662,37.79128],[-122.462672,37.791268],[-122.462708,37.791276],[-122.462719,37.791289],[-122.462737,37.791276],[-122.46274,37.791256],[-122.46273,37.791258],[-122.46273,37.79125],[-122.462742,37.791238],[-122.46274,37.791225],[-122.462722,37.791217],[-122.462719,37.791202],[-122.462679,37.791193],[-122.462684,37.791182],[-122.462719,37.791162],[-122.462719,37.791146],[-122.462687,37.791133],[-122.462687,37.791124],[-122.462708,37.791114]]]}},{"type":"Feature","properties":{"k":"bunker"},"geometry":{"type":"Polygon","coordinates":[[[-122.462468,37.7906],[-122.462462,37.790585],[-122.462453,37.790584],[-122.46245,37.790595],[-122.462422,37.7906],[-122.462393,37.790564],[-122.462407,37.790551],[-122.462425,37.790558],[-122.462453,37.790555],[-122.462456,37.790541],[-122.462412,37.79052],[-122.462444,37.790499],[-122.462463,37.790498],[-122.462487,37.790519],[-122.462496,37.790561],[-122.462506,37.790571],[-122.462498,37.790596],[-122.462486,37.790604],[-122.462468,37.7906]]]}},{"type":"Feature","properties":{"k":"bunker"},"geometry":{"type":"Polygon","coordinates":[[[-122.469591,37.788809],[-122.469609,37.7888],[-122.469617,37.788765],[-122.469642,37.788752],[-122.469675,37.788756],[-122.46968,37.788778],[-122.469652,37.788787],[-122.469662,37.788793],[-122.469646,37.788824],[-122.469627,37.788824],[-122.469629,37.78883],[-122.469603,37.788837],[-122.469574,37.788833],[-122.469563,37.788853],[-122.469514,37.788829],[-122.469502,37.788833],[-122.469509,37.788857],[-122.469502,37.788863],[-122.469479,37.788854],[-122.469483,37.788831],[-122.469462,37.78882],[-122.469483,37.788792],[-122.469504,37.788806],[-122.469513,37.788799],[-122.469513,37.78881],[-122.469526,37.788815],[-122.469543,37.788814],[-122.469548,37.788789],[-122.469571,37.788797],[-122.469581,37.788782],[-122.469595,37.788784],[-122.469583,37.788806],[-122.469591,37.788809]]]}},{"type":"Feature","properties":{"k":"bunker"},"geometry":{"type":"Polygon","coordinates":[[[-122.469418,37.788693],[-122.469391,37.788683],[-122.469397,37.788665],[-122.469423,37.788672],[-122.46943,37.788662],[-122.469414,37.788651],[-122.469415,37.788642],[-122.469398,37.788626],[-122.469391,37.788628],[-122.469395,37.788638],[-122.469384,37.78864],[-122.469359,37.788636],[-122.469353,37.788652],[-122.469368,37.788663],[-122.469344,37.788694],[-122.469369,37.788708],[-122.469358,37.788727],[-122.469365,37.788734],[-122.469374,37.788731],[-122.469375,37.788741],[-122.469394,37.788743],[-122.469419,37.78873],[-122.469427,37.78871],[-122.469394,37.788717],[-122.469387,37.788704],[-122.469418,37.788693]]]}},{"type":"Feature","properties":{"k":"rough"},"geometry":{"type":"Polygon","coordinates":[[[-122.469432,37.788604],[-122.469439,37.788585],[-122.469422,37.788579],[-122.469395,37.788594],[-122.469432,37.788604]]]}},{"type":"Feature","properties":{"k":"bunker"},"geometry":{"type":"Polygon","coordinates":[[[-122.469143,37.788797],[-122.46913,37.788781],[-122.4691,37.788778],[-122.469089,37.788762],[-122.469087,37.788732],[-122.469069,37.788722],[-122.469031,37.788754],[-122.469013,37.788787],[-122.468989,37.788796],[-122.468979,37.788818],[-122.468996,37.788832],[-122.469028,37.788822],[-122.46906,37.788797],[-122.46908,37.78881],[-122.469119,37.788814],[-122.469143,37.788797]]]}},{"type":"Feature","properties":{"k":"bunker"},"geometry":{"type":"Polygon","coordinates":[[[-122.467515,37.790799],[-122.467511,37.790782],[-122.467481,37.79077],[-122.467466,37.790745],[-122.467422,37.790755],[-122.467411,37.790769],[-122.467395,37.790764],[-122.467392,37.790747],[-122.467381,37.790751],[-122.467378,37.790746],[-122.467427,37.790699],[-122.467463,37.790716],[-122.467468,37.790707],[-122.46748,37.790709],[-122.467485,37.790725],[-122.467498,37.790728],[-122.467508,37.79072],[-122.46751,37.790685],[-122.467496,37.790675],[-122.467478,37.790676],[-122.467465,37.790669],[-122.467475,37.790653],[-122.467464,37.790648],[-122.467452,37.790652],[-122.467449,37.790673],[-122.467424,37.790675],[-122.467383,37.790713],[-122.467347,37.790723],[-122.467341,37.790738],[-122.467355,37.790743],[-122.467359,37.79076],[-122.467329,37.790761],[-122.467316,37.790753],[-122.467256,37.790765],[-122.467256,37.790773],[-122.467271,37.790779],[-122.467314,37.790774],[-122.467331,37.790797],[-122.467341,37.790801],[-122.467349,37.790793],[-122.467367,37.790798],[-122.467373,37.790808],[-122.467408,37.790805],[-122.467424,37.790792],[-122.467444,37.790795],[-122.467439,37.790813],[-122.467455,37.790824],[-122.467483,37.790822],[-122.46748,37.790816],[-122.467515,37.790799]]]}},{"type":"Feature","properties":{"k":"bunker"},"geometry":{"type":"Polygon","coordinates":[[[-122.467966,37.791787],[-122.467985,37.791765],[-122.468023,37.791751],[-122.468033,37.791739],[-122.468018,37.79173],[-122.468027,37.79172],[-122.467973,37.791722],[-122.467959,37.79171],[-122.467947,37.791711],[-122.467943,37.791723],[-122.467951,37.791726],[-122.467941,37.791752],[-122.467903,37.791736],[-122.467896,37.791703],[-122.467873,37.791694],[-122.467848,37.791702],[-122.467857,37.791719],[-122.467851,37.791738],[-122.467862,37.791736],[-122.467873,37.791755],[-122.467887,37.791756],[-122.467896,37.791771],[-122.467851,37.791785],[-122.467848,37.791796],[-122.46786,37.791801],[-122.467863,37.791821],[-122.467878,37.791826],[-122.467888,37.791817],[-122.467926,37.791817],[-122.467924,37.791788],[-122.467941,37.791783],[-122.467955,37.791797],[-122.467966,37.791787]]]}},{"type":"Feature","properties":{"k":"bunker"},"geometry":{"type":"Polygon","coordinates":[[[-122.468144,37.791986],[-122.468119,37.79199],[-122.468099,37.791977],[-122.468053,37.791968],[-122.468041,37.791953],[-122.467996,37.791949],[-122.467986,37.791956],[-122.467973,37.791911],[-122.467963,37.791909],[-122.467955,37.791916],[-122.467935,37.791908],[-122.467918,37.791884],[-122.467916,37.791875],[-122.467953,37.791844],[-122.467934,37.791834],[-122.467844,37.791861],[-122.46784,37.791871],[-122.467873,37.79188],[-122.467871,37.791896],[-122.467828,37.791906],[-122.467841,37.791931],[-122.467852,37.791933],[-122.46786,37.79192],[-122.46787,37.791925],[-122.467863,37.791943],[-122.467877,37.791944],[-122.467889,37.791938],[-122.467886,37.791902],[-122.467909,37.791911],[-122.467929,37.791924],[-122.46793,37.791971],[-122.467952,37.791995],[-122.467994,37.791996],[-122.468004,37.791986],[-122.468059,37.791989],[-122.468046,37.792014],[-122.468054,37.792025],[-122.468092,37.792042],[-122.468112,37.792033],[-122.468107,37.792018],[-122.468161,37.792026],[-122.468168,37.792014],[-122.46816,37.791989],[-122.468144,37.791986]]]}},{"type":"Feature","properties":{"k":"bunker"},"geometry":{"type":"Polygon","coordinates":[[[-122.468336,37.792028],[-122.468351,37.792013],[-122.468343,37.791998],[-122.468355,37.791995],[-122.468364,37.792003],[-122.468378,37.791975],[-122.468369,37.791975],[-122.46837,37.791963],[-122.46834,37.79193],[-122.468316,37.791939],[-122.468294,37.791974],[-122.468285,37.79197],[-122.468262,37.791979],[-122.46826,37.79199],[-122.468244,37.792],[-122.468236,37.791991],[-122.468228,37.792001],[-122.468193,37.792009],[-122.468191,37.792039],[-122.468219,37.792054],[-122.468208,37.792036],[-122.468214,37.792029],[-122.468234,37.792039],[-122.468258,37.792032],[-122.468278,37.792012],[-122.468302,37.792031],[-122.468314,37.792025],[-122.468306,37.792016],[-122.46832,37.792027],[-122.468336,37.792028]]]}},{"type":"Feature","properties":{"k":"bunker"},"geometry":{"type":"Polygon","coordinates":[[[-122.465194,37.792523],[-122.465185,37.792508],[-122.465221,37.792506],[-122.465218,37.792493],[-122.46518,37.792484],[-122.465176,37.79247],[-122.465124,37.792458],[-122.465129,37.792445],[-122.465159,37.792446],[-122.465157,37.792414],[-122.465182,37.792412],[-122.46518,37.79242],[-122.465193,37.792424],[-122.465185,37.792434],[-122.465215,37.792437],[-122.465217,37.792454],[-122.465203,37.792449],[-122.465197,37.792464],[-122.465238,37.792473],[-122.465237,37.792459],[-122.465255,37.792462],[-122.465287,37.792491],[-122.465273,37.79252],[-122.465253,37.792518],[-122.465238,37.792535],[-122.465212,37.792535],[-122.465194,37.792523]]]}},{"type":"Feature","properties":{"k":"bunker"},"geometry":{"type":"Polygon","coordinates":[[[-122.465008,37.792753],[-122.464984,37.792733],[-122.464986,37.792727],[-122.465003,37.792723],[-122.46502,37.792734],[-122.465032,37.792716],[-122.46505,37.792714],[-122.465062,37.792721],[-122.465057,37.792731],[-122.465066,37.792744],[-122.465092,37.792746],[-122.465085,37.792756],[-122.465093,37.792762],[-122.46509,37.792776],[-122.465066,37.79278],[-122.465062,37.792772],[-122.465045,37.792772],[-122.465051,37.792761],[-122.465035,37.792755],[-122.465023,37.792762],[-122.465033,37.79277],[-122.465032,37.792781],[-122.465009,37.792783],[-122.46499,37.79278],[-122.465001,37.792773],[-122.464979,37.792762],[-122.464952,37.79277],[-122.464945,37.792756],[-122.464946,37.792747],[-122.464954,37.792749],[-122.46496,37.792743],[-122.464973,37.792742],[-122.465,37.792762],[-122.465008,37.792753]]]}},{"type":"Feature","properties":{"k":"bunker"},"geometry":{"type":"Polygon","coordinates":[[[-122.467711,37.793453],[-122.46771,37.793438],[-122.467679,37.793427],[-122.467682,37.79342],[-122.467709,37.793426],[-122.467704,37.79341],[-122.467684,37.793402],[-122.467682,37.793384],[-122.467672,37.793389],[-122.467659,37.793382],[-122.467656,37.793375],[-122.467663,37.793371],[-122.467646,37.793363],[-122.467655,37.79335],[-122.467645,37.79334],[-122.467629,37.793339],[-122.46763,37.793353],[-122.467619,37.793354],[-122.467634,37.79337],[-122.467631,37.793385],[-122.467603,37.793377],[-122.467572,37.793398],[-122.467603,37.793401],[-122.467629,37.793422],[-122.467634,37.793406],[-122.467646,37.793408],[-122.467671,37.79345],[-122.467683,37.793457],[-122.467711,37.793453]]]}},{"type":"Feature","properties":{"k":"bunker"},"geometry":{"type":"Polygon","coordinates":[[[-122.467717,37.79318],[-122.467709,37.793173],[-122.467714,37.793158],[-122.467707,37.793135],[-122.467744,37.793131],[-122.467753,37.793139],[-122.467737,37.793164],[-122.467744,37.793173],[-122.467767,37.793159],[-122.467774,37.793165],[-122.467788,37.793158],[-122.467781,37.793149],[-122.467791,37.793135],[-122.467763,37.793121],[-122.46778,37.793111],[-122.46778,37.793104],[-122.467768,37.793104],[-122.46777,37.793094],[-122.467759,37.793097],[-122.467737,37.793075],[-122.467718,37.793083],[-122.467719,37.793097],[-122.467682,37.793101],[-122.467673,37.793111],[-122.467678,37.793135],[-122.467664,37.793148],[-122.467664,37.793154],[-122.467678,37.793149],[-122.467685,37.793155],[-122.467678,37.793185],[-122.467709,37.793187],[-122.467717,37.79318]]]}},{"type":"Feature","properties":{"k":"tee"},"geometry":{"type":"Polygon","coordinates":[[[-122.464858,37.791889],[-122.464793,37.791859],[-122.464839,37.791795],[-122.464908,37.791823],[-122.464858,37.791889]]]}},{"type":"Feature","properties":{"k":"bunker"},"geometry":{"type":"Polygon","coordinates":[[[-122.461507,37.78972],[-122.461499,37.789714],[-122.461502,37.789692],[-122.461527,37.789702],[-122.461549,37.789699],[-122.461558,37.789683],[-122.46153,37.789665],[-122.461536,37.789653],[-122.46155,37.789647],[-122.461548,37.789629],[-122.461525,37.789616],[-122.461498,37.789613],[-122.461471,37.789627],[-122.461466,37.789642],[-122.461491,37.789654],[-122.461486,37.789662],[-122.461473,37.789668],[-122.461461,37.789661],[-122.461454,37.78967],[-122.461457,37.789696],[-122.461477,37.789704],[-122.461469,37.789711],[-122.46144,37.789709],[-122.461434,37.789719],[-122.461441,37.789729],[-122.461482,37.789737],[-122.461506,37.789729],[-122.461507,37.78972]]]}},{"type":"Feature","properties":{"k":"bunker"},"geometry":{"type":"Polygon","coordinates":[[[-122.461236,37.789809],[-122.461249,37.789797],[-122.461252,37.789777],[-122.461232,37.789782],[-122.46122,37.789771],[-122.461165,37.789758],[-122.461168,37.789769],[-122.461157,37.789777],[-122.461144,37.789754],[-122.46113,37.78975],[-122.46112,37.789762],[-122.461119,37.789773],[-122.46114,37.789789],[-122.461175,37.78979],[-122.461208,37.789807],[-122.461236,37.789809]]]}},{"type":"Feature","properties":{"k":"fairway"},"geometry":{"type":"Polygon","coordinates":[[[-122.461112,37.790269],[-122.461175,37.790259],[-122.461201,37.790241],[-122.461218,37.790218],[-122.461224,37.790192],[-122.461218,37.790166],[-122.461202,37.790142],[-122.461146,37.790114],[-122.461112,37.790113],[-122.46108,37.790121],[-122.461054,37.790135],[-122.461026,37.790179],[-122.461036,37.790228],[-122.461056,37.790248],[-122.461112,37.790269]]]}},{"type":"Feature","properties":{"k":"tee"},"geometry":{"type":"Polygon","coordinates":[[[-122.461151,37.790453],[-122.461105,37.790414],[-122.461166,37.790374],[-122.461209,37.790411],[-122.461151,37.790453]]]}},{"type":"Feature","properties":{"k":"bunker"},"geometry":{"type":"Polygon","coordinates":[[[-122.463962,37.792319],[-122.463938,37.792277],[-122.463923,37.792278],[-122.463911,37.792307],[-122.463932,37.792329],[-122.463931,37.792348],[-122.463913,37.792348],[-122.463884,37.792318],[-122.463875,37.79229],[-122.463882,37.792268],[-122.463869,37.792265],[-122.463884,37.792238],[-122.463934,37.79224],[-122.46398,37.792261],[-122.463986,37.792287],[-122.464002,37.792297],[-122.463994,37.792318],[-122.463962,37.792319]]]}},{"type":"Feature","properties":{"k":"bunker"},"geometry":{"type":"Polygon","coordinates":[[[-122.46422,37.792537],[-122.464233,37.7925],[-122.464215,37.792478],[-122.464186,37.792479],[-122.464157,37.792494],[-122.464116,37.792437],[-122.464074,37.792473],[-122.464054,37.792472],[-122.464041,37.792446],[-122.464015,37.792449],[-122.464018,37.792474],[-122.46399,37.792478],[-122.463971,37.792497],[-122.46397,37.79252],[-122.46398,37.792536],[-122.463998,37.79254],[-122.464034,37.792537],[-122.464031,37.792493],[-122.464048,37.792491],[-122.464073,37.792534],[-122.464101,37.792536],[-122.464116,37.792509],[-122.464141,37.792518],[-122.464135,37.792534],[-122.464169,37.792549],[-122.46422,37.792537]]]}},{"type":"Feature","properties":{"k":"bunker"},"geometry":{"type":"Polygon","coordinates":[[[-122.464314,37.792819],[-122.464328,37.792802],[-122.464325,37.792784],[-122.464297,37.79277],[-122.464306,37.792754],[-122.464323,37.79275],[-122.464331,37.792734],[-122.46432,37.792717],[-122.464304,37.792714],[-122.464305,37.792702],[-122.464284,37.792699],[-122.464236,37.792711],[-122.464222,37.792731],[-122.464201,37.792743],[-122.464169,37.792745],[-122.464187,37.7928],[-122.464221,37.792808],[-122.464238,37.792788],[-122.464236,37.792771],[-122.464258,37.79276],[-122.464277,37.792774],[-122.464254,37.792799],[-122.464268,37.79282],[-122.46428,37.792812],[-122.464314,37.792819]]]}},{"type":"Feature","properties":{"k":"bunker"},"geometry":{"type":"Polygon","coordinates":[[[-122.468093,37.794426],[-122.468082,37.794407],[-122.468058,37.794395],[-122.468047,37.794348],[-122.468072,37.794344],[-122.468071,37.794313],[-122.468105,37.794323],[-122.468108,37.794334],[-122.46813,37.794338],[-122.468136,37.794332],[-122.468198,37.794326],[-122.468205,37.794315],[-122.468193,37.794309],[-122.468166,37.794316],[-122.468144,37.794314],[-122.468125,37.794292],[-122.468151,37.794271],[-122.468166,37.794277],[-122.46817,37.794289],[-122.468216,37.794295],[-122.468226,37.794271],[-122.468235,37.794272],[-122.468214,37.794237],[-122.468195,37.794237],[-122.468187,37.794251],[-122.46817,37.794251],[-122.46817,37.794235],[-122.468159,37.79423],[-122.468122,37.794234],[-122.468101,37.79426],[-122.468113,37.794269],[-122.468094,37.794294],[-122.468029,37.794303],[-122.468016,37.794297],[-122.467991,37.794309],[-122.468002,37.794317],[-122.467991,37.794326],[-122.468003,37.794357],[-122.468014,37.794364],[-122.467998,37.794372],[-122.467994,37.79439],[-122.468006,37.794416],[-122.468023,37.794421],[-122.46803,37.794412],[-122.468047,37.794416],[-122.468065,37.794436],[-122.468086,37.794434],[-122.468093,37.794426]]]}},{"type":"Feature","properties":{"k":"tee"},"geometry":{"type":"Polygon","coordinates":[[[-122.470262,37.793249],[-122.470214,37.793217],[-122.470277,37.793157],[-122.470328,37.793188],[-122.470262,37.793249]]]}},{"type":"Feature","properties":{"k":"bunker"},"geometry":{"type":"Polygon","coordinates":[[[-122.470392,37.792677],[-122.470387,37.792648],[-122.470367,37.792639],[-122.470361,37.792622],[-122.470381,37.792608],[-122.470405,37.792613],[-122.470418,37.792651],[-122.470431,37.792654],[-122.470439,37.792647],[-122.470437,37.792602],[-122.470471,37.792609],[-122.470468,37.792627],[-122.470481,37.792631],[-122.47051,37.792613],[-122.470537,37.792632],[-122.470507,37.792676],[-122.470485,37.792688],[-122.47046,37.792677],[-122.470442,37.792691],[-122.470467,37.792717],[-122.470471,37.792735],[-122.470453,37.792752],[-122.470435,37.792751],[-122.470424,37.792742],[-122.470378,37.792745],[-122.470369,37.792797],[-122.470344,37.792808],[-122.470318,37.792791],[-122.470315,37.792779],[-122.4703,37.792775],[-122.4703,37.792762],[-122.47035,37.792731],[-122.470352,37.792715],[-122.470371,37.792705],[-122.470392,37.792677]]]}},{"type":"Feature","properties":{"k":"bunker"},"geometry":{"type":"Polygon","coordinates":[[[-122.471824,37.791576],[-122.47182,37.791553],[-122.47183,37.791547],[-122.471882,37.791549],[-122.471889,37.791542],[-122.471875,37.791536],[-122.47188,37.791523],[-122.471925,37.791509],[-122.471931,37.791494],[-122.47194,37.791496],[-122.471938,37.791476],[-122.471927,37.791468],[-122.471918,37.791465],[-122.471893,37.791489],[-122.471876,37.791485],[-122.471864,37.791493],[-122.471851,37.791483],[-122.471828,37.791517],[-122.471783,37.791527],[-122.471776,37.791536],[-122.471789,37.791548],[-122.471786,37.791572],[-122.471804,37.791585],[-122.471824,37.791576]]]}},{"type":"Feature","properties":{"k":"bunker"},"geometry":{"type":"Polygon","coordinates":[[[-122.47197,37.79136],[-122.471962,37.791358],[-122.471963,37.79134],[-122.47199,37.791336],[-122.471983,37.791331],[-122.471993,37.791324],[-122.471987,37.791311],[-122.471935,37.791321],[-122.471927,37.791312],[-122.471917,37.79132],[-122.471925,37.791345],[-122.471915,37.791365],[-122.471905,37.791368],[-122.471894,37.79136],[-122.471888,37.791328],[-122.471878,37.791351],[-122.471862,37.79136],[-122.471874,37.791368],[-122.471873,37.791376],[-122.471841,37.791382],[-122.47184,37.791371],[-122.471823,37.791372],[-122.471808,37.791393],[-122.471826,37.791408],[-122.471871,37.791399],[-122.47188,37.791414],[-122.471893,37.791417],[-122.47192,37.791403],[-122.471916,37.791387],[-122.471938,37.791368],[-122.47195,37.791375],[-122.471968,37.791372],[-122.47197,37.79136]]]}},{"type":"Feature","properties":{"k":"bunker"},"geometry":{"type":"Polygon","coordinates":[[[-122.471695,37.791228],[-122.471714,37.791205],[-122.471735,37.791194],[-122.471749,37.791201],[-122.471763,37.791195],[-122.471751,37.791188],[-122.471757,37.791182],[-122.471777,37.791181],[-122.471778,37.791175],[-122.471764,37.791162],[-122.47175,37.791156],[-122.471745,37.791167],[-122.471705,37.791175],[-122.471679,37.791195],[-122.471686,37.791205],[-122.471682,37.791229],[-122.471695,37.791228]]]}},{"type":"Feature","properties":{"k":"bunker"},"geometry":{"type":"Polygon","coordinates":[[[-122.471811,37.791154],[-122.471819,37.791131],[-122.471859,37.791125],[-122.471865,37.791116],[-122.471859,37.7911],[-122.471847,37.791108],[-122.471838,37.791107],[-122.471837,37.791095],[-122.471802,37.791099],[-122.471788,37.79112],[-122.471768,37.791125],[-122.471763,37.791139],[-122.471777,37.791151],[-122.471789,37.79115],[-122.471797,37.791158],[-122.471811,37.791154]]]}},{"type":"Feature","properties":{"k":"bunker"},"geometry":{"type":"Polygon","coordinates":[[[-122.471872,37.790547],[-122.471883,37.790526],[-122.471866,37.790486],[-122.471902,37.790492],[-122.471933,37.790487],[-122.471942,37.790468],[-122.471924,37.790455],[-122.471941,37.790437],[-122.471924,37.790428],[-122.471912,37.790445],[-122.471899,37.790443],[-122.471895,37.790421],[-122.471907,37.790406],[-122.471925,37.790407],[-122.471902,37.790398],[-122.471926,37.790343],[-122.471944,37.79033],[-122.471936,37.790307],[-122.471908,37.790318],[-122.471876,37.790344],[-122.471875,37.790361],[-122.471886,37.790364],[-122.471874,37.790383],[-122.47186,37.790386],[-122.47185,37.790376],[-122.471839,37.79039],[-122.471853,37.790401],[-122.471837,37.790413],[-122.471853,37.790428],[-122.471841,37.790432],[-122.471838,37.790444],[-122.471815,37.790448],[-122.471815,37.79047],[-122.471841,37.790484],[-122.471826,37.79052],[-122.471835,37.79053],[-122.47185,37.790526],[-122.471856,37.790546],[-122.471872,37.790547]]]}},{"type":"Feature","properties":{"k":"bunker"},"geometry":{"type":"Polygon","coordinates":[[[-122.472228,37.790611],[-122.472236,37.790618],[-122.472247,37.790609],[-122.472245,37.790598],[-122.472226,37.790598],[-122.472207,37.790579],[-122.472221,37.790565],[-122.472252,37.790565],[-122.472257,37.790549],[-122.472234,37.790545],[-122.472244,37.79053],[-122.472234,37.790522],[-122.472219,37.790526],[-122.472222,37.790533],[-122.47219,37.790557],[-122.472163,37.790552],[-122.47216,37.790568],[-122.472176,37.790571],[-122.472182,37.790592],[-122.472159,37.790602],[-122.472142,37.79059],[-122.47213,37.790594],[-122.472125,37.790568],[-122.472104,37.790572],[-122.472104,37.790597],[-122.47212,37.790623],[-122.47216,37.790635],[-122.472168,37.79065],[-122.472184,37.790646],[-122.472192,37.790623],[-122.47221,37.790611],[-122.472228,37.790611]]]}},{"type":"Feature","properties":{"k":"bunker"},"geometry":{"type":"Polygon","coordinates":[[[-122.473048,37.793639],[-122.473065,37.79363],[-122.473081,37.793633],[-122.473087,37.793624],[-122.473071,37.793609],[-122.473071,37.793591],[-122.473038,37.793578],[-122.47301,37.793593],[-122.47301,37.793613],[-122.473021,37.793607],[-122.473035,37.793613],[-122.473048,37.793639]]]}},{"type":"Feature","properties":{"k":"bunker"},"geometry":{"type":"Polygon","coordinates":[[[-122.47284,37.793557],[-122.47287,37.793574],[-122.472882,37.793557],[-122.472898,37.793557],[-122.472905,37.793544],[-122.472889,37.793537],[-122.47289,37.793522],[-122.472836,37.793497],[-122.472829,37.793503],[-122.472838,37.793517],[-122.47283,37.793544],[-122.472817,37.793546],[-122.472768,37.793523],[-122.47275,37.793554],[-122.47273,37.793551],[-122.472724,37.793567],[-122.472737,37.793575],[-122.472761,37.793568],[-122.472776,37.793573],[-122.47278,37.793584],[-122.472759,37.793601],[-122.47276,37.793616],[-122.47278,37.793616],[-122.472797,37.793578],[-122.47283,37.793589],[-122.472821,37.793573],[-122.472826,37.79356],[-122.47284,37.793557]]]}},{"type":"Feature","properties":{"k":"green"},"geometry":{"type":"Polygon","coordinates":[[[-122.472062,37.792845],[-122.47204,37.792806],[-122.472044,37.792772],[-122.472073,37.792741],[-122.472077,37.79271],[-122.472057,37.792695],[-122.472029,37.79269],[-122.471966,37.792648],[-122.471921,37.792651],[-122.471868,37.792686],[-122.471829,37.792738],[-122.471826,37.792761],[-122.471842,37.7928],[-122.471914,37.792846],[-122.471996,37.792882],[-122.472035,37.792879],[-122.472053,37.792865],[-122.472062,37.792845]]]}},{"type":"Feature","properties":{"k":"bunker"},"geometry":{"type":"Polygon","coordinates":[[[-122.472364,37.793092],[-122.472341,37.793048],[-122.472342,37.792984],[-122.472332,37.792962],[-122.47231,37.792955],[-122.472323,37.792931],[-122.472308,37.792923],[-122.47231,37.792904],[-122.472283,37.792894],[-122.472241,37.792916],[-122.472242,37.79294],[-122.472259,37.792963],[-122.472271,37.792971],[-122.472283,37.792966],[-122.472291,37.792975],[-122.472248,37.793032],[-122.472265,37.793068],[-122.472279,37.793063],[-122.472293,37.793072],[-122.47233,37.793072],[-122.472341,37.793081],[-122.47234,37.793092],[-122.472354,37.7931],[-122.472364,37.793092]]]}},{"type":"Feature","properties":{"k":"bunker"},"geometry":{"type":"Polygon","coordinates":[[[-122.47232,37.792756],[-122.472311,37.792753],[-122.472314,37.792737],[-122.472296,37.792728],[-122.472296,37.792717],[-122.472314,37.792718],[-122.472327,37.792704],[-122.472316,37.79269],[-122.472297,37.792687],[-122.472268,37.792698],[-122.472261,37.792713],[-122.472247,37.792716],[-122.472255,37.792735],[-122.472272,37.792741],[-122.472268,37.792766],[-122.472284,37.792779],[-122.472298,37.792765],[-122.472316,37.792766],[-122.47232,37.792756]]]}},{"type":"Feature","properties":{"k":"bunker"},"geometry":{"type":"Polygon","coordinates":[[[-122.471981,37.792924],[-122.471986,37.7929],[-122.471962,37.7929],[-122.471967,37.792883],[-122.471935,37.792872],[-122.471926,37.792901],[-122.471956,37.792946],[-122.471979,37.792941],[-122.471981,37.792924]]]}},{"type":"Feature","properties":{"k":"bunker"},"geometry":{"type":"Polygon","coordinates":[[[-122.470417,37.793862],[-122.470404,37.793822],[-122.470384,37.793827],[-122.47038,37.793845],[-122.470366,37.793847],[-122.470358,37.793862],[-122.470337,37.793868],[-122.470347,37.793878],[-122.470347,37.793911],[-122.470326,37.793917],[-122.470312,37.793911],[-122.470312,37.79386],[-122.4703,37.793852],[-122.470283,37.79386],[-122.470285,37.793889],[-122.470268,37.793885],[-122.470263,37.7939],[-122.470271,37.793914],[-122.470293,37.793915],[-122.470291,37.793924],[-122.470261,37.793936],[-122.470269,37.793947],[-122.47028,37.793947],[-122.470288,37.793957],[-122.470305,37.793943],[-122.47036,37.79395],[-122.470354,37.793936],[-122.470377,37.793936],[-122.470384,37.793924],[-122.470379,37.79389],[-122.470388,37.793877],[-122.470417,37.793862]]]}},{"type":"Feature","properties":{"k":"bunker"},"geometry":{"type":"Polygon","coordinates":[[[-122.46941,37.794621],[-122.46948,37.794613],[-122.469492,37.794607],[-122.46949,37.794594],[-122.4695,37.794594],[-122.469504,37.794607],[-122.469508,37.794586],[-122.469535,37.794587],[-122.469535,37.794558],[-122.469546,37.794559],[-122.46955,37.794546],[-122.469541,37.794532],[-122.469528,37.794537],[-122.469534,37.794519],[-122.469519,37.794513],[-122.469495,37.79452],[-122.469477,37.794539],[-122.469501,37.794547],[-122.469505,37.794557],[-122.469489,37.794564],[-122.469467,37.794562],[-122.469459,37.794583],[-122.469448,37.794583],[-122.469448,37.794595],[-122.469416,37.794605],[-122.46941,37.794621]]]}},{"type":"Feature","properties":{"k":"bunker"},"geometry":{"type":"Polygon","coordinates":[[[-122.469409,37.794357],[-122.469421,37.794335],[-122.469383,37.794316],[-122.469373,37.794301],[-122.469406,37.794281],[-122.469401,37.794268],[-122.469419,37.79426],[-122.469412,37.794242],[-122.469392,37.794234],[-122.469341,37.794268],[-122.469336,37.794286],[-122.469304,37.794262],[-122.469258,37.794279],[-122.469252,37.794258],[-122.46922,37.794257],[-122.469199,37.794284],[-122.469211,37.794299],[-122.469235,37.794294],[-122.469241,37.794304],[-122.469235,37.794311],[-122.469244,37.794316],[-122.469284,37.794301],[-122.469286,37.794312],[-122.469341,37.794321],[-122.469332,37.794337],[-122.469342,37.794345],[-122.469354,37.79434],[-122.469348,37.794363],[-122.469361,37.794383],[-122.469376,37.794379],[-122.469376,37.794364],[-122.469386,37.794362],[-122.469388,37.794371],[-122.469398,37.794361],[-122.469408,37.794365],[-122.469409,37.794357]]]}},{"type":"Feature","properties":{"k":"bunker"},"geometry":{"type":"Polygon","coordinates":[[[-122.466434,37.794864],[-122.466453,37.794815],[-122.466432,37.794804],[-122.466401,37.794798],[-122.466373,37.794818],[-122.466341,37.794806],[-122.46635,37.79478],[-122.466339,37.794781],[-122.466331,37.79477],[-122.466309,37.794759],[-122.46629,37.794762],[-122.466291,37.794752],[-122.46626,37.794762],[-122.46626,37.794784],[-122.466278,37.794782],[-122.466292,37.794792],[-122.46629,37.794833],[-122.466412,37.794869],[-122.466434,37.794864]]]}},{"type":"Feature","properties":{"k":"bunker"},"geometry":{"type":"Polygon","coordinates":[[[-122.466049,37.794688],[-122.466047,37.794673],[-122.466061,37.794671],[-122.466057,37.794664],[-122.466027,37.794657],[-122.466019,37.794645],[-122.465987,37.794654],[-122.465973,37.794644],[-122.465974,37.794622],[-122.465959,37.794607],[-122.465936,37.7946],[-122.465942,37.794579],[-122.465954,37.79458],[-122.465944,37.794558],[-122.46592,37.794549],[-122.465916,37.794564],[-122.465903,37.794566],[-122.465892,37.794561],[-122.465893,37.794547],[-122.465878,37.79454],[-122.465868,37.794549],[-122.465874,37.794561],[-122.465849,37.79457],[-122.465851,37.794591],[-122.465867,37.794593],[-122.465874,37.794601],[-122.465883,37.794592],[-122.465901,37.794593],[-122.465892,37.794603],[-122.46591,37.794605],[-122.46592,37.794628],[-122.465895,37.794632],[-122.465907,37.794644],[-122.465922,37.794654],[-122.465945,37.794652],[-122.465948,37.79468],[-122.465999,37.794686],[-122.466013,37.794715],[-122.466045,37.794726],[-122.466073,37.794706],[-122.466047,37.794699],[-122.466049,37.794688]]]}},{"type":"Feature","properties":{"k":"green"},"geometry":{"type":"Polygon","coordinates":[[[-122.465313,37.794067],[-122.465228,37.794051],[-122.465129,37.794055],[-122.465096,37.794043],[-122.46508,37.79402],[-122.465077,37.793994],[-122.465141,37.793923],[-122.46518,37.793855],[-122.465229,37.793827],[-122.465262,37.793838],[-122.465295,37.793918],[-122.465318,37.793944],[-122.465342,37.793955],[-122.465384,37.794031],[-122.465372,37.79405],[-122.465346,37.794065],[-122.465313,37.794067]]]}},{"type":"Feature","properties":{"k":"bunker"},"geometry":{"type":"Polygon","coordinates":[[[-122.465413,37.793965],[-122.465414,37.793955],[-122.465431,37.793949],[-122.465429,37.793934],[-122.465402,37.793923],[-122.465403,37.793908],[-122.465382,37.793889],[-122.465369,37.793895],[-122.465355,37.793877],[-122.465334,37.793877],[-122.46535,37.793902],[-122.465323,37.793914],[-122.465323,37.793926],[-122.465343,37.793919],[-122.465378,37.793929],[-122.465371,37.793941],[-122.46535,37.793942],[-122.465359,37.793956],[-122.46538,37.793953],[-122.465391,37.793969],[-122.465413,37.793965]]]}},{"type":"Feature","properties":{"k":"bunker"},"geometry":{"type":"Polygon","coordinates":[[[-122.465131,37.793882],[-122.465149,37.793868],[-122.465142,37.793855],[-122.465167,37.793826],[-122.465137,37.793815],[-122.465141,37.793801],[-122.465129,37.793799],[-122.465115,37.793822],[-122.465125,37.793844],[-122.465115,37.793844],[-122.465107,37.793869],[-122.465131,37.793882]]]}},{"type":"Feature","properties":{"k":"bunker"},"geometry":{"type":"Polygon","coordinates":[[[-122.465058,37.793974],[-122.465078,37.793956],[-122.465071,37.793944],[-122.465102,37.793922],[-122.465115,37.793921],[-122.465113,37.793914],[-122.465125,37.793907],[-122.465097,37.793892],[-122.465076,37.793898],[-122.465076,37.79391],[-122.465059,37.793915],[-122.465055,37.793924],[-122.465069,37.793929],[-122.46505,37.793937],[-122.465038,37.793957],[-122.465034,37.793965],[-122.465058,37.793974]]]}},{"type":"Feature","properties":{"k":"bunker"},"geometry":{"type":"Polygon","coordinates":[[[-122.465229,37.794152],[-122.465228,37.794142],[-122.465242,37.794131],[-122.465256,37.794132],[-122.465251,37.794105],[-122.465229,37.794101],[-122.465221,37.794094],[-122.465231,37.794085],[-122.465204,37.794076],[-122.465195,37.794074],[-122.465195,37.794085],[-122.465168,37.794085],[-122.465168,37.794094],[-122.465186,37.794097],[-122.465175,37.794104],[-122.465182,37.794123],[-122.465203,37.79411],[-122.465216,37.79412],[-122.465201,37.794142],[-122.465187,37.794142],[-122.465167,37.794159],[-122.465194,37.794171],[-122.465224,37.794161],[-122.465229,37.794152]]]}},{"type":"Feature","properties":{"k":"tee"},"geometry":{"type":"Polygon","coordinates":[[[-122.463988,37.793151],[-122.46402,37.79318],[-122.464073,37.793146],[-122.464041,37.793114],[-122.463988,37.793151]]]}},{"type":"Feature","properties":{"k":"tee"},"geometry":{"type":"Polygon","coordinates":[[[-122.463181,37.792756],[-122.46315,37.792729],[-122.4632,37.792695],[-122.463234,37.792721],[-122.463181,37.792756]]]}},{"type":"Feature","properties":{"k":"bunker"},"geometry":{"type":"Polygon","coordinates":[[[-122.460397,37.790426],[-122.460395,37.790414],[-122.460362,37.790389],[-122.460321,37.790377],[-122.460303,37.790382],[-122.460303,37.790369],[-122.460267,37.790311],[-122.460214,37.7903],[-122.460195,37.790311],[-122.460194,37.7903],[-122.460213,37.790288],[-122.460216,37.790276],[-122.460187,37.790244],[-122.46014,37.790229],[-122.460111,37.790231],[-122.460096,37.790254],[-122.46011,37.790273],[-122.460113,37.790305],[-122.460149,37.790352],[-122.460177,37.790367],[-122.460225,37.790373],[-122.46022,37.790412],[-122.46025,37.790432],[-122.460296,37.790444],[-122.460335,37.790436],[-122.460389,37.790441],[-122.460397,37.790426]]]}},{"type":"Feature","properties":{"k":"bunker"},"geometry":{"type":"Polygon","coordinates":[[[-122.46039,37.79017],[-122.460429,37.790143],[-122.46044,37.790118],[-122.460441,37.790098],[-122.460421,37.790087],[-122.460414,37.790099],[-122.460384,37.790096],[-122.460375,37.790108],[-122.460388,37.790117],[-122.46037,37.790129],[-122.460363,37.790117],[-122.460339,37.790146],[-122.460365,37.790176],[-122.46039,37.79017]]]}},{"type":"Feature","properties":{"k":"green"},"geometry":{"type":"Polygon","coordinates":[[[-122.459902,37.789989],[-122.459947,37.789943],[-122.459994,37.789923],[-122.460039,37.789878],[-122.460056,37.789829],[-122.460051,37.789772],[-122.460041,37.789744],[-122.46,37.78972],[-122.459918,37.789714],[-122.459865,37.789734],[-122.459836,37.789765],[-122.459817,37.789831],[-122.459794,37.789857],[-122.45975,37.789875],[-122.459727,37.789894],[-122.45973,37.789929],[-122.459752,37.789952],[-122.459863,37.78999],[-122.459902,37.789989]]]}},{"type":"Feature","properties":{"k":"green"},"geometry":{"type":"Polygon","coordinates":[[[-122.460154,37.789811],[-122.460168,37.789816],[-122.460222,37.789809],[-122.460256,37.789793],[-122.460308,37.789756],[-122.460346,37.789703],[-122.46038,37.789633],[-122.460387,37.789589],[-122.460385,37.789576],[-122.460333,37.789541],[-122.460258,37.789545],[-122.460144,37.789585],[-122.460117,37.789672],[-122.460113,37.789747],[-122.460124,37.789803],[-122.460154,37.789811]]]}},{"type":"Feature","properties":{"k":"tee"},"geometry":{"type":"Polygon","coordinates":[[[-122.460662,37.789533],[-122.460696,37.789518],[-122.460662,37.789471],[-122.460625,37.789484],[-122.460662,37.789533]]]}},{"type":"Feature","properties":{"k":"path"},"geometry":{"type":"LineString","coordinates":[[-122.461466,37.789346],[-122.461861,37.789239],[-122.461977,37.789261],[-122.461947,37.789381]]}},{"type":"Feature","properties":{"k":"path"},"geometry":{"type":"LineString","coordinates":[[-122.461977,37.789261],[-122.462176,37.789213],[-122.462182,37.789245],[-122.462113,37.789362],[-122.46211,37.789409],[-122.462119,37.789465],[-122.462167,37.789616],[-122.462224,37.789744],[-122.462291,37.789871],[-122.462358,37.789972],[-122.462546,37.79018],[-122.462748,37.790424]]}},{"type":"Feature","properties":{"k":"path"},"geometry":{"type":"LineString","coordinates":[[-122.462176,37.789213],[-122.462257,37.789191],[-122.462433,37.789124],[-122.462513,37.789109],[-122.462668,37.789104],[-122.463339,37.78911],[-122.463451,37.789099],[-122.463966,37.788994],[-122.464341,37.78894],[-122.464644,37.788924],[-122.464963,37.788995],[-122.465318,37.78918],[-122.465639,37.789448],[-122.465806,37.789659],[-122.465869,37.789813],[-122.466038,37.789935],[-122.466108,37.790063],[-122.466129,37.790168],[-122.466108,37.790233],[-122.466046,37.790291],[-122.465979,37.790307],[-122.465794,37.790301],[-122.465666,37.790322],[-122.465567,37.790349]]}},{"type":"Feature","properties":{"k":"path"},"geometry":{"type":"LineString","coordinates":[[-122.466876,37.791007],[-122.466961,37.791172],[-122.466976,37.791271],[-122.467005,37.791322],[-122.467058,37.791367],[-122.46728,37.791495],[-122.467354,37.791562],[-122.467371,37.791586],[-122.46737,37.791654],[-122.467395,37.79171],[-122.467477,37.791816],[-122.467605,37.791931],[-122.467702,37.79198],[-122.467911,37.792043],[-122.468138,37.792082],[-122.468226,37.792078],[-122.468349,37.792053],[-122.468417,37.792025],[-122.468467,37.79188],[-122.468616,37.791758],[-122.469075,37.791557],[-122.469107,37.791549],[-122.469134,37.791556],[-122.469147,37.791582],[-122.469133,37.791614],[-122.469077,37.791664],[-122.46877,37.791907],[-122.468633,37.791986],[-122.468537,37.792106],[-122.468265,37.792808],[-122.468223,37.792946],[-122.468063,37.793161],[-122.468038,37.793338],[-122.467977,37.793507],[-122.468043,37.793812],[-122.468072,37.793882],[-122.468159,37.793939],[-122.468416,37.794045]]}},{"type":"Feature","properties":{"k":"tee"},"geometry":{"type":"Polygon","coordinates":[[[-122.46982,37.788935],[-122.470036,37.788752],[-122.469967,37.788701],[-122.469751,37.788884],[-122.46982,37.788935]]]}},{"type":"Feature","properties":{"k":"tee"},"geometry":{"type":"Polygon","coordinates":[[[-122.469576,37.789284],[-122.469542,37.789258],[-122.469587,37.789216],[-122.469621,37.789241],[-122.469576,37.789284]]]}},{"type":"Feature","properties":{"k":"path"},"geometry":{"type":"LineString","coordinates":[[-122.466369,37.790325],[-122.466435,37.790366],[-122.466544,37.790474],[-122.466652,37.790625],[-122.466808,37.790716],[-122.466907,37.790838],[-122.466916,37.790915],[-122.466876,37.791007],[-122.466735,37.791421]]}},{"type":"Feature","properties":{"k":"tee"},"geometry":{"type":"Polygon","coordinates":[[[-122.469445,37.791408],[-122.469352,37.791367],[-122.469378,37.791322],[-122.469475,37.791359],[-122.469445,37.791408]]]}},{"type":"Feature","properties":{"k":"tee"},"geometry":{"type":"Polygon","coordinates":[[[-122.469373,37.79155],[-122.469225,37.791493],[-122.46931,37.791357],[-122.469457,37.791419],[-122.469373,37.79155]]]}},{"type":"Feature","properties":{"k":"tee"},"geometry":{"type":"Polygon","coordinates":[[[-122.46928,37.791822],[-122.469229,37.791806],[-122.469268,37.791743],[-122.469317,37.791763],[-122.46928,37.791822]]]}},{"type":"Feature","properties":{"k":"tee"},"geometry":{"type":"Polygon","coordinates":[[[-122.468488,37.79431],[-122.468398,37.794257],[-122.468433,37.794224],[-122.46852,37.794279],[-122.468488,37.79431]]]}},{"type":"Feature","properties":{"k":"tee"},"geometry":{"type":"Polygon","coordinates":[[[-122.468295,37.794146],[-122.468178,37.794109],[-122.468213,37.794045],[-122.468328,37.794081],[-122.468295,37.794146]]]}},{"type":"Feature","properties":{"k":"tee"},"geometry":{"type":"Polygon","coordinates":[[[-122.468143,37.794086],[-122.468063,37.794062],[-122.468087,37.793998],[-122.468169,37.794024],[-122.468143,37.794086]]]}},{"type":"Feature","properties":{"k":"path"},"geometry":{"type":"LineString","coordinates":[[-122.468099,37.7939],[-122.468032,37.793897],[-122.467974,37.793832],[-122.467919,37.793788],[-122.467641,37.793652],[-122.467492,37.793587],[-122.467331,37.793494],[-122.467163,37.793353],[-122.466506,37.793043],[-122.465593,37.792541],[-122.465378,37.792468],[-122.465261,37.792408],[-122.465075,37.792333],[-122.464866,37.792298],[-122.464823,37.792326],[-122.464762,37.792384],[-122.4647,37.792507],[-122.464644,37.792691],[-122.464618,37.792737],[-122.464572,37.79279],[-122.464529,37.792823],[-122.464496,37.792866],[-122.46449,37.79298]]}},{"type":"Feature","properties":{"k":"green"},"geometry":{"type":"Polygon","coordinates":[[[-122.465108,37.792682],[-122.465148,37.792663],[-122.465182,37.792621],[-122.465182,37.792572],[-122.465159,37.792526],[-122.465064,37.792464],[-122.465015,37.792454],[-122.464968,37.792463],[-122.464898,37.792492],[-122.464819,37.792579],[-122.4648,37.792639],[-122.464819,37.792672],[-122.464858,37.792684],[-122.464947,37.792674],[-122.465012,37.792684],[-122.465108,37.792682]]]}},{"type":"Feature","properties":{"k":"tee"},"geometry":{"type":"Polygon","coordinates":[[[-122.466171,37.792639],[-122.466224,37.792575],[-122.466067,37.792488],[-122.466009,37.792554],[-122.466171,37.792639]]]}},{"type":"Feature","properties":{"k":"path"},"geometry":{"type":"LineString","coordinates":[[-122.46503,37.792325],[-122.465077,37.792292],[-122.465134,37.792269],[-122.465214,37.792267],[-122.465689,37.792473],[-122.466038,37.79266],[-122.466088,37.792678],[-122.466166,37.792678],[-122.466262,37.792663],[-122.466343,37.792636],[-122.466433,37.79257],[-122.466528,37.792456],[-122.466563,37.792427],[-122.4666,37.792412],[-122.466661,37.792423],[-122.467127,37.792649],[-122.467474,37.792832],[-122.467795,37.792981],[-122.467848,37.792986],[-122.467886,37.792955],[-122.467938,37.792827],[-122.468063,37.793161]]}},{"type":"Feature","properties":{"k":"green"},"geometry":{"type":"Polygon","coordinates":[[[-122.46765,37.79327],[-122.467671,37.793329],[-122.467727,37.793397],[-122.46775,37.793419],[-122.467801,37.793424],[-122.46783,37.793414],[-122.467872,37.79338],[-122.467914,37.793288],[-122.467916,37.793236],[-122.467882,37.793174],[-122.467858,37.793166],[-122.467808,37.793165],[-122.467667,37.793215],[-122.467654,37.793224],[-122.46765,37.79327]]]}},{"type":"Feature","properties":{"k":"path"},"geometry":{"type":"LineString","coordinates":[[-122.467938,37.792827],[-122.467938,37.792717],[-122.467921,37.792635],[-122.467894,37.792604],[-122.467829,37.792573],[-122.46767,37.792539],[-122.467448,37.79251],[-122.467247,37.79245],[-122.467074,37.792437],[-122.466913,37.792413],[-122.466814,37.792382],[-122.466717,37.792309],[-122.466633,37.792281],[-122.466557,37.79227],[-122.466472,37.792242],[-122.466345,37.792167],[-122.466114,37.792123],[-122.465213,37.791705],[-122.465055,37.791619],[-122.464874,37.791505],[-122.464757,37.791482],[-122.464719,37.791486],[-122.464702,37.791547],[-122.464715,37.791566]]}},{"type":"Feature","properties":{"k":"tee"},"geometry":{"type":"Polygon","coordinates":[[[-122.467205,37.79212],[-122.467127,37.792085],[-122.467157,37.792044],[-122.467236,37.792079],[-122.467205,37.79212]]]}},{"type":"Feature","properties":{"k":"path"},"geometry":{"type":"LineString","coordinates":[[-122.465518,37.791843],[-122.465619,37.791963],[-122.465689,37.792078],[-122.465723,37.792163],[-122.465707,37.792232],[-122.465665,37.792308],[-122.465603,37.792348],[-122.465447,37.792372]]}},{"type":"Feature","properties":{"k":"tee"},"geometry":{"type":"Polygon","coordinates":[[[-122.465563,37.79227],[-122.465606,37.792213],[-122.465563,37.792193],[-122.465516,37.792245],[-122.465563,37.79227]]]}},{"type":"Feature","properties":{"k":"path"},"geometry":{"type":"LineString","coordinates":[[-122.465385,37.792345],[-122.465335,37.792221],[-122.465271,37.792173],[-122.464977,37.792031],[-122.464692,37.791853],[-122.464589,37.791807],[-122.464234,37.791673],[-122.463848,37.791552],[-122.463753,37.791528],[-122.463614,37.791512],[-122.463399,37.791472],[-122.463268,37.79144],[-122.463116,37.791372],[-122.462842,37.791227],[-122.462809,37.791191],[-122.462755,37.791056],[-122.4626,37.790479],[-122.462007,37.789814],[-122.461908,37.789715],[-122.461869,37.789512],[-122.461837,37.789457],[-122.461774,37.789403],[-122.461656,37.789356],[-122.461466,37.789346]]}},{"type":"Feature","properties":{"k":"green"},"geometry":{"type":"Polygon","coordinates":[[[-122.461124,37.789724],[-122.461218,37.789742],[-122.461348,37.789734],[-122.461374,37.789724],[-122.4614,37.789699],[-122.461443,37.789621],[-122.461449,37.789559],[-122.461436,37.789526],[-122.461424,37.789515],[-122.461403,37.789513],[-122.461352,37.789537],[-122.461317,37.789543],[-122.461239,37.789539],[-122.46122,37.789547],[-122.461175,37.789612],[-122.461093,37.789656],[-122.46109,37.789703],[-122.461124,37.789724]]]}},{"type":"Feature","properties":{"k":"path"},"geometry":{"type":"LineString","coordinates":[[-122.460375,37.789714],[-122.460536,37.789844],[-122.460721,37.790029],[-122.460842,37.790188],[-122.461016,37.790389],[-122.461438,37.790745],[-122.461867,37.791092],[-122.462507,37.791658],[-122.462862,37.791989],[-122.463301,37.79233],[-122.463357,37.792397],[-122.463396,37.792477],[-122.463571,37.792584],[-122.463624,37.792658],[-122.46392,37.792816],[-122.464024,37.792899],[-122.464051,37.792941],[-122.464204,37.792975],[-122.464464,37.792976],[-122.464611,37.793001],[-122.464792,37.793119],[-122.465422,37.793429],[-122.465587,37.793675],[-122.465705,37.793809],[-122.465825,37.793936],[-122.465935,37.794011],[-122.466165,37.794113],[-122.466413,37.794206],[-122.466973,37.794334],[-122.467304,37.794389],[-122.467407,37.794476],[-122.467476,37.79455],[-122.467639,37.794578],[-122.467951,37.794614],[-122.4681,37.794624],[-122.468392,37.794602],[-122.468519,37.79457],[-122.468663,37.79435]]}},{"type":"Feature","properties":{"k":"tee"},"geometry":{"type":"Polygon","coordinates":[[[-122.464426,37.792853],[-122.464469,37.792808],[-122.464417,37.792777],[-122.464374,37.792823],[-122.464426,37.792853]]]}},{"type":"Feature","properties":{"k":"path"},"geometry":{"type":"LineString","coordinates":[[-122.468589,37.794271],[-122.468843,37.794118],[-122.469374,37.793714],[-122.469608,37.793582],[-122.469837,37.793474],[-122.469921,37.793439],[-122.470112,37.793379],[-122.470391,37.793222],[-122.470574,37.793109],[-122.470673,37.793035],[-122.470906,37.792815],[-122.471414,37.792195],[-122.471602,37.792013],[-122.471782,37.791822],[-122.471967,37.791501],[-122.472037,37.791401],[-122.472047,37.791372],[-122.472053,37.791291],[-122.472078,37.791236],[-122.472086,37.791185],[-122.472071,37.79113],[-122.472042,37.791096],[-122.471998,37.791066],[-122.471945,37.791047],[-122.471889,37.791043],[-122.471819,37.791061],[-122.47177,37.791089],[-122.471597,37.791236],[-122.471511,37.79129],[-122.471374,37.791407],[-122.471085,37.791615],[-122.471052,37.79163],[-122.471019,37.791624],[-122.471015,37.791609],[-122.471025,37.791592],[-122.471125,37.791511],[-122.471193,37.791443],[-122.471293,37.791312],[-122.471557,37.791053],[-122.471662,37.790962],[-122.471749,37.790918],[-122.472113,37.790804],[-122.472212,37.790761],[-122.472339,37.790686]]}},{"type":"Feature","properties":{"k":"rough"},"geometry":{"type":"Polygon","coordinates":[[[-122.471019,37.791624],[-122.470836,37.791689],[-122.470814,37.791681],[-122.470825,37.791669],[-122.470838,37.791673],[-122.471009,37.791615],[-122.471019,37.791624]]]}},{"type":"Feature","properties":{"k":"path"},"geometry":{"type":"LineString","coordinates":[[-122.472339,37.790686],[-122.472375,37.790529],[-122.47237,37.790501]]}},{"type":"Feature","properties":{"k":"path"},"geometry":{"type":"LineString","coordinates":[[-122.471942,37.790858],[-122.47189,37.790976],[-122.471889,37.791043]]}},{"type":"Feature","properties":{"k":"tee"},"geometry":{"type":"Polygon","coordinates":[[[-122.472188,37.791145],[-122.47225,37.791137],[-122.472238,37.791073],[-122.472176,37.79108],[-122.472188,37.791145]]]}},{"type":"Feature","properties":{"k":"tee"},"geometry":{"type":"Polygon","coordinates":[[[-122.472336,37.791367],[-122.472248,37.791378],[-122.472222,37.791233],[-122.472304,37.791222],[-122.472336,37.791367]]]}},{"type":"Feature","properties":{"k":"path"},"geometry":{"type":"LineString","coordinates":[[-122.472339,37.790686],[-122.472312,37.790806],[-122.472289,37.790864],[-122.4723,37.790957],[-122.472331,37.791066],[-122.47238,37.791304],[-122.472471,37.791557],[-122.472504,37.791604],[-122.47255,37.791649],[-122.472691,37.791757],[-122.472728,37.791823],[-122.472811,37.792255],[-122.472902,37.792548],[-122.472906,37.792854],[-122.473046,37.793128],[-122.47314,37.793516],[-122.47319,37.793605],[-122.473195,37.793653],[-122.473153,37.793771],[-122.473117,37.793839],[-122.473039,37.7939],[-122.472911,37.793914],[-122.472854,37.793902],[-122.472683,37.793833],[-122.472639,37.793823],[-122.472581,37.793822],[-122.472646,37.793993],[-122.472641,37.794063],[-122.472593,37.794111],[-122.472552,37.794124],[-122.472513,37.79411],[-122.472503,37.794067],[-122.472507,37.794021],[-122.472581,37.793822]]}},{"type":"Feature","properties":{"k":"bunker"},"geometry":{"type":"Polygon","coordinates":[[[-122.473031,37.793857],[-122.473038,37.793845],[-122.473049,37.793847],[-122.473062,37.793834],[-122.473053,37.793826],[-122.47303,37.793824],[-122.47303,37.793815],[-122.473014,37.793806],[-122.472992,37.793821],[-122.472988,37.793846],[-122.473007,37.793841],[-122.473031,37.793857]]]}},{"type":"Feature","properties":{"k":"tee"},"geometry":{"type":"Polygon","coordinates":[[[-122.472407,37.794208],[-122.472483,37.794191],[-122.47245,37.794076],[-122.472368,37.794094],[-122.472407,37.794208]]]}},{"type":"Feature","properties":{"k":"tee"},"geometry":{"type":"Polygon","coordinates":[[[-122.472466,37.793967],[-122.472344,37.793993],[-122.47232,37.793929],[-122.472442,37.793902],[-122.472466,37.793967]]]}},{"type":"Feature","properties":{"k":"tee"},"geometry":{"type":"Polygon","coordinates":[[[-122.472408,37.793854],[-122.47238,37.793777],[-122.472267,37.793807],[-122.4723,37.79388],[-122.472408,37.793854]]]}},{"type":"Feature","properties":{"k":"path"},"geometry":{"type":"LineString","coordinates":[[-122.472581,37.793822],[-122.472476,37.793807],[-122.472451,37.793813],[-122.472272,37.793428],[-122.47224,37.793402],[-122.471734,37.793146],[-122.471646,37.793056],[-122.471617,37.793009],[-122.471594,37.792938],[-122.47158,37.792837],[-122.471588,37.792781],[-122.471648,37.79262],[-122.471644,37.792605],[-122.471623,37.792606],[-122.471482,37.792719],[-122.471433,37.792748],[-122.471369,37.792779],[-122.471134,37.792858],[-122.471093,37.792888],[-122.470846,37.793156],[-122.470708,37.793288],[-122.470575,37.793392],[-122.470511,37.793469],[-122.470201,37.793661],[-122.469886,37.793836],[-122.46978,37.793902],[-122.469661,37.793947],[-122.469583,37.793991],[-122.469403,37.794124],[-122.469341,37.794155],[-122.469238,37.79419],[-122.46906,37.794266],[-122.469016,37.794274],[-122.468948,37.794249],[-122.468849,37.794188],[-122.468811,37.794138]]}},{"type":"Feature","properties":{"k":"rough"},"geometry":{"type":"Polygon","coordinates":[[[-122.471658,37.792599],[-122.471636,37.7926],[-122.471639,37.792406],[-122.471656,37.792374],[-122.471658,37.792599]]]}},{"type":"Feature","properties":{"k":"tee"},"geometry":{"type":"Polygon","coordinates":[[[-122.471824,37.792129],[-122.47179,37.792109],[-122.47182,37.792074],[-122.471856,37.792096],[-122.471824,37.792129]]]}},{"type":"Feature","properties":{"k":"tee"},"geometry":{"type":"Polygon","coordinates":[[[-122.471672,37.792307],[-122.471609,37.792266],[-122.471717,37.792146],[-122.471782,37.792181],[-122.471672,37.792307]]]}},{"type":"Feature","properties":{"k":"tee"},"geometry":{"type":"Polygon","coordinates":[[[-122.471548,37.792476],[-122.471478,37.792438],[-122.471557,37.792344],[-122.471624,37.79238],[-122.471548,37.792476]]]}},{"type":"Feature","properties":{"k":"tee"},"geometry":{"type":"Polygon","coordinates":[[[-122.471341,37.792957],[-122.471293,37.792927],[-122.471355,37.79287],[-122.471404,37.792899],[-122.471341,37.792957]]]}},{"type":"Feature","properties":{"k":"path"},"geometry":{"type":"LineString","coordinates":[[-122.468978,37.79426],[-122.468849,37.794336],[-122.468757,37.794371],[-122.468694,37.794383]]}},{"type":"Feature","properties":{"k":"tee"},"geometry":{"type":"Polygon","coordinates":[[[-122.467821,37.794837],[-122.467822,37.794803],[-122.467892,37.794802],[-122.467893,37.794837],[-122.467821,37.794837]]]}},{"type":"Feature","properties":{"k":"path"},"geometry":{"type":"LineString","coordinates":[[-122.467476,37.79455],[-122.467429,37.79455],[-122.466798,37.794461],[-122.466588,37.794416],[-122.466305,37.794325],[-122.465989,37.794189],[-122.46577,37.794075],[-122.465585,37.793889],[-122.465473,37.793818],[-122.465236,37.793692],[-122.465217,37.793665],[-122.465347,37.793681],[-122.465412,37.793668]]}},{"type":"Feature","properties":{"k":"path"},"geometry":{"type":"LineString","coordinates":[[-122.465217,37.793665],[-122.4652,37.793645],[-122.465198,37.79353],[-122.465169,37.793498],[-122.465078,37.793437],[-122.464964,37.793378],[-122.464797,37.793317],[-122.464878,37.793376],[-122.465071,37.793489],[-122.465114,37.793531],[-122.465157,37.7936],[-122.4652,37.793645]]}},{"type":"Feature","properties":{"k":"tee"},"geometry":{"type":"Polygon","coordinates":[[[-122.463781,37.793098],[-122.463852,37.793055],[-122.46379,37.792995],[-122.463722,37.793039],[-122.463781,37.793098]]]}},{"type":"Feature","properties":{"k":"tee"},"geometry":{"type":"Polygon","coordinates":[[[-122.463654,37.793005],[-122.463724,37.792953],[-122.463676,37.792912],[-122.463605,37.792961],[-122.463654,37.793005]]]}},{"type":"Feature","properties":{"k":"path"},"geometry":{"type":"LineString","coordinates":[[-122.464051,37.792941],[-122.463856,37.792878],[-122.463698,37.792837],[-122.463637,37.792843],[-122.463389,37.792896],[-122.463229,37.792921],[-122.463071,37.792904],[-122.462967,37.792881],[-122.462959,37.792825],[-122.461728,37.791752],[-122.461448,37.791491],[-122.461294,37.791333],[-122.46109,37.791168],[-122.460791,37.790871],[-122.460691,37.790811],[-122.460336,37.790799],[-122.460099,37.790807]]}},{"type":"Feature","properties":{"k":"rough"},"geometry":{"type":"Polygon","coordinates":[[[-122.460989,37.789711],[-122.460981,37.789681],[-122.460853,37.789687],[-122.460671,37.789681],[-122.460705,37.789715],[-122.460844,37.789706],[-122.460989,37.789711]]]}},{"type":"Feature","properties":{"k":"rough"},"geometry":{"type":"Polygon","coordinates":[[[-122.471844,37.792887],[-122.471838,37.792867],[-122.471866,37.79289],[-122.471858,37.792896],[-122.471844,37.792887]]]}},{"type":"Feature","properties":{"k":"rough"},"geometry":{"type":"Polygon","coordinates":[[[-122.464673,37.790986],[-122.464641,37.790994],[-122.464639,37.791003],[-122.464676,37.791019],[-122.464713,37.791009],[-122.464716,37.790993],[-122.464673,37.790986]]]}},{"type":"Feature","properties":{"k":"rough"},"geometry":{"type":"Polygon","coordinates":[[[-122.464768,37.791028],[-122.464796,37.791026],[-122.464809,37.791011],[-122.464792,37.791002],[-122.464742,37.79101],[-122.464741,37.791018],[-122.464768,37.791028]]]}},{"type":"Feature","properties":{"k":"path"},"geometry":{"type":"LineString","coordinates":[[-122.465979,37.790307],[-122.466184,37.790335],[-122.466409,37.790323],[-122.466564,37.790283],[-122.466624,37.790246],[-122.466825,37.789925],[-122.467001,37.789787],[-122.467446,37.789467],[-122.467713,37.789317],[-122.467899,37.789246],[-122.468416,37.789009],[-122.46878,37.788815],[-122.468997,37.78868],[-122.469401,37.788412],[-122.469503,37.788397],[-122.469685,37.788429],[-122.469801,37.788495],[-122.469844,37.788622],[-122.46983,37.788751],[-122.469711,37.788873],[-122.469373,37.789118],[-122.469173,37.789229],[-122.468854,37.789431],[-122.468686,37.789568],[-122.468283,37.789998],[-122.468018,37.790219],[-122.467704,37.790449],[-122.467228,37.790755],[-122.467077,37.790805],[-122.466978,37.790859],[-122.466916,37.790915]]}},{"type":"Feature","properties":{"k":"path"},"geometry":{"type":"LineString","coordinates":[[-122.461466,37.789346],[-122.461459,37.789359]]}},{"type":"Feature","properties":{"k":"path"},"geometry":{"type":"LineString","coordinates":[[-122.461459,37.789359],[-122.461424,37.789255]]}},{"type":"Feature","properties":{"k":"range"},"geometry":{"type":"Polygon","coordinates":[[[-122.462137,37.789322],[-122.462475,37.789379],[-122.463165,37.789521],[-122.4639,37.789635],[-122.464513,37.789684],[-122.464791,37.789826],[-122.464827,37.790119],[-122.464569,37.790563],[-122.464343,37.790859],[-122.464183,37.790904],[-122.463864,37.79077],[-122.463391,37.790615],[-122.463014,37.790442],[-122.462913,37.790487],[-122.462784,37.790522],[-122.462292,37.789922],[-122.462139,37.789625],[-122.462114,37.789438],[-122.462114,37.789361],[-122.462137,37.789322]]]}}]}