{"type":"FeatureCollection","features":[{"type":"Feature","properties":{"k":"bunker"},"geometry":{"type":"Polygon","coordinates":[[[-59.635611,13.171356],[-59.635649,13.171366],[-59.635653,13.171394],[-59.635593,13.171426],[-59.635558,13.171407],[-59.635548,13.171381],[-59.635576,13.171359],[-59.635611,13.171356]]]}},{"type":"Feature","properties":{"k":"green"},"geometry":{"type":"Polygon","coordinates":[[[-59.63562,13.171632],[-59.635675,13.171612],[-59.635699,13.171573],[-59.635705,13.171538],[-59.635691,13.171495],[-59.63564,13.171454],[-59.635565,13.171448],[-59.63548,13.171448],[-59.635442,13.171475],[-59.635424,13.17152],[-59.635438,13.17156],[-59.635466,13.171605],[-59.635511,13.171629],[-59.63562,13.171632]]]}},{"type":"Feature","properties":{"k":"bunker"},"geometry":{"type":"Polygon","coordinates":[[[-59.635246,13.170989],[-59.635232,13.171005],[-59.635177,13.171022],[-59.635126,13.171017],[-59.635123,13.170997],[-59.635148,13.170979],[-59.635192,13.170976],[-59.63523,13.170955],[-59.635247,13.170959],[-59.635246,13.170989]]]}},{"type":"Feature","properties":{"k":"bunker"},"geometry":{"type":"Polygon","coordinates":[[[-59.632962,13.171969],[-59.632912,13.171987],[-59.632877,13.171977],[-59.632873,13.171953],[-59.632908,13.171909],[-59.632954,13.171913],[-59.632975,13.171926],[-59.632977,13.171951],[-59.632962,13.171969]]]}},{"type":"Feature","properties":{"k":"bunker"},"geometry":{"type":"Polygon","coordinates":[[[-59.632907,13.171785],[-59.632884,13.1718],[-59.632844,13.1718],[-59.632853,13.171761],[-59.632912,13.171722],[-59.63293,13.171744],[-59.632907,13.171785]]]}},{"type":"Feature","properties":{"k":"bunker"},"geometry":{"type":"Polygon","coordinates":[[[-59.632336,13.171695],[-59.632357,13.171678],[-59.632356,13.171657],[-59.63233,13.171638],[-59.632289,13.17165],[-59.632282,13.17167],[-59.63231,13.171695],[-59.632336,13.171695]]]}},{"type":"Feature","properties":{"k":"bunker"},"geometry":{"type":"Polygon","coordinates":[[[-59.632238,13.17181],[-59.632251,13.171785],[-59.632252,13.171755],[-59.632238,13.171729],[-59.632212,13.171715],[-59.632168,13.171733],[-59.632151,13.171753],[-59.632154,13.171787],[-59.632167,13.171815],[-59.632188,13.171828],[-59.632212,13.171828],[-59.632238,13.17181]]]}},{"type":"Feature","properties":{"k":"bunker"},"geometry":{"type":"Polygon","coordinates":[[[-59.63232,13.171907],[-59.632331,13.171886],[-59.632311,13.171866],[-59.632261,13.171862],[-59.632225,13.171883],[-59.632226,13.171902],[-59.632247,13.171917],[-59.632272,13.171919],[-59.63232,13.171907]]]}}]}