{"type":"FeatureCollection","features":[{"type":"Feature","properties":{"k":"hole","ref":"1","par":5,"hcp":9},"geometry":{"type":"LineString","coordinates":[[-119.906658,34.430652],[-119.904402,34.429858],[-119.901819,34.428968]]}},{"type":"Feature","properties":{"k":"hole","ref":"2","par":4,"hcp":1},"geometry":{"type":"LineString","coordinates":[[-119.901195,34.429127],[-119.902618,34.426695],[-119.90312,34.425539]]}},{"type":"Feature","properties":{"k":"hole","ref":"3","par":4,"hcp":3},"geometry":{"type":"LineString","coordinates":[[-119.902588,34.425168],[-119.90138,34.42767],[-119.901101,34.428493]]}},{"type":"Feature","properties":{"k":"hole","ref":"4","par":3,"hcp":7},"geometry":{"type":"LineString","coordinates":[[-119.900656,34.428567],[-119.900945,34.426413]]}},{"type":"Feature","properties":{"k":"hole","ref":"5","par":5,"hcp":13},"geometry":{"type":"LineString","coordinates":[[-119.900687,34.426212],[-119.90112,34.423549],[-119.900885,34.422007]]}},{"type":"Feature","properties":{"k":"hole","ref":"6","par":3,"hcp":17},"geometry":{"type":"LineString","coordinates":[[-119.901127,34.421796],[-119.90232,34.422671],[-119.902608,34.422843]]}},{"type":"Feature","properties":{"k":"hole","ref":"7","par":4,"hcp":15},"geometry":{"type":"LineString","coordinates":[[-119.901376,34.422576],[-119.902154,34.424646],[-119.903401,34.425066]]}},{"type":"Feature","properties":{"k":"hole","ref":"8","par":4,"hcp":11},"geometry":{"type":"LineString","coordinates":[[-119.90379,34.424938],[-119.903737,34.42673],[-119.903592,34.428206]]}},{"type":"Feature","properties":{"k":"hole","ref":"9","par":4,"hcp":5},"geometry":{"type":"LineString","coordinates":[[-119.903189,34.428565],[-119.906043,34.429592],[-119.906956,34.430034]]}},{"type":"Feature","properties":{"k":"hole","ref":"10","par":4,"hcp":6},"geometry":{"type":"LineString","coordinates":[[-119.908552,34.430854],[-119.910202,34.430348],[-119.910592,34.430221],[-119.91128,34.42933]]}},{"type":"Feature","properties":{"k":"hole","ref":"11","par":3,"hcp":12},"geometry":{"type":"LineString","coordinates":[[-119.910759,34.430545],[-119.912059,34.429312],[-119.912149,34.42911]]}},{"type":"Feature","properties":{"k":"hole","ref":"12","par":4,"hcp":18},"geometry":{"type":"LineString","coordinates":[[-119.912226,34.42883],[-119.909944,34.42892],[-119.909003,34.428397]]}},{"type":"Feature","properties":{"k":"hole","ref":"13","par":5,"hcp":4},"geometry":{"type":"LineString","coordinates":[[-119.910633,34.428206],[-119.908179,34.426696],[-119.906818,34.425356]]}},{"type":"Feature","properties":{"k":"hole","ref":"14","par":4,"hcp":2},"geometry":{"type":"LineString","coordinates":[[-119.906583,34.425263],[-119.903973,34.423753],[-119.902922,34.423176]]}},{"type":"Feature","properties":{"k":"hole","ref":"15","par":5,"hcp":10},"geometry":{"type":"LineString","coordinates":[[-119.903221,34.42391],[-119.905178,34.425897],[-119.904402,34.428142]]}},{"type":"Feature","properties":{"k":"hole","ref":"16","par":4,"hcp":8},"geometry":{"type":"LineString","coordinates":[[-119.904616,34.428672],[-119.905898,34.426902],[-119.905814,34.425747]]}},{"type":"Feature","properties":{"k":"hole","ref":"17","par":4,"hcp":14},"geometry":{"type":"LineString","coordinates":[[-119.906161,34.426076],[-119.908159,34.428063],[-119.90857,34.428871]]}},{"type":"Feature","properties":{"k":"hole","ref":"18","par":3,"hcp":16},"geometry":{"type":"LineString","coordinates":[[-119.909759,34.429379],[-119.908525,34.430155],[-119.908446,34.430294]]}},{"type":"Feature","properties":{"k":"water"},"geometry":{"type":"Polygon","coordinates":[[[-119.909108,34.429404],[-119.909144,34.429423],[-119.909179,34.429486],[-119.909209,34.429505],[-119.90925,34.42951],[-119.909324,34.429479],[-119.909372,34.429478],[-119.909412,34.429486],[-119.909451,34.42951],[-119.909473,34.429543],[-119.909448,34.429724],[-119.909429,34.429767],[-119.90934,34.429864],[-119.909052,34.429992],[-119.909003,34.430033],[-119.90892,34.430151],[-119.90889,34.430172],[-119.908845,34.430179],[-119.908801,34.430166],[-119.908742,34.430108],[-119.908701,34.430091],[-119.908659,34.430086],[-119.908588,34.430064],[-119.908528,34.430036],[-119.908489,34.43],[-119.908461,34.42996],[-119.908457,34.429918],[-119.908524,34.429826],[-119.908627,34.429752],[-119.908646,34.429719],[-119.908652,34.42966],[-119.90859,34.429557],[-119.9086,34.429544],[-119.90863,34.429542],[-119.908691,34.429557],[-119.90871,34.429576],[-119.908822,34.429621],[-119.908875,34.429632],[-119.908913,34.42961],[-119.908912,34.429577],[-119.908892,34.429557],[-119.908856,34.429541],[-119.908749,34.429518],[-119.908653,34.429512],[-119.908624,34.429501],[-119.908627,34.429486],[-119.908725,34.429427],[-119.908831,34.42939],[-119.908914,34.429387],[-119.909108,34.429404]]]}},{"type":"Feature","properties":{"k":"water"},"geometry":{"type":"Polygon","coordinates":[[[-119.901439,34.425261],[-119.901516,34.425261],[-119.901569,34.425299],[-119.901661,34.425395],[-119.901821,34.425517],[-119.901889,34.425616],[-119.901836,34.425868],[-119.901714,34.425872],[-119.901569,34.425829],[-119.901493,34.425742],[-119.901424,34.42562],[-119.901386,34.425361],[-119.901394,34.425284],[-119.901439,34.425261]]]}},{"type":"Feature","properties":{"k":"stream"},"geometry":{"type":"LineString","coordinates":[[-119.902881,34.427035],[-119.902874,34.426913],[-119.90282,34.426722],[-119.902691,34.426447],[-119.902576,34.426345],[-119.902401,34.426257],[-119.902271,34.426173],[-119.902164,34.426089],[-119.902035,34.425871],[-119.901943,34.425787],[-119.901859,34.425745]]}},{"type":"Feature","properties":{"k":"water"},"geometry":{"type":"Polygon","coordinates":[[[-119.902561,34.428889],[-119.902492,34.428847],[-119.902454,34.428698],[-119.902469,34.428515],[-119.90247,34.428339],[-119.902561,34.428252],[-119.902691,34.428065],[-119.902752,34.427935],[-119.902775,34.427756],[-119.90279,34.427542],[-119.902782,34.427352],[-119.902805,34.427188],[-119.902851,34.427073],[-119.902881,34.427035],[-119.902996,34.427054],[-119.903126,34.427603],[-119.90321,34.427722],[-119.90324,34.427802],[-119.903232,34.427897],[-119.903103,34.428065],[-119.902996,34.428263],[-119.90282,34.428523],[-119.902622,34.428874],[-119.902561,34.428889]]]}},{"type":"Feature","properties":{"k":"path"},"geometry":{"type":"LineString","coordinates":[[-119.907349,34.430486],[-119.906697,34.430331],[-119.906434,34.430247],[-119.906348,34.430242],[-119.906279,34.430263],[-119.906214,34.430332],[-119.906109,34.430568],[-119.906076,34.430624],[-119.906021,34.430649],[-119.905949,34.430644],[-119.905849,34.430623],[-119.905682,34.430554],[-119.904959,34.430369],[-119.904254,34.430133],[-119.90388,34.430078],[-119.903743,34.430042],[-119.903688,34.43002],[-119.90364,34.429983],[-119.903597,34.429937],[-119.903578,34.429902],[-119.903539,34.42976],[-119.903513,34.429728],[-119.903446,34.42968],[-119.903397,34.429657],[-119.903239,34.429606],[-119.902911,34.42953],[-119.902512,34.429467]]}},{"type":"Feature","properties":{"k":"path"},"geometry":{"type":"LineString","coordinates":[[-119.902436,34.426297],[-119.902362,34.426444],[-119.90233,34.42646],[-119.90228,34.42645],[-119.902099,34.42635],[-119.901994,34.426282],[-119.90194,34.426262],[-119.901881,34.426263],[-119.901847,34.426278],[-119.901801,34.426315],[-119.901715,34.426509],[-119.901647,34.426593],[-119.901612,34.426656],[-119.90157,34.426707],[-119.901474,34.426791],[-119.901405,34.426838],[-119.901375,34.426877],[-119.90139,34.427006],[-119.90124,34.427229],[-119.901226,34.427282],[-119.901221,34.427388],[-119.901193,34.42746],[-119.901093,34.427615],[-119.901088,34.427659],[-119.901101,34.42775],[-119.901096,34.427787],[-119.901019,34.427937],[-119.901018,34.428054],[-119.901005,34.428118],[-119.900893,34.428212],[-119.900825,34.428284],[-119.900782,34.428418]]}},{"type":"Feature","properties":{"k":"path"},"geometry":{"type":"LineString","coordinates":[[-119.900782,34.428418],[-119.90074,34.42845],[-119.900681,34.428461],[-119.900622,34.428446],[-119.900577,34.42841],[-119.900564,34.428343],[-119.900564,34.428258],[-119.900519,34.428166],[-119.900511,34.428112],[-119.900531,34.427887],[-119.900532,34.427787],[-119.900519,34.427687],[-119.900521,34.427582],[-119.900623,34.427378],[-119.90066,34.427218],[-119.900669,34.427058],[-119.900639,34.426943],[-119.900615,34.426806],[-119.900542,34.42658],[-119.900531,34.426464],[-119.900563,34.426366],[-119.900546,34.426235],[-119.900554,34.426151],[-119.900583,34.426098],[-119.900632,34.426056],[-119.900749,34.426028],[-119.900775,34.426],[-119.900775,34.425965],[-119.900728,34.425779],[-119.900669,34.425437],[-119.900701,34.42515],[-119.900671,34.42495],[-119.900789,34.424654],[-119.900792,34.424578],[-119.900768,34.424487],[-119.900778,34.424383],[-119.900816,34.424216],[-119.900819,34.424047],[-119.900802,34.423833],[-119.900821,34.423606],[-119.900802,34.423492],[-119.900798,34.423405],[-119.900757,34.42328],[-119.900758,34.42312],[-119.900731,34.422987],[-119.900717,34.422856],[-119.900734,34.422791],[-119.900777,34.422742],[-119.900851,34.422705],[-119.900969,34.422661],[-119.901026,34.422616],[-119.901108,34.422443],[-119.901179,34.422373],[-119.901234,34.422339],[-119.901312,34.422317],[-119.901342,34.422299],[-119.901361,34.422268],[-119.90136,34.422195],[-119.901373,34.422173],[-119.901396,34.422164],[-119.901426,34.422172],[-119.901604,34.422288],[-119.901641,34.422331],[-119.901655,34.422395],[-119.901655,34.422447],[-119.901679,34.422524],[-119.90173,34.422626],[-119.901753,34.422705],[-119.901991,34.42316],[-119.902039,34.423324],[-119.902139,34.423453],[-119.90217,34.423602],[-119.902217,34.423713],[-119.902291,34.423853],[-119.902304,34.423914],[-119.902357,34.424021],[-119.902422,34.42412],[-119.90248,34.424189],[-119.902614,34.4243],[-119.902681,34.424421],[-119.902798,34.424531],[-119.902929,34.424613],[-119.90299,34.424675],[-119.903035,34.424704],[-119.903098,34.424719],[-119.903164,34.424715],[-119.903332,34.42467],[-119.903414,34.424673],[-119.903522,34.424691],[-119.903602,34.424731],[-119.90365,34.424779],[-119.903676,34.424839],[-119.903684,34.425065],[-119.903672,34.42518],[-119.903678,34.425255],[-119.903713,34.425412],[-119.903702,34.425668],[-119.903685,34.425737],[-119.903664,34.425762],[-119.903544,34.425843],[-119.903459,34.426067],[-119.903444,34.426114],[-119.90347,34.426326],[-119.903467,34.42641],[-119.903403,34.426613],[-119.903315,34.426765],[-119.903296,34.426838],[-119.903307,34.427024],[-119.903321,34.427098],[-119.903403,34.427335],[-119.903427,34.427438],[-119.903419,34.427634],[-119.903404,34.427709],[-119.903407,34.427801],[-119.903391,34.427895],[-119.90335,34.427947],[-119.903249,34.428],[-119.903213,34.428038],[-119.903201,34.428068],[-119.90319,34.428175],[-119.903208,34.428314],[-119.903233,34.428353],[-119.903265,34.428389],[-119.903334,34.428447],[-119.903575,34.428537],[-119.903705,34.428597],[-119.903836,34.428672],[-119.90394,34.428721],[-119.904158,34.428807],[-119.905514,34.429121],[-119.905703,34.429153],[-119.906178,34.429346],[-119.90633,34.429456],[-119.906423,34.429508],[-119.906662,34.429569],[-119.906769,34.429657],[-119.906883,34.429732],[-119.907212,34.42992],[-119.907269,34.429974],[-119.907331,34.430177],[-119.907414,34.430294],[-119.907349,34.430486]]}},{"type":"Feature","properties":{"k":"path"},"geometry":{"type":"LineString","coordinates":[[-119.907713,34.429708],[-119.907609,34.429766],[-119.907533,34.42983],[-119.907482,34.429915],[-119.907443,34.430011],[-119.90742,34.430117],[-119.907414,34.430294],[-119.907725,34.430232],[-119.907785,34.430225],[-119.907981,34.430227],[-119.908018,34.430212],[-119.908042,34.430183],[-119.908149,34.429991],[-119.908173,34.429967],[-119.908215,34.429942],[-119.908308,34.429907],[-119.908367,34.429864],[-119.908399,34.429821],[-119.908463,34.429662],[-119.908563,34.429497],[-119.908612,34.429456],[-119.908728,34.429389],[-119.908817,34.42936],[-119.908903,34.429349],[-119.909043,34.429355],[-119.909287,34.429382],[-119.909356,34.429382],[-119.90941,34.429373],[-119.909463,34.429355],[-119.909514,34.429324],[-119.909541,34.429269],[-119.909531,34.429216],[-119.90949,34.429166],[-119.909412,34.429096],[-119.909308,34.429019],[-119.909095,34.428823],[-119.908938,34.428723],[-119.908848,34.428643],[-119.908781,34.428607],[-119.908725,34.428561],[-119.908541,34.428442],[-119.908487,34.428386],[-119.908477,34.428343],[-119.908482,34.428181],[-119.908469,34.428098],[-119.908433,34.42801],[-119.908315,34.427843],[-119.908147,34.427633],[-119.907864,34.427339],[-119.907709,34.427114],[-119.907675,34.427091],[-119.907607,34.427095],[-119.907511,34.427131],[-119.907409,34.427193],[-119.907129,34.427396],[-119.906947,34.427415],[-119.906869,34.427389],[-119.906796,34.427333],[-119.906758,34.427266],[-119.906724,34.427158],[-119.906679,34.42708],[-119.906597,34.427006],[-119.906391,34.426768],[-119.906364,34.426698],[-119.906374,34.426582],[-119.906358,34.426533],[-119.906308,34.426439],[-119.90626,34.426368],[-119.906094,34.426169],[-119.906039,34.426132],[-119.905993,34.426132],[-119.905964,34.426153],[-119.905948,34.426193],[-119.905952,34.426242],[-119.90596,34.426291],[-119.905987,34.426347],[-119.906104,34.426466],[-119.906123,34.426496],[-119.906164,34.42662],[-119.906153,34.426723],[-119.906097,34.4269],[-119.906095,34.426941],[-119.90613,34.427057],[-119.906135,34.427105],[-119.906127,34.42714],[-119.9061,34.427199],[-119.906045,34.427277],[-119.905906,34.427455],[-119.905659,34.427734],[-119.905557,34.42786],[-119.905355,34.428151],[-119.90521,34.428304],[-119.90518,34.428314],[-119.905154,34.428315],[-119.905124,34.428304],[-119.904951,34.428229],[-119.904898,34.428223],[-119.904853,34.428243],[-119.904714,34.428372],[-119.9046,34.428451],[-119.904473,34.428487],[-119.904357,34.428507],[-119.904299,34.428507],[-119.904244,34.428497],[-119.904147,34.428466],[-119.904108,34.428445],[-119.90407,34.42841],[-119.904039,34.428369],[-119.904021,34.428286],[-119.904064,34.428058],[-119.904083,34.428012],[-119.904193,34.427837],[-119.904467,34.427214],[-119.904474,34.427166],[-119.904469,34.427105],[-119.904664,34.42665],[-119.904783,34.42624],[-119.904793,34.426141],[-119.904735,34.425919],[-119.904728,34.425805],[-119.904631,34.425626],[-119.904591,34.425527],[-119.904544,34.425354],[-119.904443,34.425231],[-119.904324,34.425128],[-119.904257,34.425007],[-119.904076,34.42478],[-119.903875,34.424605],[-119.903686,34.424528],[-119.903618,34.424489],[-119.903416,34.42427],[-119.903355,34.424191],[-119.903299,34.424096],[-119.903234,34.424023],[-119.903118,34.423927],[-119.903026,34.42387],[-119.902923,34.423768],[-119.902879,34.423673],[-119.902872,34.423599],[-119.902862,34.423581],[-119.902835,34.423568],[-119.902586,34.423505],[-119.902518,34.423475],[-119.902437,34.423417],[-119.902351,34.423329],[-119.902261,34.423213],[-119.902168,34.423148],[-119.902055,34.423046],[-119.901974,34.422944],[-119.901823,34.422716],[-119.901778,34.422701],[-119.901753,34.422705]]}},{"type":"Feature","properties":{"k":"path"},"geometry":{"type":"LineString","coordinates":[[-119.907662,34.430249],[-119.907702,34.430297],[-119.90781,34.430388],[-119.907942,34.430482],[-119.908031,34.430532],[-119.908302,34.430726],[-119.908385,34.430746],[-119.908464,34.430753],[-119.908545,34.43075],[-119.90867,34.430735],[-119.908867,34.430675],[-119.908943,34.430665],[-119.908994,34.430667],[-119.909121,34.4307],[-119.909257,34.430745],[-119.909293,34.430781],[-119.909327,34.430899],[-119.909355,34.430933],[-119.909404,34.430962],[-119.909456,34.430974],[-119.90972,34.430932],[-119.909951,34.430914],[-119.910095,34.430883],[-119.91025,34.430822],[-119.910363,34.430752],[-119.910477,34.430659],[-119.910736,34.430478],[-119.910773,34.430442],[-119.910938,34.430138],[-119.911011,34.430073],[-119.911035,34.429994],[-119.911065,34.429966],[-119.911148,34.42994],[-119.911198,34.429893],[-119.911235,34.42987],[-119.911383,34.429843],[-119.91144,34.429818],[-119.911501,34.429768],[-119.911538,34.42971],[-119.911565,34.429628],[-119.911607,34.429317],[-119.911608,34.429254],[-119.911597,34.429207],[-119.91153,34.42909],[-119.911523,34.429056],[-119.911539,34.429026],[-119.911575,34.429011],[-119.911643,34.429018],[-119.911723,34.429009]]}},{"type":"Feature","properties":{"k":"path"},"geometry":{"type":"LineString","coordinates":[[-119.907349,34.430486],[-119.907441,34.430688],[-119.907519,34.43077],[-119.907582,34.430872]]}},{"type":"Feature","properties":{"k":"path"},"geometry":{"type":"LineString","coordinates":[[-119.911103,34.429951],[-119.911142,34.429957],[-119.911156,34.429987],[-119.911099,34.430081],[-119.911012,34.430196]]}},{"type":"Feature","properties":{"k":"bunker"},"geometry":{"type":"Polygon","coordinates":[[[-119.903898,34.427175],[-119.903868,34.42716],[-119.90383,34.427113],[-119.90382,34.427081],[-119.90384,34.427061],[-119.903887,34.427061],[-119.903905,34.427072],[-119.903937,34.427114],[-119.903943,34.427152],[-119.903917,34.427175],[-119.903898,34.427175]]]}},{"type":"Feature","properties":{"k":"bunker"},"geometry":{"type":"Polygon","coordinates":[[[-119.90395,34.426981],[-119.903933,34.426986],[-119.903913,34.426972],[-119.903905,34.426956],[-119.903917,34.426929],[-119.903984,34.426884],[-119.904025,34.426824],[-119.904052,34.426819],[-119.904076,34.426825],[-119.904098,34.426855],[-119.904096,34.42687],[-119.904059,34.42689],[-119.904018,34.42694],[-119.90395,34.426981]]]}},{"type":"Feature","properties":{"k":"bunker"},"geometry":{"type":"Polygon","coordinates":[[[-119.901092,34.426649],[-119.901051,34.426648],[-119.901014,34.426601],[-119.901005,34.426583],[-119.901007,34.42656],[-119.901022,34.42654],[-119.90105,34.426533],[-119.901099,34.42656],[-119.901172,34.426533],[-119.901202,34.426535],[-119.901218,34.42655],[-119.901221,34.426569],[-119.901207,34.42659],[-119.901092,34.426649]]]}},{"type":"Feature","properties":{"k":"bunker"},"geometry":{"type":"Polygon","coordinates":[[[-119.900748,34.426683],[-119.900725,34.426689],[-119.9007,34.426684],[-119.90068,34.426661],[-119.900675,34.426637],[-119.900683,34.426621],[-119.900737,34.426583],[-119.90077,34.426577],[-119.900791,34.426586],[-119.900798,34.426624],[-119.900748,34.426683]]]}},{"type":"Feature","properties":{"k":"bunker"},"geometry":{"type":"Polygon","coordinates":[[[-119.900696,34.426574],[-119.900678,34.426569],[-119.900657,34.42655],[-119.90068,34.426517],[-119.900768,34.42648],[-119.900789,34.426489],[-119.900801,34.426521],[-119.900789,34.426542],[-119.900762,34.42656],[-119.900696,34.426574]]]}},{"type":"Feature","properties":{"k":"bunker"},"geometry":{"type":"Polygon","coordinates":[[[-119.903302,34.425558],[-119.903282,34.425548],[-119.903274,34.425532],[-119.903261,34.425477],[-119.903177,34.425379],[-119.903188,34.425354],[-119.903228,34.425357],[-119.903334,34.425475],[-119.903348,34.425512],[-119.903343,34.425535],[-119.90333,34.425551],[-119.903302,34.425558]]]}},{"type":"Feature","properties":{"k":"bunker"},"geometry":{"type":"Polygon","coordinates":[[[-119.903308,34.425864],[-119.903281,34.42587],[-119.903251,34.425862],[-119.903199,34.425832],[-119.903197,34.425806],[-119.903246,34.425756],[-119.903268,34.425749],[-119.903289,34.42576],[-119.903316,34.425848],[-119.903308,34.425864]]]}},{"type":"Feature","properties":{"k":"bunker"},"geometry":{"type":"Polygon","coordinates":[[[-119.903411,34.42528],[-119.90337,34.425275],[-119.903269,34.425244],[-119.903226,34.425214],[-119.903223,34.425196],[-119.903234,34.425184],[-119.903286,34.425184],[-119.903407,34.425225],[-119.903437,34.425244],[-119.903434,34.425267],[-119.903411,34.42528]]]}},{"type":"Feature","properties":{"k":"bunker"},"geometry":{"type":"Polygon","coordinates":[[[-119.903337,34.424944],[-119.903301,34.424934],[-119.903283,34.42492],[-119.903284,34.424892],[-119.903343,34.424855],[-119.90338,34.424799],[-119.903403,34.424799],[-119.903435,34.424829],[-119.903438,34.424855],[-119.903394,34.424919],[-119.903371,34.424938],[-119.903337,34.424944]]]}},{"type":"Feature","properties":{"k":"bunker"},"geometry":{"type":"Polygon","coordinates":[[[-119.902806,34.42471],[-119.902783,34.424694],[-119.902758,34.424653],[-119.90274,34.424648],[-119.902669,34.424676],[-119.902643,34.424672],[-119.902628,34.424653],[-119.90263,34.424635],[-119.902666,34.4246],[-119.902669,34.42458],[-119.902683,34.424568],[-119.902732,34.424563],[-119.902801,34.424596],[-119.902845,34.424656],[-119.90285,34.424684],[-119.902838,34.424706],[-119.902806,34.42471]]]}},{"type":"Feature","properties":{"k":"bunker"},"geometry":{"type":"Polygon","coordinates":[[[-119.902488,34.424622],[-119.902462,34.424616],[-119.902432,34.424586],[-119.902366,34.424544],[-119.902349,34.424514],[-119.902356,34.424492],[-119.902383,34.424479],[-119.902408,34.424482],[-119.902426,34.424505],[-119.902463,34.424523],[-119.902518,34.424531],[-119.902568,34.424509],[-119.902582,34.42452],[-119.902584,34.424537],[-119.902574,34.424558],[-119.902512,34.424614],[-119.902488,34.424622]]]}},{"type":"Feature","properties":{"k":"bunker"},"geometry":{"type":"Polygon","coordinates":[[[-119.901402,34.424421],[-119.90133,34.424399],[-119.901318,34.424383],[-119.901324,34.424346],[-119.90134,34.424328],[-119.901342,34.424307],[-119.901328,34.424288],[-119.901337,34.424259],[-119.901364,34.424252],[-119.901439,34.42426],[-119.901448,34.424243],[-119.901445,34.424225],[-119.901425,34.424214],[-119.901336,34.424219],[-119.901323,34.424205],[-119.901313,34.424175],[-119.901319,34.42414],[-119.90133,34.424124],[-119.901367,34.424112],[-119.901401,34.424137],[-119.901432,34.424146],[-119.901502,34.424137],[-119.901532,34.424145],[-119.90156,34.424185],[-119.901501,34.424268],[-119.901533,34.424308],[-119.901523,34.42434],[-119.901458,34.424332],[-119.901441,34.424338],[-119.901433,34.424395],[-119.901425,34.42441],[-119.901402,34.424421]]]}},{"type":"Feature","properties":{"k":"bunker"},"geometry":{"type":"Polygon","coordinates":[[[-119.901203,34.422275],[-119.901151,34.422255],[-119.901107,34.422217],[-119.901101,34.422191],[-119.901127,34.422156],[-119.901152,34.422149],[-119.901175,34.422162],[-119.901224,34.422233],[-119.901221,34.422268],[-119.901203,34.422275]]]}},{"type":"Feature","properties":{"k":"bunker"},"geometry":{"type":"Polygon","coordinates":[[[-119.901126,34.422058],[-119.901107,34.422049],[-119.901084,34.422024],[-119.901042,34.421965],[-119.901057,34.421923],[-119.901076,34.421919],[-119.901098,34.421932],[-119.901112,34.421959],[-119.901164,34.422018],[-119.901167,34.42204],[-119.901152,34.422058],[-119.901126,34.422058]]]}},{"type":"Feature","properties":{"k":"bunker"},"geometry":{"type":"Polygon","coordinates":[[[-119.902381,34.422561],[-119.902363,34.422547],[-119.90237,34.422502],[-119.902332,34.422473],[-119.902324,34.422458],[-119.902323,34.422441],[-119.902362,34.422423],[-119.902399,34.422426],[-119.902464,34.422455],[-119.902507,34.422496],[-119.902517,34.422525],[-119.902503,34.422547],[-119.902464,34.422559],[-119.902422,34.422568],[-119.902381,34.422561]]]}},{"type":"Feature","properties":{"k":"bunker"},"geometry":{"type":"Polygon","coordinates":[[[-119.902426,34.423026],[-119.902396,34.423015],[-119.902357,34.422984],[-119.902343,34.422929],[-119.902356,34.422907],[-119.902401,34.42289],[-119.90241,34.422863],[-119.902423,34.422863],[-119.902466,34.422972],[-119.902445,34.423018],[-119.902426,34.423026]]]}},{"type":"Feature","properties":{"k":"bunker"},"geometry":{"type":"Polygon","coordinates":[[[-119.902704,34.423031],[-119.902693,34.423003],[-119.902698,34.422978],[-119.902816,34.422877],[-119.902855,34.42288],[-119.902878,34.422908],[-119.902882,34.422931],[-119.90287,34.422953],[-119.902823,34.422979],[-119.902757,34.42303],[-119.90273,34.423038],[-119.902704,34.423031]]]}},{"type":"Feature","properties":{"k":"bunker"},"geometry":{"type":"Polygon","coordinates":[[[-119.902809,34.423082],[-119.902794,34.423068],[-119.902798,34.423048],[-119.902816,34.423032],[-119.902884,34.422998],[-119.902914,34.42301],[-119.902931,34.423041],[-119.902915,34.423066],[-119.902901,34.423075],[-119.902833,34.423086],[-119.902809,34.423082]]]}},{"type":"Feature","properties":{"k":"bunker"},"geometry":{"type":"Polygon","coordinates":[[[-119.903058,34.423364],[-119.90301,34.423366],[-119.90297,34.423387],[-119.902955,34.423382],[-119.90291,34.423334],[-119.902911,34.423305],[-119.902942,34.423291],[-119.903024,34.423302],[-119.903068,34.423297],[-119.903088,34.423307],[-119.903098,34.423351],[-119.903072,34.423367],[-119.903058,34.423364]]]}},{"type":"Feature","properties":{"k":"bunker"},"geometry":{"type":"Polygon","coordinates":[[[-119.903239,34.423169],[-119.903167,34.42318],[-119.903144,34.423172],[-119.903132,34.423152],[-119.903138,34.423138],[-119.903168,34.423125],[-119.903169,34.423115],[-119.90313,34.423085],[-119.903133,34.42306],[-119.903149,34.42305],[-119.903189,34.423049],[-119.903206,34.423061],[-119.903234,34.423108],[-119.903265,34.423126],[-119.90327,34.423149],[-119.903239,34.423169]]]}},{"type":"Feature","properties":{"k":"bunker"},"geometry":{"type":"Polygon","coordinates":[[[-119.904878,34.425955],[-119.904849,34.42595],[-119.904825,34.425922],[-119.904829,34.425868],[-119.904869,34.425847],[-119.904921,34.425864],[-119.904931,34.425858],[-119.904975,34.425862],[-119.904987,34.425876],[-119.904969,34.425918],[-119.904878,34.425955]]]}},{"type":"Feature","properties":{"k":"bunker"},"geometry":{"type":"Polygon","coordinates":[[[-119.905612,34.425979],[-119.90553,34.425966],[-119.905512,34.425946],[-119.905513,34.425931],[-119.905539,34.425901],[-119.905585,34.425894],[-119.905618,34.425903],[-119.905641,34.425925],[-119.905647,34.425958],[-119.905633,34.425973],[-119.905612,34.425979]]]}},{"type":"Feature","properties":{"k":"bunker"},"geometry":{"type":"Polygon","coordinates":[[[-119.905623,34.425786],[-119.905604,34.425779],[-119.905547,34.425709],[-119.905548,34.425692],[-119.905601,34.425661],[-119.90564,34.425674],[-119.905656,34.425733],[-119.905659,34.425767],[-119.905652,34.425782],[-119.905623,34.425786]]]}},{"type":"Feature","properties":{"k":"bunker"},"geometry":{"type":"Polygon","coordinates":[[[-119.906015,34.425807],[-119.905989,34.425799],[-119.905959,34.425774],[-119.905963,34.425704],[-119.905982,34.425664],[-119.906023,34.425648],[-119.906054,34.425661],[-119.90606,34.425685],[-119.906048,34.425733],[-119.906052,34.42579],[-119.906039,34.425802],[-119.906015,34.425807]]]}},{"type":"Feature","properties":{"k":"bunker"},"geometry":{"type":"Polygon","coordinates":[[[-119.906875,34.425569],[-119.906846,34.425555],[-119.90685,34.425501],[-119.906881,34.425452],[-119.906909,34.425439],[-119.906926,34.425439],[-119.906944,34.42547],[-119.906939,34.425492],[-119.906892,34.425562],[-119.906875,34.425569]]]}},{"type":"Feature","properties":{"k":"bunker"},"geometry":{"type":"Polygon","coordinates":[[[-119.906663,34.425391],[-119.906646,34.42539],[-119.906634,34.42538],[-119.906625,34.425362],[-119.906627,34.425342],[-119.906658,34.425272],[-119.906687,34.425266],[-119.90671,34.425288],[-119.906706,34.425334],[-119.906695,34.42537],[-119.906663,34.425391]]]}},{"type":"Feature","properties":{"k":"bunker"},"geometry":{"type":"Polygon","coordinates":[[[-119.908776,34.428993],[-119.908755,34.428985],[-119.908747,34.428965],[-119.908754,34.428921],[-119.908745,34.428863],[-119.908752,34.428846],[-119.908787,34.428837],[-119.90883,34.428854],[-119.90884,34.428873],[-119.90884,34.428902],[-119.908819,34.428976],[-119.908804,34.428989],[-119.908776,34.428993]]]}},{"type":"Feature","properties":{"k":"bunker"},"geometry":{"type":"Polygon","coordinates":[[[-119.909682,34.429074],[-119.909669,34.429065],[-119.909663,34.429045],[-119.909623,34.429023],[-119.909612,34.429008],[-119.909617,34.428981],[-119.909654,34.428938],[-119.90967,34.428939],[-119.909686,34.42895],[-119.909685,34.428989],[-119.909706,34.429031],[-119.909701,34.42906],[-119.909682,34.429074]]]}},{"type":"Feature","properties":{"k":"bunker"},"geometry":{"type":"Polygon","coordinates":[[[-119.909564,34.428953],[-119.909507,34.428927],[-119.909495,34.428912],[-119.909492,34.428895],[-119.909511,34.428845],[-119.909527,34.428843],[-119.909545,34.428867],[-119.909589,34.428881],[-119.9096,34.428896],[-119.909609,34.428914],[-119.909606,34.42894],[-119.909586,34.428954],[-119.909564,34.428953]]]}},{"type":"Feature","properties":{"k":"bunker"},"geometry":{"type":"Polygon","coordinates":[[[-119.910402,34.42919],[-119.910384,34.429175],[-119.910357,34.42912],[-119.910366,34.429062],[-119.91039,34.42904],[-119.910413,34.429059],[-119.910411,34.429094],[-119.910438,34.429152],[-119.910427,34.429186],[-119.910402,34.42919]]]}},{"type":"Feature","properties":{"k":"bunker"},"geometry":{"type":"Polygon","coordinates":[[[-119.909884,34.428738],[-119.909841,34.428723],[-119.909825,34.428709],[-119.90982,34.428671],[-119.909831,34.428655],[-119.909877,34.428628],[-119.90993,34.428623],[-119.909951,34.428629],[-119.909965,34.428641],[-119.909962,34.428663],[-119.909926,34.428682],[-119.909915,34.428697],[-119.909916,34.428716],[-119.909902,34.428732],[-119.909884,34.428738]]]}},{"type":"Feature","properties":{"k":"bunker"},"geometry":{"type":"Polygon","coordinates":[[[-119.90942,34.428548],[-119.909407,34.42854],[-119.909407,34.428515],[-119.90942,34.428488],[-119.909438,34.428457],[-119.909458,34.428441],[-119.909478,34.428439],[-119.909496,34.42845],[-119.909509,34.428471],[-119.909501,34.428486],[-119.909469,34.428511],[-119.909455,34.428534],[-119.909437,34.428546],[-119.90942,34.428548]]]}},{"type":"Feature","properties":{"k":"bunker"},"geometry":{"type":"Polygon","coordinates":[[[-119.911957,34.429142],[-119.911945,34.429125],[-119.911949,34.429099],[-119.911991,34.429053],[-119.912018,34.428971],[-119.912036,34.428962],[-119.912088,34.428962],[-119.912115,34.429004],[-119.912112,34.42903],[-119.912097,34.429057],[-119.912055,34.429077],[-119.911999,34.429136],[-119.911984,34.429145],[-119.911957,34.429142]]]}},{"type":"Feature","properties":{"k":"bunker"},"geometry":{"type":"Polygon","coordinates":[[[-119.91222,34.429383],[-119.912194,34.429378],[-119.912167,34.429361],[-119.91216,34.429333],[-119.912193,34.429277],[-119.912211,34.42927],[-119.912234,34.429274],[-119.912259,34.429294],[-119.91224,34.429358],[-119.91222,34.429383]]]}},{"type":"Feature","properties":{"k":"bunker"},"geometry":{"type":"Polygon","coordinates":[[[-119.912285,34.429233],[-119.912268,34.429244],[-119.912249,34.429244],[-119.912233,34.429233],[-119.912221,34.429202],[-119.912223,34.429184],[-119.912278,34.429117],[-119.912303,34.429099],[-119.912328,34.4291],[-119.912345,34.429116],[-119.912347,34.429135],[-119.912338,34.429159],[-119.912285,34.429233]]]}},{"type":"Feature","properties":{"k":"bunker"},"geometry":{"type":"Polygon","coordinates":[[[-119.911269,34.429687],[-119.911248,34.429699],[-119.911225,34.429692],[-119.911211,34.429681],[-119.911205,34.429663],[-119.91123,34.429592],[-119.911254,34.429549],[-119.911258,34.429494],[-119.911282,34.429479],[-119.911301,34.429479],[-119.911328,34.4295],[-119.911336,34.429532],[-119.911304,34.429584],[-119.911304,34.429636],[-119.911269,34.429687]]]}},{"type":"Feature","properties":{"k":"bunker"},"geometry":{"type":"Polygon","coordinates":[[[-119.910832,34.429575],[-119.910809,34.429573],[-119.910791,34.429559],[-119.910787,34.429542],[-119.910842,34.429483],[-119.910873,34.429484],[-119.910883,34.429492],[-119.910882,34.429521],[-119.910849,34.42957],[-119.910832,34.429575]]]}},{"type":"Feature","properties":{"k":"bunker"},"geometry":{"type":"Polygon","coordinates":[[[-119.911006,34.429509],[-119.910953,34.429516],[-119.910939,34.42951],[-119.910937,34.429493],[-119.910944,34.429478],[-119.910997,34.42943],[-119.911033,34.429417],[-119.911059,34.42944],[-119.911058,34.42946],[-119.91103,34.429494],[-119.911006,34.429509]]]}},{"type":"Feature","properties":{"k":"bunker"},"geometry":{"type":"Polygon","coordinates":[[[-119.911137,34.429371],[-119.911117,34.429381],[-119.911101,34.429379],[-119.911076,34.429362],[-119.911052,34.429335],[-119.911051,34.429311],[-119.911115,34.429241],[-119.911145,34.429229],[-119.911177,34.429229],[-119.911199,34.429236],[-119.911213,34.42925],[-119.911208,34.429269],[-119.911183,34.42929],[-119.911144,34.429308],[-119.911139,34.429318],[-119.911152,34.429345],[-119.911137,34.429371]]]}},{"type":"Feature","properties":{"k":"bunker"},"geometry":{"type":"Polygon","coordinates":[[[-119.9106,34.430503],[-119.910581,34.430496],[-119.910574,34.430483],[-119.910573,34.430468],[-119.910587,34.430453],[-119.910669,34.430411],[-119.91068,34.430401],[-119.91068,34.430369],[-119.910696,34.430357],[-119.91072,34.430354],[-119.910747,34.430366],[-119.910759,34.430383],[-119.910758,34.430401],[-119.910738,34.430433],[-119.91063,34.430496],[-119.9106,34.430503]]]}},{"type":"Feature","properties":{"k":"bunker"},"geometry":{"type":"Polygon","coordinates":[[[-119.910245,34.430186],[-119.91021,34.430159],[-119.910214,34.430148],[-119.910248,34.430135],[-119.91034,34.430118],[-119.910365,34.430134],[-119.91037,34.430159],[-119.910347,34.430179],[-119.910279,34.430193],[-119.910245,34.430186]]]}},{"type":"Feature","properties":{"k":"bunker"},"geometry":{"type":"Polygon","coordinates":[[[-119.908796,34.430331],[-119.90879,34.430357],[-119.908709,34.43042],[-119.90866,34.430441],[-119.908638,34.430442],[-119.908624,34.430434],[-119.90862,34.430417],[-119.908627,34.430395],[-119.908734,34.430314],[-119.908761,34.430308],[-119.908784,34.430315],[-119.908796,34.430331]]]}},{"type":"Feature","properties":{"k":"bunker"},"geometry":{"type":"Polygon","coordinates":[[[-119.908751,34.430276],[-119.908725,34.430272],[-119.908664,34.430224],[-119.908582,34.430203],[-119.908593,34.430163],[-119.90862,34.430153],[-119.908662,34.430159],[-119.908737,34.430191],[-119.908776,34.43023],[-119.908783,34.430252],[-119.908775,34.430267],[-119.908751,34.430276]]]}},{"type":"Feature","properties":{"k":"bunker"},"geometry":{"type":"Polygon","coordinates":[[[-119.908214,34.430254],[-119.908188,34.430247],[-119.908173,34.430233],[-119.908192,34.430102],[-119.908201,34.430083],[-119.908231,34.430062],[-119.908246,34.430067],[-119.908266,34.430105],[-119.908252,34.43023],[-119.90824,34.430247],[-119.908214,34.430254]]]}},{"type":"Feature","properties":{"k":"bunker"},"geometry":{"type":"Polygon","coordinates":[[[-119.906855,34.430224],[-119.906818,34.430216],[-119.906798,34.430198],[-119.906788,34.430175],[-119.906717,34.43017],[-119.906701,34.430157],[-119.906689,34.430142],[-119.906696,34.430121],[-119.906719,34.430099],[-119.906745,34.43009],[-119.906773,34.43009],[-119.906818,34.430112],[-119.906873,34.430169],[-119.906883,34.430189],[-119.906871,34.430215],[-119.906855,34.430224]]]}},{"type":"Feature","properties":{"k":"bunker"},"geometry":{"type":"Polygon","coordinates":[[[-119.904848,34.429749],[-119.904754,34.429727],[-119.904649,34.429748],[-119.904584,34.429749],[-119.904564,34.429735],[-119.904563,34.429715],[-119.904575,34.429701],[-119.904594,34.429694],[-119.904648,34.4297],[-119.904693,34.429687],[-119.904703,34.429677],[-119.904701,34.429662],[-119.904679,34.429621],[-119.904695,34.4296],[-119.904733,34.429592],[-119.904746,34.429602],[-119.904764,34.429604],[-119.904838,34.429556],[-119.904965,34.429514],[-119.904988,34.429512],[-119.905007,34.429518],[-119.905016,34.429535],[-119.905009,34.429555],[-119.904946,34.429573],[-119.90489,34.429601],[-119.904843,34.429607],[-119.904788,34.429646],[-119.904781,34.429676],[-119.904787,34.429687],[-119.904832,34.429694],[-119.904877,34.429691],[-119.904893,34.429705],[-119.904891,34.429724],[-119.904875,34.42974],[-119.904848,34.429749]]]}},{"type":"Feature","properties":{"k":"bunker"},"geometry":{"type":"Polygon","coordinates":[[[-119.901886,34.429234],[-119.901865,34.429232],[-119.901849,34.429221],[-119.901828,34.429191],[-119.901834,34.429171],[-119.901863,34.429141],[-119.901867,34.429104],[-119.90188,34.42909],[-119.901902,34.429085],[-119.901959,34.429085],[-119.901979,34.429096],[-119.901986,34.429114],[-119.901979,34.429129],[-119.901904,34.429229],[-119.901886,34.429234]]]}},{"type":"Feature","properties":{"k":"bunker"},"geometry":{"type":"Polygon","coordinates":[[[-119.90205,34.428944],[-119.90203,34.428941],[-119.902005,34.428875],[-119.901974,34.428848],[-119.901887,34.428837],[-119.901872,34.428823],[-119.901925,34.428767],[-119.901964,34.428771],[-119.902002,34.428799],[-119.902072,34.428805],[-119.902084,34.42882],[-119.902076,34.428862],[-119.902082,34.428923],[-119.902071,34.428938],[-119.90205,34.428944]]]}},{"type":"Feature","properties":{"k":"bunker"},"geometry":{"type":"Polygon","coordinates":[[[-119.901631,34.428936],[-119.901587,34.428928],[-119.901565,34.428898],[-119.901567,34.428885],[-119.901622,34.428828],[-119.901635,34.42882],[-119.901672,34.428817],[-119.901692,34.428825],[-119.9017,34.428852],[-119.901667,34.428907],[-119.901649,34.428928],[-119.901631,34.428936]]]}},{"type":"Feature","properties":{"k":"bunker"},"geometry":{"type":"Polygon","coordinates":[[[-119.903439,34.428091],[-119.903394,34.428111],[-119.903364,34.428109],[-119.903337,34.428082],[-119.903344,34.428053],[-119.903428,34.428028],[-119.903473,34.428005],[-119.903493,34.428004],[-119.903516,34.428019],[-119.903517,34.428062],[-119.9035,34.428085],[-119.903479,34.428092],[-119.903439,34.428091]]]}},{"type":"Feature","properties":{"k":"bunker"},"geometry":{"type":"Polygon","coordinates":[[[-119.903854,34.428239],[-119.90383,34.428232],[-119.903818,34.428216],[-119.90383,34.428177],[-119.903824,34.428141],[-119.90383,34.428121],[-119.90386,34.428106],[-119.903886,34.428119],[-119.9039,34.428139],[-119.903902,34.428168],[-119.903891,34.428215],[-119.903876,34.428231],[-119.903854,34.428239]]]}},{"type":"Feature","properties":{"k":"bunker"},"geometry":{"type":"Polygon","coordinates":[[[-119.90423,34.428068],[-119.904215,34.428068],[-119.90419,34.428051],[-119.904191,34.428021],[-119.904203,34.428009],[-119.904265,34.427979],[-119.904313,34.427936],[-119.904332,34.427932],[-119.904347,34.427938],[-119.904359,34.42797],[-119.904351,34.427985],[-119.90423,34.428068]]]}},{"type":"Feature","properties":{"k":"bunker"},"geometry":{"type":"Polygon","coordinates":[[[-119.904687,34.428211],[-119.904657,34.428221],[-119.90461,34.428225],[-119.904584,34.428203],[-119.904588,34.428181],[-119.904631,34.428158],[-119.904692,34.428162],[-119.904703,34.428176],[-119.904701,34.428197],[-119.904687,34.428211]]]}},{"type":"Feature","properties":{"k":"bunker"},"geometry":{"type":"Polygon","coordinates":[[[-119.904712,34.428097],[-119.904676,34.428093],[-119.904635,34.42807],[-119.90463,34.428045],[-119.904645,34.428021],[-119.904662,34.428018],[-119.904696,34.428038],[-119.904759,34.428032],[-119.90478,34.42804],[-119.904789,34.428059],[-119.904781,34.42808],[-119.904737,34.428096],[-119.904712,34.428097]]]}},{"type":"Feature","properties":{"k":"bunker"},"geometry":{"type":"Polygon","coordinates":[[[-119.904734,34.425598],[-119.904687,34.425598],[-119.904668,34.425585],[-119.904655,34.425545],[-119.904657,34.425524],[-119.904668,34.425506],[-119.904688,34.425496],[-119.904765,34.425487],[-119.904787,34.425493],[-119.904804,34.425512],[-119.904809,34.425531],[-119.904777,34.42557],[-119.904734,34.425598]]]}},{"type":"Feature","properties":{"k":"bunker"},"geometry":{"type":"Polygon","coordinates":[[[-119.902141,34.427103],[-119.902108,34.427108],[-119.902087,34.427102],[-119.902085,34.427078],[-119.902098,34.427058],[-119.90214,34.427034],[-119.902149,34.426993],[-119.902167,34.426976],[-119.90219,34.426972],[-119.902214,34.42698],[-119.902224,34.427003],[-119.90222,34.427026],[-119.902165,34.427092],[-119.902141,34.427103]]]}},{"type":"Feature","properties":{"k":"bunker"},"geometry":{"type":"Polygon","coordinates":[[[-119.90154,34.426965],[-119.901517,34.426957],[-119.901484,34.426882],[-119.901487,34.426837],[-119.901502,34.42682],[-119.901518,34.426819],[-119.901563,34.42685],[-119.901573,34.426868],[-119.901564,34.426936],[-119.901558,34.426953],[-119.90154,34.426965]]]}},{"type":"Feature","properties":{"k":"bunker"},"geometry":{"type":"Polygon","coordinates":[[[-119.901398,34.427319],[-119.901356,34.427311],[-119.901333,34.427277],[-119.901292,34.427264],[-119.901283,34.42725],[-119.901288,34.42723],[-119.901303,34.427217],[-119.901352,34.427216],[-119.901365,34.427227],[-119.901413,34.427282],[-119.901413,34.427306],[-119.901398,34.427319]]]}},{"type":"Feature","properties":{"k":"bunker"},"geometry":{"type":"Polygon","coordinates":[[[-119.901305,34.428447],[-119.901291,34.428444],[-119.901272,34.428418],[-119.901247,34.428329],[-119.901241,34.428303],[-119.901247,34.428283],[-119.901264,34.428275],[-119.901285,34.428276],[-119.90132,34.428296],[-119.901342,34.428334],[-119.901339,34.428442],[-119.901327,34.428449],[-119.901305,34.428447]]]}},{"type":"Feature","properties":{"k":"bunker"},"geometry":{"type":"Polygon","coordinates":[[[-119.900954,34.428457],[-119.900934,34.428453],[-119.900923,34.42844],[-119.90091,34.42839],[-119.900881,34.428347],[-119.900889,34.428329],[-119.900916,34.428317],[-119.900971,34.42835],[-119.900987,34.42838],[-119.900983,34.428439],[-119.900954,34.428457]]]}},{"type":"Feature","properties":{"k":"fairway"},"geometry":{"type":"Polygon","coordinates":[[[-119.907658,34.426111],[-119.907595,34.426122],[-119.907551,34.426152],[-119.907509,34.426204],[-119.90749,34.426245],[-119.907496,34.426347],[-119.907527,34.426401],[-119.907919,34.426714],[-119.908214,34.426977],[-119.908476,34.427196],[-119.90877,34.427437],[-119.908898,34.42753],[-119.908998,34.427588],[-119.90905,34.427603],[-119.909098,34.427597],[-119.909165,34.427571],[-119.909205,34.427526],[-119.909225,34.427469],[-119.909209,34.427406],[-119.909133,34.4273],[-119.908995,34.427207],[-119.908878,34.42711],[-119.908798,34.427057],[-119.908746,34.427005],[-119.90861,34.426829],[-119.908535,34.426748],[-119.908278,34.426538],[-119.907768,34.426169],[-119.907711,34.42613],[-119.907658,34.426111]]]}},{"type":"Feature","properties":{"k":"green"},"geometry":{"type":"Polygon","coordinates":[[[-119.911266,34.429442],[-119.911203,34.429443],[-119.911183,34.429431],[-119.911172,34.429413],[-119.911171,34.429389],[-119.911205,34.429325],[-119.911273,34.429245],[-119.911294,34.429226],[-119.911327,34.429215],[-119.911358,34.42922],[-119.911388,34.429248],[-119.911383,34.429282],[-119.911325,34.429391],[-119.911288,34.42943],[-119.911266,34.429442]]]}},{"type":"Feature","properties":{"k":"tee"},"geometry":{"type":"Polygon","coordinates":[[[-119.911382,34.430102],[-119.911237,34.430001],[-119.911189,34.430045],[-119.911326,34.430145],[-119.911382,34.430102]]]}},{"type":"Feature","properties":{"k":"tee"},"geometry":{"type":"Polygon","coordinates":[[[-119.911214,34.430352],[-119.911062,34.430244],[-119.911128,34.430177],[-119.911289,34.430293],[-119.911214,34.430352]]]}},{"type":"Feature","properties":{"k":"green"},"geometry":{"type":"Polygon","coordinates":[[[-119.91214,34.429273],[-119.912081,34.429274],[-119.912055,34.429263],[-119.912036,34.429239],[-119.912036,34.429153],[-119.912105,34.42907],[-119.912138,34.42901],[-119.91216,34.428986],[-119.912188,34.428964],[-119.912225,34.428959],[-119.912257,34.428973],[-119.912282,34.428998],[-119.912289,34.42905],[-119.912273,34.429083],[-119.912193,34.429178],[-119.912175,34.429247],[-119.91214,34.429273]]]}},{"type":"Feature","properties":{"k":"rough"},"geometry":{"type":"Polygon","coordinates":[[[-119.912241,34.428884],[-119.912073,34.428901],[-119.912039,34.428945],[-119.911793,34.429004],[-119.911869,34.429241],[-119.911918,34.429697],[-119.911946,34.429779],[-119.912031,34.429834],[-119.912084,34.429859],[-119.912142,34.429841],[-119.91221,34.429806],[-119.91222,34.429498],[-119.912248,34.429439],[-119.912288,34.42929],[-119.912362,34.429147],[-119.912364,34.429085],[-119.912349,34.428975],[-119.912327,34.428932],[-119.912293,34.428904],[-119.912241,34.428884]]]}},{"type":"Feature","properties":{"k":"path"},"geometry":{"type":"LineString","coordinates":[[-119.911997,34.430079],[-119.911941,34.430011],[-119.911834,34.429242],[-119.911762,34.429038],[-119.911723,34.429009]]}},{"type":"Feature","properties":{"k":"path"},"geometry":{"type":"LineString","coordinates":[[-119.911723,34.429009],[-119.911679,34.428954],[-119.911574,34.428872],[-119.911452,34.428846],[-119.911343,34.428833],[-119.911227,34.428828],[-119.911141,34.428843],[-119.911082,34.428865],[-119.91103,34.428902],[-119.910649,34.429288],[-119.910612,34.429302],[-119.910569,34.429302],[-119.910261,34.429251],[-119.910002,34.429141],[-119.909871,34.429097],[-119.909835,34.429091],[-119.909661,34.429097],[-119.909606,34.429081],[-119.909464,34.429008],[-119.909379,34.428916],[-119.909153,34.428752],[-119.908886,34.428631],[-119.908716,34.428421],[-119.908687,34.428361],[-119.908686,34.428311],[-119.908698,34.428265],[-119.908718,34.428229],[-119.908836,34.428155],[-119.9089,34.428134],[-119.909056,34.428123],[-119.909163,34.428099],[-119.909214,34.428108],[-119.909406,34.428191],[-119.909531,34.42826],[-119.909627,34.428336],[-119.909726,34.428387],[-119.909868,34.428431],[-119.910106,34.42846],[-119.910202,34.428458],[-119.910263,34.428447],[-119.910308,34.428428],[-119.910336,34.428401],[-119.910342,34.428368],[-119.910319,34.428339],[-119.910288,34.42833],[-119.910241,34.42833],[-119.910171,34.428341],[-119.910092,34.428337],[-119.910031,34.428319],[-119.909968,34.428285],[-119.909921,34.42824],[-119.909845,34.428136],[-119.90978,34.428072],[-119.909364,34.427742],[-119.90931,34.427722],[-119.909102,34.427719],[-119.909034,34.427694],[-119.908791,34.427516],[-119.908709,34.427476],[-119.908499,34.427326],[-119.908417,34.427246],[-119.907977,34.426881],[-119.907709,34.426735],[-119.90761,34.426666],[-119.907562,34.426611],[-119.907474,34.426467],[-119.907415,34.426399],[-119.907358,34.426356],[-119.907296,34.426343],[-119.907077,34.426328],[-119.906929,34.426336],[-119.906858,34.426317],[-119.906369,34.425978],[-119.906255,34.425861],[-119.906212,34.42577],[-119.90618,34.425674],[-119.906159,34.42556],[-119.906165,34.425506],[-119.906181,34.425476],[-119.90621,34.425448],[-119.906323,34.425398],[-119.906336,34.425374],[-119.906328,34.425353],[-119.906169,34.425271],[-119.905995,34.425157],[-119.905976,34.425129],[-119.905975,34.425089],[-119.905993,34.425051],[-119.906027,34.425],[-119.906109,34.424917],[-119.906122,34.424896],[-119.906123,34.424876],[-119.906103,34.424837],[-119.905938,34.424726],[-119.905916,34.424677],[-119.905912,34.424578],[-119.905882,34.424524],[-119.90586,34.424504],[-119.905803,34.424465],[-119.905546,34.424365],[-119.905458,34.424315],[-119.905264,34.424161],[-119.905182,34.424117],[-119.905091,34.42404],[-119.905035,34.424022],[-119.904868,34.423931],[-119.904764,34.423893],[-119.904654,34.423839],[-119.904538,34.423737],[-119.904497,34.423725],[-119.904406,34.42366],[-119.904263,34.423618],[-119.904115,34.423539],[-119.903935,34.423405],[-119.903653,34.423252],[-119.903256,34.42302],[-119.903079,34.422933],[-119.903014,34.422921],[-119.902982,34.422924],[-119.90291,34.422954],[-119.902777,34.423039],[-119.902693,34.42311],[-119.902646,34.423162],[-119.902571,34.423274],[-119.902437,34.423417]]}},{"type":"Feature","properties":{"k":"tee"},"geometry":{"type":"Polygon","coordinates":[[[-119.909793,34.428244],[-119.909719,34.428289],[-119.909644,34.428206],[-119.909718,34.428161],[-119.909793,34.428244]]]}},{"type":"Feature","properties":{"k":"green"},"geometry":{"type":"Polygon","coordinates":[[[-119.909137,34.428419],[-119.909122,34.4285],[-119.90909,34.428521],[-119.909048,34.428532],[-119.909008,34.42853],[-119.908976,34.428519],[-119.908947,34.428492],[-119.908892,34.428417],[-119.908873,34.428363],[-119.908901,34.428311],[-119.90893,34.428288],[-119.908967,34.428278],[-119.909,34.428278],[-119.909032,34.428288],[-119.909078,34.428316],[-119.909109,34.428345],[-119.909128,34.428376],[-119.909137,34.428419]]]}},{"type":"Feature","properties":{"k":"green"},"geometry":{"type":"Polygon","coordinates":[[[-119.908629,34.429001],[-119.908587,34.429018],[-119.908552,34.429016],[-119.908486,34.42898],[-119.908462,34.42894],[-119.908489,34.428809],[-119.908502,34.428784],[-119.908553,34.428751],[-119.90862,34.428748],[-119.908675,34.428784],[-119.908686,34.428815],[-119.908686,34.428883],[-119.908662,34.428951],[-119.908629,34.429001]]]}},{"type":"Feature","properties":{"k":"green"},"geometry":{"type":"Polygon","coordinates":[[[-119.906941,34.425318],[-119.906945,34.425371],[-119.906908,34.425408],[-119.906809,34.425465],[-119.906771,34.425466],[-119.906733,34.425444],[-119.906723,34.425429],[-119.906725,34.425381],[-119.906746,34.425331],[-119.906772,34.425302],[-119.906831,34.425274],[-119.906861,34.42527],[-119.906892,34.425273],[-119.906916,34.425288],[-119.906941,34.425318]]]}},{"type":"Feature","properties":{"k":"green"},"geometry":{"type":"Polygon","coordinates":[[[-119.905915,34.425818],[-119.905901,34.425847],[-119.905884,34.42586],[-119.905862,34.425871],[-119.905802,34.425879],[-119.905775,34.425878],[-119.905743,34.425864],[-119.905729,34.42584],[-119.905753,34.425702],[-119.905768,34.425675],[-119.905815,34.425646],[-119.905873,34.425652],[-119.905895,34.425667],[-119.905914,34.425721],[-119.905915,34.425818]]]}},{"type":"Feature","properties":{"k":"green"},"geometry":{"type":"Polygon","coordinates":[[[-119.908469,34.430432],[-119.908418,34.430424],[-119.908372,34.430401],[-119.908334,34.430363],[-119.908305,34.430319],[-119.908315,34.430223],[-119.90833,34.430191],[-119.90836,34.430173],[-119.908402,34.430168],[-119.908442,34.430175],[-119.908579,34.430236],[-119.908603,34.430259],[-119.908614,34.430281],[-119.908608,34.430326],[-119.90859,34.430354],[-119.908507,34.430425],[-119.908469,34.430432]]]}},{"type":"Feature","properties":{"k":"tee"},"geometry":{"type":"Polygon","coordinates":[[[-119.909897,34.429446],[-119.909807,34.429519],[-119.909582,34.429328],[-119.909673,34.429255],[-119.909897,34.429446]]]}},{"type":"Feature","properties":{"k":"tee"},"geometry":{"type":"Polygon","coordinates":[[[-119.90897,34.4309],[-119.908871,34.430916],[-119.908839,34.430775],[-119.908937,34.43076],[-119.90897,34.4309]]]}},{"type":"Feature","properties":{"k":"tee"},"geometry":{"type":"Polygon","coordinates":[[[-119.908691,34.430891],[-119.908537,34.430916],[-119.908511,34.430808],[-119.908666,34.430784],[-119.908691,34.430891]]]}},{"type":"Feature","properties":{"k":"green"},"geometry":{"type":"Polygon","coordinates":[[[-119.906368,34.430817],[-119.906354,34.430834],[-119.906321,34.430839],[-119.906259,34.430826],[-119.906207,34.430807],[-119.906186,34.430787],[-119.90618,34.430766],[-119.906206,34.430738],[-119.906239,34.430737],[-119.906365,34.430779],[-119.906374,34.430798],[-119.906368,34.430817]]]}},{"type":"Feature","properties":{"k":"bunker"},"geometry":{"type":"Polygon","coordinates":[[[-119.906475,34.430856],[-119.906465,34.430869],[-119.906441,34.430876],[-119.906401,34.430875],[-119.906389,34.430864],[-119.906389,34.430851],[-119.90643,34.430801],[-119.906446,34.430767],[-119.906461,34.430769],[-119.906473,34.430801],[-119.906475,34.430856]]]}},{"type":"Feature","properties":{"k":"green"},"geometry":{"type":"Polygon","coordinates":[[[-119.901952,34.428927],[-119.901953,34.428959],[-119.901933,34.428991],[-119.90186,34.429053],[-119.901817,34.429073],[-119.901765,34.429081],[-119.901731,34.429072],[-119.901701,34.429048],[-119.901697,34.429013],[-119.901719,34.428959],[-119.901773,34.428907],[-119.901814,34.428883],[-119.901858,34.428875],[-119.901897,34.42888],[-119.901933,34.428899],[-119.901952,34.428927]]]}},{"type":"Feature","properties":{"k":"green"},"geometry":{"type":"Polygon","coordinates":[[[-119.907091,34.430112],[-119.90708,34.430135],[-119.907037,34.430166],[-119.90697,34.43016],[-119.906922,34.430132],[-119.906848,34.430059],[-119.906829,34.430022],[-119.90683,34.429989],[-119.906847,34.429962],[-119.906885,34.429948],[-119.906964,34.42994],[-119.907006,34.429948],[-119.90703,34.429962],[-119.907079,34.430023],[-119.907094,34.430076],[-119.907091,34.430112]]]}},{"type":"Feature","properties":{"k":"green"},"geometry":{"type":"Polygon","coordinates":[[[-119.907594,34.430167],[-119.907552,34.430159],[-119.907509,34.430134],[-119.907487,34.430097],[-119.907491,34.430052],[-119.907535,34.429972],[-119.90762,34.429881],[-119.907657,34.429859],[-119.907689,34.429853],[-119.907729,34.429856],[-119.907761,34.429876],[-119.907788,34.429915],[-119.907788,34.429957],[-119.907689,34.430136],[-119.907641,34.430162],[-119.907594,34.430167]]]}},{"type":"Feature","properties":{"k":"tee"},"geometry":{"type":"Polygon","coordinates":[[[-119.90957,34.427789],[-119.909525,34.427827],[-119.909431,34.427751],[-119.909477,34.427713],[-119.90957,34.427789]]]}},{"type":"Feature","properties":{"k":"green"},"geometry":{"type":"Polygon","coordinates":[[[-119.904527,34.428062],[-119.904535,34.428095],[-119.904533,34.428146],[-119.904504,34.428221],[-119.904457,34.428256],[-119.904427,34.428268],[-119.904395,34.428272],[-119.904349,34.428264],[-119.904319,34.428248],[-119.904289,34.428212],[-119.904276,34.42817],[-119.904282,34.42813],[-119.904331,34.428074],[-119.904392,34.42803],[-119.90445,34.428021],[-119.904505,34.42804],[-119.904527,34.428062]]]}},{"type":"Feature","properties":{"k":"green"},"geometry":{"type":"Polygon","coordinates":[[[-119.903086,34.423204],[-119.90306,34.423238],[-119.903041,34.42325],[-119.902995,34.42326],[-119.902908,34.423258],[-119.902832,34.423279],[-119.902788,34.423268],[-119.90276,34.423237],[-119.902755,34.423218],[-119.902785,34.423153],[-119.902815,34.423126],[-119.902884,34.423101],[-119.902976,34.423086],[-119.903047,34.423101],[-119.903076,34.423127],[-119.903092,34.423167],[-119.903086,34.423204]]]}},{"type":"Feature","properties":{"k":"green"},"geometry":{"type":"Polygon","coordinates":[[[-119.9026,34.422999],[-119.902562,34.422988],[-119.90253,34.422953],[-119.902502,34.422887],[-119.902498,34.422852],[-119.902504,34.422792],[-119.902531,34.422732],[-119.90256,34.422708],[-119.902599,34.422695],[-119.902637,34.422699],[-119.902693,34.422735],[-119.902715,34.422765],[-119.902724,34.422812],[-119.902716,34.422898],[-119.902685,34.422955],[-119.902636,34.422993],[-119.9026,34.422999]]]}},{"type":"Feature","properties":{"k":"green"},"geometry":{"type":"Polygon","coordinates":[[[-119.900997,34.42217],[-119.900981,34.422181],[-119.900924,34.422192],[-119.900863,34.422174],[-119.90082,34.422136],[-119.900773,34.422077],[-119.900793,34.421952],[-119.900793,34.421902],[-119.900803,34.421875],[-119.900841,34.421844],[-119.900878,34.42184],[-119.900919,34.421854],[-119.900945,34.421878],[-119.900971,34.421961],[-119.901029,34.42209],[-119.901024,34.422126],[-119.900997,34.42217]]]}},{"type":"Feature","properties":{"k":"tee"},"geometry":{"type":"Polygon","coordinates":[[[-119.903856,34.425333],[-119.903769,34.425329],[-119.903783,34.425124],[-119.90387,34.425128],[-119.903856,34.425333]]]}},{"type":"Feature","properties":{"k":"tee"},"geometry":{"type":"Polygon","coordinates":[[[-119.903813,34.425022],[-119.903753,34.425018],[-119.903762,34.424922],[-119.903822,34.424926],[-119.903813,34.425022]]]}},{"type":"Feature","properties":{"k":"green"},"geometry":{"type":"Polygon","coordinates":[[[-119.90352,34.425146],[-119.903498,34.425167],[-119.903464,34.425176],[-119.903419,34.425175],[-119.903356,34.42516],[-119.903299,34.425136],[-119.903252,34.425103],[-119.903237,34.425063],[-119.903249,34.425025],[-119.90328,34.424996],[-119.903361,34.424971],[-119.903454,34.424964],[-119.903493,34.424979],[-119.903519,34.425006],[-119.903542,34.425069],[-119.903541,34.425095],[-119.90352,34.425146]]]}},{"type":"Feature","properties":{"k":"tee"},"geometry":{"type":"Polygon","coordinates":[[[-119.90591,34.424985],[-119.905874,34.425024],[-119.90578,34.424965],[-119.905816,34.424926],[-119.90591,34.424985]]]}},{"type":"Feature","properties":{"k":"tee"},"geometry":{"type":"Polygon","coordinates":[[[-119.90658,34.426564],[-119.906517,34.426593],[-119.906388,34.426428],[-119.90644,34.426395],[-119.90658,34.426564]]]}},{"type":"Feature","properties":{"k":"tee"},"geometry":{"type":"Polygon","coordinates":[[[-119.906314,34.426217],[-119.906281,34.426237],[-119.906128,34.42606],[-119.90616,34.426039],[-119.906314,34.426217]]]}},{"type":"Feature","properties":{"k":"tee"},"geometry":{"type":"Polygon","coordinates":[[[-119.90674,34.426973],[-119.90669,34.427001],[-119.906634,34.42694],[-119.906685,34.426909],[-119.90674,34.426973]]]}},{"type":"Feature","properties":{"k":"tee"},"geometry":{"type":"Polygon","coordinates":[[[-119.904816,34.428492],[-119.904725,34.428444],[-119.904539,34.428683],[-119.904629,34.428731],[-119.904816,34.428492]]]}},{"type":"Feature","properties":{"k":"tee"},"geometry":{"type":"Polygon","coordinates":[[[-119.903686,34.428709],[-119.903641,34.428786],[-119.903528,34.428741],[-119.903573,34.428663],[-119.903686,34.428709]]]}},{"type":"Feature","properties":{"k":"tee"},"geometry":{"type":"Polygon","coordinates":[[[-119.903466,34.428619],[-119.903421,34.428696],[-119.903307,34.428651],[-119.903353,34.428574],[-119.903466,34.428619]]]}},{"type":"Feature","properties":{"k":"tee"},"geometry":{"type":"Polygon","coordinates":[[[-119.903284,34.428552],[-119.903239,34.428629],[-119.903125,34.428584],[-119.90317,34.428507],[-119.903284,34.428552]]]}},{"type":"Feature","properties":{"k":"fairway"},"geometry":{"type":"Polygon","coordinates":[[[-119.907971,34.428873],[-119.907698,34.428914],[-119.907524,34.428848],[-119.907058,34.428533],[-119.906815,34.428427],[-119.90672,34.428324],[-119.906636,34.428185],[-119.906418,34.428038],[-119.906279,34.42798],[-119.90614,34.42796],[-119.90601,34.427997],[-119.905911,34.428083],[-119.905723,34.428288],[-119.90543,34.428631],[-119.90534,34.428722],[-119.905311,34.428852],[-119.905365,34.42893],[-119.905519,34.428971],[-119.90604,34.429057],[-119.906249,34.429098],[-119.906517,34.429168],[-119.906934,34.429401],[-119.907346,34.429692],[-119.907445,34.429749],[-119.907539,34.429757],[-119.907624,34.429708],[-119.907763,34.429594],[-119.907946,34.429381],[-119.908051,34.429246],[-119.90813,34.429102],[-119.908155,34.429024],[-119.908155,34.428926],[-119.90809,34.428877],[-119.907971,34.428873]]]}},{"type":"Feature","properties":{"k":"green"},"geometry":{"type":"Polygon","coordinates":[[[-119.90306,34.425435],[-119.90303,34.425454],[-119.903015,34.425477],[-119.903021,34.425639],[-119.90303,34.42567],[-119.903051,34.425696],[-119.903111,34.425709],[-119.903168,34.425683],[-119.903205,34.425634],[-119.903222,34.42558],[-119.903227,34.425534],[-119.903222,34.425497],[-119.903202,34.425466],[-119.90317,34.425437],[-119.903093,34.425424],[-119.90306,34.425435]]]}},{"type":"Feature","properties":{"k":"tee"},"geometry":{"type":"Polygon","coordinates":[[[-119.902246,34.425712],[-119.902207,34.425797],[-119.902283,34.425822],[-119.902321,34.425734],[-119.902246,34.425712]]]}},{"type":"Feature","properties":{"k":"green"},"geometry":{"type":"Polygon","coordinates":[[[-119.901052,34.42839],[-119.901008,34.428488],[-119.900997,34.428524],[-119.901,34.428546],[-119.901028,34.428581],[-119.901066,34.428604],[-119.901095,34.428609],[-119.901146,34.428601],[-119.901185,34.428573],[-119.901211,34.42853],[-119.90121,34.428474],[-119.901189,34.4284],[-119.901164,34.428369],[-119.90113,34.428354],[-119.901095,34.428356],[-119.901068,34.428369],[-119.901052,34.42839]]]}},{"type":"Feature","properties":{"k":"tee"},"geometry":{"type":"Polygon","coordinates":[[[-119.901187,34.429068],[-119.901155,34.429134],[-119.901208,34.429156],[-119.901243,34.429086],[-119.901187,34.429068]]]}},{"type":"Feature","properties":{"k":"path"},"geometry":{"type":"LineString","coordinates":[[-119.901748,34.428596],[-119.90184,34.428644],[-119.901938,34.428667],[-119.902016,34.428701],[-119.902093,34.428738],[-119.90232,34.428874],[-119.902391,34.428904],[-119.90252,34.428917]]}},{"type":"Feature","properties":{"k":"path"},"geometry":{"type":"LineString","coordinates":[[-119.902599,34.428925],[-119.902673,34.428913],[-119.902716,34.428872],[-119.902852,34.428626],[-119.902907,34.428478],[-119.903002,34.428366],[-119.903086,34.428299],[-119.90319,34.428175]]}},{"type":"Feature","properties":{"k":"path"},"geometry":{"type":"LineString","coordinates":[[-119.90252,34.428917],[-119.902599,34.428925]]}},{"type":"Feature","properties":{"k":"green"},"geometry":{"type":"Polygon","coordinates":[[[-119.900896,34.426355],[-119.900856,34.426395],[-119.90085,34.426438],[-119.900863,34.426502],[-119.900892,34.426534],[-119.900915,34.426542],[-119.900954,34.426536],[-119.901072,34.426477],[-119.901088,34.426456],[-119.901092,34.426429],[-119.901066,34.426377],[-119.900994,34.426347],[-119.900954,34.426341],[-119.900896,34.426355]]]}},{"type":"Feature","properties":{"k":"tee"},"geometry":{"type":"Polygon","coordinates":[[[-119.900871,34.425956],[-119.900859,34.426107],[-119.900965,34.426114],[-119.900979,34.425966],[-119.900871,34.425956]]]}},{"type":"Feature","properties":{"k":"path"},"geometry":{"type":"LineString","coordinates":[[-119.902462,34.426241],[-119.902436,34.426297]]}},{"type":"Feature","properties":{"k":"tee"},"geometry":{"type":"Polygon","coordinates":[[[-119.901224,34.421816],[-119.901173,34.421783],[-119.901128,34.421766],[-119.901103,34.421769],[-119.901093,34.421786],[-119.901104,34.421811],[-119.901174,34.421853],[-119.901213,34.421892],[-119.901283,34.421999],[-119.901367,34.422063],[-119.901453,34.421979],[-119.901224,34.421816]]]}},{"type":"Feature","properties":{"k":"bunker"},"geometry":{"type":"Polygon","coordinates":[[[-119.901163,34.422442],[-119.901146,34.422455],[-119.901141,34.422481],[-119.901146,34.422507],[-119.901162,34.422523],[-119.901247,34.422522],[-119.901269,34.422502],[-119.901276,34.422479],[-119.901271,34.422458],[-119.901252,34.422446],[-119.901185,34.422438],[-119.901163,34.422442]]]}},{"type":"Feature","properties":{"k":"tee"},"geometry":{"type":"Polygon","coordinates":[[[-119.903378,34.423984],[-119.903326,34.424028],[-119.903401,34.424093],[-119.903454,34.424045],[-119.903378,34.423984]]]}},{"type":"Feature","properties":{"k":"tee"},"geometry":{"type":"Polygon","coordinates":[[[-119.903526,34.424116],[-119.903468,34.424165],[-119.903598,34.424279],[-119.903662,34.424231],[-119.903526,34.424116]]]}},{"type":"Feature","properties":{"k":"tee"},"geometry":{"type":"Polygon","coordinates":[[[-119.904362,34.424637],[-119.904284,34.424547],[-119.904238,34.424571],[-119.904316,34.424661],[-119.904362,34.424637]]]}},{"type":"Feature","properties":{"k":"path"},"geometry":{"type":"LineString","coordinates":[[-119.902428,34.429454],[-119.902021,34.429406],[-119.901956,34.42938],[-119.901868,34.429327],[-119.901788,34.429289],[-119.901566,34.429219],[-119.901515,34.429194],[-119.901454,34.429147],[-119.901421,34.429102],[-119.901423,34.429053],[-119.901515,34.428841],[-119.901563,34.42877],[-119.901801,34.428554],[-119.901871,34.428346],[-119.901904,34.428317],[-119.901959,34.428308],[-119.902077,34.428318],[-119.902152,34.428302],[-119.902211,34.428266],[-119.902333,34.428161],[-119.902432,34.428025],[-119.902508,34.427891],[-119.902546,34.427783],[-119.90261,34.42733],[-119.902679,34.427104],[-119.902665,34.427004],[-119.902679,34.426958],[-119.902711,34.426912],[-119.902781,34.426856],[-119.90284,34.426836]]}},{"type":"Feature","properties":{"k":"path"},"geometry":{"type":"LineString","coordinates":[[-119.902512,34.429467],[-119.902428,34.429454]]}},{"type":"Feature","properties":{"k":"path"},"geometry":{"type":"LineString","coordinates":[[-119.902886,34.426824],[-119.902934,34.426774],[-119.902941,34.426632],[-119.902957,34.426586],[-119.903066,34.426355],[-119.903119,34.426274],[-119.903162,34.426136],[-119.903234,34.426066],[-119.903294,34.425986],[-119.903343,34.425911],[-119.903368,34.425836],[-119.90337,34.425683],[-119.90342,34.425552],[-119.903428,34.425484],[-119.903397,34.425424],[-119.903321,34.425345],[-119.903253,34.425299],[-119.903204,34.425286],[-119.903065,34.42529],[-119.902948,34.425309],[-119.902894,34.425329],[-119.902749,34.425404],[-119.902687,34.42541],[-119.902623,34.425404],[-119.902591,34.425415],[-119.902581,34.425444],[-119.902604,34.425485],[-119.902622,34.42554],[-119.902614,34.425605],[-119.902594,34.425666],[-119.902518,34.425805],[-119.902496,34.425926],[-119.902485,34.426101],[-119.902462,34.426241]]}},{"type":"Feature","properties":{"k":"path"},"geometry":{"type":"LineString","coordinates":[[-119.90284,34.426836],[-119.902886,34.426824]]}},{"type":"Feature","properties":{"k":"bunker"},"geometry":{"type":"Polygon","coordinates":[[[-119.904161,34.430023],[-119.904177,34.430025],[-119.90421,34.430013],[-119.904214,34.429965],[-119.904182,34.429948],[-119.904132,34.429975],[-119.904116,34.429974],[-119.904107,34.429962],[-119.904126,34.429938],[-119.904121,34.429923],[-119.9041,34.429914],[-119.904079,34.429916],[-119.904066,34.429906],[-119.904064,34.429856],[-119.904036,34.429841],[-119.904018,34.429852],[-119.904013,34.42989],[-119.90403,34.429931],[-119.904051,34.42996],[-119.904062,34.430005],[-119.904095,34.430021],[-119.904161,34.430023]]]}},{"type":"Feature","properties":{"k":"bunker"},"geometry":{"type":"Polygon","coordinates":[[[-119.903921,34.429893],[-119.903949,34.429883],[-119.903978,34.429837],[-119.903977,34.429804],[-119.903942,34.429787],[-119.903902,34.429795],[-119.903882,34.429789],[-119.903874,34.429776],[-119.903874,34.429747],[-119.903864,34.429736],[-119.903846,34.429734],[-119.903827,34.429743],[-119.903801,34.429777],[-119.903804,34.429812],[-119.903819,34.429824],[-119.903893,34.429836],[-119.903902,34.429847],[-119.903903,34.429878],[-119.903921,34.429893]]]}},{"type":"Feature","properties":{"k":"path"},"geometry":{"type":"LineString","coordinates":[[-119.902261,34.423213],[-119.90224,34.423176],[-119.902243,34.423118],[-119.902214,34.423105],[-119.902152,34.423118],[-119.902128,34.423113]]}},{"type":"Feature","properties":{"k":"path"},"geometry":{"type":"LineString","coordinates":[[-119.902862,34.423581],[-119.902896,34.42356]]}},{"type":"Feature","properties":{"k":"fairway"},"geometry":{"type":"Polygon","coordinates":[[[-119.911718,34.428809],[-119.91174,34.428809],[-119.911781,34.428784],[-119.911837,34.428782],[-119.911868,34.428763],[-119.911918,34.428759],[-119.911932,34.428746],[-119.911935,34.42873],[-119.911926,34.428714],[-119.911868,34.428686],[-119.911813,34.428682],[-119.911784,34.428669],[-119.911694,34.428673],[-119.911682,34.428684],[-119.911687,34.428746],[-119.911697,34.428781],[-119.911718,34.428809]]]}},{"type":"Feature","properties":{"k":"tee"},"geometry":{"type":"Polygon","coordinates":[[[-119.907445,34.429749],[-119.907346,34.429692],[-119.907197,34.429581],[-119.907756,34.428947],[-119.907971,34.428873],[-119.90809,34.428877],[-119.908155,34.428926],[-119.908155,34.429024],[-119.90813,34.429102],[-119.908051,34.429246],[-119.907946,34.429381],[-119.907763,34.429594],[-119.907624,34.429708],[-119.907539,34.429757],[-119.907445,34.429749]]]}},{"type":"Feature","properties":{"k":"stream"},"geometry":{"type":"LineString","coordinates":[[-119.902385,34.429904],[-119.902386,34.429705],[-119.902416,34.429583],[-119.902515,34.429385],[-119.902561,34.429175],[-119.902553,34.42903],[-119.902561,34.428889]]}},{"type":"Feature","properties":{"k":"tee"},"geometry":{"type":"Polygon","coordinates":[[[-119.901371,34.428933],[-119.901479,34.428786],[-119.901433,34.42876],[-119.901307,34.428901],[-119.901371,34.428933]]]}},{"type":"Feature","properties":{"k":"tee"},"geometry":{"type":"Polygon","coordinates":[[[-119.902404,34.425511],[-119.902495,34.425328],[-119.902418,34.425294],[-119.902321,34.425479],[-119.902404,34.425511]]]}},{"type":"Feature","properties":{"k":"tee"},"geometry":{"type":"Polygon","coordinates":[[[-119.902582,34.425276],[-119.902654,34.425155],[-119.90258,34.42512],[-119.902509,34.425241],[-119.902582,34.425276]]]}},{"type":"Feature","properties":{"k":"tee"},"geometry":{"type":"Polygon","coordinates":[[[-119.90157,34.428631],[-119.901642,34.428529],[-119.901586,34.428499],[-119.901518,34.428601],[-119.90157,34.428631]]]}},{"type":"Feature","properties":{"k":"tee"},"geometry":{"type":"Polygon","coordinates":[[[-119.901952,34.42854],[-119.902002,34.428452],[-119.901956,34.428436],[-119.901903,34.428519],[-119.901952,34.42854]]]}},{"type":"Feature","properties":{"k":"tee"},"geometry":{"type":"Polygon","coordinates":[[[-119.900694,34.42861],[-119.900717,34.428508],[-119.900645,34.428497],[-119.900624,34.428604],[-119.900694,34.42861]]]}},{"type":"Feature","properties":{"k":"tee"},"geometry":{"type":"Polygon","coordinates":[[[-119.900711,34.428366],[-119.900728,34.428262],[-119.900756,34.428194],[-119.90079,34.428023],[-119.900705,34.428013],[-119.900661,34.428363],[-119.900711,34.428366]]]}},{"type":"Feature","properties":{"k":"tee"},"geometry":{"type":"Polygon","coordinates":[[[-119.900658,34.427957],[-119.90069,34.427768],[-119.900639,34.427759],[-119.900605,34.427951],[-119.900658,34.427957]]]}},{"type":"Feature","properties":{"k":"tee"},"geometry":{"type":"Polygon","coordinates":[[[-119.900703,34.426269],[-119.90074,34.426173],[-119.900687,34.426158],[-119.900648,34.426254],[-119.900703,34.426269]]]}},{"type":"Feature","properties":{"k":"tee"},"geometry":{"type":"Polygon","coordinates":[[[-119.900993,34.425618],[-119.901014,34.425519],[-119.900959,34.425509],[-119.900938,34.42561],[-119.900993,34.425618]]]}},{"type":"Feature","properties":{"k":"tee"},"geometry":{"type":"Polygon","coordinates":[[[-119.901657,34.422211],[-119.90173,34.422148],[-119.901597,34.422048],[-119.901518,34.422112],[-119.901657,34.422211]]]}},{"type":"Feature","properties":{"k":"tee"},"geometry":{"type":"Polygon","coordinates":[[[-119.901453,34.422679],[-119.901412,34.422535],[-119.901347,34.422542],[-119.901389,34.422693],[-119.901453,34.422679]]]}},{"type":"Feature","properties":{"k":"tee"},"geometry":{"type":"Polygon","coordinates":[[[-119.901633,34.42284],[-119.901597,34.422724],[-119.901421,34.422751],[-119.901454,34.422869],[-119.901633,34.42284]]]}},{"type":"Feature","properties":{"k":"tee"},"geometry":{"type":"Polygon","coordinates":[[[-119.901714,34.423032],[-119.901688,34.422936],[-119.901571,34.422952],[-119.901593,34.423052],[-119.901714,34.423032]]]}},{"type":"Feature","properties":{"k":"tee"},"geometry":{"type":"Polygon","coordinates":[[[-119.908285,34.431044],[-119.908316,34.430761],[-119.908195,34.430744],[-119.908171,34.431039],[-119.908285,34.431044]]]}},{"type":"Feature","properties":{"k":"bunker"},"geometry":{"type":"Polygon","coordinates":[[[-119.910174,34.430362],[-119.910232,34.430342],[-119.910274,34.430311],[-119.910285,34.430286],[-119.910285,34.430258],[-119.91026,34.430233],[-119.910237,34.430231],[-119.910221,34.430248],[-119.91021,34.430285],[-119.910148,34.430308],[-119.910128,34.430323],[-119.910136,34.430354],[-119.910174,34.430362]]]}},{"type":"Feature","properties":{"k":"tee"},"geometry":{"type":"Polygon","coordinates":[[[-119.912257,34.428844],[-119.912248,34.428814],[-119.91222,34.428811],[-119.912185,34.428794],[-119.91216,34.428795],[-119.912143,34.428783],[-119.912121,34.428784],[-119.91209,34.428764],[-119.912065,34.428779],[-119.912052,34.428808],[-119.912058,34.428845],[-119.912076,34.428858],[-119.912098,34.428852],[-119.912156,34.428854],[-119.912177,34.428845],[-119.912237,34.428856],[-119.912248,34.428855],[-119.912257,34.428844]]]}},{"type":"Feature","properties":{"k":"tee"},"geometry":{"type":"Polygon","coordinates":[[[-119.910449,34.428346],[-119.910708,34.428181],[-119.910637,34.428107],[-119.910375,34.428281],[-119.910449,34.428346]]]}},{"type":"Feature","properties":{"k":"bunker"},"geometry":{"type":"Polygon","coordinates":[[[-119.907071,34.425376],[-119.907113,34.425334],[-119.907118,34.425298],[-119.907105,34.425273],[-119.907055,34.425245],[-119.907042,34.425245],[-119.907016,34.425253],[-119.907016,34.425286],[-119.907048,34.425324],[-119.907045,34.425367],[-119.907071,34.425376]]]}},{"type":"Feature","properties":{"k":"tee"},"geometry":{"type":"Polygon","coordinates":[[[-119.906584,34.425291],[-119.906618,34.425248],[-119.906559,34.425214],[-119.906519,34.425262],[-119.906584,34.425291]]]}},{"type":"Feature","properties":{"k":"tee"},"geometry":{"type":"Polygon","coordinates":[[[-119.906373,34.425248],[-119.906427,34.425192],[-119.90624,34.425068],[-119.90618,34.425126],[-119.906373,34.425248]]]}},{"type":"Feature","properties":{"k":"tee"},"geometry":{"type":"Polygon","coordinates":[[[-119.905599,34.424857],[-119.90562,34.424833],[-119.905532,34.424777],[-119.90551,34.424801],[-119.905599,34.424857]]]}},{"type":"Feature","properties":{"k":"tee"},"geometry":{"type":"Polygon","coordinates":[[[-119.903276,34.423989],[-119.90333,34.42395],[-119.903247,34.423877],[-119.903197,34.423915],[-119.903276,34.423989]]]}},{"type":"Feature","properties":{"k":"tee"},"geometry":{"type":"Polygon","coordinates":[[[-119.904902,34.428412],[-119.904988,34.428317],[-119.904893,34.428264],[-119.904811,34.428361],[-119.904902,34.428412]]]}},{"type":"Feature","properties":{"k":"tee"},"geometry":{"type":"Polygon","coordinates":[[[-119.909424,34.429142],[-119.909355,34.429096],[-119.909232,34.429038],[-119.909097,34.429002],[-119.909062,34.429073],[-119.909214,34.429119],[-119.909367,34.429194],[-119.909424,34.429142]]]}},{"type":"Feature","properties":{"k":"tee"},"geometry":{"type":"Polygon","coordinates":[[[-119.909245,34.429492],[-119.909302,34.429441],[-119.909256,34.429407],[-119.909199,34.429458],[-119.909245,34.429492]]]}},{"type":"Feature","properties":{"k":"tee"},"geometry":{"type":"Polygon","coordinates":[[[-119.908541,34.429774],[-119.908587,34.429674],[-119.90854,34.429657],[-119.908495,34.429759],[-119.908541,34.429774]]]}},{"type":"Feature","properties":{"k":"tee"},"geometry":{"type":"Polygon","coordinates":[[[-119.906676,34.430687],[-119.90669,34.430655],[-119.906578,34.430615],[-119.906552,34.430599],[-119.906543,34.430578],[-119.906561,34.43054],[-119.906647,34.430509],[-119.906667,34.430491],[-119.906678,34.430472],[-119.906675,34.430454],[-119.906651,34.430433],[-119.906421,34.430355],[-119.90632,34.430561],[-119.906676,34.430687]]]}},{"type":"Feature","properties":{"k":"tee"},"geometry":{"type":"Polygon","coordinates":[[[-119.906001,34.430527],[-119.906026,34.430487],[-119.905897,34.430428],[-119.905872,34.43047],[-119.906001,34.430527]]]}},{"type":"Feature","properties":{"k":"green"},"geometry":{"type":"Polygon","coordinates":[[[-119.903585,34.428333],[-119.903629,34.428326],[-119.903661,34.428303],[-119.903719,34.428185],[-119.903722,34.428167],[-119.903703,34.428123],[-119.903678,34.428101],[-119.903622,34.428086],[-119.903593,34.428089],[-119.903532,34.428125],[-119.903493,34.428159],[-119.90347,34.428197],[-119.903471,34.428247],[-119.903493,34.428288],[-119.903545,34.428324],[-119.903585,34.428333]]]}},{"type":"Feature","properties":{"k":"tee"},"geometry":{"type":"Polygon","coordinates":[[[-119.910763,34.430566],[-119.910843,34.430515],[-119.910815,34.430484],[-119.910736,34.430539],[-119.910763,34.430566]]]}},{"type":"Feature","properties":{"k":"tee"},"geometry":{"type":"Polygon","coordinates":[[[-119.910944,34.430459],[-119.911018,34.430402],[-119.910979,34.430369],[-119.910908,34.43043],[-119.910944,34.430459]]]}},{"type":"Feature","properties":{"k":"fairway"},"geometry":{"type":"Polygon","coordinates":[[[-119.912305,34.428953],[-119.912244,34.428916],[-119.912191,34.42892],[-119.912168,34.428931],[-119.912124,34.428969],[-119.912054,34.429087],[-119.912007,34.429149],[-119.912001,34.42921],[-119.912017,34.42937],[-119.912047,34.429403],[-119.912094,34.429407],[-119.912144,34.429371],[-119.912156,34.429316],[-119.912195,34.429264],[-119.912214,34.429218],[-119.912311,34.429091],[-119.912331,34.429048],[-119.912334,34.428997],[-119.912305,34.428953]]]}},{"type":"Feature","properties":{"k":"path"},"geometry":{"type":"LineString","coordinates":[[-119.903208,34.428314],[-119.903086,34.428299]]}},{"type":"Feature","properties":{"k":"water"},"geometry":{"type":"Polygon","coordinates":[[[-119.910392,34.428178],[-119.9103,34.428224],[-119.910186,34.428261],[-119.91007,34.428273],[-119.910018,34.42825],[-119.909968,34.428189],[-119.909936,34.42812],[-119.909858,34.428016],[-119.909804,34.427895],[-119.909801,34.427834],[-119.910051,34.427638],[-119.910146,34.427603],[-119.910198,34.427621],[-119.910315,34.427683],[-119.9104,34.427706],[-119.9105,34.427786],[-119.910545,34.427849],[-119.910605,34.427994],[-119.91058,34.428045],[-119.910392,34.428178]]]}}]}