{"type":"FeatureCollection","features":[{"type":"Feature","properties":{"k":"water"},"geometry":{"type":"Polygon","coordinates":[[[-111.911843,33.485711],[-111.911988,33.485642],[-111.912091,33.48557],[-111.912194,33.485514],[-111.912306,33.485412],[-111.912484,33.485487],[-111.912514,33.485604],[-111.91231,33.485893],[-111.912321,33.485955],[-111.912527,33.486125],[-111.912548,33.486228],[-111.912519,33.486297],[-111.912402,33.486312],[-111.912398,33.486366],[-111.912375,33.486366],[-111.912262,33.486293],[-111.912206,33.486268],[-111.912154,33.486267],[-111.912111,33.48629],[-111.912087,33.486321],[-111.912086,33.486365],[-111.912131,33.486439],[-111.912134,33.486576],[-111.91207,33.486637],[-111.912014,33.486627],[-111.91167,33.486512],[-111.911487,33.486483],[-111.911325,33.486509],[-111.911288,33.486488],[-111.911264,33.486447],[-111.911231,33.486362],[-111.911247,33.486229],[-111.911383,33.486031],[-111.911615,33.485798],[-111.911843,33.485711]]]}},{"type":"Feature","properties":{"k":"water"},"geometry":{"type":"Polygon","coordinates":[[[-111.909329,33.494464],[-111.909312,33.494374],[-111.909318,33.494245],[-111.909334,33.494177],[-111.9095,33.494057],[-111.909656,33.493972],[-111.909853,33.493936],[-111.909977,33.493945],[-111.910198,33.493833],[-111.910322,33.493837],[-111.910747,33.494109],[-111.910934,33.494258],[-111.911014,33.494263],[-111.91118,33.49433],[-111.911254,33.494347],[-111.911268,33.49442],[-111.911252,33.49447],[-111.911131,33.494625],[-111.91104,33.494687],[-111.910873,33.494701],[-111.910804,33.494683],[-111.91075,33.494598],[-111.910638,33.494517],[-111.910477,33.494477],[-111.909754,33.494478],[-111.90964,33.494495],[-111.90943,33.494544],[-111.909357,33.494581],[-111.909306,33.494556],[-111.909271,33.494513],[-111.909329,33.494464]]]}},{"type":"Feature","properties":{"k":"stream"},"geometry":{"type":"LineString","coordinates":[[-111.912589,33.486647],[-111.912446,33.486415],[-111.912398,33.486366],[-111.912167,33.485961],[-111.912306,33.485412],[-111.912273,33.485137]]}},{"type":"Feature","properties":{"k":"stream"},"geometry":{"type":"LineString","coordinates":[[-111.912677,33.487175],[-111.912681,33.486901]]}},{"type":"Feature","properties":{"k":"stream"},"geometry":{"type":"LineString","coordinates":[[-111.909317,33.502029],[-111.909317,33.501849],[-111.909353,33.501706],[-111.909565,33.501144],[-111.909873,33.499824],[-111.910021,33.499403],[-111.910198,33.498834],[-111.910287,33.498436],[-111.910309,33.498373],[-111.910367,33.498269],[-111.910381,33.498112],[-111.910353,33.497856],[-111.910343,33.497465],[-111.910692,33.497242],[-111.910982,33.496998],[-111.910979,33.496743],[-111.911054,33.495276],[-111.91103,33.494772],[-111.910957,33.494694],[-111.911014,33.494263],[-111.910987,33.493576],[-111.910936,33.493497],[-111.91081,33.493424],[-111.91059,33.493263],[-111.910542,33.493135],[-111.91055,33.492987],[-111.910748,33.492737],[-111.911215,33.492222],[-111.911373,33.491925],[-111.911411,33.49165],[-111.911338,33.491164],[-111.911223,33.490862],[-111.911293,33.490552],[-111.911564,33.490451],[-111.912304,33.490355],[-111.91239,33.490225],[-111.912481,33.488977],[-111.912545,33.488534],[-111.912682,33.488115],[-111.912671,33.48782],[-111.912677,33.487175]]}},{"type":"Feature","properties":{"k":"stream"},"geometry":{"type":"LineString","coordinates":[[-111.912266,33.485085],[-111.912221,33.484033],[-111.91213,33.483489],[-111.911998,33.482541],[-111.911735,33.482089],[-111.911735,33.481438],[-111.912105,33.480988],[-111.91214,33.480763]]}},{"type":"Feature","properties":{"k":"stream"},"geometry":{"type":"LineString","coordinates":[[-111.912602,33.486683],[-111.912589,33.486647]]}},{"type":"Feature","properties":{"k":"stream"},"geometry":{"type":"LineString","coordinates":[[-111.912681,33.486901],[-111.912602,33.486683]]}},{"type":"Feature","properties":{"k":"stream"},"geometry":{"type":"LineString","coordinates":[[-111.912273,33.485137],[-111.912266,33.485085]]}},{"type":"Feature","properties":{"k":"stream"},"geometry":{"type":"LineString","coordinates":[[-111.91214,33.480763],[-111.912148,33.480703]]}},{"type":"Feature","properties":{"k":"stream"},"geometry":{"type":"LineString","coordinates":[[-111.909335,33.49457],[-111.909321,33.494684]]}}]}