{"type":"FeatureCollection","features":[{"type":"Feature","properties":{"k":"hole","ref":"1","par":5},"geometry":{"type":"LineString","coordinates":[[-117.134118,33.468547],[-117.13312,33.466536],[-117.131299,33.465778]]}},{"type":"Feature","properties":{"k":"hole","ref":"2","par":4},"geometry":{"type":"LineString","coordinates":[[-117.131275,33.465361],[-117.133489,33.465683],[-117.134219,33.466422]]}},{"type":"Feature","properties":{"k":"hole","ref":"3","par":4},"geometry":{"type":"LineString","coordinates":[[-117.134352,33.465853],[-117.133706,33.46415],[-117.133652,33.462686]]}},{"type":"Feature","properties":{"k":"hole","ref":"4","par":4},"geometry":{"type":"LineString","coordinates":[[-117.13319,33.462412],[-117.132383,33.463909],[-117.132654,33.464846]]}},{"type":"Feature","properties":{"k":"hole","ref":"5","par":3},"geometry":{"type":"LineString","coordinates":[[-117.131911,33.465041],[-117.131322,33.46364]]}},{"type":"Feature","properties":{"k":"hole","ref":"6","par":4},"geometry":{"type":"LineString","coordinates":[[-117.131268,33.463173],[-117.133041,33.461753],[-117.134082,33.460748]]}},{"type":"Feature","properties":{"k":"hole","ref":"7","par":4},"geometry":{"type":"LineString","coordinates":[[-117.134635,33.460228],[-117.134222,33.462316],[-117.134315,33.463101]]}},{"type":"Feature","properties":{"k":"hole","ref":"8","par":3},"geometry":{"type":"LineString","coordinates":[[-117.134961,33.463585],[-117.134885,33.464955]]}},{"type":"Feature","properties":{"k":"hole","ref":"9","par":5},"geometry":{"type":"LineString","coordinates":[[-117.135296,33.464804],[-117.134841,33.467383],[-117.134211,33.468981]]}},{"type":"Feature","properties":{"k":"hole","ref":"10","par":4},"geometry":{"type":"LineString","coordinates":[[-117.132655,33.468673],[-117.130818,33.468012],[-117.130155,33.467054]]}},{"type":"Feature","properties":{"k":"hole","ref":"11","par":5},"geometry":{"type":"LineString","coordinates":[[-117.129502,33.466948],[-117.128537,33.465178],[-117.127871,33.463101]]}},{"type":"Feature","properties":{"k":"hole","ref":"12","par":3},"geometry":{"type":"LineString","coordinates":[[-117.127454,33.463314],[-117.125698,33.463328]]}},{"type":"Feature","properties":{"k":"hole","ref":"13","par":4},"geometry":{"type":"LineString","coordinates":[[-117.126115,33.462854],[-117.125819,33.460749],[-117.125392,33.459543]]}},{"type":"Feature","properties":{"k":"hole","ref":"14","par":4},"geometry":{"type":"LineString","coordinates":[[-117.125038,33.459375],[-117.1247,33.46184],[-117.125051,33.462973]]}},{"type":"Feature","properties":{"k":"hole","ref":"15","par":3},"geometry":{"type":"LineString","coordinates":[[-117.124634,33.463016],[-117.122953,33.461968]]}},{"type":"Feature","properties":{"k":"hole","ref":"16","par":5},"geometry":{"type":"LineString","coordinates":[[-117.122431,33.462211],[-117.124984,33.463616],[-117.126493,33.464797]]}},{"type":"Feature","properties":{"k":"hole","ref":"17","par":4},"geometry":{"type":"LineString","coordinates":[[-117.126241,33.465072],[-117.128043,33.466468],[-117.128738,33.467713]]}},{"type":"Feature","properties":{"k":"hole","ref":"18","par":4},"geometry":{"type":"LineString","coordinates":[[-117.129602,33.467639],[-117.131361,33.468936],[-117.132857,33.469306]]}},{"type":"Feature","properties":{"k":"stream"},"geometry":{"type":"LineString","coordinates":[[-117.128776,33.468967],[-117.128778,33.469164],[-117.128853,33.469414],[-117.128874,33.469727],[-117.128842,33.470273],[-117.128703,33.471598],[-117.12866,33.472287],[-117.1287,33.472414],[-117.128758,33.472446],[-117.128863,33.472609],[-117.129078,33.47277],[-117.1294,33.472949],[-117.129818,33.473101],[-117.130387,33.473254],[-117.130899,33.473381]]}},{"type":"Feature","properties":{"k":"wood"},"geometry":{"type":"Polygon","coordinates":[[[-117.133985,33.461416],[-117.134042,33.461474],[-117.134106,33.461505],[-117.134163,33.461471],[-117.134168,33.461418],[-117.134141,33.461348],[-117.134154,33.461301],[-117.134251,33.461272],[-117.134283,33.461241],[-117.134329,33.46114],[-117.134321,33.461051],[-117.134291,33.460975],[-117.13438,33.460843],[-117.134383,33.460782],[-117.134364,33.460713],[-117.134275,33.460556],[-117.134275,33.460487],[-117.134337,33.460424],[-117.134415,33.460386],[-117.13446,33.460348],[-117.134541,33.460243],[-117.134533,33.460102],[-117.134562,33.460037],[-117.134597,33.460019],[-117.13467,33.460015],[-117.134763,33.460059],[-117.134801,33.46012],[-117.134793,33.460221],[-117.134728,33.460288],[-117.134656,33.460341],[-117.134639,33.460422],[-117.134677,33.460556],[-117.134632,33.460729],[-117.134594,33.460809],[-117.134592,33.460883],[-117.134662,33.461118],[-117.134728,33.461398],[-117.134777,33.461492],[-117.13483,33.461552],[-117.134871,33.461612],[-117.134873,33.461655],[-117.134846,33.461695],[-117.134804,33.461715],[-117.134728,33.461695],[-117.13468,33.461664],[-117.134629,33.461664],[-117.134589,33.46168],[-117.134565,33.461713],[-117.134565,33.46176],[-117.134592,33.461796],[-117.134648,33.461809],[-117.134712,33.461789],[-117.134793,33.461787],[-117.134855,33.461805],[-117.134908,33.461872],[-117.134943,33.461962],[-117.134978,33.462024],[-117.134975,33.462116],[-117.134916,33.462185],[-117.134822,33.462264],[-117.134739,33.462308],[-117.134691,33.462322],[-117.134635,33.462293],[-117.134554,33.462226],[-117.134514,33.462217],[-117.13446,33.462235],[-117.134425,33.462279],[-117.134409,33.462337],[-117.134412,33.462398],[-117.134434,33.462474],[-117.134487,33.462541],[-117.134517,33.462597],[-117.13453,33.462642],[-117.134527,33.462684],[-117.134501,33.462711],[-117.134444,33.462742],[-117.134375,33.462671],[-117.134321,33.462669],[-117.134294,33.462702],[-117.134289,33.462754],[-117.134305,33.462801],[-117.13438,33.462827],[-117.134471,33.462892],[-117.134487,33.463024],[-117.134509,33.463085],[-117.134565,33.463197],[-117.134581,33.463264],[-117.134557,33.463333],[-117.134501,33.463358],[-117.134444,33.463291],[-117.134404,33.463277],[-117.134361,33.463279],[-117.134321,33.463302],[-117.134299,33.463333],[-117.13431,33.463463],[-117.134265,33.463483],[-117.134197,33.463483],[-117.134165,33.463436],[-117.134154,33.463235],[-117.134101,33.463217],[-117.13405,33.463219],[-117.134007,33.463253],[-117.133975,33.463293],[-117.133969,33.463344],[-117.133983,33.46338],[-117.134015,33.46342],[-117.134004,33.463454],[-117.134018,33.463496],[-117.134088,33.463535],[-117.134144,33.463539],[-117.134117,33.463577],[-117.134117,33.463624],[-117.134144,33.46366],[-117.134069,33.463698],[-117.134047,33.463738],[-117.13405,33.463778],[-117.134071,33.463803],[-117.134122,33.463817],[-117.1342,33.463803],[-117.134259,33.463783],[-117.134294,33.463808],[-117.134265,33.463863],[-117.134195,33.46389],[-117.134195,33.463928],[-117.134254,33.46398],[-117.13427,33.464033],[-117.134232,33.464063],[-117.134187,33.464069],[-117.134085,33.464033],[-117.134053,33.46398],[-117.134061,33.463901],[-117.133964,33.463763],[-117.133916,33.463743],[-117.133859,33.463749],[-117.133792,33.463812],[-117.133817,33.463866],[-117.133905,33.463978],[-117.133932,33.464029],[-117.133948,33.464101],[-117.133937,33.464188],[-117.133937,33.464284],[-117.133972,33.464374],[-117.13402,33.464445],[-117.134061,33.464474],[-117.134128,33.464472],[-117.134144,33.464441],[-117.134112,33.464338],[-117.134141,33.464286],[-117.134168,33.464277],[-117.134214,33.464289],[-117.134315,33.464405],[-117.134364,33.464436],[-117.134407,33.464438],[-117.134447,33.464414],[-117.134492,33.464336],[-117.134527,33.464302],[-117.134592,33.464289],[-117.134704,33.464351],[-117.134785,33.464438],[-117.134812,33.464447],[-117.134837,33.464444],[-117.134862,33.464425],[-117.134873,33.464378],[-117.134852,33.464282],[-117.134739,33.464208],[-117.134707,33.46417],[-117.134702,33.464134],[-117.134677,33.464107],[-117.134608,33.464103],[-117.134559,33.464078],[-117.134546,33.46404],[-117.134576,33.464009],[-117.134624,33.464009],[-117.134758,33.464056],[-117.134796,33.46404],[-117.134825,33.464013],[-117.134839,33.463986],[-117.134828,33.463942],[-117.134809,33.463906],[-117.134753,33.46389],[-117.134616,33.46389],[-117.134568,33.463857],[-117.134546,33.463805],[-117.134565,33.463758],[-117.134737,33.463678],[-117.134779,33.463635],[-117.134814,33.463581],[-117.134836,33.463519],[-117.134833,33.4634],[-117.134798,33.463335],[-117.134788,33.463291],[-117.134793,33.463232],[-117.134825,33.463194],[-117.134868,33.46319],[-117.134903,33.463208],[-117.134983,33.463297],[-117.135008,33.463308],[-117.135042,33.463297],[-117.135083,33.463264],[-117.135107,33.46323],[-117.135115,33.463201],[-117.135085,33.463172],[-117.13505,33.463154],[-117.134948,33.46315],[-117.134914,33.46313],[-117.134908,33.4631],[-117.13493,33.46306],[-117.134975,33.463033],[-117.135042,33.463027],[-117.135219,33.463078],[-117.135281,33.463118],[-117.13534,33.463172],[-117.135415,33.463293],[-117.135429,33.463382],[-117.135415,33.463432],[-117.13538,33.463447],[-117.135351,33.463432],[-117.135332,33.463403],[-117.135286,33.463396],[-117.135227,33.463411],[-117.135171,33.46345],[-117.135109,33.463535],[-117.135096,33.463573],[-117.13504,33.463635],[-117.135042,33.463671],[-117.135155,33.463747],[-117.13519,33.463765],[-117.135235,33.463765],[-117.13526,33.463752],[-117.135295,33.463727],[-117.135311,33.463658],[-117.135404,33.463595],[-117.135455,33.463548],[-117.135504,33.463528],[-117.135555,33.463523],[-117.135598,33.463535],[-117.135638,33.463514],[-117.135657,33.463448],[-117.135644,33.463159],[-117.135499,33.462765],[-117.13548,33.462239],[-117.1355,33.461952],[-117.135537,33.461781],[-117.135608,33.461609],[-117.135342,33.459574],[-117.135319,33.459491],[-117.135276,33.459417],[-117.135292,33.459375],[-117.135335,33.459337],[-117.135348,33.459299],[-117.135353,33.459247],[-117.135324,33.459149],[-117.135244,33.459046],[-117.135193,33.458994],[-117.134991,33.458824],[-117.13494,33.458726],[-117.134908,33.45871],[-117.134839,33.458719],[-117.134636,33.458612],[-117.13441,33.458969],[-117.134217,33.459524],[-117.133876,33.460579],[-117.13391,33.460572],[-117.133951,33.460527],[-117.134012,33.460487],[-117.134047,33.460494],[-117.134074,33.460514],[-117.134144,33.460592],[-117.13416,33.460634],[-117.134168,33.46069],[-117.13416,33.460807],[-117.134141,33.46089],[-117.134096,33.460943],[-117.13409,33.461111],[-117.134074,33.461138],[-117.134047,33.461129],[-117.133994,33.461078],[-117.133953,33.461058],[-117.133908,33.461073],[-117.133897,33.461093],[-117.13387,33.461266],[-117.133902,33.461339],[-117.133937,33.46138],[-117.133985,33.461416]]]}},{"type":"Feature","properties":{"k":"green"},"geometry":{"type":"Polygon","coordinates":[[[-117.131335,33.4657],[-117.13125,33.465676],[-117.131216,33.465676],[-117.131196,33.465691],[-117.131186,33.46571],[-117.131185,33.465798],[-117.131211,33.465825],[-117.131271,33.465834],[-117.131366,33.465866],[-117.131396,33.465862],[-117.131437,33.465841],[-117.131444,33.465826],[-117.13144,33.4658],[-117.131417,33.465756],[-117.131364,33.465713],[-117.131335,33.4657]]]}},{"type":"Feature","properties":{"k":"bunker"},"geometry":{"type":"Polygon","coordinates":[[[-117.131479,33.465641],[-117.131414,33.46565],[-117.131403,33.465673],[-117.131446,33.465731],[-117.131452,33.465786],[-117.13147,33.465793],[-117.131497,33.465782],[-117.131515,33.465752],[-117.131554,33.465743],[-117.131567,33.465734],[-117.131569,33.465722],[-117.131558,33.465707],[-117.131524,33.465689],[-117.131506,33.465645],[-117.131479,33.465641]]]}},{"type":"Feature","properties":{"k":"bunker"},"geometry":{"type":"Polygon","coordinates":[[[-117.131264,33.465851],[-117.131231,33.465838],[-117.131213,33.465842],[-117.131202,33.46585],[-117.131202,33.465886],[-117.131276,33.465905],[-117.131322,33.465928],[-117.131352,33.465927],[-117.131354,33.465901],[-117.131339,33.465875],[-117.131326,33.465866],[-117.13128,33.465861],[-117.131264,33.465851]]]}},{"type":"Feature","properties":{"k":"bunker"},"geometry":{"type":"Polygon","coordinates":[[[-117.133936,33.466672],[-117.133914,33.466682],[-117.133839,33.466673],[-117.133828,33.466686],[-117.133829,33.4667],[-117.133849,33.466719],[-117.133898,33.466729],[-117.133933,33.466752],[-117.133984,33.466816],[-117.134001,33.466822],[-117.134027,33.466818],[-117.134046,33.466797],[-117.134049,33.466771],[-117.134041,33.466759],[-117.134015,33.466753],[-117.133994,33.466737],[-117.133988,33.466706],[-117.133993,33.466677],[-117.133969,33.466662],[-117.133936,33.466672]]]}},{"type":"Feature","properties":{"k":"tee"},"geometry":{"type":"Polygon","coordinates":[[[-117.134233,33.468437],[-117.134229,33.468456],[-117.134187,33.468481],[-117.134136,33.468466],[-117.134107,33.468429],[-117.134105,33.468373],[-117.13412,33.468347],[-117.134141,33.468338],[-117.134171,33.468344],[-117.134197,33.468361],[-117.13423,33.46841],[-117.134233,33.468437]]]}},{"type":"Feature","properties":{"k":"tee"},"geometry":{"type":"Polygon","coordinates":[[[-117.131578,33.465392],[-117.131559,33.465347],[-117.131565,33.46533],[-117.131596,33.465311],[-117.131624,33.46531],[-117.131653,33.465318],[-117.131688,33.465364],[-117.131688,33.465395],[-117.131671,33.465416],[-117.131646,33.46543],[-117.131619,33.465432],[-117.131597,33.465419],[-117.131578,33.465392]]]}},{"type":"Feature","properties":{"k":"tee"},"geometry":{"type":"Polygon","coordinates":[[[-117.131362,33.465377],[-117.131355,33.46535],[-117.131368,33.465333],[-117.131414,33.465311],[-117.131444,33.465309],[-117.131469,33.465331],[-117.131486,33.465362],[-117.131495,33.465398],[-117.131488,33.465435],[-117.131467,33.465446],[-117.131437,33.465449],[-117.131407,33.465429],[-117.131362,33.465377]]]}},{"type":"Feature","properties":{"k":"tee"},"geometry":{"type":"Polygon","coordinates":[[[-117.131238,33.465389],[-117.13122,33.465359],[-117.131242,33.465327],[-117.131278,33.465315],[-117.131322,33.465332],[-117.13133,33.46535],[-117.131325,33.465376],[-117.131308,33.465392],[-117.13126,33.465402],[-117.131238,33.465389]]]}},{"type":"Feature","properties":{"k":"green"},"geometry":{"type":"Polygon","coordinates":[[[-117.134114,33.466338],[-117.134132,33.466292],[-117.134167,33.466275],[-117.134188,33.466273],[-117.134262,33.466305],[-117.134297,33.466339],[-117.134308,33.466377],[-117.134288,33.466446],[-117.134299,33.466552],[-117.134262,33.46658],[-117.134233,33.466581],[-117.134202,33.466572],[-117.134133,33.466518],[-117.134114,33.466338]]]}},{"type":"Feature","properties":{"k":"bunker"},"geometry":{"type":"Polygon","coordinates":[[[-117.133197,33.465903],[-117.133203,33.46585],[-117.133191,33.465838],[-117.133157,33.465827],[-117.133153,33.465801],[-117.133162,33.465791],[-117.133179,33.465793],[-117.133207,33.465812],[-117.133237,33.465821],[-117.133265,33.4658],[-117.13328,33.4658],[-117.133294,33.46581],[-117.133299,33.465826],[-117.13329,33.465839],[-117.133293,33.46585],[-117.133304,33.465864],[-117.133357,33.465885],[-117.13336,33.465906],[-117.13333,33.465925],[-117.133303,33.465919],[-117.133266,33.465879],[-117.133255,33.465879],[-117.133241,33.465914],[-117.133224,33.465923],[-117.133197,33.465903]]]}},{"type":"Feature","properties":{"k":"bunker"},"geometry":{"type":"Polygon","coordinates":[[[-117.131794,33.46624],[-117.131774,33.466235],[-117.131731,33.466247],[-117.131711,33.466243],[-117.131697,33.466181],[-117.131682,33.466161],[-117.131591,33.466131],[-117.131579,33.46612],[-117.131579,33.4661],[-117.131608,33.466086],[-117.131631,33.466058],[-117.131651,33.466055],[-117.131693,33.466093],[-117.131737,33.466099],[-117.131751,33.466114],[-117.131754,33.466166],[-117.131808,33.466181],[-117.131821,33.466198],[-117.131817,33.466218],[-117.131794,33.46624]]]}},{"type":"Feature","properties":{"k":"bunker"},"geometry":{"type":"Polygon","coordinates":[[[-117.134335,33.466445],[-117.134315,33.466433],[-117.134327,33.466405],[-117.13434,33.466405],[-117.13436,33.46642],[-117.134354,33.466442],[-117.134335,33.466445]]]}},{"type":"Feature","properties":{"k":"bunker"},"geometry":{"type":"Polygon","coordinates":[[[-117.134088,33.466466],[-117.134059,33.46648],[-117.134035,33.466466],[-117.13406,33.466423],[-117.13404,33.466374],[-117.134049,33.466352],[-117.134068,33.466353],[-117.13409,33.46637],[-117.134108,33.466442],[-117.134088,33.466466]]]}},{"type":"Feature","properties":{"k":"tee"},"geometry":{"type":"Polygon","coordinates":[[[-117.134329,33.46587],[-117.134321,33.465858],[-117.134326,33.465823],[-117.13434,33.465814],[-117.134373,33.465821],[-117.134389,33.465853],[-117.134381,33.465873],[-117.134349,33.465884],[-117.134329,33.46587]]]}},{"type":"Feature","properties":{"k":"tee"},"geometry":{"type":"Polygon","coordinates":[[[-117.134326,33.465731],[-117.134304,33.46573],[-117.134289,33.465717],[-117.134272,33.465683],[-117.134272,33.465662],[-117.134298,33.465638],[-117.134317,33.465633],[-117.13434,33.465636],[-117.134355,33.465647],[-117.134362,33.465668],[-117.134355,33.465712],[-117.134326,33.465731]]]}},{"type":"Feature","properties":{"k":"tee"},"geometry":{"type":"Polygon","coordinates":[[[-117.133998,33.465378],[-117.133981,33.465314],[-117.13399,33.465294],[-117.134035,33.465282],[-117.134054,33.465293],[-117.134078,33.465325],[-117.13409,33.465364],[-117.13408,33.465387],[-117.134063,33.4654],[-117.134042,33.465403],[-117.134017,33.465397],[-117.133998,33.465378]]]}},{"type":"Feature","properties":{"k":"green"},"geometry":{"type":"Polygon","coordinates":[[[-117.133682,33.462772],[-117.133636,33.462801],[-117.133608,33.462802],[-117.133578,33.462789],[-117.133545,33.462748],[-117.133535,33.462687],[-117.133555,33.462648],[-117.133659,33.462589],[-117.133701,33.46258],[-117.133731,33.462584],[-117.133764,33.462608],[-117.133777,33.462671],[-117.133754,33.462709],[-117.133682,33.462772]]]}},{"type":"Feature","properties":{"k":"fairway"},"geometry":{"type":"Polygon","coordinates":[[[-117.13402,33.464681],[-117.13402,33.464764],[-117.134005,33.464795],[-117.133982,33.464825],[-117.133947,33.464849],[-117.133907,33.464862],[-117.133851,33.464863],[-117.133796,33.46485],[-117.133751,33.464826],[-117.133693,33.464761],[-117.13366,33.46467],[-117.133595,33.464428],[-117.133482,33.463903],[-117.133477,33.463839],[-117.133498,33.463798],[-117.13353,33.463765],[-117.133572,33.463744],[-117.133629,33.463742],[-117.133685,33.463773],[-117.133717,33.46381],[-117.133748,33.463873],[-117.133835,33.463986],[-117.133872,33.464058],[-117.133942,33.464408],[-117.13402,33.464681]]]}},{"type":"Feature","properties":{"k":"bunker"},"geometry":{"type":"Polygon","coordinates":[[[-117.133825,33.462631],[-117.133816,33.462626],[-117.133816,33.462609],[-117.133836,33.462602],[-117.133851,33.462622],[-117.133835,33.462634],[-117.133825,33.462631]]]}},{"type":"Feature","properties":{"k":"bunker"},"geometry":{"type":"Polygon","coordinates":[[[-117.133551,33.462603],[-117.133532,33.462579],[-117.133563,33.462559],[-117.133585,33.462572],[-117.133587,33.462583],[-117.133574,33.462601],[-117.133551,33.462603]]]}},{"type":"Feature","properties":{"k":"bunker"},"geometry":{"type":"Polygon","coordinates":[[[-117.13349,33.462771],[-117.133465,33.462761],[-117.133469,33.462741],[-117.133481,33.462734],[-117.133495,33.462734],[-117.133512,33.462747],[-117.133505,33.462767],[-117.13349,33.462771]]]}},{"type":"Feature","properties":{"k":"bunker"},"geometry":{"type":"Polygon","coordinates":[[[-117.133749,33.462783],[-117.133735,33.462785],[-117.13372,33.46277],[-117.133747,33.462748],[-117.133762,33.462751],[-117.133767,33.462763],[-117.133764,33.462775],[-117.133749,33.462783]]]}},{"type":"Feature","properties":{"k":"tee"},"geometry":{"type":"Polygon","coordinates":[[[-117.133211,33.462537],[-117.133216,33.462571],[-117.133207,33.462595],[-117.133188,33.462615],[-117.133153,33.462619],[-117.133118,33.462609],[-117.133102,33.462592],[-117.133088,33.46256],[-117.133089,33.462527],[-117.133135,33.462477],[-117.133149,33.462388],[-117.133165,33.462369],[-117.133193,33.462365],[-117.133218,33.462373],[-117.133241,33.462409],[-117.133206,33.462483],[-117.133211,33.462537]]]}},{"type":"Feature","properties":{"k":"tee"},"geometry":{"type":"Polygon","coordinates":[[[-117.132797,33.462738],[-117.132769,33.462753],[-117.132738,33.462743],[-117.132734,33.462716],[-117.132755,33.46269],[-117.132773,33.462684],[-117.132804,33.462705],[-117.132797,33.462738]]]}},{"type":"Feature","properties":{"k":"green"},"geometry":{"type":"Polygon","coordinates":[[[-117.132808,33.4649],[-117.132772,33.464914],[-117.1327,33.464904],[-117.132617,33.464931],[-117.132584,33.464935],[-117.132562,33.46493],[-117.132539,33.464892],[-117.132512,33.464822],[-117.132515,33.464782],[-117.132533,33.464764],[-117.132595,33.464749],[-117.132633,33.464747],[-117.132706,33.464763],[-117.132803,33.464829],[-117.132817,33.464848],[-117.132821,33.464874],[-117.132808,33.4649]]]}},{"type":"Feature","properties":{"k":"bunker"},"geometry":{"type":"Polygon","coordinates":[[[-117.132657,33.464989],[-117.132623,33.464988],[-117.132607,33.464965],[-117.132632,33.464946],[-117.132672,33.464939],[-117.132689,33.46495],[-117.132693,33.464965],[-117.132685,33.464979],[-117.132657,33.464989]]]}},{"type":"Feature","properties":{"k":"bunker"},"geometry":{"type":"Polygon","coordinates":[[[-117.132692,33.464708],[-117.132626,33.464725],[-117.1326,33.464722],[-117.132565,33.464707],[-117.132559,33.464689],[-117.132566,33.464674],[-117.132587,33.464669],[-117.132619,33.464685],[-117.132642,33.464679],[-117.132631,33.464639],[-117.132649,33.464616],[-117.132667,33.464616],[-117.13268,33.464626],[-117.132694,33.464663],[-117.132751,33.464667],[-117.132767,33.464685],[-117.132756,33.464705],[-117.132742,33.464712],[-117.132692,33.464708]]]}},{"type":"Feature","properties":{"k":"bunker"},"geometry":{"type":"Polygon","coordinates":[[[-117.13254,33.464478],[-117.132544,33.464509],[-117.132593,33.464522],[-117.132611,33.464533],[-117.132617,33.464549],[-117.132607,33.464562],[-117.132567,33.464566],[-117.132539,33.464583],[-117.13246,33.46452],[-117.132454,33.464477],[-117.132414,33.464453],[-117.13241,33.464425],[-117.132469,33.464399],[-117.132482,33.464413],[-117.132485,33.46444],[-117.132531,33.464457],[-117.13254,33.464478]]]}},{"type":"Feature","properties":{"k":"tee"},"geometry":{"type":"Polygon","coordinates":[[[-117.131912,33.465071],[-117.131873,33.465071],[-117.131844,33.465054],[-117.131829,33.465019],[-117.131837,33.464977],[-117.131872,33.464957],[-117.131923,33.464959],[-117.131958,33.46498],[-117.131969,33.465011],[-117.131962,33.465046],[-117.131944,33.465065],[-117.131912,33.465071]]]}},{"type":"Feature","properties":{"k":"tee"},"geometry":{"type":"Polygon","coordinates":[[[-117.131803,33.464951],[-117.131755,33.464932],[-117.131741,33.464915],[-117.131738,33.464894],[-117.13175,33.464876],[-117.131774,33.464858],[-117.131804,33.464849],[-117.131864,33.46485],[-117.131894,33.464866],[-117.131906,33.464885],[-117.131906,33.464908],[-117.131896,33.464925],[-117.131851,33.464949],[-117.131803,33.464951]]]}},{"type":"Feature","properties":{"k":"tee"},"geometry":{"type":"Polygon","coordinates":[[[-117.131792,33.464801],[-117.131689,33.464763],[-117.131674,33.464747],[-117.131687,33.464706],[-117.131712,33.464694],[-117.131794,33.464703],[-117.131836,33.46472],[-117.131863,33.464742],[-117.131873,33.464764],[-117.131858,33.464795],[-117.13184,33.464805],[-117.131792,33.464801]]]}},{"type":"Feature","properties":{"k":"bunker"},"geometry":{"type":"Polygon","coordinates":[[[-117.131175,33.46379],[-117.131158,33.463765],[-117.131157,33.46374],[-117.131175,33.46373],[-117.13119,33.463731],[-117.131239,33.463772],[-117.131243,33.463796],[-117.131232,33.463811],[-117.131216,33.463811],[-117.131175,33.46379]]]}},{"type":"Feature","properties":{"k":"green"},"geometry":{"type":"Polygon","coordinates":[[[-117.131462,33.463685],[-117.131473,33.463706],[-117.131472,33.463724],[-117.131445,33.463757],[-117.131417,33.463761],[-117.131344,33.463749],[-117.131276,33.463751],[-117.131246,33.463744],[-117.131219,33.46371],[-117.131205,33.463646],[-117.131214,33.463595],[-117.131235,33.463574],[-117.131313,33.463545],[-117.131345,33.463535],[-117.131379,33.463537],[-117.131408,33.463547],[-117.131424,33.463567],[-117.13143,33.463616],[-117.131462,33.463685]]]}},{"type":"Feature","properties":{"k":"tee"},"geometry":{"type":"Polygon","coordinates":[[[-117.131294,33.463192],[-117.131274,33.463197],[-117.131252,33.463191],[-117.131236,33.463177],[-117.131242,33.463138],[-117.131256,33.46312],[-117.131293,33.4631],[-117.131316,33.463105],[-117.131331,33.46314],[-117.131312,33.463179],[-117.131294,33.463192]]]}},{"type":"Feature","properties":{"k":"tee"},"geometry":{"type":"Polygon","coordinates":[[[-117.131376,33.463074],[-117.131365,33.463055],[-117.131366,33.463001],[-117.131374,33.462979],[-117.131393,33.462965],[-117.13142,33.462959],[-117.131446,33.462971],[-117.13146,33.462993],[-117.131454,33.463041],[-117.131422,33.463077],[-117.131396,33.463081],[-117.131376,33.463074]]]}},{"type":"Feature","properties":{"k":"tee"},"geometry":{"type":"Polygon","coordinates":[[[-117.131871,33.462712],[-117.131866,33.462665],[-117.131877,33.462618],[-117.131892,33.462605],[-117.131915,33.462602],[-117.13194,33.462611],[-117.13195,33.462633],[-117.131935,33.46271],[-117.131902,33.462728],[-117.131876,33.462721],[-117.131871,33.462712]]]}},{"type":"Feature","properties":{"k":"bunker"},"geometry":{"type":"Polygon","coordinates":[[[-117.133323,33.461969],[-117.133326,33.462002],[-117.133314,33.462012],[-117.133273,33.462013],[-117.133238,33.461992],[-117.133234,33.461978],[-117.133284,33.46194],[-117.133285,33.461918],[-117.133277,33.461902],[-117.133247,33.461885],[-117.13324,33.461863],[-117.133252,33.461846],[-117.1333,33.461829],[-117.13333,33.461806],[-117.133357,33.461803],[-117.133377,33.461816],[-117.13338,33.461827],[-117.133375,33.461838],[-117.133336,33.461861],[-117.133357,33.461915],[-117.133326,33.46195],[-117.133323,33.461969]]]}},{"type":"Feature","properties":{"k":"bunker"},"geometry":{"type":"Polygon","coordinates":[[[-117.133951,33.460768],[-117.133944,33.460759],[-117.133951,33.460734],[-117.133976,33.460728],[-117.133987,33.460737],[-117.133983,33.460768],[-117.133961,33.460774],[-117.133951,33.460768]]]}},{"type":"Feature","properties":{"k":"green"},"geometry":{"type":"Polygon","coordinates":[[[-117.134148,33.460723],[-117.134151,33.460782],[-117.134132,33.460827],[-117.134052,33.460875],[-117.134028,33.46087],[-117.134012,33.460857],[-117.134004,33.460833],[-117.134023,33.460748],[-117.134021,33.460659],[-117.134046,33.460625],[-117.134079,33.460624],[-117.134124,33.46065],[-117.134144,33.460693],[-117.134148,33.460723]]]}},{"type":"Feature","properties":{"k":"fairway"},"geometry":{"type":"Polygon","coordinates":[[[-117.133349,33.461724],[-117.133229,33.46183],[-117.133202,33.461971],[-117.133173,33.462022],[-117.133111,33.462059],[-117.132867,33.462142],[-117.132676,33.462183],[-117.132607,33.462183],[-117.132551,33.462159],[-117.132514,33.462116],[-117.132509,33.462067],[-117.132531,33.462008],[-117.133012,33.461517],[-117.133112,33.461431],[-117.133186,33.461381],[-117.133264,33.461369],[-117.133342,33.461387],[-117.133427,33.461449],[-117.133452,33.461514],[-117.133434,33.461612],[-117.133402,33.461671],[-117.133349,33.461724]]]}},{"type":"Feature","properties":{"k":"tee"},"geometry":{"type":"Polygon","coordinates":[[[-117.134595,33.460222],[-117.134633,33.460211],[-117.134657,33.46022],[-117.134665,33.460241],[-117.134662,33.460265],[-117.134629,33.46029],[-117.134588,33.460285],[-117.134579,33.46027],[-117.134595,33.460222]]]}},{"type":"Feature","properties":{"k":"tee"},"geometry":{"type":"Polygon","coordinates":[[[-117.134521,33.460465],[-117.134514,33.460453],[-117.134517,33.460431],[-117.134542,33.460372],[-117.13458,33.460355],[-117.134622,33.460364],[-117.134634,33.46038],[-117.134634,33.460398],[-117.134594,33.460466],[-117.134558,33.460478],[-117.134521,33.460465]]]}},{"type":"Feature","properties":{"k":"tee"},"geometry":{"type":"Polygon","coordinates":[[[-117.134531,33.460628],[-117.134519,33.46066],[-117.134485,33.460677],[-117.134468,33.460673],[-117.134443,33.460648],[-117.134438,33.460629],[-117.134435,33.460613],[-117.134451,33.460576],[-117.134464,33.460569],[-117.134505,33.460572],[-117.134522,33.460588],[-117.134531,33.460628]]]}},{"type":"Feature","properties":{"k":"fairway"},"geometry":{"type":"Polygon","coordinates":[[[-117.134643,33.46148],[-117.134618,33.461536],[-117.13454,33.461557],[-117.134456,33.461533],[-117.134328,33.461441],[-117.13431,33.461379],[-117.134321,33.461303],[-117.134346,33.461217],[-117.134392,33.461173],[-117.134445,33.461164],[-117.134523,33.461181],[-117.134565,33.461235],[-117.134615,33.461347],[-117.134643,33.461424],[-117.134643,33.46148]]]}},{"type":"Feature","properties":{"k":"green"},"geometry":{"type":"Polygon","coordinates":[[[-117.134338,33.463206],[-117.13428,33.46319],[-117.134247,33.463151],[-117.134223,33.463059],[-117.134224,33.463033],[-117.134245,33.463001],[-117.134271,33.46299],[-117.134341,33.462996],[-117.134369,33.463012],[-117.134403,33.46306],[-117.134411,33.46309],[-117.134396,33.463155],[-117.134372,33.463193],[-117.134338,33.463206]]]}},{"type":"Feature","properties":{"k":"bunker"},"geometry":{"type":"Polygon","coordinates":[[[-117.13444,33.462995],[-117.134421,33.463008],[-117.134398,33.463001],[-117.134393,33.462979],[-117.134401,33.462961],[-117.13443,33.462962],[-117.13444,33.462995]]]}},{"type":"Feature","properties":{"k":"tee"},"geometry":{"type":"Polygon","coordinates":[[[-117.134894,33.464227],[-117.1349,33.464198],[-117.13491,33.464192],[-117.134952,33.464191],[-117.134967,33.464203],[-117.134968,33.464235],[-117.134955,33.464247],[-117.134916,33.464249],[-117.134894,33.464227]]]}},{"type":"Feature","properties":{"k":"tee"},"geometry":{"type":"Polygon","coordinates":[[[-117.134895,33.463863],[-117.134924,33.463885],[-117.134947,33.46389],[-117.13497,33.463884],[-117.134986,33.463856],[-117.134977,33.463818],[-117.134943,33.463794],[-117.134909,33.463798],[-117.134886,33.463821],[-117.134883,33.463837],[-117.134895,33.463863]]]}},{"type":"Feature","properties":{"k":"tee"},"geometry":{"type":"Polygon","coordinates":[[[-117.134947,33.46373],[-117.134909,33.463712],[-117.134899,33.463687],[-117.134906,33.463612],[-117.134927,33.463572],[-117.134977,33.463566],[-117.135,33.463579],[-117.135008,33.463604],[-117.135003,33.463703],[-117.134994,33.463719],[-117.134972,33.46373],[-117.134947,33.46373]]]}},{"type":"Feature","properties":{"k":"green"},"geometry":{"type":"Polygon","coordinates":[[[-117.134994,33.464962],[-117.13498,33.465011],[-117.134928,33.465057],[-117.134905,33.46507],[-117.134876,33.46507],[-117.134851,33.465061],[-117.134806,33.465016],[-117.134785,33.464957],[-117.134797,33.464866],[-117.134814,33.464845],[-117.134842,33.464832],[-117.134873,33.46483],[-117.134913,33.464841],[-117.134936,33.464856],[-117.134954,33.464882],[-117.134983,33.464927],[-117.134994,33.464962]]]}},{"type":"Feature","properties":{"k":"bunker"},"geometry":{"type":"Polygon","coordinates":[[[-117.135063,33.464914],[-117.135051,33.464936],[-117.135042,33.464942],[-117.13503,33.464939],[-117.135017,33.464901],[-117.134986,33.464869],[-117.134983,33.464853],[-117.135005,33.464845],[-117.135031,33.464855],[-117.135054,33.464884],[-117.135063,33.464914]]]}},{"type":"Feature","properties":{"k":"tee"},"geometry":{"type":"Polygon","coordinates":[[[-117.13527,33.464845],[-117.135263,33.464828],[-117.13527,33.464795],[-117.135289,33.464787],[-117.13531,33.464789],[-117.135329,33.464813],[-117.135327,33.46485],[-117.135303,33.464863],[-117.135286,33.46486],[-117.13527,33.464845]]]}},{"type":"Feature","properties":{"k":"tee"},"geometry":{"type":"Polygon","coordinates":[[[-117.13533,33.464927],[-117.135339,33.464964],[-117.135324,33.464989],[-117.1353,33.465001],[-117.135268,33.464994],[-117.135253,33.464965],[-117.135272,33.464921],[-117.135303,33.464907],[-117.13533,33.464927]]]}},{"type":"Feature","properties":{"k":"tee"},"geometry":{"type":"Polygon","coordinates":[[[-117.135216,33.465107],[-117.135237,33.465072],[-117.135254,33.465061],[-117.135276,33.46506],[-117.135297,33.465069],[-117.135304,33.465082],[-117.135306,33.4651],[-117.135291,33.465139],[-117.135281,33.465156],[-117.135266,33.465162],[-117.135236,33.46516],[-117.135223,33.46515],[-117.135216,33.465107]]]}},{"type":"Feature","properties":{"k":"tee"},"geometry":{"type":"Polygon","coordinates":[[[-117.135192,33.465534],[-117.1352,33.465507],[-117.135224,33.465495],[-117.135257,33.465497],[-117.135273,33.465519],[-117.135267,33.465547],[-117.135234,33.465567],[-117.135215,33.465566],[-117.135203,33.465557],[-117.135192,33.465534]]]}},{"type":"Feature","properties":{"k":"bunker"},"geometry":{"type":"Polygon","coordinates":[[[-117.134932,33.469074],[-117.134925,33.469029],[-117.134934,33.469017],[-117.134946,33.469015],[-117.134961,33.469021],[-117.134976,33.469045],[-117.135016,33.469072],[-117.135004,33.469093],[-117.134956,33.4691],[-117.134934,33.469129],[-117.134916,33.46914],[-117.134901,33.469137],[-117.134895,33.46911],[-117.134928,33.469086],[-117.134932,33.469074]]]}},{"type":"Feature","properties":{"k":"bunker"},"geometry":{"type":"Polygon","coordinates":[[[-117.135122,33.46892],[-117.135126,33.468946],[-117.135148,33.468962],[-117.135149,33.468979],[-117.13514,33.468988],[-117.135099,33.468994],[-117.135092,33.469017],[-117.13507,33.469032],[-117.135057,33.469027],[-117.135034,33.468998],[-117.135006,33.468985],[-117.135006,33.468971],[-117.13503,33.468955],[-117.135063,33.468956],[-117.135072,33.46895],[-117.135076,33.468924],[-117.13509,33.468907],[-117.135119,33.468905],[-117.135122,33.46892]]]}},{"type":"Feature","properties":{"k":"green"},"geometry":{"type":"Polygon","coordinates":[[[-117.134268,33.469032],[-117.134228,33.469046],[-117.13418,33.469046],[-117.134071,33.468995],[-117.134063,33.468984],[-117.134072,33.468955],[-117.134116,33.468935],[-117.134248,33.468916],[-117.134313,33.468932],[-117.134355,33.468964],[-117.134358,33.468996],[-117.134346,33.46901],[-117.134268,33.469032]]]}},{"type":"Feature","properties":{"k":"tee"},"geometry":{"type":"Polygon","coordinates":[[[-117.134147,33.46855],[-117.134116,33.468568],[-117.134098,33.468567],[-117.134083,33.468557],[-117.134083,33.468521],[-117.134101,33.468494],[-117.134142,33.468496],[-117.13417,33.468518],[-117.134147,33.46855]]]}},{"type":"Feature","properties":{"k":"tee"},"geometry":{"type":"Polygon","coordinates":[[[-117.134267,33.468133],[-117.134264,33.468143],[-117.134239,33.468161],[-117.134203,33.468159],[-117.134188,33.468149],[-117.13418,33.468123],[-117.134191,33.468094],[-117.13422,33.468085],[-117.13424,33.468088],[-117.13426,33.468108],[-117.134267,33.468133]]]}},{"type":"Feature","properties":{"k":"water"},"geometry":{"type":"Polygon","coordinates":[[[-117.134638,33.468548],[-117.134633,33.468611],[-117.134619,33.468635],[-117.134597,33.468654],[-117.134521,33.468693],[-117.134513,33.468717],[-117.134512,33.468808],[-117.134486,33.468843],[-117.134461,33.468847],[-117.134376,33.468838],[-117.134337,33.468871],[-117.134318,33.468908],[-117.134241,33.468889],[-117.134179,33.468843],[-117.134141,33.468833],[-117.134106,33.468833],[-117.134075,33.468844],[-117.134061,33.468865],[-117.13401,33.46897],[-117.133959,33.468964],[-117.13394,33.468947],[-117.133938,33.468928],[-117.133963,33.468876],[-117.133966,33.468815],[-117.133983,33.468802],[-117.134022,33.468789],[-117.134118,33.468779],[-117.134162,33.468768],[-117.134176,33.468755],[-117.134199,33.468688],[-117.134308,33.468602],[-117.134386,33.468521],[-117.134442,33.46842],[-117.13448,33.468408],[-117.134515,33.468409],[-117.134542,33.46842],[-117.134568,33.468438],[-117.134595,33.468471],[-117.134638,33.468548]]]}},{"type":"Feature","properties":{"k":"tee"},"geometry":{"type":"Polygon","coordinates":[[[-117.132576,33.468705],[-117.132511,33.468676],[-117.132495,33.468656],[-117.13249,33.468626],[-117.1325,33.468601],[-117.132521,33.468583],[-117.132552,33.468576],[-117.132607,33.468589],[-117.13266,33.468611],[-117.132691,33.468657],[-117.132687,33.468683],[-117.13267,33.468705],[-117.13264,33.468716],[-117.132576,33.468705]]]}},{"type":"Feature","properties":{"k":"tee"},"geometry":{"type":"Polygon","coordinates":[[[-117.132306,33.468596],[-117.132287,33.468584],[-117.132274,33.468564],[-117.132273,33.468542],[-117.132284,33.468516],[-117.132308,33.468501],[-117.132382,33.468494],[-117.132423,33.468505],[-117.132454,33.468523],[-117.132466,33.468548],[-117.132462,33.468577],[-117.132447,33.468602],[-117.132416,33.468616],[-117.132381,33.468615],[-117.132346,33.468611],[-117.132306,33.468596]]]}},{"type":"Feature","properties":{"k":"tee"},"geometry":{"type":"Polygon","coordinates":[[[-117.132165,33.468504],[-117.132155,33.468472],[-117.132161,33.468458],[-117.132192,33.468445],[-117.132231,33.46846],[-117.13224,33.468476],[-117.132231,33.468514],[-117.132213,33.468525],[-117.132193,33.468525],[-117.132165,33.468504]]]}},{"type":"Feature","properties":{"k":"tee"},"geometry":{"type":"Polygon","coordinates":[[[-117.132057,33.468599],[-117.132048,33.468576],[-117.132061,33.468553],[-117.132086,33.468542],[-117.132116,33.468548],[-117.132132,33.468573],[-117.132122,33.468599],[-117.132095,33.468612],[-117.132079,33.468612],[-117.132057,33.468599]]]}},{"type":"Feature","properties":{"k":"bunker"},"geometry":{"type":"Polygon","coordinates":[[[-117.130556,33.467548],[-117.130526,33.467528],[-117.130528,33.467494],[-117.130539,33.467481],[-117.130583,33.46747],[-117.130605,33.467474],[-117.130636,33.467492],[-117.130672,33.467486],[-117.1307,33.467492],[-117.130728,33.467521],[-117.130735,33.467539],[-117.130735,33.467556],[-117.130713,33.467573],[-117.130692,33.467569],[-117.130639,33.467539],[-117.130586,33.467551],[-117.130556,33.467548]]]}},{"type":"Feature","properties":{"k":"bunker"},"geometry":{"type":"Polygon","coordinates":[[[-117.130141,33.467271],[-117.130118,33.467279],[-117.130094,33.467258],[-117.130093,33.467207],[-117.130108,33.467198],[-117.130198,33.46722],[-117.130208,33.467228],[-117.130204,33.467252],[-117.130141,33.467271]]]}},{"type":"Feature","properties":{"k":"bunker"},"geometry":{"type":"Polygon","coordinates":[[[-117.130292,33.467111],[-117.130298,33.467072],[-117.130279,33.467021],[-117.130308,33.467003],[-117.130342,33.467],[-117.130357,33.467006],[-117.130363,33.467027],[-117.130353,33.467041],[-117.130346,33.467096],[-117.130325,33.467119],[-117.130312,33.467121],[-117.130292,33.467111]]]}},{"type":"Feature","properties":{"k":"bunker"},"geometry":{"type":"Polygon","coordinates":[[[-117.130022,33.467039],[-117.130007,33.467069],[-117.129996,33.467078],[-117.129981,33.467078],[-117.129939,33.467059],[-117.129923,33.467033],[-117.129942,33.467014],[-117.129984,33.467004],[-117.129992,33.466965],[-117.130011,33.466951],[-117.130039,33.46696],[-117.130047,33.466981],[-117.130047,33.467002],[-117.130022,33.467039]]]}},{"type":"Feature","properties":{"k":"green"},"geometry":{"type":"Polygon","coordinates":[[[-117.130232,33.46705],[-117.130252,33.467144],[-117.130248,33.467166],[-117.130231,33.467181],[-117.130212,33.467185],[-117.130079,33.467155],[-117.130038,33.467136],[-117.130035,33.467117],[-117.130043,33.467094],[-117.130111,33.466961],[-117.130156,33.466911],[-117.130213,33.466903],[-117.130233,33.466913],[-117.130248,33.466933],[-117.130232,33.46701],[-117.130232,33.46705]]]}},{"type":"Feature","properties":{"k":"fairway"},"geometry":{"type":"Polygon","coordinates":[[[-117.131129,33.46795],[-117.131058,33.467911],[-117.130989,33.467859],[-117.130796,33.467686],[-117.130726,33.46765],[-117.130424,33.467621],[-117.130379,33.46764],[-117.130344,33.467671],[-117.130322,33.46771],[-117.130316,33.467818],[-117.130353,33.467918],[-117.130448,33.468028],[-117.130572,33.468127],[-117.130637,33.468167],[-117.130838,33.468239],[-117.13109,33.468278],[-117.131355,33.468352],[-117.131659,33.468454],[-117.13182,33.468527],[-117.131865,33.46854],[-117.131914,33.468544],[-117.131956,33.46853],[-117.131991,33.468508],[-117.132017,33.468478],[-117.132021,33.468442],[-117.132011,33.468408],[-117.131989,33.468381],[-117.131379,33.468066],[-117.131129,33.46795]]]}},{"type":"Feature","properties":{"k":"tee"},"geometry":{"type":"Polygon","coordinates":[[[-117.129566,33.466907],[-117.129523,33.466968],[-117.129482,33.466967],[-117.129469,33.466958],[-117.129464,33.466943],[-117.129491,33.46689],[-117.129523,33.466846],[-117.129545,33.466834],[-117.129575,33.466851],[-117.12958,33.466868],[-117.129566,33.466907]]]}},{"type":"Feature","properties":{"k":"tee"},"geometry":{"type":"Polygon","coordinates":[[[-117.129511,33.466771],[-117.12951,33.466785],[-117.129487,33.466802],[-117.129453,33.466797],[-117.129429,33.466762],[-117.129434,33.466737],[-117.129453,33.466724],[-117.129487,33.46673],[-117.129508,33.466755],[-117.129511,33.466771]]]}},{"type":"Feature","properties":{"k":"tee"},"geometry":{"type":"Polygon","coordinates":[[[-117.129429,33.466638],[-117.12942,33.46666],[-117.129407,33.466668],[-117.129386,33.466666],[-117.129366,33.466648],[-117.129368,33.466633],[-117.129391,33.466616],[-117.129412,33.466617],[-117.129429,33.466638]]]}},{"type":"Feature","properties":{"k":"bunker"},"geometry":{"type":"Polygon","coordinates":[[[-117.128271,33.465426],[-117.128245,33.465471],[-117.128209,33.465479],[-117.128192,33.465468],[-117.128188,33.465448],[-117.128206,33.465426],[-117.1282,33.465394],[-117.128206,33.465382],[-117.12831,33.465369],[-117.128318,33.465381],[-117.128314,33.465393],[-117.128271,33.465426]]]}},{"type":"Feature","properties":{"k":"bunker"},"geometry":{"type":"Polygon","coordinates":[[[-117.128289,33.465264],[-117.128235,33.465278],[-117.128224,33.46527],[-117.128244,33.465187],[-117.128267,33.465171],[-117.128285,33.465176],[-117.128302,33.465203],[-117.128341,33.465226],[-117.128346,33.465246],[-117.128341,33.465258],[-117.128289,33.465264]]]}},{"type":"Feature","properties":{"k":"bunker"},"geometry":{"type":"Polygon","coordinates":[[[-117.127796,33.463499],[-117.12779,33.463533],[-117.127764,33.463549],[-117.127749,33.463531],[-117.127747,33.463503],[-117.127708,33.463485],[-117.127697,33.463466],[-117.127715,33.463451],[-117.127757,33.463456],[-117.127791,33.463477],[-117.127796,33.463499]]]}},{"type":"Feature","properties":{"k":"bunker"},"geometry":{"type":"Polygon","coordinates":[[[-117.127822,33.463305],[-117.127776,33.463275],[-117.127754,33.463248],[-117.127759,33.463229],[-117.127779,33.463211],[-117.127807,33.463216],[-117.127841,33.463253],[-117.127877,33.463256],[-117.127886,33.463265],[-117.127892,33.463279],[-117.127886,33.463293],[-117.127822,33.463305]]]}},{"type":"Feature","properties":{"k":"green"},"geometry":{"type":"Polygon","coordinates":[[[-117.127952,33.463165],[-117.127919,33.463209],[-117.1279,33.463215],[-117.127855,33.463211],[-117.127733,33.463147],[-117.127722,33.463127],[-117.12773,33.463087],[-117.127745,33.463068],[-117.127858,33.463014],[-117.127914,33.462996],[-117.127965,33.462995],[-117.127986,33.463003],[-117.12801,33.463028],[-117.128015,33.463071],[-117.127999,33.463108],[-117.127952,33.463165]]]}},{"type":"Feature","properties":{"k":"water"},"geometry":{"type":"Polygon","coordinates":[[[-117.126024,33.463225],[-117.125992,33.463215],[-117.125962,33.463217],[-117.125947,33.463227],[-117.125938,33.463264],[-117.125925,33.463269],[-117.125907,33.463264],[-117.125886,33.463238],[-117.125835,33.463232],[-117.125803,33.463222],[-117.125784,33.463205],[-117.125758,33.463201],[-117.125746,33.463189],[-117.125749,33.463173],[-117.125737,33.463162],[-117.125748,33.463144],[-117.125819,33.463138],[-117.12593,33.463166],[-117.126021,33.463164],[-117.126067,33.463181],[-117.126074,33.463196],[-117.126069,33.463212],[-117.126048,33.463225],[-117.126024,33.463225]]]}},{"type":"Feature","properties":{"k":"water"},"geometry":{"type":"Polygon","coordinates":[[[-117.125939,33.463453],[-117.125925,33.463481],[-117.125906,33.463488],[-117.125778,33.463505],[-117.125739,33.463483],[-117.125696,33.463432],[-117.125701,33.463416],[-117.125715,33.463411],[-117.125736,33.463413],[-117.12577,33.463432],[-117.125813,33.463443],[-117.125841,33.463438],[-117.125875,33.463417],[-117.125898,33.463413],[-117.125922,33.463416],[-117.125934,33.463428],[-117.125939,33.463453]]]}},{"type":"Feature","properties":{"k":"green"},"geometry":{"type":"Polygon","coordinates":[[[-117.125792,33.463397],[-117.125718,33.463397],[-117.125618,33.46343],[-117.125588,33.463424],[-117.125559,33.463396],[-117.125548,33.463372],[-117.12555,33.463345],[-117.125572,33.463291],[-117.125605,33.463248],[-117.12567,33.463228],[-117.1257,33.463233],[-117.125794,33.463261],[-117.125871,33.463299],[-117.12589,33.463317],[-117.125899,33.463339],[-117.125888,33.463381],[-117.125862,33.463392],[-117.125792,33.463397]]]}},{"type":"Feature","properties":{"k":"tee"},"geometry":{"type":"Polygon","coordinates":[[[-117.127298,33.46338],[-117.127176,33.463371],[-117.127148,33.463356],[-117.12713,33.463335],[-117.127132,33.463309],[-117.127139,33.463284],[-117.127157,33.463262],[-117.127231,33.463244],[-117.127296,33.463244],[-117.127415,33.463248],[-117.127454,33.463256],[-117.127477,33.463272],[-117.127491,33.463297],[-117.127488,33.463328],[-117.12747,33.463356],[-117.127443,33.463375],[-117.127371,33.463383],[-117.127298,33.46338]]]}},{"type":"Feature","properties":{"k":"tee"},"geometry":{"type":"Polygon","coordinates":[[[-117.126761,33.463338],[-117.126753,33.463318],[-117.126773,33.463279],[-117.126795,33.463269],[-117.126816,33.46327],[-117.126836,33.463283],[-117.126846,33.463297],[-117.126846,33.463319],[-117.126836,33.463338],[-117.126816,33.463354],[-117.126795,33.463358],[-117.126761,33.463338]]]}},{"type":"Feature","properties":{"k":"tee"},"geometry":{"type":"Polygon","coordinates":[[[-117.126109,33.46287],[-117.126084,33.462859],[-117.126068,33.462842],[-117.126065,33.46282],[-117.126074,33.462797],[-117.126119,33.462785],[-117.126147,33.462792],[-117.12616,33.462809],[-117.126163,33.462833],[-117.126154,33.462856],[-117.126133,33.462868],[-117.126109,33.46287]]]}},{"type":"Feature","properties":{"k":"tee"},"geometry":{"type":"Polygon","coordinates":[[[-117.125901,33.462747],[-117.12588,33.462733],[-117.125869,33.462707],[-117.12588,33.462587],[-117.125905,33.462532],[-117.125929,33.462518],[-117.125959,33.462512],[-117.125988,33.46252],[-117.126008,33.462544],[-117.126006,33.462619],[-117.125983,33.462696],[-117.125963,33.46273],[-117.125945,33.462748],[-117.125922,33.462755],[-117.125901,33.462747]]]}},{"type":"Feature","properties":{"k":"tee"},"geometry":{"type":"Polygon","coordinates":[[[-117.126151,33.462407],[-117.126112,33.46239],[-117.126102,33.462353],[-117.126124,33.462319],[-117.126164,33.462311],[-117.126185,33.462319],[-117.126195,33.462337],[-117.126199,33.462381],[-117.126178,33.462402],[-117.126151,33.462407]]]}},{"type":"Feature","properties":{"k":"bunker"},"geometry":{"type":"Polygon","coordinates":[[[-117.125574,33.45966],[-117.125544,33.459708],[-117.125516,33.4597],[-117.125493,33.459674],[-117.125504,33.459644],[-117.12555,33.459612],[-117.125576,33.459615],[-117.125581,33.459629],[-117.125574,33.45966]]]}},{"type":"Feature","properties":{"k":"green"},"geometry":{"type":"Polygon","coordinates":[[[-117.125417,33.459651],[-117.125365,33.459645],[-117.125346,33.459634],[-117.125311,33.459591],[-117.125262,33.459565],[-117.12525,33.45955],[-117.125252,33.459514],[-117.125283,33.459475],[-117.125363,33.45945],[-117.12542,33.459455],[-117.125477,33.45949],[-117.12552,33.459529],[-117.12553,33.459552],[-117.12552,33.459598],[-117.125476,33.459632],[-117.125417,33.459651]]]}},{"type":"Feature","properties":{"k":"tee"},"geometry":{"type":"Polygon","coordinates":[[[-117.125073,33.4594],[-117.125047,33.45943],[-117.125007,33.459429],[-117.124994,33.459413],[-117.124997,33.459373],[-117.125012,33.459361],[-117.12504,33.459355],[-117.125061,33.459364],[-117.125073,33.4594]]]}},{"type":"Feature","properties":{"k":"tee"},"geometry":{"type":"Polygon","coordinates":[[[-117.12494,33.459875],[-117.124926,33.459926],[-117.124903,33.459944],[-117.124864,33.45995],[-117.12481,33.459927],[-117.124805,33.45988],[-117.124831,33.459807],[-117.124852,33.459777],[-117.124876,33.459764],[-117.124902,33.459761],[-117.12493,33.459771],[-117.124941,33.4598],[-117.12494,33.459875]]]}},{"type":"Feature","properties":{"k":"tee"},"geometry":{"type":"Polygon","coordinates":[[[-117.124779,33.460349],[-117.124777,33.460378],[-117.12476,33.460403],[-117.124734,33.46042],[-117.124682,33.460409],[-117.124666,33.460387],[-117.124665,33.460356],[-117.124679,33.460316],[-117.124697,33.460295],[-117.124725,33.460286],[-117.124754,33.460298],[-117.124779,33.460349]]]}},{"type":"Feature","properties":{"k":"bunker"},"geometry":{"type":"Polygon","coordinates":[[[-117.124747,33.462657],[-117.124758,33.462698],[-117.124749,33.462705],[-117.124731,33.462692],[-117.124708,33.462698],[-117.124676,33.462668],[-117.124647,33.462662],[-117.12464,33.462648],[-117.124658,33.462618],[-117.124689,33.462599],[-117.124712,33.462607],[-117.124747,33.462657]]]}},{"type":"Feature","properties":{"k":"bunker"},"geometry":{"type":"Polygon","coordinates":[[[-117.124925,33.462986],[-117.12491,33.463021],[-117.124896,33.463032],[-117.124861,33.463021],[-117.124843,33.462996],[-117.124866,33.462941],[-117.124911,33.462915],[-117.12493,33.462916],[-117.124947,33.462927],[-117.124951,33.46294],[-117.124925,33.462986]]]}},{"type":"Feature","properties":{"k":"green"},"geometry":{"type":"Polygon","coordinates":[[[-117.125116,33.463079],[-117.125062,33.463127],[-117.124994,33.463134],[-117.124953,33.463117],[-117.124944,33.46306],[-117.124976,33.462956],[-117.124966,33.462902],[-117.124946,33.462861],[-117.12495,33.462843],[-117.124981,33.462817],[-117.125016,33.462811],[-117.125048,33.462817],[-117.125072,33.462828],[-117.125086,33.462845],[-117.125152,33.462991],[-117.125143,33.46304],[-117.125116,33.463079]]]}},{"type":"Feature","properties":{"k":"tee"},"geometry":{"type":"Polygon","coordinates":[[[-117.124668,33.46301],[-117.124662,33.463028],[-117.124647,33.463039],[-117.124631,33.463045],[-117.124612,33.463041],[-117.124561,33.463006],[-117.124558,33.462968],[-117.124584,33.462946],[-117.124609,33.462946],[-117.124647,33.462973],[-117.124668,33.46301]]]}},{"type":"Feature","properties":{"k":"tee"},"geometry":{"type":"Polygon","coordinates":[[[-117.123882,33.462583],[-117.123865,33.46258],[-117.123843,33.462557],[-117.123852,33.462528],[-117.123887,33.462513],[-117.12391,33.462518],[-117.123929,33.462543],[-117.123916,33.462576],[-117.123882,33.462583]]]}},{"type":"Feature","properties":{"k":"tee"},"geometry":{"type":"Polygon","coordinates":[[[-117.124137,33.462679],[-117.124092,33.462652],[-117.124089,33.462639],[-117.124099,33.462616],[-117.124131,33.462605],[-117.124156,33.46261],[-117.124173,33.462623],[-117.124186,33.462653],[-117.124166,33.462678],[-117.124151,33.462683],[-117.124137,33.462679]]]}},{"type":"Feature","properties":{"k":"tee"},"geometry":{"type":"Polygon","coordinates":[[[-117.124411,33.46286],[-117.124399,33.462869],[-117.124364,33.462873],[-117.124294,33.462843],[-117.124263,33.462795],[-117.124277,33.462757],[-117.124308,33.462748],[-117.124331,33.462753],[-117.124401,33.462802],[-117.124418,33.462829],[-117.124411,33.46286]]]}},{"type":"Feature","properties":{"k":"bunker"},"geometry":{"type":"Polygon","coordinates":[[[-117.123186,33.46197],[-117.123222,33.462005],[-117.123214,33.462019],[-117.123167,33.462045],[-117.123142,33.462048],[-117.123117,33.462041],[-117.123122,33.461965],[-117.123135,33.461941],[-117.12315,33.461934],[-117.123165,33.461941],[-117.123186,33.46197]]]}},{"type":"Feature","properties":{"k":"bunker"},"geometry":{"type":"Polygon","coordinates":[[[-117.122882,33.462088],[-117.122872,33.462098],[-117.122839,33.462099],[-117.12282,33.462068],[-117.122772,33.462045],[-117.12278,33.462019],[-117.122795,33.462011],[-117.122825,33.462013],[-117.12285,33.462025],[-117.122885,33.462054],[-117.122882,33.462088]]]}},{"type":"Feature","properties":{"k":"green"},"geometry":{"type":"Polygon","coordinates":[[[-117.123081,33.461993],[-117.123082,33.462093],[-117.123065,33.462112],[-117.123032,33.462126],[-117.122968,33.462123],[-117.122928,33.462095],[-117.122907,33.462048],[-117.12288,33.462016],[-117.122803,33.461977],[-117.122787,33.461936],[-117.122803,33.461896],[-117.122822,33.461884],[-117.122951,33.461853],[-117.123011,33.461865],[-117.123046,33.46188],[-117.123064,33.461898],[-117.123075,33.461923],[-117.123081,33.461993]]]}},{"type":"Feature","properties":{"k":"tee"},"geometry":{"type":"Polygon","coordinates":[[[-117.12339,33.462762],[-117.12337,33.462721],[-117.123381,33.462705],[-117.123432,33.462703],[-117.123454,33.462711],[-117.123476,33.462731],[-117.123479,33.462768],[-117.123463,33.462783],[-117.123409,33.46278],[-117.12339,33.462762]]]}},{"type":"Feature","properties":{"k":"tee"},"geometry":{"type":"Polygon","coordinates":[[[-117.123043,33.462577],[-117.123028,33.462551],[-117.123041,33.462525],[-117.123057,33.462518],[-117.123109,33.462519],[-117.123134,33.46253],[-117.123148,33.462551],[-117.123147,33.46257],[-117.123136,33.462586],[-117.123115,33.462595],[-117.123077,33.462595],[-117.123043,33.462577]]]}},{"type":"Feature","properties":{"k":"tee"},"geometry":{"type":"Polygon","coordinates":[[[-117.122634,33.462318],[-117.122621,33.462332],[-117.122595,33.46234],[-117.122573,33.462343],[-117.122541,33.462336],[-117.122409,33.462255],[-117.122395,33.462227],[-117.122407,33.46219],[-117.122451,33.462173],[-117.122521,33.462192],[-117.122631,33.462269],[-117.122642,33.462301],[-117.122634,33.462318]]]}},{"type":"Feature","properties":{"k":"bunker"},"geometry":{"type":"Polygon","coordinates":[[[-117.126277,33.464224],[-117.126249,33.464242],[-117.126221,33.464241],[-117.126227,33.464193],[-117.126206,33.464152],[-117.126207,33.464128],[-117.12622,33.464124],[-117.126253,33.464129],[-117.126266,33.464156],[-117.12631,33.464177],[-117.126318,33.464189],[-117.126315,33.464203],[-117.126277,33.464224]]]}},{"type":"Feature","properties":{"k":"bunker"},"geometry":{"type":"Polygon","coordinates":[[[-117.126463,33.464711],[-117.12644,33.464715],[-117.126415,33.464711],[-117.1264,33.464698],[-117.126397,33.464678],[-117.126418,33.464649],[-117.126437,33.464642],[-117.126465,33.464647],[-117.126506,33.464667],[-117.126518,33.464683],[-117.126515,33.464701],[-117.126501,33.464711],[-117.126463,33.464711]]]}},{"type":"Feature","properties":{"k":"bunker"},"geometry":{"type":"Polygon","coordinates":[[[-117.126277,33.464835],[-117.126239,33.464823],[-117.126218,33.464797],[-117.126213,33.464779],[-117.126221,33.464745],[-117.126241,33.464719],[-117.126259,33.464716],[-117.126282,33.464735],[-117.12629,33.464782],[-117.126308,33.464817],[-117.126303,33.464829],[-117.126277,33.464835]]]}},{"type":"Feature","properties":{"k":"bunker"},"geometry":{"type":"Polygon","coordinates":[[[-117.126473,33.464939],[-117.126431,33.464939],[-117.126412,33.464921],[-117.126413,33.464907],[-117.126424,33.464896],[-117.12645,33.46489],[-117.126524,33.464896],[-117.126528,33.464923],[-117.126516,33.464932],[-117.126473,33.464939]]]}},{"type":"Feature","properties":{"k":"green"},"geometry":{"type":"Polygon","coordinates":[[[-117.126495,33.464873],[-117.126371,33.464876],[-117.126336,33.464863],[-117.126329,33.464851],[-117.126326,33.464793],[-117.126335,33.464752],[-117.126359,33.464734],[-117.126421,33.464741],[-117.126485,33.464736],[-117.126584,33.464713],[-117.126608,33.464716],[-117.126644,33.464734],[-117.12666,33.46475],[-117.12666,33.464786],[-117.126648,33.464809],[-117.126599,33.464857],[-117.126549,33.464873],[-117.126495,33.464873]]]}},{"type":"Feature","properties":{"k":"tee"},"geometry":{"type":"Polygon","coordinates":[[[-117.126334,33.465123],[-117.126341,33.465135],[-117.126336,33.465153],[-117.12632,33.465164],[-117.1263,33.465162],[-117.126232,33.465101],[-117.126222,33.465084],[-117.126226,33.465067],[-117.126237,33.465059],[-117.126258,33.465058],[-117.126281,33.465065],[-117.126334,33.465123]]]}},{"type":"Feature","properties":{"k":"tee"},"geometry":{"type":"Polygon","coordinates":[[[-117.126752,33.465333],[-117.126642,33.465353],[-117.126609,33.465353],[-117.126587,33.465349],[-117.126571,33.465334],[-117.126568,33.465299],[-117.126589,33.465261],[-117.126607,33.465251],[-117.126718,33.465233],[-117.126751,33.46524],[-117.126783,33.46527],[-117.12678,33.465307],[-117.126752,33.465333]]]}},{"type":"Feature","properties":{"k":"tee"},"geometry":{"type":"Polygon","coordinates":[[[-117.126981,33.465358],[-117.126972,33.465334],[-117.126977,33.465321],[-117.126998,33.465307],[-117.12703,33.465309],[-117.127055,33.465332],[-117.127056,33.46536],[-117.127034,33.465378],[-117.127001,33.465372],[-117.126981,33.465358]]]}},{"type":"Feature","properties":{"k":"bunker"},"geometry":{"type":"Polygon","coordinates":[[[-117.128334,33.466394],[-117.128328,33.466409],[-117.128299,33.466433],[-117.12828,33.466436],[-117.128255,33.466427],[-117.128268,33.466373],[-117.128265,33.466314],[-117.128281,33.466283],[-117.128293,33.466276],[-117.128309,33.466273],[-117.128333,33.466289],[-117.128322,33.466339],[-117.128334,33.466394]]]}},{"type":"Feature","properties":{"k":"bunker"},"geometry":{"type":"Polygon","coordinates":[[[-117.128592,33.467661],[-117.128602,33.467692],[-117.128596,33.467709],[-117.12858,33.467717],[-117.128542,33.467706],[-117.128532,33.467674],[-117.128555,33.467616],[-117.128555,33.467582],[-117.128565,33.46757],[-117.128585,33.467566],[-117.128614,33.46758],[-117.128629,33.467609],[-117.128625,33.467625],[-117.128592,33.467661]]]}},{"type":"Feature","properties":{"k":"bunker"},"geometry":{"type":"Polygon","coordinates":[[[-117.128929,33.467728],[-117.128918,33.467746],[-117.128902,33.467755],[-117.12888,33.467759],[-117.128852,33.467745],[-117.128849,33.467729],[-117.128879,33.467684],[-117.128886,33.467647],[-117.128907,33.46763],[-117.128934,33.467643],[-117.128954,33.467681],[-117.128956,33.467695],[-117.128929,33.467728]]]}},{"type":"Feature","properties":{"k":"bunker"},"geometry":{"type":"Polygon","coordinates":[[[-117.128818,33.467889],[-117.128794,33.467933],[-117.12878,33.467941],[-117.128723,33.467934],[-117.128714,33.467924],[-117.12878,33.467852],[-117.128809,33.46785],[-117.128823,33.467856],[-117.128827,33.467868],[-117.128818,33.467889]]]}},{"type":"Feature","properties":{"k":"green"},"geometry":{"type":"Polygon","coordinates":[[[-117.12882,33.46774],[-117.12882,33.467785],[-117.128808,33.467807],[-117.128769,33.46784],[-117.128724,33.467865],[-117.128697,33.46787],[-117.128655,33.467858],[-117.12863,33.467818],[-117.128623,33.467774],[-117.128676,33.467621],[-117.128695,33.467595],[-117.128719,33.467579],[-117.128786,33.467573],[-117.128816,33.467582],[-117.128846,33.46761],[-117.128852,33.467638],[-117.128846,33.467667],[-117.12882,33.46774]]]}},{"type":"Feature","properties":{"k":"tee"},"geometry":{"type":"Polygon","coordinates":[[[-117.129754,33.46772],[-117.129755,33.467737],[-117.129722,33.467771],[-117.129685,33.467774],[-117.129662,33.467764],[-117.129553,33.467666],[-117.129564,33.467623],[-117.129582,33.467605],[-117.129605,33.467599],[-117.129656,33.467604],[-117.129713,33.467652],[-117.129754,33.46772]]]}},{"type":"Feature","properties":{"k":"tee"},"geometry":{"type":"Polygon","coordinates":[[[-117.130014,33.468003],[-117.129983,33.468005],[-117.129957,33.467991],[-117.129949,33.467968],[-117.129961,33.467945],[-117.129994,33.467942],[-117.130024,33.467959],[-117.130027,33.467991],[-117.130014,33.468003]]]}},{"type":"Feature","properties":{"k":"tee"},"geometry":{"type":"Polygon","coordinates":[[[-117.1297,33.468604],[-117.129658,33.468649],[-117.129634,33.468657],[-117.129598,33.468656],[-117.129563,33.468643],[-117.129541,33.468619],[-117.129535,33.468582],[-117.129544,33.468555],[-117.129567,33.468526],[-117.129603,33.468496],[-117.129641,33.468475],[-117.129678,33.468467],[-117.129717,33.46848],[-117.129736,33.468513],[-117.129716,33.468583],[-117.1297,33.468604]]]}},{"type":"Feature","properties":{"k":"bunker"},"geometry":{"type":"Polygon","coordinates":[[[-117.132748,33.469177],[-117.132719,33.469195],[-117.13269,33.469182],[-117.132666,33.469164],[-117.132671,33.469141],[-117.132704,33.469125],[-117.13275,33.469115],[-117.132795,33.469124],[-117.132801,33.469147],[-117.132791,33.46916],[-117.132748,33.469177]]]}},{"type":"Feature","properties":{"k":"green"},"geometry":{"type":"Polygon","coordinates":[[[-117.133,33.469313],[-117.133001,33.469355],[-117.132976,33.469406],[-117.132953,33.469421],[-117.132907,33.46943],[-117.132857,33.469412],[-117.132787,33.469362],[-117.132686,33.469317],[-117.132671,33.469298],[-117.132671,33.469274],[-117.132676,33.469251],[-117.132695,33.469232],[-117.132726,33.469218],[-117.132797,33.4692],[-117.132873,33.469193],[-117.132972,33.46926],[-117.133,33.469313]]]}},{"type":"Feature","properties":{"k":"water"},"geometry":{"type":"Polygon","coordinates":[[[-117.13296,33.469153],[-117.132958,33.469129],[-117.132976,33.469071],[-117.133032,33.469068],[-117.133034,33.469089],[-117.133069,33.469155],[-117.133212,33.469267],[-117.133262,33.469374],[-117.133282,33.46944],[-117.13327,33.469474],[-117.133235,33.469509],[-117.133206,33.469516],[-117.13311,33.469506],[-117.133055,33.469519],[-117.133006,33.469548],[-117.13298,33.46959],[-117.132938,33.469608],[-117.132857,33.46968],[-117.132803,33.469694],[-117.132771,33.469668],[-117.13279,33.469592],[-117.132786,33.469557],[-117.132736,33.469503],[-117.132653,33.46945],[-117.132623,33.469422],[-117.132617,33.469389],[-117.132627,33.469377],[-117.132676,33.469374],[-117.13279,33.469431],[-117.132929,33.46947],[-117.132965,33.46947],[-117.133041,33.469451],[-117.133123,33.469445],[-117.133155,33.469427],[-117.133173,33.469402],[-117.133174,33.469351],[-117.133165,33.469337],[-117.133145,33.469332],[-117.133128,33.469353],[-117.133096,33.469363],[-117.133076,33.46935],[-117.133055,33.469301],[-117.133049,33.469231],[-117.13303,33.469203],[-117.13296,33.469153]]]}},{"type":"Feature","properties":{"k":"water"},"geometry":{"type":"Polygon","coordinates":[[[-117.131645,33.46941],[-117.131648,33.469478],[-117.131627,33.469542],[-117.13159,33.469576],[-117.131564,33.469586],[-117.131528,33.46959],[-117.131488,33.469586],[-117.131449,33.469572],[-117.13134,33.469493],[-117.131262,33.469449],[-117.131212,33.469437],[-117.131155,33.469433],[-117.131066,33.469448],[-117.130992,33.469481],[-117.13093,33.469524],[-117.130832,33.469637],[-117.130797,33.46965],[-117.130775,33.469646],[-117.130738,33.469622],[-117.130714,33.469581],[-117.130686,33.46938],[-117.130733,33.469099],[-117.13075,33.469061],[-117.130779,33.46904],[-117.130854,33.469039],[-117.130899,33.469059],[-117.130995,33.469122],[-117.131073,33.469145],[-117.131165,33.469144],[-117.131298,33.469119],[-117.131379,33.469127],[-117.131472,33.469185],[-117.131584,33.469293],[-117.131618,33.469341],[-117.131645,33.46941]]]}}]}