{"type":"FeatureCollection","features":[{"type":"Feature","properties":{"k":"hole","ref":"1","par":4},"geometry":{"type":"LineString","coordinates":[[-122.243992,37.888311],[-122.246502,37.887948],[-122.248097,37.887688]]}},{"type":"Feature","properties":{"k":"hole","ref":"2","par":4},"geometry":{"type":"LineString","coordinates":[[-122.24842,37.887746],[-122.246799,37.888878],[-122.247035,37.890466]]}},{"type":"Feature","properties":{"k":"hole","ref":"3","par":4},"geometry":{"type":"LineString","coordinates":[[-122.248705,37.891146],[-122.243932,37.891865]]}},{"type":"Feature","properties":{"k":"hole","ref":"4","par":3},"geometry":{"type":"LineString","coordinates":[[-122.243781,37.891578],[-122.242441,37.891934]]}},{"type":"Feature","properties":{"k":"hole","ref":"5","par":4},"geometry":{"type":"LineString","coordinates":[[-122.242054,37.891727],[-122.240588,37.89046],[-122.239863,37.889367]]}},{"type":"Feature","properties":{"k":"hole","ref":"6","par":4},"geometry":{"type":"LineString","coordinates":[[-122.239603,37.888842],[-122.241587,37.889881],[-122.242183,37.890279]]}},{"type":"Feature","properties":{"k":"hole","ref":"7","par":3},"geometry":{"type":"LineString","coordinates":[[-122.241175,37.890306],[-122.242852,37.891506]]}},{"type":"Feature","properties":{"k":"hole","ref":"8","par":5},"geometry":{"type":"LineString","coordinates":[[-122.244057,37.891455],[-122.242259,37.889645],[-122.24047,37.888859]]}},{"type":"Feature","properties":{"k":"hole","ref":"9","par":4},"geometry":{"type":"LineString","coordinates":[[-122.240166,37.888617],[-122.242125,37.88879],[-122.243379,37.888277]]}},{"type":"Feature","properties":{"k":"hole","ref":"10","par":4},"geometry":{"type":"LineString","coordinates":[[-122.243028,37.888029],[-122.240722,37.888146],[-122.23906,37.888599]]}},{"type":"Feature","properties":{"k":"hole","ref":"11","par":3},"geometry":{"type":"LineString","coordinates":[[-122.23849,37.888537],[-122.239671,37.890292]]}},{"type":"Feature","properties":{"k":"hole","ref":"12","par":4},"geometry":{"type":"LineString","coordinates":[[-122.239303,37.89045],[-122.23769,37.889283],[-122.237019,37.888163]]}},{"type":"Feature","properties":{"k":"hole","ref":"13","par":5},"geometry":{"type":"LineString","coordinates":[[-122.237616,37.888305],[-122.240641,37.887748],[-122.242816,37.887539]]}},{"type":"Feature","properties":{"k":"hole","ref":"14","par":4},"geometry":{"type":"LineString","coordinates":[[-122.243572,37.887204],[-122.241498,37.886767],[-122.240343,37.886702]]}},{"type":"Feature","properties":{"k":"hole","ref":"15","par":4},"geometry":{"type":"LineString","coordinates":[[-122.240472,37.886468],[-122.237973,37.886916],[-122.237136,37.887076]]}},{"type":"Feature","properties":{"k":"hole","ref":"16","par":3},"geometry":{"type":"LineString","coordinates":[[-122.237081,37.886643],[-122.235727,37.888007]]}},{"type":"Feature","properties":{"k":"hole","ref":"17","par":4},"geometry":{"type":"LineString","coordinates":[[-122.235975,37.888205],[-122.23811,37.887296],[-122.239739,37.887006]]}},{"type":"Feature","properties":{"k":"hole","ref":"18","par":4},"geometry":{"type":"LineString","coordinates":[[-122.239029,37.88743],[-122.241483,37.887182],[-122.243139,37.887304]]}},{"type":"Feature","properties":{"k":"stream"},"geometry":{"type":"LineString","coordinates":[[-122.232531,37.886312],[-122.232921,37.886553],[-122.233097,37.886739],[-122.233143,37.887025],[-122.233377,37.88729],[-122.234712,37.888173],[-122.235324,37.888418],[-122.235691,37.888479],[-122.236423,37.888564],[-122.236902,37.888604],[-122.23713,37.888607],[-122.237275,37.888583],[-122.237389,37.888541],[-122.237633,37.888545],[-122.237874,37.88858],[-122.238151,37.888675],[-122.238537,37.888915],[-122.238905,37.88897],[-122.23893,37.888987],[-122.238977,37.889112],[-122.239276,37.889268],[-122.239388,37.889348],[-122.239482,37.889485],[-122.239576,37.889555],[-122.239669,37.889585],[-122.239723,37.889648],[-122.239908,37.889737],[-122.239998,37.889736],[-122.240096,37.889703],[-122.240241,37.889683],[-122.240363,37.889719],[-122.240394,37.88975],[-122.240394,37.88979],[-122.24041,37.889823],[-122.24045,37.889843],[-122.240554,37.88987],[-122.240693,37.889884],[-122.240964,37.889998],[-122.24141,37.890163],[-122.241513,37.890215],[-122.241546,37.890257],[-122.241556,37.890371],[-122.241587,37.890453],[-122.241615,37.890478],[-122.241682,37.890495],[-122.241831,37.89049],[-122.241891,37.890497],[-122.241955,37.890531],[-122.242109,37.890635],[-122.242518,37.890704],[-122.24289,37.890841],[-122.243121,37.890989],[-122.243175,37.891081],[-122.243229,37.891273],[-122.243234,37.891431],[-122.243219,37.891591],[-122.24323,37.891675],[-122.243267,37.891757],[-122.24339,37.891824],[-122.243441,37.891872],[-122.243436,37.891991],[-122.243398,37.89204],[-122.243288,37.892129],[-122.243312,37.892352],[-122.243297,37.892558]]}},{"type":"Feature","properties":{"k":"path"},"geometry":{"type":"LineString","coordinates":[[-122.23894,37.888809],[-122.239096,37.888841],[-122.239162,37.88882]]}},{"type":"Feature","properties":{"k":"path"},"geometry":{"type":"LineString","coordinates":[[-122.2423,37.886714],[-122.241858,37.886651],[-122.241542,37.886623],[-122.241201,37.886623],[-122.24082,37.886608],[-122.240773,37.886579],[-122.240645,37.886529],[-122.240571,37.886517],[-122.240372,37.886544],[-122.240171,37.886588],[-122.239964,37.886623],[-122.239775,37.886681],[-122.239677,37.886703],[-122.239613,37.886707],[-122.239542,37.886703],[-122.239242,37.886658],[-122.239105,37.88665],[-122.238917,37.886651],[-122.238538,37.886693],[-122.238288,37.886731],[-122.237982,37.886756],[-122.237677,37.886807],[-122.237569,37.886798],[-122.237462,37.886756],[-122.237298,37.886638],[-122.237237,37.886571],[-122.237215,37.886561],[-122.237142,37.886559],[-122.236798,37.886723],[-122.236593,37.886837],[-122.23654,37.886907],[-122.236424,37.887261],[-122.236349,37.887324],[-122.23618,37.887437],[-122.236147,37.88747],[-122.23612,37.887518],[-122.236042,37.887955],[-122.236039,37.88803],[-122.236056,37.888057],[-122.236077,37.888063],[-122.23611,37.888051],[-122.236208,37.887991],[-122.236613,37.887816],[-122.236843,37.887677],[-122.237169,37.887451],[-122.2373,37.887412],[-122.237428,37.887421],[-122.237567,37.887457],[-122.237781,37.887499],[-122.237957,37.887512],[-122.238113,37.887503],[-122.238519,37.88744],[-122.238733,37.887385],[-122.239162,37.887247],[-122.239242,37.887229],[-122.239298,37.887225],[-122.23963,37.887256],[-122.239938,37.88726],[-122.240029,37.887284],[-122.240239,37.887365],[-122.240396,37.887413],[-122.240545,37.887437],[-122.240632,37.887444],[-122.241361,37.887396],[-122.241793,37.887381],[-122.242065,37.887392],[-122.242329,37.887414],[-122.242456,37.887404]]}},{"type":"Feature","properties":{"k":"clubhouse","name":"Tilden Golf Course Club House"},"geometry":{"type":"Polygon","coordinates":[[[-122.2432,37.888013],[-122.243069,37.887921],[-122.243128,37.887869],[-122.243057,37.88782],[-122.243195,37.887698],[-122.243478,37.887896],[-122.243424,37.887944],[-122.243441,37.887957],[-122.243373,37.888018],[-122.243295,37.887964],[-122.24326,37.887996],[-122.243237,37.88798],[-122.2432,37.888013]]]}},{"type":"Feature","properties":{"k":"path"},"geometry":{"type":"LineString","coordinates":[[-122.243004,37.887933],[-122.243072,37.887955],[-122.243138,37.887998],[-122.243145,37.888025],[-122.243138,37.888053],[-122.243114,37.888098],[-122.243088,37.888117],[-122.243035,37.888133],[-122.242936,37.888148],[-122.242853,37.888217],[-122.242774,37.88835],[-122.242701,37.888388],[-122.242569,37.888403],[-122.242442,37.888383],[-122.242254,37.888323],[-122.241989,37.888208],[-122.241923,37.888194],[-122.241569,37.888218],[-122.2414,37.888253],[-122.241236,37.888298],[-122.240659,37.888373],[-122.240273,37.888416],[-122.23993,37.888474],[-122.239706,37.888514],[-122.239538,37.888564],[-122.23942,37.888622],[-122.239327,37.888725],[-122.239253,37.888778],[-122.239162,37.88882],[-122.239152,37.888915],[-122.239158,37.888962],[-122.23918,37.889008]]}},{"type":"Feature","properties":{"k":"path"},"geometry":{"type":"LineString","coordinates":[[-122.239982,37.889122],[-122.23997,37.889165],[-122.239994,37.889201],[-122.24037,37.889601],[-122.240407,37.889649],[-122.240409,37.889709],[-122.240383,37.889732]]}},{"type":"Feature","properties":{"k":"path"},"geometry":{"type":"LineString","coordinates":[[-122.241223,37.890467],[-122.241514,37.890699],[-122.241844,37.891027],[-122.242143,37.891274],[-122.242532,37.891563],[-122.242654,37.891733]]}},{"type":"Feature","properties":{"k":"path"},"geometry":{"type":"LineString","coordinates":[[-122.245127,37.89275],[-122.245175,37.892676],[-122.245211,37.892531],[-122.245264,37.892049],[-122.245312,37.891784],[-122.245304,37.891608],[-122.245214,37.891425],[-122.245042,37.891299],[-122.244881,37.891201],[-122.244377,37.890964],[-122.24413,37.890829],[-122.24399,37.890706],[-122.243862,37.890566],[-122.243744,37.890389],[-122.243658,37.890211],[-122.243593,37.890016],[-122.24356,37.889843],[-122.243509,37.8897],[-122.243328,37.889467],[-122.243252,37.889355],[-122.243141,37.88926],[-122.243073,37.889217],[-122.243003,37.889192],[-122.242773,37.889182],[-122.242734,37.889168],[-122.242655,37.889118]]}},{"type":"Feature","properties":{"k":"path"},"geometry":{"type":"LineString","coordinates":[[-122.243126,37.889998],[-122.243028,37.889877],[-122.242893,37.889769],[-122.242683,37.889634],[-122.2425,37.889532],[-122.242307,37.889431],[-122.241829,37.889198],[-122.240923,37.888831],[-122.240916,37.888815],[-122.240936,37.888801],[-122.241181,37.888849],[-122.241464,37.888893],[-122.241754,37.888963],[-122.24221,37.889087],[-122.242485,37.889133],[-122.242622,37.889137],[-122.242643,37.889129],[-122.242672,37.889103],[-122.242921,37.888847],[-122.242944,37.888806],[-122.242963,37.888729],[-122.242994,37.888509],[-122.243009,37.888469],[-122.243138,37.888276],[-122.243096,37.88825],[-122.243023,37.888244],[-122.242922,37.888247],[-122.242826,37.888269]]}},{"type":"Feature","properties":{"k":"wood"},"geometry":{"type":"Polygon","coordinates":[[[-122.243515,37.890304],[-122.243352,37.89002],[-122.243123,37.889752],[-122.242933,37.889587],[-122.242633,37.889343],[-122.242554,37.889265],[-122.242581,37.889209],[-122.242721,37.889098],[-122.242789,37.889026],[-122.243021,37.888874],[-122.243308,37.888541],[-122.243575,37.888684],[-122.243605,37.888858],[-122.243662,37.889049],[-122.243277,37.889049],[-122.243136,37.889203],[-122.243348,37.889154],[-122.24363,37.889154],[-122.24374,37.889333],[-122.243826,37.889581],[-122.243771,37.889823],[-122.24356,37.889843],[-122.243593,37.890016],[-122.24362,37.890097],[-122.243558,37.890208],[-122.243691,37.89028],[-122.243819,37.890412],[-122.244126,37.89032],[-122.244369,37.890471],[-122.244531,37.890638],[-122.244827,37.890847],[-122.244982,37.890888],[-122.245199,37.890863],[-122.245377,37.890776],[-122.245381,37.89056],[-122.245359,37.890429],[-122.245484,37.890379],[-122.245395,37.889767],[-122.244531,37.88868],[-122.24429,37.888582],[-122.244227,37.888486],[-122.244748,37.888373],[-122.24525,37.888516],[-122.245565,37.888377],[-122.246243,37.888326],[-122.2465,37.888482],[-122.246702,37.888251],[-122.247083,37.888135],[-122.247346,37.888078],[-122.247268,37.888225],[-122.247054,37.88828],[-122.246914,37.888352],[-122.246753,37.8885],[-122.246576,37.888636],[-122.246453,37.888771],[-122.246367,37.888924],[-122.246329,37.889051],[-122.24634,37.889182],[-122.246394,37.889322],[-122.246469,37.889478],[-122.246721,37.889838],[-122.246801,37.889991],[-122.246817,37.890143],[-122.246785,37.890511],[-122.246741,37.890598],[-122.246892,37.890726],[-122.247125,37.890794],[-122.247694,37.890878],[-122.247785,37.890904],[-122.247789,37.890988],[-122.247659,37.891081],[-122.24701,37.891234],[-122.246694,37.891287],[-122.246472,37.891297],[-122.246247,37.891256],[-122.246148,37.891181],[-122.246006,37.891013],[-122.245927,37.890978],[-122.24584,37.890969],[-122.245721,37.891],[-122.245749,37.891119],[-122.245512,37.891197],[-122.245318,37.891212],[-122.245199,37.891166],[-122.2451,37.891197],[-122.244926,37.89139],[-122.244452,37.891581],[-122.244293,37.891593],[-122.24412,37.891562],[-122.243689,37.890563],[-122.243606,37.890464],[-122.243515,37.890304]]]}},{"type":"Feature","properties":{"k":"path"},"geometry":{"type":"LineString","coordinates":[[-122.243787,37.888255],[-122.243846,37.88814],[-122.243989,37.888046],[-122.244142,37.888036],[-122.244315,37.888038],[-122.244429,37.888061],[-122.244477,37.888087],[-122.244726,37.888279],[-122.244763,37.888301],[-122.244835,37.888322],[-122.245287,37.888314],[-122.245405,37.888306],[-122.245691,37.888257],[-122.246078,37.888219],[-122.246238,37.888219],[-122.24656,37.888244],[-122.246619,37.888241],[-122.246707,37.88823],[-122.24722,37.88809],[-122.247513,37.888038],[-122.247573,37.888037],[-122.247633,37.888047],[-122.247707,37.888071],[-122.247914,37.888162]]}},{"type":"Feature","properties":{"k":"path"},"geometry":{"type":"LineString","coordinates":[[-122.240335,37.889789],[-122.240288,37.889856],[-122.240276,37.889905],[-122.240288,37.889924],[-122.240681,37.890238],[-122.24101,37.890569],[-122.241435,37.891025],[-122.241785,37.891357],[-122.241881,37.891478],[-122.24195,37.891526],[-122.242104,37.891626],[-122.242165,37.891657],[-122.242255,37.891686],[-122.242376,37.891705],[-122.242654,37.891733],[-122.242745,37.89177],[-122.242808,37.891784],[-122.242861,37.891788],[-122.242914,37.891782],[-122.242967,37.891763],[-122.243011,37.891732],[-122.243131,37.891678]]}},{"type":"Feature","properties":{"k":"path"},"geometry":{"type":"LineString","coordinates":[[-122.240383,37.889732],[-122.240335,37.889789]]}},{"type":"Feature","properties":{"k":"path"},"geometry":{"type":"LineString","coordinates":[[-122.243319,37.891604],[-122.243409,37.891561],[-122.243497,37.891506],[-122.243615,37.891472],[-122.243734,37.891457],[-122.243805,37.891462],[-122.243879,37.891485]]}},{"type":"Feature","properties":{"k":"path"},"geometry":{"type":"LineString","coordinates":[[-122.243131,37.891678],[-122.243319,37.891604]]}},{"type":"Feature","properties":{"k":"path"},"geometry":{"type":"LineString","coordinates":[[-122.241764,37.890543],[-122.241771,37.890618],[-122.241718,37.890658],[-122.241653,37.890692],[-122.241607,37.890705],[-122.241514,37.890699]]}},{"type":"Feature","properties":{"k":"path"},"geometry":{"type":"LineString","coordinates":[[-122.241741,37.890458],[-122.241764,37.890543]]}},{"type":"Feature","properties":{"k":"path"},"geometry":{"type":"LineString","coordinates":[[-122.237285,37.888513],[-122.237261,37.888441],[-122.237247,37.888367],[-122.237252,37.888309],[-122.237265,37.888272],[-122.237298,37.888245],[-122.237345,37.888222],[-122.237702,37.888147],[-122.237843,37.888081],[-122.23818,37.88788],[-122.238326,37.887827],[-122.23844,37.887813],[-122.238588,37.88781],[-122.238774,37.88779],[-122.239128,37.887735],[-122.239398,37.887658],[-122.239502,37.887636],[-122.239846,37.887609],[-122.240219,37.887561],[-122.240599,37.887523],[-122.241072,37.887493],[-122.241709,37.887464],[-122.242064,37.887459],[-122.242195,37.887446],[-122.242456,37.887404]]}},{"type":"Feature","properties":{"k":"path"},"geometry":{"type":"LineString","coordinates":[[-122.23734,37.88863],[-122.237285,37.888513]]}},{"type":"Feature","properties":{"k":"path"},"geometry":{"type":"LineString","coordinates":[[-122.23821,37.889708],[-122.238223,37.889516],[-122.238214,37.889487],[-122.238198,37.889467],[-122.23804,37.889364],[-122.237995,37.889322],[-122.237974,37.889272],[-122.237947,37.889122],[-122.23791,37.889032],[-122.237869,37.888951],[-122.237731,37.888751],[-122.237697,37.888685],[-122.237667,37.888671],[-122.237591,37.888661],[-122.23751,37.888669],[-122.237419,37.888661],[-122.23736,37.888649],[-122.23734,37.88863]]}},{"type":"Feature","properties":{"k":"path"},"geometry":{"type":"LineString","coordinates":[[-122.238212,37.889817],[-122.23821,37.889708]]}},{"type":"Feature","properties":{"k":"path"},"geometry":{"type":"LineString","coordinates":[[-122.239389,37.889485],[-122.239312,37.889994],[-122.239309,37.890065],[-122.239329,37.890179],[-122.239321,37.890203],[-122.239302,37.890218],[-122.239265,37.890226],[-122.238847,37.89021],[-122.238786,37.8902],[-122.238721,37.890161],[-122.238601,37.890023],[-122.238556,37.889904],[-122.238521,37.889879],[-122.238471,37.889864],[-122.238408,37.889864],[-122.238298,37.889879],[-122.238224,37.889872],[-122.238213,37.889864],[-122.238212,37.889817]]}},{"type":"Feature","properties":{"k":"path"},"geometry":{"type":"LineString","coordinates":[[-122.23945,37.88942],[-122.239411,37.889448],[-122.239389,37.889485]]}},{"type":"Feature","properties":{"k":"path"},"geometry":{"type":"LineString","coordinates":[[-122.23894,37.888809],[-122.238803,37.888762],[-122.238723,37.888712],[-122.238707,37.888679],[-122.238717,37.888652],[-122.238749,37.888642],[-122.23877,37.888646],[-122.238835,37.888725],[-122.23891,37.888759],[-122.23894,37.888809],[-122.239018,37.88889],[-122.23918,37.889008],[-122.239445,37.889231],[-122.239488,37.889284],[-122.239509,37.889327],[-122.239503,37.889363],[-122.23945,37.88942]]}},{"type":"Feature","properties":{"k":"path"},"geometry":{"type":"LineString","coordinates":[[-122.239486,37.888916],[-122.239562,37.888913],[-122.239634,37.88892],[-122.23967,37.888938],[-122.239828,37.889061],[-122.239865,37.889082],[-122.239982,37.889122],[-122.240084,37.889108],[-122.240202,37.889105],[-122.240243,37.889112],[-122.240309,37.889144],[-122.240378,37.889194],[-122.240542,37.889351],[-122.240731,37.889563],[-122.240862,37.889677],[-122.241082,37.889822],[-122.241448,37.890031],[-122.241625,37.890144],[-122.241652,37.890182],[-122.241741,37.890458]]}},{"type":"Feature","properties":{"k":"path"},"geometry":{"type":"LineString","coordinates":[[-122.236834,37.887322],[-122.236424,37.887261]]}},{"type":"Feature","properties":{"k":"path"},"geometry":{"type":"LineString","coordinates":[[-122.243792,37.892496],[-122.243694,37.892246],[-122.243705,37.89197],[-122.243694,37.8918],[-122.24367,37.891726],[-122.243601,37.891638],[-122.24354,37.891494]]}},{"type":"Feature","properties":{"k":"wood"},"geometry":{"type":"Polygon","coordinates":[[[-122.243894,37.891511],[-122.243813,37.891405],[-122.243637,37.891327],[-122.243531,37.891143],[-122.243421,37.890988],[-122.243354,37.890833],[-122.243136,37.890706],[-122.242943,37.890636],[-122.242862,37.890496],[-122.242652,37.890355],[-122.242482,37.890324],[-122.24224,37.890508],[-122.242022,37.890381],[-122.241845,37.89026],[-122.241685,37.89029],[-122.24164,37.890316],[-122.241622,37.890205],[-122.241587,37.890157],[-122.241473,37.890139],[-122.241328,37.890056],[-122.241126,37.88998],[-122.240989,37.889884],[-122.240723,37.889788],[-122.240513,37.889693],[-122.240198,37.889616],[-122.240096,37.889703],[-122.239908,37.889674],[-122.23969,37.889514],[-122.239503,37.889363],[-122.239246,37.889215],[-122.239273,37.889085],[-122.23918,37.889008],[-122.239018,37.88889],[-122.23894,37.888809],[-122.238859,37.888962],[-122.238945,37.889069],[-122.239018,37.889138],[-122.239154,37.889332],[-122.239268,37.889443],[-122.239389,37.889485],[-122.239585,37.889648],[-122.2399,37.889814],[-122.240198,37.889744],[-122.240302,37.889779],[-122.240288,37.889856],[-122.240432,37.889922],[-122.24065,37.889986],[-122.240731,37.890101],[-122.240964,37.889998],[-122.24141,37.890163],[-122.241513,37.890215],[-122.241482,37.890432],[-122.241651,37.89061],[-122.241869,37.890591],[-122.242119,37.890782],[-122.242394,37.890871],[-122.242862,37.891082],[-122.242999,37.891279],[-122.243039,37.891451],[-122.242959,37.891629],[-122.243124,37.891673],[-122.243267,37.891757],[-122.242999,37.892056],[-122.243288,37.892129],[-122.243596,37.891948],[-122.243694,37.8918],[-122.243319,37.891604],[-122.243409,37.891561],[-122.243497,37.891506],[-122.243615,37.891472],[-122.243749,37.891481],[-122.243894,37.891511]]]}},{"type":"Feature","properties":{"k":"wood"},"geometry":{"type":"Polygon","coordinates":[[[-122.238201,37.887489],[-122.23818,37.887597],[-122.23844,37.887813],[-122.238588,37.88781],[-122.238689,37.887705],[-122.239008,37.887751],[-122.239028,37.887584],[-122.23889,37.887495],[-122.239084,37.887272],[-122.238733,37.887385],[-122.238575,37.887426],[-122.238462,37.887451],[-122.238201,37.887489]]]}},{"type":"Feature","properties":{"k":"wood"},"geometry":{"type":"Polygon","coordinates":[[[-122.237793,37.888024],[-122.23776,37.88789],[-122.237954,37.887864],[-122.237906,37.887782],[-122.237785,37.887724],[-122.237543,37.887724],[-122.237437,37.887769],[-122.237308,37.887877],[-122.237187,37.887903],[-122.237171,37.88803],[-122.23743,37.888087],[-122.237793,37.888024]]]}},{"type":"Feature","properties":{"k":"wood"},"geometry":{"type":"Polygon","coordinates":[[[-122.241845,37.887005],[-122.241772,37.886896],[-122.241167,37.886928],[-122.240989,37.886871],[-122.240311,37.886915],[-122.240222,37.886998],[-122.240424,37.887094],[-122.241457,37.887043],[-122.241845,37.887005]]]}},{"type":"Feature","properties":{"k":"wood"},"geometry":{"type":"Polygon","coordinates":[[[-122.239302,37.886934],[-122.239504,37.886839],[-122.239254,37.886807],[-122.2386,37.886972],[-122.237898,37.887056],[-122.237809,37.887189],[-122.239302,37.886934]]]}},{"type":"Feature","properties":{"k":"wood"},"geometry":{"type":"Polygon","coordinates":[[[-122.240273,37.888416],[-122.240214,37.888527],[-122.240457,37.888552],[-122.240674,37.888533],[-122.240941,37.888559],[-122.241578,37.888457],[-122.241578,37.888311],[-122.241236,37.888298],[-122.240659,37.888373],[-122.240273,37.888416]]]}},{"type":"Feature","properties":{"k":"wood"},"geometry":{"type":"Polygon","coordinates":[[[-122.242224,37.890081],[-122.2422,37.889814],[-122.241885,37.889788],[-122.241812,37.889922],[-122.241953,37.890097],[-122.242224,37.890081]]]}},{"type":"Feature","properties":{"k":"tee"},"geometry":{"type":"Polygon","coordinates":[[[-122.24702,37.890724],[-122.247023,37.890686],[-122.247013,37.89067],[-122.246977,37.89066],[-122.246954,37.890665],[-122.246934,37.890696],[-122.246944,37.890735],[-122.246966,37.890747],[-122.246985,37.890746],[-122.24702,37.890724]]]}},{"type":"Feature","properties":{"k":"tee"},"geometry":{"type":"Polygon","coordinates":[[[-122.247145,37.890754],[-122.247164,37.890715],[-122.247162,37.890701],[-122.247137,37.890678],[-122.247102,37.890673],[-122.247083,37.890685],[-122.247076,37.890703],[-122.247081,37.890749],[-122.247117,37.890766],[-122.247135,37.890765],[-122.247145,37.890754]]]}},{"type":"Feature","properties":{"k":"path"},"geometry":{"type":"LineString","coordinates":[[-122.24829,37.887994],[-122.248272,37.888031],[-122.248108,37.888128],[-122.247978,37.888167],[-122.247914,37.888162]]}},{"type":"Feature","properties":{"k":"path"},"geometry":{"type":"LineString","coordinates":[[-122.247914,37.888162],[-122.247633,37.888183],[-122.247447,37.888206],[-122.247312,37.888231],[-122.247127,37.888278],[-122.247015,37.88833],[-122.246958,37.888365],[-122.24652,37.888709],[-122.246481,37.888755],[-122.246411,37.8889],[-122.246398,37.889038],[-122.246419,37.889235],[-122.246444,37.889354],[-122.246468,37.88942],[-122.246524,37.889528],[-122.246723,37.889803],[-122.246783,37.88993],[-122.24679,37.89016],[-122.246785,37.890346],[-122.24681,37.890468],[-122.246831,37.890524],[-122.246854,37.890556],[-122.246884,37.890589],[-122.246923,37.89061],[-122.247028,37.890636],[-122.247135,37.890648],[-122.247305,37.890688],[-122.247621,37.890727],[-122.247753,37.890764],[-122.247818,37.89079],[-122.247933,37.890857],[-122.247963,37.890904],[-122.24796,37.891056],[-122.247951,37.891076],[-122.247729,37.891122],[-122.24763,37.891135],[-122.247163,37.891252],[-122.246798,37.891331],[-122.24669,37.891347],[-122.246493,37.891359],[-122.24583,37.89136],[-122.245542,37.891381],[-122.245186,37.891429],[-122.244954,37.891483],[-122.244605,37.891587],[-122.244415,37.891632],[-122.244304,37.891643],[-122.244215,37.891643],[-122.244155,37.891633],[-122.243935,37.891522],[-122.243879,37.891485],[-122.243852,37.891439],[-122.243799,37.891181],[-122.243735,37.891034],[-122.243692,37.890965],[-122.243583,37.89074],[-122.243126,37.889998],[-122.24327,37.889907]]}},{"type":"Feature","properties":{"k":"path"},"geometry":{"type":"LineString","coordinates":[[-122.247963,37.890904],[-122.248013,37.890948],[-122.248093,37.890982],[-122.248206,37.890998],[-122.2484,37.890981],[-122.248418,37.890989],[-122.248432,37.891017],[-122.248422,37.891049],[-122.248395,37.891058],[-122.247951,37.891076]]}},{"type":"Feature","properties":{"k":"bunker"},"geometry":{"type":"Polygon","coordinates":[[[-122.244084,37.89196],[-122.244067,37.89199],[-122.244046,37.892007],[-122.244028,37.89201],[-122.244004,37.892001],[-122.244003,37.891973],[-122.244035,37.89194],[-122.244072,37.89193],[-122.244088,37.891945],[-122.244084,37.89196]]]}},{"type":"Feature","properties":{"k":"bunker"},"geometry":{"type":"Polygon","coordinates":[[[-122.244007,37.891734],[-122.244,37.891751],[-122.243955,37.891763],[-122.243927,37.891759],[-122.243919,37.891745],[-122.243924,37.891728],[-122.243983,37.891715],[-122.244007,37.891734]]]}},{"type":"Feature","properties":{"k":"bunker"},"geometry":{"type":"Polygon","coordinates":[[[-122.243044,37.891402],[-122.243042,37.891388],[-122.242996,37.891365],[-122.242959,37.891356],[-122.242934,37.89136],[-122.242918,37.89137],[-122.242924,37.891394],[-122.242952,37.891398],[-122.242997,37.891427],[-122.243034,37.891427],[-122.243044,37.891402]]]}},{"type":"Feature","properties":{"k":"bunker"},"geometry":{"type":"Polygon","coordinates":[[[-122.242155,37.890124],[-122.242143,37.89014],[-122.242103,37.890153],[-122.242074,37.890144],[-122.242064,37.890123],[-122.242075,37.890112],[-122.242126,37.890094],[-122.242152,37.890104],[-122.242155,37.890124]]]}},{"type":"Feature","properties":{"k":"tee"},"geometry":{"type":"Polygon","coordinates":[[[-122.239948,37.889041],[-122.239944,37.889],[-122.239901,37.888942],[-122.239872,37.888925],[-122.239826,37.888929],[-122.239798,37.888944],[-122.239782,37.88898],[-122.239793,37.889004],[-122.23982,37.889028],[-122.239891,37.889061],[-122.239933,37.889055],[-122.239948,37.889041]]]}},{"type":"Feature","properties":{"k":"tee"},"geometry":{"type":"Polygon","coordinates":[[[-122.23976,37.888904],[-122.239767,37.88888],[-122.239759,37.888868],[-122.239645,37.88882],[-122.23961,37.888813],[-122.239587,37.888817],[-122.239568,37.888831],[-122.23957,37.888865],[-122.239581,37.888875],[-122.239619,37.888883],[-122.239705,37.888923],[-122.239744,37.888918],[-122.23976,37.888904]]]}},{"type":"Feature","properties":{"k":"tee"},"geometry":{"type":"Polygon","coordinates":[[[-122.243603,37.887245],[-122.243612,37.887232],[-122.24361,37.887213],[-122.243598,37.887186],[-122.243575,37.887165],[-122.243569,37.887115],[-122.243559,37.887098],[-122.243538,37.887086],[-122.243512,37.887086],[-122.243489,37.887103],[-122.243477,37.887127],[-122.24348,37.887181],[-122.243498,37.887207],[-122.243522,37.887222],[-122.243578,37.887246],[-122.243603,37.887245]]]}},{"type":"Feature","properties":{"k":"tee"},"geometry":{"type":"Polygon","coordinates":[[[-122.243349,37.886951],[-122.243379,37.886949],[-122.243399,37.886895],[-122.243377,37.886863],[-122.243337,37.886849],[-122.243298,37.886852],[-122.243269,37.886873],[-122.243264,37.886897],[-122.243302,37.886938],[-122.243349,37.886951]]]}},{"type":"Feature","properties":{"k":"bunker"},"geometry":{"type":"Polygon","coordinates":[[[-122.243088,37.887166],[-122.243083,37.887141],[-122.243069,37.887132],[-122.243015,37.887123],[-122.242994,37.887133],[-122.242992,37.88716],[-122.243003,37.887168],[-122.243088,37.887166]]]}},{"type":"Feature","properties":{"k":"tee"},"geometry":{"type":"Polygon","coordinates":[[[-122.239615,37.887383],[-122.239627,37.887371],[-122.239619,37.887338],[-122.239602,37.887321],[-122.239565,37.887316],[-122.239242,37.887349],[-122.239213,37.887356],[-122.239187,37.887379],[-122.239207,37.887419],[-122.239254,37.887428],[-122.239577,37.887396],[-122.239615,37.887383]]]}},{"type":"Feature","properties":{"k":"tee"},"geometry":{"type":"Polygon","coordinates":[[[-122.239129,37.887428],[-122.239137,37.887416],[-122.239129,37.887386],[-122.239103,37.887376],[-122.239023,37.887391],[-122.238992,37.887417],[-122.239001,37.88744],[-122.23903,37.88745],[-122.239063,37.887448],[-122.239129,37.887428]]]}},{"type":"Feature","properties":{"k":"bunker"},"geometry":{"type":"Polygon","coordinates":[[[-122.240517,37.886815],[-122.240525,37.886793],[-122.240516,37.886782],[-122.240502,37.886781],[-122.240464,37.886795],[-122.240418,37.8868],[-122.240412,37.886816],[-122.240416,37.886826],[-122.240441,37.886835],[-122.24049,37.88683],[-122.240517,37.886815]]]}},{"type":"Feature","properties":{"k":"bunker"},"geometry":{"type":"Polygon","coordinates":[[[-122.240585,37.886611],[-122.240581,37.886587],[-122.240541,37.886572],[-122.240504,37.886569],[-122.24048,37.886578],[-122.240477,37.886587],[-122.240488,37.8866],[-122.240549,37.886623],[-122.240574,37.886623],[-122.240585,37.886611]]]}},{"type":"Feature","properties":{"k":"tee"},"geometry":{"type":"Polygon","coordinates":[[[-122.240517,37.886489],[-122.240535,37.886477],[-122.240526,37.886452],[-122.240507,37.88644],[-122.240472,37.886439],[-122.240362,37.886444],[-122.240197,37.886467],[-122.240182,37.886475],[-122.240167,37.886499],[-122.24018,37.886536],[-122.240193,37.886543],[-122.240238,37.886543],[-122.240439,37.886509],[-122.240517,37.886489]]]}},{"type":"Feature","properties":{"k":"tee"},"geometry":{"type":"Polygon","coordinates":[[[-122.240092,37.886529],[-122.240085,37.886504],[-122.240052,37.886493],[-122.239989,37.886497],[-122.239959,37.88652],[-122.239969,37.886556],[-122.24001,37.886564],[-122.240071,37.886555],[-122.240092,37.886529]]]}},{"type":"Feature","properties":{"k":"path"},"geometry":{"type":"LineString","coordinates":[[-122.237041,37.886603],[-122.237018,37.886592],[-122.236987,37.88659],[-122.236932,37.886608],[-122.236905,37.886635],[-122.236912,37.886666]]}},{"type":"Feature","properties":{"k":"tee"},"geometry":{"type":"Polygon","coordinates":[[[-122.23711,37.886668],[-122.237116,37.88664],[-122.237106,37.886627],[-122.237074,37.886618],[-122.236761,37.886768],[-122.236759,37.886795],[-122.236788,37.886813],[-122.236848,37.886801],[-122.23711,37.886668]]]}},{"type":"Feature","properties":{"k":"tee"},"geometry":{"type":"Polygon","coordinates":[[[-122.236812,37.887225],[-122.236821,37.887202],[-122.236802,37.887181],[-122.236764,37.887172],[-122.236736,37.887187],[-122.236734,37.887212],[-122.236742,37.887223],[-122.236779,37.887235],[-122.236812,37.887225]]]}},{"type":"Feature","properties":{"k":"bunker"},"geometry":{"type":"Polygon","coordinates":[[[-122.235966,37.887953],[-122.235968,37.887933],[-122.235945,37.88791],[-122.235915,37.887905],[-122.235895,37.88792],[-122.235898,37.887938],[-122.235927,37.88796],[-122.235948,37.887964],[-122.235966,37.887953]]]}},{"type":"Feature","properties":{"k":"bunker"},"geometry":{"type":"Polygon","coordinates":[[[-122.235821,37.887822],[-122.235782,37.887859],[-122.235765,37.887857],[-122.235747,37.887843],[-122.235745,37.887825],[-122.235777,37.8878],[-122.235813,37.887804],[-122.235821,37.887822]]]}},{"type":"Feature","properties":{"k":"tee"},"geometry":{"type":"Polygon","coordinates":[[[-122.236201,37.888278],[-122.236216,37.888265],[-122.236213,37.88825],[-122.236209,37.88823],[-122.236185,37.888208],[-122.236137,37.888216],[-122.2361,37.888235],[-122.236068,37.888265],[-122.236084,37.888289],[-122.236104,37.888295],[-122.236144,37.888295],[-122.236201,37.888278]]]}},{"type":"Feature","properties":{"k":"tee"},"geometry":{"type":"Polygon","coordinates":[[[-122.236077,37.888198],[-122.23609,37.888189],[-122.236093,37.888158],[-122.23608,37.888146],[-122.236048,37.888138],[-122.235944,37.888176],[-122.235928,37.888193],[-122.235941,37.888229],[-122.235955,37.888237],[-122.236015,37.888231],[-122.236077,37.888198]]]}},{"type":"Feature","properties":{"k":"tee"},"geometry":{"type":"Polygon","coordinates":[[[-122.240611,37.888612],[-122.240612,37.888633],[-122.240593,37.888654],[-122.240275,37.888655],[-122.240189,37.888663],[-122.240121,37.888659],[-122.240099,37.888646],[-122.240087,37.888612],[-122.240114,37.888585],[-122.240157,37.888579],[-122.240562,37.888577],[-122.240606,37.888598],[-122.240611,37.888612]]]}},{"type":"Feature","properties":{"k":"bunker"},"geometry":{"type":"Polygon","coordinates":[[[-122.24468,37.887823],[-122.244607,37.887746],[-122.244575,37.887745],[-122.244565,37.887753],[-122.244571,37.88778],[-122.24463,37.887834],[-122.244667,37.887836],[-122.24468,37.887823]]]}},{"type":"Feature","properties":{"k":"green"},"geometry":{"type":"Polygon","coordinates":[[[-122.244367,37.887859],[-122.244374,37.887847],[-122.244364,37.887808],[-122.244329,37.887797],[-122.244267,37.887812],[-122.244159,37.887824],[-122.2441,37.887843],[-122.243955,37.887856],[-122.243923,37.887865],[-122.243913,37.887876],[-122.243914,37.887889],[-122.243922,37.887906],[-122.243971,37.887948],[-122.244018,37.887968],[-122.244076,37.887975],[-122.244189,37.887928],[-122.244253,37.887914],[-122.244286,37.887892],[-122.244333,37.887885],[-122.244367,37.887859]]]}},{"type":"Feature","properties":{"k":"green"},"geometry":{"type":"Polygon","coordinates":[[[-122.243886,37.888053],[-122.243897,37.888021],[-122.243885,37.887994],[-122.243862,37.88798],[-122.243799,37.887911],[-122.243754,37.887895],[-122.243714,37.887898],[-122.243642,37.887926],[-122.243616,37.887974],[-122.24362,37.887984],[-122.243743,37.8881],[-122.243787,37.888109],[-122.243813,37.888102],[-122.243886,37.888053]]]}},{"type":"Feature","properties":{"k":"tee"},"geometry":{"type":"Polygon","coordinates":[[[-122.237637,37.888353],[-122.237651,37.888347],[-122.237663,37.888326],[-122.237651,37.888279],[-122.237628,37.888257],[-122.237586,37.88825],[-122.237566,37.888267],[-122.237574,37.88831],[-122.237597,37.888344],[-122.237637,37.888353]]]}},{"type":"Feature","properties":{"k":"bunker"},"geometry":{"type":"Polygon","coordinates":[[[-122.240642,37.88902],[-122.240604,37.889035],[-122.24055,37.889036],[-122.240535,37.889032],[-122.240527,37.88902],[-122.240528,37.888992],[-122.240545,37.888977],[-122.240595,37.888975],[-122.240634,37.88899],[-122.240643,37.889001],[-122.240642,37.88902]]]}},{"type":"Feature","properties":{"k":"bunker"},"geometry":{"type":"Polygon","coordinates":[[[-122.240764,37.888842],[-122.240768,37.888821],[-122.240755,37.888785],[-122.240722,37.88877],[-122.240701,37.888767],[-122.240687,37.888774],[-122.240702,37.888839],[-122.240728,37.888855],[-122.240764,37.888842]]]}},{"type":"Feature","properties":{"k":"tee"},"geometry":{"type":"Polygon","coordinates":[[[-122.244094,37.891464],[-122.244059,37.891407],[-122.243977,37.891316],[-122.243917,37.891342],[-122.244046,37.891484],[-122.244073,37.891494],[-122.244087,37.89149],[-122.244094,37.891464]]]}},{"type":"Feature","properties":{"k":"tee"},"geometry":{"type":"Polygon","coordinates":[[[-122.24309,37.88806],[-122.243096,37.88803],[-122.24309,37.888011],[-122.24301,37.887964],[-122.242972,37.887954],[-122.242936,37.887954],[-122.242893,37.887972],[-122.242887,37.887996],[-122.242897,37.888065],[-122.242925,37.8881],[-122.242989,37.888105],[-122.243019,37.888099],[-122.243058,37.888085],[-122.24309,37.88806]]]}},{"type":"Feature","properties":{"k":"tee"},"geometry":{"type":"Polygon","coordinates":[[[-122.238886,37.889105],[-122.238896,37.889089],[-122.238889,37.889066],[-122.238851,37.889028],[-122.238822,37.889023],[-122.238801,37.889037],[-122.238801,37.889054],[-122.23883,37.889106],[-122.238871,37.889111],[-122.238886,37.889105]]]}},{"type":"Feature","properties":{"k":"tee"},"geometry":{"type":"Polygon","coordinates":[[[-122.239175,37.889384],[-122.239143,37.889407],[-122.2391,37.889407],[-122.239067,37.889385],[-122.239054,37.889362],[-122.239055,37.889343],[-122.239066,37.889328],[-122.239089,37.889318],[-122.239132,37.889319],[-122.239171,37.889351],[-122.239175,37.889384]]]}},{"type":"Feature","properties":{"k":"bunker"},"geometry":{"type":"Polygon","coordinates":[[[-122.239702,37.890116],[-122.239689,37.890128],[-122.239672,37.89013],[-122.239614,37.890124],[-122.239597,37.890111],[-122.239597,37.890098],[-122.239613,37.890084],[-122.23967,37.890084],[-122.239697,37.890097],[-122.239702,37.890116]]]}},{"type":"Feature","properties":{"k":"tee"},"geometry":{"type":"Polygon","coordinates":[[[-122.24353,37.892193],[-122.243556,37.892179],[-122.24355,37.892146],[-122.243525,37.89214],[-122.243455,37.892142],[-122.24344,37.892154],[-122.243456,37.892189],[-122.243479,37.892199],[-122.24353,37.892193]]]}},{"type":"Feature","properties":{"k":"bunker"},"geometry":{"type":"Polygon","coordinates":[[[-122.239847,37.889554],[-122.239832,37.889524],[-122.239778,37.889507],[-122.239758,37.88948],[-122.239721,37.889455],[-122.239711,37.889426],[-122.239691,37.88942],[-122.239666,37.889424],[-122.239647,37.889438],[-122.239641,37.889455],[-122.239648,37.889465],[-122.239721,37.889517],[-122.23981,37.889564],[-122.239827,37.889567],[-122.239847,37.889554]]]}},{"type":"Feature","properties":{"k":"tee"},"geometry":{"type":"Polygon","coordinates":[[[-122.241257,37.890342],[-122.241255,37.890312],[-122.241221,37.890289],[-122.241169,37.890279],[-122.24114,37.890302],[-122.24114,37.890321],[-122.241173,37.89036],[-122.241189,37.890366],[-122.24123,37.890367],[-122.241257,37.890342]]]}},{"type":"Feature","properties":{"k":"tee"},"geometry":{"type":"Polygon","coordinates":[[[-122.241515,37.890569],[-122.24149,37.89053],[-122.241361,37.8904],[-122.241323,37.890382],[-122.241287,37.890392],[-122.241277,37.890421],[-122.241283,37.890438],[-122.241461,37.890586],[-122.241475,37.890596],[-122.241499,37.890594],[-122.241512,37.890585],[-122.241515,37.890569]]]}},{"type":"Feature","properties":{"k":"tee"},"geometry":{"type":"Polygon","coordinates":[[[-122.238379,37.887955],[-122.238362,37.887989],[-122.238333,37.888002],[-122.238239,37.888022],[-122.238216,37.888018],[-122.238191,37.888002],[-122.238175,37.88797],[-122.238175,37.887945],[-122.238194,37.887918],[-122.238219,37.887907],[-122.238336,37.887886],[-122.238353,37.887893],[-122.238381,37.887925],[-122.238379,37.887955]]]}},{"type":"Feature","properties":{"k":"tee"},"geometry":{"type":"Polygon","coordinates":[[[-122.239349,37.890449],[-122.239345,37.890466],[-122.239315,37.890477],[-122.239226,37.890471],[-122.239193,37.89045],[-122.239121,37.890426],[-122.239123,37.890386],[-122.23917,37.89035],[-122.239227,37.890355],[-122.239272,37.890405],[-122.239328,37.890411],[-122.239348,37.890426],[-122.239349,37.890449]]]}},{"type":"Feature","properties":{"k":"tee"},"geometry":{"type":"Polygon","coordinates":[[[-122.238584,37.890184],[-122.238472,37.89006],[-122.238434,37.890055],[-122.238399,37.89007],[-122.238386,37.89009],[-122.238395,37.890117],[-122.238527,37.890248],[-122.238595,37.890251],[-122.238637,37.890234],[-122.238627,37.890212],[-122.238584,37.890184]]]}},{"type":"Feature","properties":{"k":"tee"},"geometry":{"type":"Polygon","coordinates":[[[-122.238773,37.888815],[-122.238766,37.888837],[-122.238722,37.888854],[-122.238673,37.888851],[-122.238625,37.888837],[-122.238596,37.888778],[-122.238602,37.888752],[-122.238616,37.888732],[-122.238651,37.888724],[-122.238681,37.888725],[-122.238747,37.888756],[-122.238766,37.888784],[-122.238773,37.888815]]]}},{"type":"Feature","properties":{"k":"tee"},"geometry":{"type":"Polygon","coordinates":[[[-122.238571,37.888541],[-122.238555,37.888564],[-122.238488,37.88859],[-122.238442,37.888586],[-122.238428,37.888576],[-122.238433,37.888543],[-122.238493,37.88851],[-122.238542,37.888506],[-122.238562,37.888513],[-122.238571,37.888541]]]}},{"type":"Feature","properties":{"k":"path"},"geometry":{"type":"LineString","coordinates":[[-122.242855,37.888215],[-122.242805,37.888211],[-122.24279,37.888194],[-122.242781,37.888159],[-122.242781,37.888097],[-122.242813,37.887901],[-122.243004,37.887933]]}},{"type":"Feature","properties":{"k":"path"},"geometry":{"type":"LineString","coordinates":[[-122.243143,37.887451],[-122.243202,37.887495],[-122.243265,37.887571],[-122.243332,37.887711]]}},{"type":"Feature","properties":{"k":"range"},"geometry":{"type":"Polygon","coordinates":[[[-122.244371,37.888676],[-122.245202,37.88986],[-122.245258,37.890438],[-122.244739,37.890652],[-122.244249,37.890316],[-122.243665,37.889082],[-122.243605,37.888858],[-122.24429,37.888582],[-122.244371,37.888676]]]}},{"type":"Feature","properties":{"k":"path"},"geometry":{"type":"LineString","coordinates":[[-122.243252,37.889355],[-122.243175,37.889253],[-122.243219,37.889162],[-122.243286,37.889098],[-122.24335,37.889066],[-122.243414,37.889049],[-122.243513,37.889061],[-122.243584,37.889097],[-122.243638,37.889166],[-122.24374,37.889333],[-122.243858,37.889586]]}},{"type":"Feature","properties":{"k":"path"},"geometry":{"type":"LineString","coordinates":[[-122.243143,37.887451],[-122.243266,37.887482],[-122.24343,37.887469],[-122.243486,37.887448],[-122.243543,37.887414],[-122.243581,37.887372],[-122.243634,37.887294],[-122.243646,37.887236],[-122.243631,37.887188],[-122.243598,37.88713],[-122.243593,37.887085],[-122.243616,37.88702],[-122.243575,37.886909],[-122.243538,37.886879],[-122.243432,37.886825],[-122.243271,37.88677],[-122.242508,37.886747],[-122.2423,37.886714]]}},{"type":"Feature","properties":{"k":"path"},"geometry":{"type":"LineString","coordinates":[[-122.242456,37.887404],[-122.24266,37.887382],[-122.242797,37.887379],[-122.24289,37.887392],[-122.243143,37.887451]]}},{"type":"Feature","properties":{"k":"path"},"geometry":{"type":"LineString","coordinates":[[-122.239398,37.889305],[-122.23929,37.889329]]}},{"type":"Feature","properties":{"k":"path"},"geometry":{"type":"LineString","coordinates":[[-122.23929,37.889329],[-122.239279,37.889332]]}},{"type":"Feature","properties":{"k":"path"},"geometry":{"type":"LineString","coordinates":[[-122.239488,37.889284],[-122.239398,37.889305]]}},{"type":"Feature","properties":{"k":"path"},"geometry":{"type":"LineString","coordinates":[[-122.239008,37.88888],[-122.238947,37.88895]]}},{"type":"Feature","properties":{"k":"path"},"geometry":{"type":"LineString","coordinates":[[-122.238947,37.88895],[-122.238889,37.889017]]}},{"type":"Feature","properties":{"k":"fairway"},"geometry":{"type":"Polygon","coordinates":[[[-122.246314,37.888139],[-122.24603,37.888171],[-122.245899,37.888177],[-122.245797,37.888179],[-122.245647,37.888165],[-122.245569,37.888165],[-122.2453,37.888171],[-122.245225,37.888182],[-122.245193,37.888162],[-122.245158,37.888126],[-122.24514,37.888086],[-122.245137,37.887974],[-122.245201,37.887938],[-122.245349,37.887906],[-122.245413,37.887906],[-122.245507,37.887894],[-122.245723,37.887848],[-122.24597,37.887811],[-122.246768,37.887752],[-122.246876,37.887733],[-122.247244,37.887691],[-122.247518,37.887669],[-122.24755,37.887689],[-122.247604,37.887803],[-122.247633,37.887915],[-122.247631,37.887959],[-122.247604,37.887985],[-122.2474,37.888023],[-122.247073,37.888065],[-122.246399,37.888137],[-122.246314,37.888139]]]}},{"type":"Feature","properties":{"k":"tee"},"geometry":{"type":"Polygon","coordinates":[[[-122.244159,37.888184],[-122.244191,37.888136],[-122.244233,37.888124],[-122.244263,37.888125],[-122.244289,37.88814],[-122.244306,37.888184],[-122.244266,37.88823],[-122.244214,37.888236],[-122.244191,37.888234],[-122.244172,37.888221],[-122.244159,37.888184]]]}},{"type":"Feature","properties":{"k":"tee"},"geometry":{"type":"Polygon","coordinates":[[[-122.243939,37.888339],[-122.24392,37.888301],[-122.243917,37.888268],[-122.243951,37.888244],[-122.243993,37.888238],[-122.244034,37.888263],[-122.244063,37.8883],[-122.244071,37.888321],[-122.244064,37.888356],[-122.244044,37.888371],[-122.243997,37.888376],[-122.243958,37.888363],[-122.243939,37.888339]]]}},{"type":"Feature","properties":{"k":"tee"},"geometry":{"type":"Polygon","coordinates":[[[-122.24838,37.887763],[-122.248371,37.887737],[-122.248393,37.887709],[-122.248424,37.887702],[-122.24846,37.88771],[-122.248477,37.887724],[-122.248472,37.887759],[-122.248449,37.887777],[-122.248406,37.88778],[-122.24838,37.887763]]]}},{"type":"Feature","properties":{"k":"tee"},"geometry":{"type":"Polygon","coordinates":[[[-122.248218,37.887844],[-122.248295,37.887783],[-122.248327,37.887786],[-122.248361,37.887824],[-122.248351,37.887874],[-122.248314,37.887912],[-122.248281,37.887923],[-122.248244,37.887911],[-122.248214,37.887885],[-122.248208,37.887873],[-122.248218,37.887844]]]}},{"type":"Feature","properties":{"k":"green"},"geometry":{"type":"Polygon","coordinates":[[[-122.247107,37.890524],[-122.247082,37.890526],[-122.247033,37.890517],[-122.246991,37.890498],[-122.246959,37.890465],[-122.246944,37.890425],[-122.246961,37.890363],[-122.246986,37.890329],[-122.247047,37.890297],[-122.247114,37.890289],[-122.247166,37.890302],[-122.247198,37.890335],[-122.247205,37.890358],[-122.247192,37.890438],[-122.247169,37.890484],[-122.247154,37.890504],[-122.247107,37.890524]]]}},{"type":"Feature","properties":{"k":"green"},"geometry":{"type":"Polygon","coordinates":[[[-122.248177,37.887742],[-122.248121,37.887799],[-122.248078,37.887809],[-122.248041,37.887794],[-122.248028,37.887777],[-122.247997,37.887693],[-122.247997,37.88764],[-122.248017,37.887611],[-122.248054,37.887595],[-122.248111,37.887592],[-122.248162,37.887609],[-122.248179,37.887623],[-122.248203,37.887654],[-122.248207,37.887677],[-122.248177,37.887742]]]}},{"type":"Feature","properties":{"k":"tee"},"geometry":{"type":"Polygon","coordinates":[[[-122.24864,37.891136],[-122.248659,37.891106],[-122.248712,37.8911],[-122.248749,37.891111],[-122.248754,37.891154],[-122.248725,37.891185],[-122.248683,37.89119],[-122.248652,37.891169],[-122.24864,37.891136]]]}},{"type":"Feature","properties":{"k":"tee"},"geometry":{"type":"Polygon","coordinates":[[[-122.248474,37.891165],[-122.248488,37.891122],[-122.248517,37.891119],[-122.248535,37.891123],[-122.248555,37.89114],[-122.248563,37.891177],[-122.24855,37.891195],[-122.248518,37.891202],[-122.248488,37.891188],[-122.248474,37.891165]]]}},{"type":"Feature","properties":{"k":"tee"},"geometry":{"type":"Polygon","coordinates":[[[-122.247876,37.891224],[-122.247895,37.891337],[-122.247876,37.89136],[-122.247832,37.891362],[-122.247801,37.891338],[-122.247796,37.891315],[-122.247781,37.891203],[-122.247792,37.891165],[-122.24786,37.891165],[-122.247876,37.891224]]]}},{"type":"Feature","properties":{"k":"tee"},"geometry":{"type":"Polygon","coordinates":[[[-122.247693,37.891372],[-122.247666,37.891392],[-122.247624,37.891398],[-122.2476,37.891382],[-122.247595,37.891352],[-122.247625,37.891335],[-122.24767,37.891333],[-122.247693,37.891352],[-122.247693,37.891372]]]}},{"type":"Feature","properties":{"k":"fairway"},"geometry":{"type":"Polygon","coordinates":[[[-122.246315,37.891603],[-122.246254,37.891645],[-122.246173,37.891681],[-122.246122,37.891713],[-122.245945,37.891766],[-122.245792,37.891802],[-122.245516,37.891842],[-122.245468,37.891842],[-122.245441,37.891832],[-122.245422,37.891804],[-122.245433,37.891482],[-122.245446,37.891448],[-122.245476,37.891429],[-122.245787,37.891402],[-122.24609,37.891393],[-122.246297,37.891395],[-122.246337,37.891419],[-122.246366,37.891476],[-122.246358,37.891529],[-122.246315,37.891603]]]}},{"type":"Feature","properties":{"k":"green"},"geometry":{"type":"Polygon","coordinates":[[[-122.243989,37.891931],[-122.243945,37.891977],[-122.243908,37.891994],[-122.243884,37.891992],[-122.243849,37.891968],[-122.24383,37.891937],[-122.243824,37.891881],[-122.243841,37.891841],[-122.243868,37.891814],[-122.2439,37.891801],[-122.243994,37.891787],[-122.244018,37.891787],[-122.244049,37.891803],[-122.24406,37.891821],[-122.244059,37.891857],[-122.243989,37.891931]]]}},{"type":"Feature","properties":{"k":"tee"},"geometry":{"type":"Polygon","coordinates":[[[-122.243615,37.891561],[-122.243627,37.89151],[-122.243696,37.891491],[-122.24378,37.891495],[-122.243815,37.891518],[-122.243855,37.891578],[-122.243896,37.891621],[-122.243899,37.891639],[-122.243867,37.891657],[-122.24381,37.891668],[-122.243753,37.891666],[-122.243703,37.891655],[-122.243638,37.89163],[-122.243628,37.89162],[-122.243619,37.89161],[-122.243615,37.891561]]]}},{"type":"Feature","properties":{"k":"fairway"},"geometry":{"type":"Polygon","coordinates":[[[-122.243011,37.892022],[-122.242825,37.892065],[-122.242766,37.892063],[-122.242748,37.892051],[-122.242714,37.891997],[-122.242705,37.891907],[-122.242717,37.891882],[-122.242738,37.891863],[-122.2428,37.891838],[-122.242998,37.89179],[-122.24307,37.891786],[-122.243089,37.891801],[-122.243114,37.891862],[-122.243133,37.891938],[-122.243098,37.891991],[-122.24307,37.892009],[-122.243011,37.892022]]]}},{"type":"Feature","properties":{"k":"green"},"geometry":{"type":"Polygon","coordinates":[[[-122.242342,37.891921],[-122.24234,37.891903],[-122.242353,37.89187],[-122.242402,37.891841],[-122.242502,37.891867],[-122.242524,37.891886],[-122.242542,37.891921],[-122.242547,37.891959],[-122.242536,37.891995],[-122.242513,37.892022],[-122.242493,37.89203],[-122.242472,37.892033],[-122.242421,37.892025],[-122.242388,37.892004],[-122.242362,37.891971],[-122.242342,37.891921]]]}},{"type":"Feature","properties":{"k":"tee"},"geometry":{"type":"Polygon","coordinates":[[[-122.242119,37.891722],[-122.242137,37.891742],[-122.242142,37.891777],[-122.242122,37.891794],[-122.242084,37.891796],[-122.242068,37.89179],[-122.241992,37.891719],[-122.241989,37.891694],[-122.242026,37.891674],[-122.242051,37.891676],[-122.242066,37.89168],[-122.242119,37.891722]]]}},{"type":"Feature","properties":{"k":"tee"},"geometry":{"type":"Polygon","coordinates":[[[-122.241754,37.891569],[-122.241778,37.891603],[-122.241778,37.891621],[-122.241736,37.891647],[-122.241708,37.89165],[-122.241692,37.891644],[-122.241673,37.891631],[-122.241603,37.891544],[-122.241607,37.891512],[-122.241649,37.891487],[-122.241685,37.891489],[-122.241754,37.891569]]]}},{"type":"Feature","properties":{"k":"fairway"},"geometry":{"type":"Polygon","coordinates":[[[-122.240708,37.890362],[-122.241056,37.890698],[-122.241128,37.890758],[-122.241151,37.890795],[-122.241164,37.890843],[-122.241161,37.89088],[-122.241105,37.890946],[-122.241066,37.890968],[-122.240977,37.890987],[-122.240936,37.890972],[-122.240372,37.890431],[-122.240162,37.890225],[-122.24011,37.890161],[-122.240013,37.890072],[-122.239974,37.890029],[-122.239962,37.889991],[-122.239978,37.889952],[-122.240013,37.889924],[-122.240126,37.889899],[-122.240178,37.889896],[-122.240248,37.889916],[-122.240295,37.889961],[-122.240349,37.890031],[-122.240578,37.890227],[-122.240708,37.890362]]]}},{"type":"Feature","properties":{"k":"green"},"geometry":{"type":"Polygon","coordinates":[[[-122.240027,37.88942],[-122.240002,37.889468],[-122.239962,37.889496],[-122.239893,37.889504],[-122.239822,37.889484],[-122.239745,37.88942],[-122.239724,37.889391],[-122.23971,37.889342],[-122.239718,37.889306],[-122.239748,37.889277],[-122.239783,37.889262],[-122.239818,37.889258],[-122.239854,37.889264],[-122.239997,37.889335],[-122.240025,37.889375],[-122.240027,37.88942]]]}},{"type":"Feature","properties":{"k":"green"},"geometry":{"type":"Polygon","coordinates":[[[-122.242277,37.890261],[-122.242313,37.890326],[-122.242314,37.89037],[-122.242294,37.890392],[-122.242277,37.890399],[-122.242209,37.890399],[-122.242146,37.890371],[-122.242071,37.890288],[-122.242047,37.89025],[-122.242048,37.890222],[-122.242075,37.890188],[-122.242091,37.890181],[-122.242162,37.890168],[-122.242193,37.89017],[-122.242249,37.890195],[-122.242277,37.890261]]]}},{"type":"Feature","properties":{"k":"green"},"geometry":{"type":"Polygon","coordinates":[[[-122.242754,37.89141],[-122.242775,37.891393],[-122.24281,37.891382],[-122.242859,37.891377],[-122.242883,37.891384],[-122.242926,37.891426],[-122.242942,37.891481],[-122.242941,37.891514],[-122.242965,37.89157],[-122.24296,37.891586],[-122.242935,37.891612],[-122.242892,37.891621],[-122.242846,37.89161],[-122.242816,37.89159],[-122.242766,37.891536],[-122.242733,37.891489],[-122.242725,37.891462],[-122.242733,37.891435],[-122.242754,37.89141]]]}},{"type":"Feature","properties":{"k":"green"},"geometry":{"type":"Polygon","coordinates":[[[-122.240574,37.888937],[-122.240468,37.888972],[-122.240428,37.888972],[-122.240395,37.888957],[-122.240355,37.888925],[-122.240341,37.88889],[-122.24034,37.888845],[-122.240361,37.888816],[-122.240433,37.88878],[-122.240616,37.888787],[-122.240642,37.888809],[-122.240645,37.888849],[-122.240617,37.888908],[-122.240603,37.888925],[-122.240574,37.888937]]]}},{"type":"Feature","properties":{"k":"fairway"},"geometry":{"type":"Polygon","coordinates":[[[-122.241597,37.888864],[-122.241438,37.888836],[-122.241398,37.88881],[-122.241376,37.88875],[-122.24138,37.888712],[-122.241398,37.888675],[-122.24144,37.888647],[-122.24147,37.888637],[-122.241566,37.888622],[-122.24164,37.888622],[-122.24177,37.888652],[-122.241788,37.888664],[-122.241804,37.888711],[-122.241793,37.888797],[-122.241777,37.888842],[-122.24175,37.888868],[-122.241727,37.888874],[-122.241693,37.888877],[-122.241597,37.888864]]]}},{"type":"Feature","properties":{"k":"fairway"},"geometry":{"type":"Polygon","coordinates":[[[-122.242808,37.888673],[-122.242802,37.888784],[-122.242741,37.888865],[-122.24263,37.888946],[-122.242489,37.889013],[-122.242453,37.889018],[-122.242392,37.889008],[-122.242142,37.888952],[-122.241928,37.888914],[-122.241908,37.888894],[-122.241888,37.888836],[-122.241898,37.888751],[-122.241928,37.888678],[-122.241965,37.888618],[-122.241991,37.888588],[-122.242064,37.888532],[-122.242127,37.888495],[-122.242158,37.888487],[-122.242213,37.888493],[-122.242677,37.888613],[-122.242742,37.888615],[-122.242774,37.888624],[-122.242802,37.888655],[-122.242808,37.888673]]]}},{"type":"Feature","properties":{"k":"green"},"geometry":{"type":"Polygon","coordinates":[[[-122.243499,37.888241],[-122.243465,37.888304],[-122.243375,37.888373],[-122.243334,37.888377],[-122.243288,37.888368],[-122.243263,37.888349],[-122.243239,37.888312],[-122.243235,37.88829],[-122.243268,37.888248],[-122.24339,37.888194],[-122.243447,37.888192],[-122.243477,37.888202],[-122.243494,37.888219],[-122.243499,37.888241]]]}},{"type":"Feature","properties":{"k":"green"},"geometry":{"type":"Polygon","coordinates":[[[-122.239013,37.888526],[-122.239071,37.888511],[-122.239114,37.888517],[-122.239151,37.888536],[-122.239186,37.88858],[-122.239192,37.888603],[-122.239186,37.888634],[-122.239166,37.888661],[-122.239116,37.888682],[-122.239054,37.888683],[-122.239015,37.888673],[-122.238968,37.888644],[-122.238945,37.888618],[-122.238944,37.888596],[-122.238965,37.888565],[-122.239013,37.888526]]]}},{"type":"Feature","properties":{"k":"fairway"},"geometry":{"type":"Polygon","coordinates":[[[-122.240807,37.888266],[-122.239944,37.88841],[-122.239916,37.888401],[-122.239883,37.888358],[-122.239851,37.888227],[-122.239864,37.888186],[-122.239881,37.888167],[-122.239906,37.888156],[-122.240678,37.888035],[-122.240874,37.887998],[-122.241442,37.887914],[-122.241473,37.88792],[-122.241515,37.887957],[-122.241545,37.888091],[-122.241539,37.888117],[-122.241517,37.888145],[-122.24149,37.888156],[-122.241324,37.888177],[-122.240807,37.888266]]]}},{"type":"Feature","properties":{"k":"green"},"geometry":{"type":"Polygon","coordinates":[[[-122.239779,37.890264],[-122.239783,37.890296],[-122.239758,37.890339],[-122.239724,37.890356],[-122.239652,37.890363],[-122.239593,37.890342],[-122.239544,37.890295],[-122.239512,37.890222],[-122.239514,37.890194],[-122.239534,37.890169],[-122.239566,37.89016],[-122.23969,37.890182],[-122.239721,37.890195],[-122.23976,37.890225],[-122.239779,37.890264]]]}},{"type":"Feature","properties":{"k":"fairway"},"geometry":{"type":"Polygon","coordinates":[[[-122.237784,37.889446],[-122.237691,37.889431],[-122.237606,37.889396],[-122.237579,37.889374],[-122.23755,37.889325],[-122.237435,37.88919],[-122.237334,37.888994],[-122.237296,37.888901],[-122.237275,37.88881],[-122.237284,37.888785],[-122.2373,37.888773],[-122.237413,37.888741],[-122.237497,37.888739],[-122.237537,37.888748],[-122.237642,37.888796],[-122.237686,37.888849],[-122.237749,37.888957],[-122.237805,37.889111],[-122.23789,37.889259],[-122.237914,37.889341],[-122.237914,37.889372],[-122.237899,37.889411],[-122.237866,37.889431],[-122.237824,37.889444],[-122.237784,37.889446]]]}},{"type":"Feature","properties":{"k":"green"},"geometry":{"type":"Polygon","coordinates":[[[-122.237122,37.888164],[-122.23713,37.88825],[-122.237121,37.888263],[-122.237095,37.888279],[-122.23705,37.888292],[-122.237007,37.888286],[-122.236957,37.888253],[-122.236924,37.888157],[-122.236927,37.888118],[-122.236976,37.888071],[-122.23702,37.888065],[-122.237044,37.88807],[-122.237082,37.888098],[-122.237122,37.888164]]]}},{"type":"Feature","properties":{"k":"green"},"geometry":{"type":"Polygon","coordinates":[[[-122.242942,37.887577],[-122.242762,37.887638],[-122.242728,37.887642],[-122.242691,37.887628],[-122.24267,37.887605],[-122.24266,37.887581],[-122.242662,37.887517],[-122.242679,37.887491],[-122.242702,37.887476],[-122.242875,37.887458],[-122.242925,37.887483],[-122.24297,37.887522],[-122.242969,37.887552],[-122.242942,37.887577]]]}},{"type":"Feature","properties":{"k":"fairway"},"geometry":{"type":"Polygon","coordinates":[[[-122.239031,37.887977],[-122.239009,37.88795],[-122.239003,37.887927],[-122.239001,37.887812],[-122.239025,37.887785],[-122.23916,37.887758],[-122.239763,37.88769],[-122.240188,37.887627],[-122.24031,37.887622],[-122.240665,37.887579],[-122.240911,37.887561],[-122.241358,37.887543],[-122.242058,37.887485],[-122.242135,37.887488],[-122.242186,37.887503],[-122.242199,37.887533],[-122.242192,37.887619],[-122.242167,37.887692],[-122.242144,37.887707],[-122.242045,37.887727],[-122.239882,37.887947],[-122.239252,37.887993],[-122.239058,37.887985],[-122.239031,37.887977]]]}},{"type":"Feature","properties":{"k":"green"},"geometry":{"type":"Polygon","coordinates":[[[-122.240411,37.886757],[-122.240361,37.88679],[-122.240319,37.886805],[-122.240254,37.88679],[-122.240229,37.886767],[-122.240217,37.886734],[-122.240218,37.886699],[-122.240236,37.886662],[-122.240273,37.886639],[-122.24033,37.886627],[-122.240461,37.886625],[-122.240501,37.886637],[-122.24053,37.886671],[-122.24053,37.886705],[-122.240521,37.886722],[-122.240411,37.886757]]]}},{"type":"Feature","properties":{"k":"green"},"geometry":{"type":"Polygon","coordinates":[[[-122.237187,37.887148],[-122.237114,37.887158],[-122.237024,37.887149],[-122.236987,37.887121],[-122.236983,37.887096],[-122.236991,37.887074],[-122.237025,37.887048],[-122.237166,37.887002],[-122.23723,37.886995],[-122.237267,37.887003],[-122.237287,37.887013],[-122.237304,37.887037],[-122.237307,37.887065],[-122.237297,37.887083],[-122.237256,37.887115],[-122.237187,37.887148]]]}},{"type":"Feature","properties":{"k":"green"},"geometry":{"type":"Polygon","coordinates":[[[-122.235832,37.887965],[-122.235839,37.888022],[-122.235818,37.888049],[-122.235785,37.888067],[-122.235714,37.888084],[-122.23567,37.888084],[-122.23563,37.888073],[-122.235599,37.888053],[-122.23559,37.888019],[-122.235607,37.887985],[-122.235718,37.887909],[-122.235762,37.887899],[-122.235798,37.887905],[-122.235828,37.887935],[-122.235832,37.887965]]]}},{"type":"Feature","properties":{"k":"green"},"geometry":{"type":"Polygon","coordinates":[[[-122.23988,37.886952],[-122.239879,37.886998],[-122.23985,37.88704],[-122.239825,37.88706],[-122.239759,37.887088],[-122.239702,37.887101],[-122.239627,37.8871],[-122.239576,37.887082],[-122.239556,37.887057],[-122.239553,37.887014],[-122.239582,37.886973],[-122.239713,37.88691],[-122.239785,37.886896],[-122.239827,37.886899],[-122.239858,37.886922],[-122.23988,37.886952]]]}},{"type":"Feature","properties":{"k":"fairway"},"geometry":{"type":"Polygon","coordinates":[[[-122.237505,37.887649],[-122.237039,37.887818],[-122.236993,37.887819],[-122.236959,37.887807],[-122.236919,37.887751],[-122.236917,37.887715],[-122.23694,37.887678],[-122.237231,37.887513],[-122.237317,37.887488],[-122.23743,37.887496],[-122.237492,37.887518],[-122.23755,37.887554],[-122.237572,37.887583],[-122.237569,37.887603],[-122.237538,37.887638],[-122.237505,37.887649]]]}},{"type":"Feature","properties":{"k":"green"},"geometry":{"type":"Polygon","coordinates":[[[-122.243081,37.887337],[-122.243022,37.887292],[-122.243004,37.887262],[-122.243008,37.887238],[-122.243021,37.887222],[-122.243065,37.887208],[-122.24311,37.887215],[-122.243167,37.887243],[-122.243247,37.887298],[-122.243269,37.88734],[-122.24325,37.887378],[-122.243181,37.887402],[-122.243124,37.887384],[-122.243081,37.887337]]]}}]}