{"type":"FeatureCollection","features":[{"type":"Feature","properties":{"k":"hole","ref":"1","par":5},"geometry":{"type":"LineString","coordinates":[[-83.742736,42.26285],[-83.74108,42.260242],[-83.740722,42.258722]]}},{"type":"Feature","properties":{"k":"hole","ref":"2","par":4},"geometry":{"type":"LineString","coordinates":[[-83.741247,42.257869],[-83.742062,42.255769],[-83.742121,42.254546]]}},{"type":"Feature","properties":{"k":"hole","ref":"3","par":5},"geometry":{"type":"LineString","coordinates":[[-83.742705,42.254051],[-83.742677,42.257264],[-83.744005,42.258268]]}},{"type":"Feature","properties":{"k":"hole","ref":"4","par":4},"geometry":{"type":"LineString","coordinates":[[-83.743778,42.257827],[-83.743357,42.25587],[-83.743515,42.25445]]}},{"type":"Feature","properties":{"k":"hole","ref":"5","par":3},"geometry":{"type":"LineString","coordinates":[[-83.744019,42.254547],[-83.744304,42.255717],[-83.744342,42.256066]]}},{"type":"Feature","properties":{"k":"hole","ref":"6","par":4},"geometry":{"type":"LineString","coordinates":[[-83.743885,42.256109],[-83.744465,42.257867],[-83.744738,42.258507]]}},{"type":"Feature","properties":{"k":"hole","ref":"7","par":4},"geometry":{"type":"LineString","coordinates":[[-83.74492,42.258911],[-83.741992,42.258344],[-83.74084,42.258302]]}},{"type":"Feature","properties":{"k":"hole","ref":"8","par":3},"geometry":{"type":"LineString","coordinates":[[-83.741124,42.258685],[-83.742268,42.25884],[-83.742787,42.259009]]}},{"type":"Feature","properties":{"k":"hole","ref":"9","par":4},"geometry":{"type":"LineString","coordinates":[[-83.743819,42.258915],[-83.742743,42.261022],[-83.743106,42.262113]]}},{"type":"Feature","properties":{"k":"hole","ref":"10","par":4},"geometry":{"type":"LineString","coordinates":[[-83.743701,42.26254],[-83.744195,42.260067],[-83.74449,42.259231]]}},{"type":"Feature","properties":{"k":"hole","ref":"11","par":5},"geometry":{"type":"LineString","coordinates":[[-83.745225,42.259006],[-83.744989,42.256099],[-83.744641,42.254686]]}},{"type":"Feature","properties":{"k":"hole","ref":"12","par":3},"geometry":{"type":"LineString","coordinates":[[-83.74567,42.254917],[-83.745958,42.256465],[-83.745994,42.256921]]}},{"type":"Feature","properties":{"k":"hole","ref":"13","par":4},"geometry":{"type":"LineString","coordinates":[[-83.745875,42.257513],[-83.748799,42.257548],[-83.749698,42.257447]]}},{"type":"Feature","properties":{"k":"hole","ref":"14","par":3},"geometry":{"type":"LineString","coordinates":[[-83.749333,42.25787],[-83.749554,42.258648],[-83.749533,42.25913]]}},{"type":"Feature","properties":{"k":"hole","ref":"15","par":4},"geometry":{"type":"LineString","coordinates":[[-83.749753,42.259713],[-83.747288,42.258361],[-83.74611,42.258061]]}},{"type":"Feature","properties":{"k":"hole","ref":"16","par":4},"geometry":{"type":"LineString","coordinates":[[-83.745605,42.258594],[-83.748185,42.259794],[-83.749593,42.260325]]}},{"type":"Feature","properties":{"k":"hole","ref":"17","par":4},"geometry":{"type":"LineString","coordinates":[[-83.749806,42.260624],[-83.74682,42.259896],[-83.745628,42.259565]]}},{"type":"Feature","properties":{"k":"hole","ref":"18","par":4},"geometry":{"type":"LineString","coordinates":[[-83.745107,42.259193],[-83.744679,42.261351],[-83.744544,42.262895]]}},{"type":"Feature","properties":{"k":"water"},"geometry":{"type":"Polygon","coordinates":[[[-83.744571,42.261849],[-83.744672,42.261861],[-83.74476,42.261899],[-83.744814,42.261934],[-83.744843,42.261967],[-83.744856,42.262006],[-83.74481,42.262218],[-83.744817,42.262431],[-83.744872,42.262526],[-83.745077,42.262663],[-83.74509,42.26269],[-83.745072,42.26273],[-83.745077,42.262773],[-83.745063,42.262788],[-83.744999,42.262794],[-83.744898,42.262755],[-83.74485,42.262752],[-83.744759,42.262733],[-83.744723,42.262714],[-83.744625,42.262482],[-83.744562,42.262437],[-83.744486,42.262409],[-83.744297,42.262425],[-83.744207,42.262416],[-83.744135,42.262436],[-83.743962,42.262547],[-83.743906,42.262553],[-83.743864,42.262535],[-83.74385,42.262468],[-83.743829,42.262436],[-83.743679,42.262438],[-83.743675,42.262417],[-83.743705,42.262363],[-83.743735,42.262332],[-83.743805,42.262304],[-83.743796,42.262277],[-83.743802,42.262259],[-83.743872,42.262163],[-83.743944,42.262073],[-83.743988,42.26203],[-83.744041,42.261995],[-83.744113,42.261973],[-83.744344,42.261934],[-83.74445,42.26188],[-83.744571,42.261849]]]}},{"type":"Feature","properties":{"k":"fairway"},"geometry":{"type":"Polygon","coordinates":[[[-83.741801,42.261624],[-83.741842,42.2616],[-83.741867,42.261546],[-83.741838,42.261434],[-83.741795,42.261357],[-83.741645,42.261177],[-83.741572,42.261054],[-83.741469,42.260778],[-83.741425,42.260697],[-83.741371,42.260626],[-83.74127,42.260434],[-83.741156,42.260049],[-83.741127,42.260002],[-83.741093,42.259969],[-83.741043,42.259957],[-83.74098,42.259958],[-83.740894,42.259986],[-83.740875,42.260008],[-83.740888,42.260064],[-83.740934,42.260131],[-83.740945,42.260182],[-83.740937,42.260222],[-83.740872,42.260314],[-83.740868,42.260386],[-83.74122,42.260951],[-83.74139,42.261309],[-83.741444,42.261449],[-83.741475,42.261502],[-83.741562,42.261596],[-83.741605,42.261628],[-83.741658,42.261642],[-83.741727,42.261643],[-83.741801,42.261624]]]}},{"type":"Feature","properties":{"k":"path"},"geometry":{"type":"LineString","coordinates":[[-83.745755,42.260368],[-83.745566,42.260305],[-83.745363,42.260214],[-83.745262,42.260134]]}},{"type":"Feature","properties":{"k":"path"},"geometry":{"type":"LineString","coordinates":[[-83.745177,42.259669],[-83.745282,42.259755],[-83.74541,42.259825],[-83.7455,42.259845],[-83.745676,42.25979],[-83.745767,42.259783]]}},{"type":"Feature","properties":{"k":"path"},"geometry":{"type":"LineString","coordinates":[[-83.746456,42.259172],[-83.746377,42.259069],[-83.746349,42.259006],[-83.746348,42.258929],[-83.746329,42.258904],[-83.746266,42.258865],[-83.746194,42.258833],[-83.746164,42.258802],[-83.74616,42.258685],[-83.746131,42.258638],[-83.746037,42.258574],[-83.745889,42.258514],[-83.745882,42.258477],[-83.745966,42.258422],[-83.746073,42.258402],[-83.746216,42.258402],[-83.746349,42.258423],[-83.746556,42.258399],[-83.746655,42.258421]]}},{"type":"Feature","properties":{"k":"path"},"geometry":{"type":"LineString","coordinates":[[-83.74881,42.260614],[-83.748935,42.260601],[-83.749072,42.260616],[-83.749174,42.260645],[-83.749489,42.260647],[-83.749593,42.260632],[-83.749667,42.260593],[-83.74976,42.260566],[-83.749878,42.26056],[-83.749921,42.260533],[-83.749947,42.260491],[-83.749961,42.260407],[-83.749934,42.260315],[-83.74987,42.260216],[-83.749714,42.260142],[-83.749636,42.260087],[-83.749522,42.260081],[-83.74943,42.260037]]}},{"type":"Feature","properties":{"k":"path"},"geometry":{"type":"LineString","coordinates":[[-83.750028,42.259864],[-83.749833,42.259857],[-83.749632,42.259822],[-83.749351,42.259751]]}},{"type":"Feature","properties":{"k":"path"},"geometry":{"type":"LineString","coordinates":[[-83.749591,42.259469],[-83.749534,42.259506],[-83.749651,42.259543],[-83.749693,42.259529],[-83.749703,42.259488],[-83.749678,42.259465],[-83.749631,42.259459],[-83.749591,42.259469]]}},{"type":"Feature","properties":{"k":"path"},"geometry":{"type":"LineString","coordinates":[[-83.749534,42.259506],[-83.749434,42.259481],[-83.749332,42.259418],[-83.749178,42.259254],[-83.749151,42.259173]]}},{"type":"Feature","properties":{"k":"path"},"geometry":{"type":"LineString","coordinates":[[-83.7493,42.258204],[-83.749223,42.258139],[-83.749129,42.258076],[-83.749056,42.258046],[-83.748971,42.258048],[-83.7489,42.258081],[-83.748892,42.25812],[-83.749066,42.258358]]}},{"type":"Feature","properties":{"k":"path"},"geometry":{"type":"LineString","coordinates":[[-83.749229,42.259315],[-83.749254,42.259206],[-83.749239,42.259116],[-83.749117,42.258819],[-83.749072,42.258681],[-83.749039,42.258438],[-83.749066,42.258358],[-83.749133,42.258293],[-83.749206,42.258246],[-83.7493,42.258204],[-83.749416,42.258175],[-83.749478,42.258142],[-83.749509,42.258089],[-83.749448,42.257796],[-83.749406,42.257728],[-83.749347,42.257682],[-83.749269,42.257663],[-83.749215,42.257678]]}},{"type":"Feature","properties":{"k":"path"},"geometry":{"type":"LineString","coordinates":[[-83.745523,42.254812],[-83.745534,42.255],[-83.745483,42.25511],[-83.745459,42.255213],[-83.745475,42.255354],[-83.745518,42.255555],[-83.745541,42.255876],[-83.745577,42.256115],[-83.74559,42.256313],[-83.745543,42.256709],[-83.745558,42.256846],[-83.745606,42.256991],[-83.74568,42.257128],[-83.745735,42.257348],[-83.745723,42.257715],[-83.745758,42.257762],[-83.746074,42.257768],[-83.746271,42.257759],[-83.746467,42.257773],[-83.746909,42.257864],[-83.747481,42.257928],[-83.747863,42.257948],[-83.748091,42.257981],[-83.748306,42.258035],[-83.748428,42.258054],[-83.748562,42.258024],[-83.748679,42.257985],[-83.748802,42.258019]]}},{"type":"Feature","properties":{"k":"path"},"geometry":{"type":"LineString","coordinates":[[-83.744364,42.258846],[-83.744238,42.258812],[-83.744072,42.258788],[-83.743926,42.258785]]}},{"type":"Feature","properties":{"k":"path"},"geometry":{"type":"LineString","coordinates":[[-83.743883,42.257961],[-83.743941,42.257881],[-83.743961,42.257785]]}},{"type":"Feature","properties":{"k":"path"},"geometry":{"type":"LineString","coordinates":[[-83.744415,42.2589],[-83.744364,42.258846],[-83.744489,42.258645],[-83.744477,42.258556],[-83.744423,42.258447],[-83.744402,42.258369],[-83.744391,42.258144],[-83.744343,42.258074],[-83.744253,42.258026],[-83.744112,42.257979],[-83.744024,42.257958],[-83.743749,42.25797],[-83.743587,42.257931],[-83.743447,42.257867],[-83.743242,42.257701],[-83.743192,42.257635],[-83.743188,42.257555]]}},{"type":"Feature","properties":{"k":"path"},"geometry":{"type":"LineString","coordinates":[[-83.743947,42.259574],[-83.743957,42.259503],[-83.74395,42.25943],[-83.743977,42.259367],[-83.744046,42.259305],[-83.74409,42.259254],[-83.744148,42.259144],[-83.744186,42.259005],[-83.744265,42.258925],[-83.744332,42.258903],[-83.744415,42.2589],[-83.74458,42.258937],[-83.744814,42.259055],[-83.744906,42.259081],[-83.745156,42.259101],[-83.745287,42.259119]]}},{"type":"Feature","properties":{"k":"path"},"geometry":{"type":"LineString","coordinates":[[-83.745368,42.260614],[-83.745262,42.260134],[-83.745185,42.259717],[-83.745164,42.259587],[-83.74517,42.259489],[-83.745287,42.259119],[-83.745412,42.258676],[-83.745432,42.258443],[-83.745487,42.258198],[-83.745554,42.258013],[-83.745643,42.257888],[-83.745758,42.257762]]}},{"type":"Feature","properties":{"k":"path"},"geometry":{"type":"LineString","coordinates":[[-83.745182,42.262729],[-83.745236,42.26262]]}},{"type":"Feature","properties":{"k":"path"},"geometry":{"type":"LineString","coordinates":[[-83.743415,42.261938],[-83.743565,42.261978]]}},{"type":"Feature","properties":{"k":"path"},"geometry":{"type":"LineString","coordinates":[[-83.743467,42.262322],[-83.743416,42.262245],[-83.743405,42.262205],[-83.743432,42.262138],[-83.743436,42.262071],[-83.743415,42.261938],[-83.743385,42.261863],[-83.74331,42.261825],[-83.743208,42.261797],[-83.743141,42.261761],[-83.743115,42.261731],[-83.743101,42.261685]]}},{"type":"Feature","properties":{"k":"path"},"geometry":{"type":"LineString","coordinates":[[-83.744928,42.2617],[-83.744904,42.261746],[-83.744898,42.261835],[-83.744983,42.262039],[-83.745004,42.262434],[-83.745127,42.262622],[-83.745182,42.262729],[-83.745122,42.262864],[-83.745032,42.262988],[-83.744953,42.263044],[-83.744749,42.263126],[-83.744638,42.263151],[-83.744547,42.263145],[-83.744435,42.263118],[-83.744331,42.263061],[-83.744283,42.263015],[-83.744126,42.262761],[-83.744027,42.262685],[-83.743973,42.262656],[-83.743908,42.262639],[-83.743617,42.262599],[-83.743554,42.262579],[-83.743493,42.262533],[-83.743473,42.262459]]}},{"type":"Feature","properties":{"k":"path"},"geometry":{"type":"LineString","coordinates":[[-83.742755,42.262516],[-83.74275,42.262462]]}},{"type":"Feature","properties":{"k":"path"},"geometry":{"type":"LineString","coordinates":[[-83.742838,42.262669],[-83.742755,42.262516]]}},{"type":"Feature","properties":{"k":"path"},"geometry":{"type":"LineString","coordinates":[[-83.741682,42.262008],[-83.741764,42.262065],[-83.741808,42.262138],[-83.741879,42.262174],[-83.742008,42.262193],[-83.74209,42.262226],[-83.742304,42.262394],[-83.742378,42.262385],[-83.742493,42.262348],[-83.742634,42.262323]]}},{"type":"Feature","properties":{"k":"path"},"geometry":{"type":"LineString","coordinates":[[-83.74275,42.262462],[-83.742719,42.262403],[-83.742634,42.262323],[-83.742421,42.262076],[-83.742276,42.261938]]}},{"type":"Feature","properties":{"k":"path"},"geometry":{"type":"LineString","coordinates":[[-83.740349,42.259979],[-83.740525,42.259974],[-83.741111,42.259864],[-83.741489,42.259821]]}},{"type":"Feature","properties":{"k":"path"},"geometry":{"type":"LineString","coordinates":[[-83.741779,42.254762],[-83.741806,42.254686],[-83.741773,42.254491],[-83.741792,42.254424],[-83.74185,42.254346],[-83.741967,42.25426],[-83.742063,42.254239],[-83.742345,42.254244],[-83.742699,42.254273],[-83.742773,42.254314],[-83.742826,42.254378],[-83.742857,42.254447],[-83.742868,42.254543],[-83.742821,42.254706],[-83.742835,42.254791],[-83.742895,42.254871],[-83.742959,42.254925],[-83.742971,42.254981],[-83.742951,42.255059],[-83.742962,42.255119]]}},{"type":"Feature","properties":{"k":"path"},"geometry":{"type":"LineString","coordinates":[[-83.746896,42.257071],[-83.746809,42.257125],[-83.746692,42.257145],[-83.746593,42.257142],[-83.746513,42.25711],[-83.74646,42.25703],[-83.746419,42.256934],[-83.746398,42.256847],[-83.746398,42.25677],[-83.746326,42.256699],[-83.746294,42.256646],[-83.74633,42.256551]]}},{"type":"Feature","properties":{"k":"path"},"geometry":{"type":"LineString","coordinates":[[-83.745995,42.255229],[-83.746053,42.255298],[-83.746101,42.255401],[-83.746109,42.255475],[-83.746179,42.255533]]}},{"type":"Feature","properties":{"k":"path"},"geometry":{"type":"LineString","coordinates":[[-83.744323,42.256548],[-83.744263,42.256368],[-83.744222,42.256317],[-83.744055,42.256168],[-83.74402,42.256099],[-83.743998,42.255972],[-83.743977,42.25571],[-83.743926,42.255464],[-83.743906,42.255176],[-83.743883,42.255046],[-83.743887,42.25496],[-83.743904,42.254871],[-83.743904,42.254681],[-83.743874,42.254627],[-83.743849,42.254625],[-83.74381,42.254643],[-83.743701,42.254767]]}},{"type":"Feature","properties":{"k":"path"},"geometry":{"type":"LineString","coordinates":[[-83.743849,42.254625],[-83.743836,42.254504],[-83.743864,42.254444],[-83.743946,42.254415],[-83.744186,42.25441],[-83.744224,42.254426],[-83.744229,42.254459]]}},{"type":"Feature","properties":{"k":"path"},"geometry":{"type":"LineString","coordinates":[[-83.744502,42.254441],[-83.744427,42.254493],[-83.744379,42.254509],[-83.744348,42.254495],[-83.74434,42.25446]]}},{"type":"Feature","properties":{"k":"path"},"geometry":{"type":"LineString","coordinates":[[-83.746204,42.255167],[-83.745995,42.255229],[-83.745901,42.255225],[-83.74581,42.255185],[-83.745534,42.255],[-83.745448,42.254909],[-83.745191,42.254814],[-83.744777,42.254502],[-83.744619,42.254438],[-83.744558,42.254431],[-83.744407,42.254444],[-83.74434,42.25446],[-83.744229,42.254459],[-83.744193,42.254478],[-83.744142,42.254465],[-83.744083,42.254408]]}},{"type":"Feature","properties":{"k":"path"},"geometry":{"type":"LineString","coordinates":[[-83.741256,42.258054],[-83.741124,42.25803],[-83.740907,42.257964]]}},{"type":"Feature","properties":{"k":"path"},"geometry":{"type":"LineString","coordinates":[[-83.7433,42.259394],[-83.743284,42.259308],[-83.743316,42.259243],[-83.743399,42.259161],[-83.743466,42.259054],[-83.743541,42.258919],[-83.743538,42.258893],[-83.743493,42.258887],[-83.743442,42.258939],[-83.743369,42.258967],[-83.743284,42.258981],[-83.743227,42.259016],[-83.743147,42.259144],[-83.743072,42.259189],[-83.742833,42.259263],[-83.742734,42.259268],[-83.742597,42.259296],[-83.742506,42.259298],[-83.74242,42.259276],[-83.742312,42.259227],[-83.742186,42.259163],[-83.742058,42.259076],[-83.741913,42.259006],[-83.741543,42.258961],[-83.741384,42.258923],[-83.741178,42.258905],[-83.741068,42.25886],[-83.741012,42.258806],[-83.740966,42.258603],[-83.740923,42.258558],[-83.740666,42.258473],[-83.740599,42.258415],[-83.740566,42.258361],[-83.740553,42.258296],[-83.740561,42.25823],[-83.740601,42.258165],[-83.740719,42.258058],[-83.740907,42.257964],[-83.740961,42.257895],[-83.74106,42.257694],[-83.74124,42.257446],[-83.741325,42.257287],[-83.741406,42.257019],[-83.741484,42.256888],[-83.74154,42.256753],[-83.741564,42.256626],[-83.741591,42.256553],[-83.741588,42.256465]]}},{"type":"Feature","properties":{"k":"path"},"geometry":{"type":"LineString","coordinates":[[-83.741234,42.259465],[-83.741205,42.259408],[-83.741218,42.259348],[-83.741371,42.259284],[-83.741409,42.259249],[-83.741299,42.2591],[-83.741301,42.259034],[-83.741272,42.258969],[-83.741178,42.258905]]}},{"type":"Feature","properties":{"k":"bunker"},"geometry":{"type":"Polygon","coordinates":[[[-83.740578,42.259524],[-83.740586,42.259509],[-83.74057,42.259466],[-83.740591,42.259421],[-83.740585,42.259405],[-83.740561,42.259394],[-83.740536,42.259395],[-83.740512,42.259408],[-83.740504,42.259423],[-83.740525,42.259477],[-83.740509,42.25952],[-83.740541,42.259542],[-83.740578,42.259524]]]}},{"type":"Feature","properties":{"k":"tee"},"geometry":{"type":"Polygon","coordinates":[[[-83.741936,42.262126],[-83.741959,42.262113],[-83.741967,42.262094],[-83.741958,42.262049],[-83.741938,42.262023],[-83.741909,42.262006],[-83.741849,42.262013],[-83.741833,42.262045],[-83.741857,42.262107],[-83.74189,42.262129],[-83.741936,42.262126]]]}},{"type":"Feature","properties":{"k":"tee"},"geometry":{"type":"Polygon","coordinates":[[[-83.742342,42.26256],[-83.742381,42.262548],[-83.742475,42.262463],[-83.742468,42.26243],[-83.742448,42.262411],[-83.742411,42.262412],[-83.742374,42.262425],[-83.742348,42.262443],[-83.742309,42.262501],[-83.742305,42.262521],[-83.742315,42.262552],[-83.742342,42.26256]]]}},{"type":"Feature","properties":{"k":"bunker"},"geometry":{"type":"Polygon","coordinates":[[[-83.741011,42.259271],[-83.741056,42.259256],[-83.741063,42.259238],[-83.741052,42.259221],[-83.741055,42.259193],[-83.741066,42.259188],[-83.741118,42.259196],[-83.741169,42.259169],[-83.741176,42.25912],[-83.741165,42.259099],[-83.741141,42.259081],[-83.741086,42.259074],[-83.741063,42.25909],[-83.741067,42.259112],[-83.741053,42.259122],[-83.741035,42.259121],[-83.741018,42.25907],[-83.740998,42.259055],[-83.740961,42.259049],[-83.740933,42.259054],[-83.740915,42.25908],[-83.74093,42.259126],[-83.740891,42.259172],[-83.740877,42.259228],[-83.740886,42.259251],[-83.740905,42.259266],[-83.740924,42.259271],[-83.740956,42.25925],[-83.740974,42.259252],[-83.740999,42.259273],[-83.741011,42.259271]]]}},{"type":"Feature","properties":{"k":"bunker"},"geometry":{"type":"Polygon","coordinates":[[[-83.740873,42.259007],[-83.740891,42.258968],[-83.740882,42.258956],[-83.740859,42.258951],[-83.740838,42.258956],[-83.740826,42.258966],[-83.740834,42.258985],[-83.740854,42.259004],[-83.740873,42.259007]]]}},{"type":"Feature","properties":{"k":"bunker"},"geometry":{"type":"Polygon","coordinates":[[[-83.740877,42.25893],[-83.740917,42.258925],[-83.740923,42.258902],[-83.740921,42.258884],[-83.74089,42.258844],[-83.740914,42.258797],[-83.740912,42.25877],[-83.740901,42.25876],[-83.740882,42.258757],[-83.740863,42.258761],[-83.74085,42.258778],[-83.740857,42.258798],[-83.740844,42.258812],[-83.740802,42.258835],[-83.740793,42.258849],[-83.740802,42.258878],[-83.740777,42.258897],[-83.740779,42.25891],[-83.740819,42.258929],[-83.740877,42.25893]]]}},{"type":"Feature","properties":{"k":"bunker"},"geometry":{"type":"Polygon","coordinates":[[[-83.740579,42.258918],[-83.740606,42.258895],[-83.740603,42.258861],[-83.740623,42.258837],[-83.740626,42.25882],[-83.740602,42.258788],[-83.74058,42.258783],[-83.740555,42.258787],[-83.74054,42.258798],[-83.740536,42.258815],[-83.740552,42.25885],[-83.740531,42.258901],[-83.740541,42.258922],[-83.740579,42.258918]]]}},{"type":"Feature","properties":{"k":"tee"},"geometry":{"type":"Polygon","coordinates":[[[-83.741387,42.258808],[-83.741164,42.258795],[-83.741105,42.258783],[-83.74107,42.258757],[-83.741047,42.258713],[-83.741035,42.258676],[-83.741041,42.25864],[-83.741102,42.258595],[-83.741149,42.258591],[-83.741341,42.258636],[-83.741461,42.258656],[-83.741485,42.258675],[-83.741488,42.258701],[-83.741476,42.25873],[-83.741387,42.258808]]]}},{"type":"Feature","properties":{"k":"bunker"},"geometry":{"type":"Polygon","coordinates":[[[-83.741004,42.258519],[-83.74105,42.258506],[-83.741055,42.258482],[-83.741042,42.258466],[-83.741077,42.258449],[-83.741091,42.258427],[-83.741066,42.258399],[-83.741053,42.258368],[-83.741019,42.258359],[-83.741,42.258362],[-83.740987,42.258406],[-83.740973,42.258414],[-83.740944,42.258415],[-83.740926,42.258429],[-83.740923,42.258439],[-83.740942,42.258456],[-83.740943,42.258467],[-83.740918,42.258482],[-83.740916,42.258492],[-83.740924,42.258513],[-83.740957,42.258526],[-83.741004,42.258519]]]}},{"type":"Feature","properties":{"k":"bunker"},"geometry":{"type":"Polygon","coordinates":[[[-83.74113,42.258478],[-83.741183,42.258469],[-83.741199,42.258449],[-83.74121,42.258454],[-83.741237,42.258446],[-83.741258,42.258422],[-83.741246,42.258393],[-83.741212,42.258395],[-83.741188,42.258369],[-83.741168,42.258366],[-83.741112,42.258376],[-83.741102,42.258384],[-83.741103,42.258406],[-83.74114,42.258433],[-83.741112,42.258459],[-83.741118,42.258475],[-83.74113,42.258478]]]}},{"type":"Feature","properties":{"k":"green"},"geometry":{"type":"Polygon","coordinates":[[[-83.740886,42.258392],[-83.740957,42.258334],[-83.740949,42.258283],[-83.740862,42.258211],[-83.740814,42.258196],[-83.740787,42.258199],[-83.740755,42.25822],[-83.740737,42.258254],[-83.740729,42.258293],[-83.740736,42.258348],[-83.740763,42.258378],[-83.740797,42.258397],[-83.740841,42.258403],[-83.740886,42.258392]]]}},{"type":"Feature","properties":{"k":"bunker"},"geometry":{"type":"Polygon","coordinates":[[[-83.741001,42.258231],[-83.741034,42.258187],[-83.741048,42.258184],[-83.741066,42.25819],[-83.741084,42.258213],[-83.741122,42.258223],[-83.741141,42.258217],[-83.741158,42.258194],[-83.741146,42.258165],[-83.74111,42.258136],[-83.741077,42.258122],[-83.741066,42.258098],[-83.741038,42.258082],[-83.741005,42.25809],[-83.741,42.258117],[-83.740988,42.258125],[-83.740944,42.258129],[-83.740928,42.258149],[-83.740932,42.258169],[-83.74096,42.258181],[-83.740938,42.258209],[-83.740943,42.258221],[-83.740968,42.258235],[-83.741001,42.258231]]]}},{"type":"Feature","properties":{"k":"green"},"geometry":{"type":"Polygon","coordinates":[[[-83.742825,42.259104],[-83.742858,42.259097],[-83.742912,42.25906],[-83.742927,42.259022],[-83.74292,42.258997],[-83.742874,42.258958],[-83.742841,42.258947],[-83.742763,42.258932],[-83.742696,42.25893],[-83.742662,42.258955],[-83.742662,42.258991],[-83.742673,42.25901],[-83.742742,42.25908],[-83.742787,42.259099],[-83.742825,42.259104]]]}},{"type":"Feature","properties":{"k":"bunker"},"geometry":{"type":"Polygon","coordinates":[[[-83.742877,42.258927],[-83.742911,42.258895],[-83.742893,42.258867],[-83.742923,42.258854],[-83.742924,42.25884],[-83.742892,42.258824],[-83.74285,42.258839],[-83.742837,42.258836],[-83.742801,42.25881],[-83.742748,42.258819],[-83.742723,42.258843],[-83.742725,42.258857],[-83.742752,42.25889],[-83.74278,42.258899],[-83.742805,42.258895],[-83.742855,42.258926],[-83.742877,42.258927]]]}},{"type":"Feature","properties":{"k":"tee"},"geometry":{"type":"Polygon","coordinates":[[[-83.744234,42.258776],[-83.744296,42.258767],[-83.744313,42.258755],[-83.744306,42.258725],[-83.744239,42.258703],[-83.744183,42.2587],[-83.744157,42.25872],[-83.744162,42.258751],[-83.744179,42.258764],[-83.744234,42.258776]]]}},{"type":"Feature","properties":{"k":"tee"},"geometry":{"type":"Polygon","coordinates":[[[-83.744628,42.258909],[-83.744689,42.258916],[-83.744726,42.258911],[-83.744753,42.258891],[-83.74475,42.25885],[-83.744707,42.258819],[-83.744664,42.258809],[-83.744531,42.258789],[-83.7445,42.258796],[-83.744472,42.258828],[-83.744486,42.258874],[-83.744529,42.258892],[-83.744628,42.258909]]]}},{"type":"Feature","properties":{"k":"tee"},"geometry":{"type":"Polygon","coordinates":[[[-83.744886,42.258941],[-83.744945,42.258936],[-83.744966,42.258924],[-83.744969,42.258897],[-83.744956,42.258887],[-83.744908,42.258878],[-83.744842,42.258876],[-83.744825,42.258886],[-83.744817,42.258904],[-83.744823,42.258919],[-83.744886,42.258941]]]}},{"type":"Feature","properties":{"k":"tee"},"geometry":{"type":"Polygon","coordinates":[[[-83.743813,42.258974],[-83.743833,42.258964],[-83.743863,42.258914],[-83.743862,42.258894],[-83.743848,42.258878],[-83.743823,42.258869],[-83.743783,42.258878],[-83.74376,42.258909],[-83.743757,42.258929],[-83.743768,42.258959],[-83.743785,42.258972],[-83.743813,42.258974]]]}},{"type":"Feature","properties":{"k":"tee"},"geometry":{"type":"Polygon","coordinates":[[[-83.743746,42.259101],[-83.74377,42.259067],[-83.743768,42.259046],[-83.743684,42.258933],[-83.743657,42.258922],[-83.743601,42.258928],[-83.743569,42.258955],[-83.743543,42.259011],[-83.743535,42.259045],[-83.743542,42.25906],[-83.743576,42.259082],[-83.743663,42.259104],[-83.743724,42.25911],[-83.743746,42.259101]]]}},{"type":"Feature","properties":{"k":"tee"},"geometry":{"type":"Polygon","coordinates":[[[-83.743604,42.259263],[-83.743649,42.259254],[-83.743671,42.259222],[-83.743665,42.259195],[-83.743556,42.259151],[-83.743521,42.25915],[-83.743488,42.259161],[-83.743463,42.259191],[-83.743466,42.259221],[-83.743552,42.259254],[-83.743604,42.259263]]]}},{"type":"Feature","properties":{"k":"bunker"},"geometry":{"type":"Polygon","coordinates":[[[-83.742964,42.261082],[-83.743021,42.261029],[-83.743076,42.261025],[-83.743102,42.261001],[-83.74309,42.260953],[-83.743096,42.260945],[-83.743133,42.260941],[-83.74316,42.260923],[-83.743147,42.260896],[-83.743128,42.260886],[-83.743106,42.260877],[-83.74309,42.260882],[-83.743077,42.260903],[-83.743064,42.260907],[-83.743053,42.260903],[-83.743037,42.26086],[-83.743015,42.260855],[-83.742967,42.260864],[-83.742936,42.260885],[-83.742927,42.260913],[-83.742933,42.260925],[-83.742976,42.260948],[-83.742987,42.260981],[-83.742942,42.261015],[-83.742912,42.261055],[-83.742924,42.261078],[-83.742964,42.261082]]]}},{"type":"Feature","properties":{"k":"bunker"},"geometry":{"type":"Polygon","coordinates":[[[-83.743021,42.261151],[-83.743045,42.26114],[-83.743063,42.261104],[-83.743052,42.261075],[-83.743036,42.261069],[-83.74301,42.261072],[-83.742993,42.261084],[-83.742975,42.261111],[-83.742982,42.261137],[-83.743021,42.261151]]]}},{"type":"Feature","properties":{"k":"bunker"},"geometry":{"type":"Polygon","coordinates":[[[-83.743224,42.262024],[-83.743248,42.262009],[-83.743236,42.261983],[-83.743265,42.261968],[-83.74326,42.261943],[-83.743226,42.261933],[-83.74319,42.261903],[-83.743144,42.261904],[-83.743115,42.261894],[-83.743086,42.2619],[-83.743131,42.261971],[-83.74318,42.261991],[-83.743198,42.26202],[-83.743224,42.262024]]]}},{"type":"Feature","properties":{"k":"bunker"},"geometry":{"type":"Polygon","coordinates":[[[-83.742945,42.262168],[-83.742956,42.26214],[-83.74293,42.26211],[-83.74294,42.262084],[-83.742921,42.26206],[-83.742911,42.262014],[-83.74288,42.261999],[-83.742842,42.262001],[-83.742797,42.261979],[-83.742782,42.261981],[-83.742733,42.262028],[-83.74278,42.262063],[-83.742787,42.262074],[-83.742781,42.262087],[-83.742704,42.262093],[-83.742691,42.262101],[-83.742689,42.262127],[-83.742715,42.262142],[-83.74277,42.262135],[-83.742803,42.262173],[-83.742831,42.262167],[-83.742845,42.262146],[-83.742869,42.262134],[-83.742886,42.262137],[-83.742911,42.262167],[-83.742929,42.262172],[-83.742945,42.262168]]]}},{"type":"Feature","properties":{"k":"green"},"geometry":{"type":"Polygon","coordinates":[[[-83.743159,42.26221],[-83.743224,42.262165],[-83.743239,42.26213],[-83.743235,42.262113],[-83.743201,42.262073],[-83.743102,42.261996],[-83.743077,42.261983],[-83.743025,42.26199],[-83.742995,42.26202],[-83.742992,42.262063],[-83.743033,42.262188],[-83.743081,42.262217],[-83.743131,42.262218],[-83.743159,42.26221]]]}},{"type":"Feature","properties":{"k":"green"},"geometry":{"type":"Polygon","coordinates":[[[-83.744971,42.258728],[-83.74501,42.258699],[-83.745003,42.258657],[-83.744983,42.258627],[-83.744935,42.258584],[-83.744822,42.258553],[-83.744801,42.258537],[-83.744788,42.258513],[-83.744798,42.258464],[-83.744829,42.258405],[-83.74482,42.258384],[-83.744779,42.258353],[-83.744753,42.258345],[-83.744725,42.258342],[-83.744689,42.258351],[-83.744654,42.258367],[-83.744614,42.258405],[-83.744604,42.258425],[-83.74461,42.258468],[-83.744633,42.258492],[-83.744787,42.258589],[-83.744832,42.258628],[-83.744878,42.258709],[-83.744893,42.258721],[-83.744914,42.258732],[-83.744971,42.258728]]]}},{"type":"Feature","properties":{"k":"bunker"},"geometry":{"type":"Polygon","coordinates":[[[-83.745075,42.258637],[-83.745091,42.258619],[-83.74509,42.258605],[-83.745052,42.258566],[-83.745033,42.258556],[-83.744995,42.258562],[-83.744987,42.258587],[-83.745018,42.258629],[-83.745045,42.258643],[-83.745075,42.258637]]]}},{"type":"Feature","properties":{"k":"bunker"},"geometry":{"type":"Polygon","coordinates":[[[-83.744924,42.258535],[-83.744936,42.258499],[-83.744928,42.258469],[-83.744917,42.258461],[-83.744896,42.25846],[-83.744821,42.258498],[-83.744818,42.258523],[-83.744834,42.258538],[-83.744867,42.258532],[-83.744909,42.258541],[-83.744924,42.258535]]]}},{"type":"Feature","properties":{"k":"bunker"},"geometry":{"type":"Polygon","coordinates":[[[-83.744816,42.258723],[-83.744841,42.258698],[-83.744839,42.258686],[-83.744779,42.258657],[-83.744767,42.258613],[-83.744637,42.258547],[-83.744613,42.25854],[-83.74459,42.258544],[-83.744566,42.258574],[-83.744572,42.258592],[-83.744587,42.258608],[-83.744631,42.25862],[-83.744643,42.258633],[-83.744649,42.258649],[-83.744643,42.258677],[-83.744655,42.258696],[-83.744686,42.258705],[-83.744706,42.258691],[-83.744724,42.25869],[-83.744746,42.258697],[-83.744752,42.258722],[-83.744765,42.258731],[-83.744783,42.258735],[-83.744816,42.258723]]]}},{"type":"Feature","properties":{"k":"bunker"},"geometry":{"type":"Polygon","coordinates":[[[-83.744688,42.258299],[-83.744718,42.258291],[-83.744726,42.258278],[-83.744725,42.258263],[-83.744698,42.258245],[-83.744625,42.258244],[-83.744591,42.258265],[-83.744555,42.258264],[-83.744531,42.258278],[-83.744534,42.258287],[-83.744574,42.258316],[-83.744584,42.258336],[-83.744598,42.258341],[-83.744631,42.258337],[-83.744646,42.258325],[-83.74464,42.258311],[-83.744656,42.258295],[-83.744688,42.258299]]]}},{"type":"Feature","properties":{"k":"fairway"},"geometry":{"type":"Polygon","coordinates":[[[-83.744611,42.258176],[-83.744666,42.258152],[-83.744702,42.258118],[-83.744712,42.258073],[-83.744657,42.257917],[-83.74466,42.257798],[-83.744646,42.25773],[-83.7446,42.257603],[-83.74448,42.25747],[-83.74439,42.257331],[-83.74441,42.257067],[-83.744395,42.256948],[-83.744326,42.256897],[-83.744228,42.256872],[-83.744101,42.256887],[-83.744037,42.256919],[-83.744005,42.256985],[-83.744018,42.257064],[-83.744109,42.257241],[-83.744131,42.257356],[-83.744128,42.25755],[-83.74415,42.257669],[-83.744187,42.257785],[-83.744284,42.257928],[-83.744351,42.257981],[-83.744392,42.25804],[-83.744442,42.258157],[-83.744484,42.258178],[-83.744611,42.258176]]]}},{"type":"Feature","properties":{"k":"tee"},"geometry":{"type":"Polygon","coordinates":[[[-83.74421,42.256508],[-83.744241,42.256484],[-83.744246,42.256465],[-83.744238,42.25645],[-83.744225,42.256441],[-83.744195,42.256437],[-83.74416,42.256441],[-83.744141,42.256455],[-83.744134,42.256475],[-83.744146,42.256496],[-83.744174,42.25651],[-83.74421,42.256508]]]}},{"type":"Feature","properties":{"k":"tee"},"geometry":{"type":"Polygon","coordinates":[[[-83.744182,42.25641],[-83.744213,42.25639],[-83.744206,42.256352],[-83.744182,42.256337],[-83.744153,42.256337],[-83.744132,42.25635],[-83.744125,42.256382],[-83.744132,42.256399],[-83.744156,42.256411],[-83.744182,42.25641]]]}},{"type":"Feature","properties":{"k":"tee"},"geometry":{"type":"Polygon","coordinates":[[[-83.744009,42.256327],[-83.744044,42.256312],[-83.744057,42.256284],[-83.744053,42.256257],[-83.743986,42.256204],[-83.743953,42.256137],[-83.743952,42.256098],[-83.743937,42.256067],[-83.743892,42.256051],[-83.74385,42.256051],[-83.743821,42.256067],[-83.743805,42.256094],[-83.743802,42.256145],[-83.74385,42.256202],[-83.743895,42.256301],[-83.74394,42.256327],[-83.743972,42.256332],[-83.744009,42.256327]]]}},{"type":"Feature","properties":{"k":"green"},"geometry":{"type":"Polygon","coordinates":[[[-83.744381,42.256168],[-83.744419,42.256155],[-83.744468,42.256116],[-83.74449,42.256072],[-83.744489,42.25605],[-83.74439,42.255963],[-83.744348,42.255954],[-83.744244,42.255972],[-83.74421,42.255999],[-83.744199,42.256029],[-83.744194,42.256085],[-83.744204,42.256114],[-83.744225,42.256139],[-83.744278,42.256164],[-83.744347,42.256174],[-83.744381,42.256168]]]}},{"type":"Feature","properties":{"k":"bunker"},"geometry":{"type":"Polygon","coordinates":[[[-83.744541,42.256013],[-83.744591,42.255991],[-83.744596,42.255958],[-83.74458,42.255943],[-83.744538,42.255947],[-83.744529,42.255934],[-83.744552,42.255897],[-83.744545,42.255876],[-83.744507,42.255846],[-83.744479,42.25585],[-83.744453,42.255868],[-83.744445,42.255897],[-83.744446,42.255913],[-83.744483,42.255952],[-83.744465,42.255977],[-83.744468,42.255993],[-83.744478,42.25601],[-83.744508,42.256017],[-83.744541,42.256013]]]}},{"type":"Feature","properties":{"k":"bunker"},"geometry":{"type":"Polygon","coordinates":[[[-83.744266,42.255919],[-83.744286,42.255909],[-83.74429,42.255868],[-83.744276,42.25585],[-83.744253,42.255845],[-83.744227,42.255849],[-83.744219,42.255839],[-83.74423,42.255804],[-83.744216,42.255789],[-83.744191,42.25578],[-83.744151,42.255783],[-83.744129,42.255796],[-83.744058,42.25586],[-83.744077,42.255885],[-83.744065,42.255928],[-83.744084,42.255963],[-83.744109,42.255969],[-83.744159,42.25595],[-83.744172,42.255922],[-83.744137,42.255888],[-83.744138,42.255872],[-83.744151,42.255866],[-83.744173,42.255871],[-83.744227,42.255918],[-83.744266,42.255919]]]}},{"type":"Feature","properties":{"k":"fairway"},"geometry":{"type":"Polygon","coordinates":[[[-83.744244,42.255972],[-83.744314,42.255929],[-83.744323,42.255882],[-83.74427,42.255801],[-83.744142,42.255694],[-83.744134,42.255634],[-83.744152,42.255605],[-83.744187,42.255586],[-83.744296,42.255562],[-83.744334,42.255569],[-83.744372,42.255589],[-83.744402,42.255645],[-83.744455,42.255797],[-83.744454,42.255827],[-83.744432,42.25587],[-83.744422,42.25592],[-83.744421,42.255952],[-83.744438,42.255997],[-83.744402,42.255969],[-83.74436,42.255954],[-83.744313,42.255956],[-83.744244,42.255972]]]}},{"type":"Feature","properties":{"k":"tee"},"geometry":{"type":"Polygon","coordinates":[[[-83.744194,42.254983],[-83.744254,42.254959],[-83.744265,42.254946],[-83.744242,42.254869],[-83.744195,42.254801],[-83.744126,42.254738],[-83.744082,42.254731],[-83.744042,42.254738],[-83.744007,42.254757],[-83.743995,42.254787],[-83.743998,42.254868],[-83.744022,42.254934],[-83.744067,42.25499],[-83.744101,42.255],[-83.744194,42.254983]]]}},{"type":"Feature","properties":{"k":"tee"},"geometry":{"type":"Polygon","coordinates":[[[-83.744073,42.254673],[-83.744093,42.254661],[-83.744104,42.254639],[-83.744053,42.254534],[-83.744028,42.254506],[-83.744006,42.254506],[-83.743981,42.254519],[-83.743973,42.254541],[-83.743997,42.254623],[-83.744022,42.254661],[-83.744038,42.254671],[-83.744073,42.254673]]]}},{"type":"Feature","properties":{"k":"bunker"},"geometry":{"type":"Polygon","coordinates":[[[-83.743684,42.254383],[-83.743763,42.254355],[-83.743771,42.254341],[-83.743771,42.254322],[-83.743708,42.254294],[-83.743692,42.254263],[-83.743665,42.254255],[-83.743643,42.254259],[-83.743641,42.254272],[-83.743613,42.254279],[-83.743543,42.254252],[-83.743498,42.254257],[-83.743488,42.254274],[-83.743498,42.254288],[-83.743526,42.254306],[-83.743578,42.254325],[-83.743615,42.254329],[-83.743643,42.254371],[-83.743684,42.254383]]]}},{"type":"Feature","properties":{"k":"bunker"},"geometry":{"type":"Polygon","coordinates":[[[-83.74334,42.254569],[-83.743364,42.254567],[-83.7434,42.254533],[-83.743399,42.254482],[-83.743384,42.254458],[-83.743309,42.254415],[-83.743288,42.254433],[-83.743291,42.254458],[-83.743279,42.254461],[-83.743244,42.254441],[-83.743197,42.25445],[-83.743182,42.254463],[-83.743177,42.254491],[-83.743218,42.254511],[-83.743268,42.254494],[-83.743288,42.254499],[-83.743294,42.254547],[-83.743319,42.254567],[-83.74334,42.254569]]]}},{"type":"Feature","properties":{"k":"green"},"geometry":{"type":"Polygon","coordinates":[[[-83.743636,42.254578],[-83.743668,42.254558],[-83.7437,42.254497],[-83.74369,42.254472],[-83.743606,42.254395],[-83.743514,42.25433],[-83.743424,42.254297],[-83.743388,42.254293],[-83.74335,42.254298],[-83.743321,42.254315],[-83.743311,42.254334],[-83.743319,42.254375],[-83.743394,42.254435],[-83.74342,42.254465],[-83.743449,42.254573],[-83.743475,42.254593],[-83.743534,42.254609],[-83.743601,42.254595],[-83.743636,42.254578]]]}},{"type":"Feature","properties":{"k":"bunker"},"geometry":{"type":"Polygon","coordinates":[[[-83.743651,42.255129],[-83.743683,42.255114],[-83.743706,42.255094],[-83.743711,42.255075],[-83.743672,42.255032],[-83.743668,42.255008],[-83.743671,42.254991],[-83.743708,42.254957],[-83.743706,42.254943],[-83.743685,42.254932],[-83.743657,42.254949],[-83.743639,42.254947],[-83.743623,42.254923],[-83.743601,42.254926],[-83.743588,42.254936],[-83.743588,42.254972],[-83.743553,42.254984],[-83.743542,42.255001],[-83.743554,42.255029],[-83.743596,42.255038],[-83.7436,42.255053],[-83.743584,42.255065],[-83.743579,42.255084],[-83.743589,42.255101],[-83.743608,42.25512],[-83.743651,42.255129]]]}},{"type":"Feature","properties":{"k":"tee"},"geometry":{"type":"Polygon","coordinates":[[[-83.743738,42.257174],[-83.743763,42.257175],[-83.743783,42.257162],[-83.743791,42.257144],[-83.743787,42.257125],[-83.743762,42.257112],[-83.743736,42.25711],[-83.743716,42.257127],[-83.743713,42.257146],[-83.743738,42.257174]]]}},{"type":"Feature","properties":{"k":"tee"},"geometry":{"type":"Polygon","coordinates":[[[-83.743787,42.257887],[-83.743852,42.257855],[-83.743869,42.257829],[-83.743871,42.257801],[-83.743863,42.257719],[-83.743868,42.257609],[-83.743853,42.257582],[-83.743794,42.257564],[-83.743711,42.257573],[-83.743684,42.257592],[-83.743664,42.257629],[-83.743653,42.257705],[-83.743661,42.257786],[-83.743685,42.257846],[-83.743741,42.257879],[-83.743787,42.257887]]]}},{"type":"Feature","properties":{"k":"bunker"},"geometry":{"type":"Polygon","coordinates":[[[-83.744089,42.258433],[-83.744127,42.258384],[-83.744178,42.258366],[-83.744177,42.258328],[-83.744159,42.258319],[-83.744124,42.258319],[-83.744094,42.258342],[-83.744073,42.258345],[-83.744029,42.25837],[-83.744018,42.258383],[-83.744027,42.258414],[-83.744062,42.258435],[-83.744089,42.258433]]]}},{"type":"Feature","properties":{"k":"green"},"geometry":{"type":"Polygon","coordinates":[[[-83.743959,42.258358],[-83.743988,42.258347],[-83.74414,42.258254],[-83.744151,42.258235],[-83.744146,42.258201],[-83.744099,42.258181],[-83.744062,42.258184],[-83.743998,42.258207],[-83.743892,42.258223],[-83.743867,42.258236],[-83.743849,42.258253],[-83.743849,42.258279],[-83.743876,42.258325],[-83.743907,42.258352],[-83.743933,42.25836],[-83.743959,42.258358]]]}},{"type":"Feature","properties":{"k":"bunker"},"geometry":{"type":"Polygon","coordinates":[[[-83.743781,42.258435],[-83.74383,42.258414],[-83.743838,42.258381],[-83.74371,42.258341],[-83.743679,42.258318],[-83.743685,42.258309],[-83.74375,42.258325],[-83.74379,42.258325],[-83.743803,42.258316],[-83.743802,42.2583],[-83.743786,42.258285],[-83.743743,42.258277],[-83.743702,42.258234],[-83.743606,42.258235],[-83.743577,42.25824],[-83.743559,42.258251],[-83.743546,42.258303],[-83.743512,42.258323],[-83.743507,42.258339],[-83.743522,42.25837],[-83.743535,42.258375],[-83.743594,42.258371],[-83.743637,42.258409],[-83.74369,42.2584],[-83.743714,42.258405],[-83.743761,42.258434],[-83.743781,42.258435]]]}},{"type":"Feature","properties":{"k":"bunker"},"geometry":{"type":"Polygon","coordinates":[[[-83.742335,42.256424],[-83.742359,42.256396],[-83.742354,42.256382],[-83.742318,42.25637],[-83.742297,42.256344],[-83.742297,42.256332],[-83.742332,42.256302],[-83.742315,42.25627],[-83.742263,42.256251],[-83.742244,42.256257],[-83.74223,42.256292],[-83.742211,42.256296],[-83.74218,42.256275],[-83.742159,42.256277],[-83.742142,42.256302],[-83.742159,42.256329],[-83.742138,42.256338],[-83.742126,42.256373],[-83.742162,42.256428],[-83.742206,42.256446],[-83.742234,42.25644],[-83.74226,42.256406],[-83.742273,42.256404],[-83.742313,42.256425],[-83.742335,42.256424]]]}},{"type":"Feature","properties":{"k":"fairway"},"geometry":{"type":"Polygon","coordinates":[[[-83.742663,42.255537],[-83.74274,42.255557],[-83.742795,42.255584],[-83.742835,42.25562],[-83.742857,42.255654],[-83.742852,42.255775],[-83.742857,42.255823],[-83.742882,42.255908],[-83.742878,42.255958],[-83.742818,42.25611],[-83.742802,42.256223],[-83.742898,42.256712],[-83.742899,42.256784],[-83.74283,42.257123],[-83.742837,42.25725],[-83.742864,42.25737],[-83.742924,42.257479],[-83.743018,42.257605],[-83.743172,42.257775],[-83.743295,42.257856],[-83.743567,42.257975],[-83.743577,42.258006],[-83.743556,42.258038],[-83.743464,42.258083],[-83.743374,42.258113],[-83.743331,42.258117],[-83.743302,42.258106],[-83.743251,42.258077],[-83.743164,42.258002],[-83.743114,42.257977],[-83.742766,42.257856],[-83.742719,42.257833],[-83.742669,42.257802],[-83.742619,42.257739],[-83.742588,42.257689],[-83.742568,42.257628],[-83.742545,42.257451],[-83.742547,42.257213],[-83.742467,42.256964],[-83.742499,42.256806],[-83.742518,42.256563],[-83.742505,42.256463],[-83.742483,42.256417],[-83.742458,42.256319],[-83.74246,42.256263],[-83.742503,42.256145],[-83.742546,42.25609],[-83.742597,42.256042],[-83.742631,42.255989],[-83.742654,42.25593],[-83.742624,42.255821],[-83.742457,42.255596],[-83.742462,42.255562],[-83.742504,42.255531],[-83.742663,42.255537]]]}},{"type":"Feature","properties":{"k":"tee"},"geometry":{"type":"Polygon","coordinates":[[[-83.742845,42.255073],[-83.742874,42.255063],[-83.742893,42.255026],[-83.742873,42.254995],[-83.742842,42.254984],[-83.742806,42.254992],[-83.742789,42.255009],[-83.742779,42.255039],[-83.742792,42.25506],[-83.742817,42.255071],[-83.742845,42.255073]]]}},{"type":"Feature","properties":{"k":"tee"},"geometry":{"type":"Polygon","coordinates":[[[-83.742683,42.254593],[-83.742757,42.254587],[-83.74278,42.254574],[-83.74279,42.254559],[-83.742782,42.254541],[-83.742762,42.254528],[-83.742634,42.254522],[-83.74261,42.254524],[-83.742588,42.254536],[-83.742581,42.254554],[-83.742589,42.25457],[-83.742639,42.25459],[-83.742683,42.254593]]]}},{"type":"Feature","properties":{"k":"tee"},"geometry":{"type":"Polygon","coordinates":[[[-83.742665,42.254465],[-83.742698,42.254464],[-83.742735,42.254453],[-83.742757,42.254431],[-83.742757,42.254403],[-83.742739,42.254348],[-83.742722,42.254324],[-83.74266,42.254313],[-83.742581,42.254356],[-83.742562,42.254376],[-83.742558,42.254425],[-83.742566,42.254443],[-83.74259,42.254457],[-83.742665,42.254465]]]}},{"type":"Feature","properties":{"k":"tee"},"geometry":{"type":"Polygon","coordinates":[[[-83.742717,42.254216],[-83.742737,42.254206],[-83.74274,42.254161],[-83.742727,42.254146],[-83.742679,42.254145],[-83.742666,42.25418],[-83.742668,42.254202],[-83.742684,42.254213],[-83.742717,42.254216]]]}},{"type":"Feature","properties":{"k":"tee"},"geometry":{"type":"Polygon","coordinates":[[[-83.742712,42.254084],[-83.742734,42.254078],[-83.742746,42.254041],[-83.742734,42.254024],[-83.742709,42.254017],[-83.742691,42.254019],[-83.742675,42.254049],[-83.74269,42.254079],[-83.742712,42.254084]]]}},{"type":"Feature","properties":{"k":"green"},"geometry":{"type":"Polygon","coordinates":[[[-83.742141,42.254635],[-83.742223,42.254582],[-83.742263,42.254512],[-83.742255,42.254464],[-83.742231,42.254446],[-83.742171,42.25443],[-83.742096,42.254441],[-83.742043,42.254466],[-83.741974,42.254526],[-83.741961,42.254558],[-83.741973,42.254602],[-83.742011,42.254628],[-83.742074,42.254643],[-83.742141,42.254635]]]}},{"type":"Feature","properties":{"k":"fairway"},"geometry":{"type":"Polygon","coordinates":[[[-83.742223,42.254582],[-83.742141,42.254635],[-83.742098,42.254644],[-83.742031,42.254636],[-83.741973,42.254602],[-83.742007,42.25467],[-83.742004,42.254705],[-83.741975,42.254782],[-83.74198,42.25504],[-83.741904,42.255295],[-83.741901,42.255439],[-83.741933,42.255857],[-83.741929,42.255903],[-83.741897,42.256067],[-83.741793,42.256288],[-83.7418,42.256362],[-83.741865,42.256472],[-83.741873,42.256523],[-83.741837,42.256632],[-83.741658,42.256866],[-83.741648,42.256902],[-83.741666,42.256928],[-83.741691,42.256945],[-83.741731,42.256954],[-83.741819,42.256948],[-83.741871,42.256932],[-83.741904,42.256909],[-83.741941,42.256873],[-83.742034,42.25674],[-83.742086,42.256647],[-83.742095,42.256538],[-83.742055,42.256421],[-83.742047,42.25637],[-83.742066,42.256273],[-83.742083,42.256231],[-83.742136,42.256169],[-83.742152,42.256134],[-83.742136,42.256015],[-83.742156,42.255842],[-83.74217,42.255793],[-83.742249,42.255641],[-83.742264,42.255596],[-83.742241,42.255321],[-83.742204,42.255124],[-83.742215,42.255041],[-83.742215,42.254834],[-83.742168,42.254739],[-83.742178,42.254638],[-83.742223,42.254582]]]}},{"type":"Feature","properties":{"k":"bunker"},"geometry":{"type":"Polygon","coordinates":[[[-83.741933,42.254523],[-83.741995,42.254475],[-83.741995,42.254462],[-83.741978,42.254452],[-83.741967,42.254425],[-83.741938,42.254414],[-83.741927,42.254417],[-83.741921,42.254449],[-83.741887,42.254452],[-83.741864,42.254472],[-83.741873,42.25451],[-83.7419,42.254523],[-83.741933,42.254523]]]}},{"type":"Feature","properties":{"k":"tee"},"geometry":{"type":"Polygon","coordinates":[[[-83.741753,42.256579],[-83.741777,42.256575],[-83.7418,42.256557],[-83.741806,42.256535],[-83.741796,42.256512],[-83.741767,42.256498],[-83.741739,42.256502],[-83.741719,42.256518],[-83.741711,42.256538],[-83.741713,42.25656],[-83.741727,42.256574],[-83.741753,42.256579]]]}},{"type":"Feature","properties":{"k":"tee"},"geometry":{"type":"Polygon","coordinates":[[[-83.741462,42.257349],[-83.741502,42.257347],[-83.741523,42.257326],[-83.741528,42.2573],[-83.741503,42.257264],[-83.741431,42.25725],[-83.741405,42.257261],[-83.741392,42.257304],[-83.7414,42.257323],[-83.741416,42.257335],[-83.741462,42.257349]]]}},{"type":"Feature","properties":{"k":"tee"},"geometry":{"type":"Polygon","coordinates":[[[-83.741298,42.257925],[-83.741326,42.257903],[-83.741394,42.257778],[-83.74139,42.257751],[-83.741376,42.257727],[-83.741344,42.257706],[-83.741302,42.257691],[-83.741261,42.257686],[-83.74122,42.257695],[-83.741177,42.257729],[-83.741135,42.257871],[-83.741141,42.257892],[-83.741185,42.25792],[-83.741255,42.257931],[-83.741298,42.257925]]]}},{"type":"Feature","properties":{"k":"tee"},"geometry":{"type":"Polygon","coordinates":[[[-83.743674,42.262279],[-83.743717,42.262257],[-83.743747,42.262225],[-83.743799,42.262143],[-83.743817,42.262063],[-83.743818,42.261994],[-83.743804,42.261971],[-83.743767,42.261958],[-83.743688,42.26196],[-83.743645,42.26201],[-83.74364,42.262135],[-83.743607,42.262227],[-83.743607,42.262253],[-83.743619,42.262273],[-83.743641,42.262281],[-83.743674,42.262279]]]}},{"type":"Feature","properties":{"k":"tee"},"geometry":{"type":"Polygon","coordinates":[[[-83.743713,42.261862],[-83.743754,42.26186],[-83.743782,42.261847],[-83.743797,42.261828],[-83.743795,42.2618],[-83.743728,42.26177],[-83.743676,42.261768],[-83.743644,42.261787],[-83.743631,42.261809],[-83.743634,42.261832],[-83.743647,42.261847],[-83.743713,42.261862]]]}},{"type":"Feature","properties":{"k":"green"},"geometry":{"type":"Polygon","coordinates":[[[-83.744496,42.259377],[-83.744538,42.259376],[-83.744574,42.259364],[-83.744605,42.259342],[-83.744632,42.259316],[-83.744652,42.259265],[-83.744625,42.259153],[-83.744598,42.2591],[-83.744549,42.25907],[-83.744493,42.259078],[-83.744409,42.259135],[-83.744326,42.259207],[-83.744306,42.259234],[-83.744301,42.259259],[-83.744321,42.2593],[-83.7444,42.259351],[-83.744431,42.259366],[-83.744496,42.259377]]]}},{"type":"Feature","properties":{"k":"bunker"},"geometry":{"type":"Polygon","coordinates":[[[-83.744311,42.259519],[-83.744329,42.259508],[-83.744334,42.259477],[-83.744315,42.259457],[-83.744318,42.259441],[-83.744368,42.259419],[-83.744362,42.25939],[-83.744344,42.25938],[-83.744313,42.259378],[-83.744301,42.259404],[-83.744283,42.259409],[-83.744231,42.259386],[-83.744203,42.259381],[-83.744176,42.259385],[-83.744153,42.25941],[-83.744109,42.259421],[-83.744101,42.259439],[-83.744117,42.259467],[-83.744165,42.259474],[-83.744174,42.259485],[-83.74417,42.259495],[-83.744142,42.259512],[-83.744169,42.259549],[-83.744212,42.259542],[-83.74426,42.259514],[-83.744311,42.259519]]]}},{"type":"Feature","properties":{"k":"tee"},"geometry":{"type":"Polygon","coordinates":[[[-83.745111,42.259961],[-83.74515,42.259949],[-83.745165,42.259917],[-83.74515,42.259887],[-83.745127,42.259875],[-83.745096,42.25988],[-83.74507,42.259924],[-83.745072,42.259941],[-83.745111,42.259961]]]}},{"type":"Feature","properties":{"k":"tee"},"geometry":{"type":"Polygon","coordinates":[[[-83.74506,42.259749],[-83.745087,42.259732],[-83.745087,42.259648],[-83.745065,42.259629],[-83.745024,42.259623],[-83.745002,42.259628],[-83.744988,42.259637],[-83.744985,42.259653],[-83.745011,42.25971],[-83.74503,42.259738],[-83.74506,42.259749]]]}},{"type":"Feature","properties":{"k":"tee"},"geometry":{"type":"Polygon","coordinates":[[[-83.745063,42.25953],[-83.745089,42.259521],[-83.745105,42.259506],[-83.745108,42.259483],[-83.745098,42.259464],[-83.745043,42.259436],[-83.74499,42.259444],[-83.744972,42.259478],[-83.744985,42.25951],[-83.745031,42.259529],[-83.745063,42.25953]]]}},{"type":"Feature","properties":{"k":"tee"},"geometry":{"type":"Polygon","coordinates":[[[-83.745024,42.259398],[-83.74506,42.2594],[-83.74509,42.259389],[-83.745108,42.259369],[-83.745109,42.259321],[-83.745094,42.259298],[-83.745066,42.259287],[-83.745026,42.259287],[-83.744999,42.259295],[-83.744981,42.259313],[-83.744983,42.259371],[-83.744997,42.259387],[-83.745024,42.259398]]]}},{"type":"Feature","properties":{"k":"tee"},"geometry":{"type":"Polygon","coordinates":[[[-83.745125,42.259259],[-83.745151,42.259246],[-83.745168,42.259219],[-83.745173,42.259195],[-83.745165,42.259171],[-83.745133,42.259155],[-83.745102,42.259152],[-83.745066,42.259158],[-83.745042,42.259182],[-83.745035,42.259231],[-83.745064,42.259259],[-83.745125,42.259259]]]}},{"type":"Feature","properties":{"k":"tee"},"geometry":{"type":"Polygon","coordinates":[[[-83.745209,42.259052],[-83.74524,42.259052],[-83.74526,42.259038],[-83.745276,42.25899],[-83.745253,42.258949],[-83.745223,42.258938],[-83.745181,42.258941],[-83.745156,42.258988],[-83.745167,42.259027],[-83.745183,42.259044],[-83.745209,42.259052]]]}},{"type":"Feature","properties":{"k":"tee"},"geometry":{"type":"Polygon","coordinates":[[[-83.745235,42.258841],[-83.745271,42.25884],[-83.745327,42.258808],[-83.745333,42.25877],[-83.745315,42.258733],[-83.745282,42.258727],[-83.745223,42.258728],[-83.74517,42.258743],[-83.745154,42.258761],[-83.745152,42.258805],[-83.745168,42.258824],[-83.745235,42.258841]]]}},{"type":"Feature","properties":{"k":"tee"},"geometry":{"type":"Polygon","coordinates":[[[-83.745295,42.25867],[-83.745325,42.258669],[-83.745348,42.258659],[-83.745361,42.258641],[-83.745355,42.258597],[-83.745336,42.258583],[-83.745268,42.258584],[-83.745244,42.258594],[-83.745228,42.258614],[-83.745228,42.258635],[-83.745244,42.258652],[-83.745295,42.25867]]]}},{"type":"Feature","properties":{"k":"tee"},"geometry":{"type":"Polygon","coordinates":[[[-83.74544,42.257763],[-83.745474,42.257765],[-83.745499,42.257754],[-83.745509,42.257734],[-83.745512,42.257711],[-83.745497,42.257684],[-83.745469,42.257672],[-83.745434,42.257673],[-83.745413,42.257685],[-83.74541,42.257729],[-83.745418,42.257751],[-83.74544,42.257763]]]}},{"type":"Feature","properties":{"k":"bunker"},"geometry":{"type":"Polygon","coordinates":[[[-83.744907,42.254879],[-83.744946,42.254864],[-83.744994,42.254871],[-83.745009,42.254864],[-83.745016,42.254851],[-83.745002,42.25482],[-83.744946,42.254793],[-83.74496,42.254752],[-83.744954,42.254739],[-83.744926,42.254727],[-83.744904,42.254732],[-83.744883,42.25477],[-83.744837,42.254754],[-83.744809,42.25477],[-83.744812,42.254788],[-83.74483,42.254804],[-83.744824,42.254827],[-83.744838,42.254848],[-83.744874,42.254872],[-83.744907,42.254879]]]}},{"type":"Feature","properties":{"k":"bunker"},"geometry":{"type":"Polygon","coordinates":[[[-83.744632,42.254923],[-83.744645,42.254919],[-83.744654,42.254888],[-83.744665,42.254882],[-83.744689,42.254886],[-83.744702,42.254873],[-83.744698,42.254855],[-83.744653,42.254816],[-83.744627,42.254824],[-83.744584,42.254857],[-83.744573,42.25489],[-83.744577,42.254903],[-83.744632,42.254923]]]}},{"type":"Feature","properties":{"k":"bunker"},"geometry":{"type":"Polygon","coordinates":[[[-83.744533,42.254859],[-83.74456,42.254833],[-83.74457,42.254787],[-83.744548,42.254769],[-83.744508,42.254762],[-83.744487,42.254778],[-83.744452,42.254782],[-83.744445,42.254806],[-83.744457,42.254816],[-83.744497,42.254824],[-83.74451,42.254852],[-83.744533,42.254859]]]}},{"type":"Feature","properties":{"k":"green"},"geometry":{"type":"Polygon","coordinates":[[[-83.744722,42.254775],[-83.744765,42.25474],[-83.744786,42.254687],[-83.744773,42.254653],[-83.744737,42.254618],[-83.744696,42.254591],[-83.744652,42.254578],[-83.744548,42.254585],[-83.744506,42.254603],[-83.744479,42.25463],[-83.744473,42.254662],[-83.744484,42.254693],[-83.744508,42.254719],[-83.744553,42.254747],[-83.744601,42.254763],[-83.744668,42.254776],[-83.744722,42.254775]]]}},{"type":"Feature","properties":{"k":"green"},"geometry":{"type":"Polygon","coordinates":[[[-83.746067,42.257009],[-83.746097,42.256984],[-83.746121,42.25695],[-83.746123,42.256915],[-83.746107,42.256833],[-83.74608,42.2568],[-83.746047,42.256789],[-83.746012,42.256789],[-83.745969,42.256802],[-83.745897,42.256876],[-83.745879,42.256987],[-83.745902,42.257025],[-83.745949,42.257045],[-83.746007,42.257037],[-83.746067,42.257009]]]}},{"type":"Feature","properties":{"k":"bunker"},"geometry":{"type":"Polygon","coordinates":[[[-83.746089,42.257111],[-83.746145,42.257101],[-83.746151,42.257074],[-83.746167,42.257064],[-83.746236,42.257065],[-83.746249,42.257041],[-83.746244,42.257013],[-83.746217,42.256989],[-83.746178,42.256979],[-83.746154,42.256991],[-83.74612,42.257031],[-83.746059,42.257058],[-83.746039,42.257093],[-83.746054,42.257106],[-83.746089,42.257111]]]}},{"type":"Feature","properties":{"k":"bunker"},"geometry":{"type":"Polygon","coordinates":[[[-83.7458,42.256967],[-83.745819,42.256966],[-83.745834,42.256954],[-83.745843,42.256919],[-83.745855,42.256909],[-83.745855,42.256892],[-83.745843,42.256879],[-83.745808,42.256867],[-83.745777,42.256871],[-83.745752,42.25692],[-83.745758,42.256941],[-83.745779,42.256961],[-83.7458,42.256967]]]}},{"type":"Feature","properties":{"k":"bunker"},"geometry":{"type":"Polygon","coordinates":[[[-83.746196,42.256901],[-83.746214,42.256896],[-83.746228,42.256883],[-83.746229,42.256862],[-83.746217,42.256841],[-83.746227,42.256824],[-83.746217,42.256797],[-83.746185,42.256787],[-83.746158,42.256804],[-83.746147,42.256824],[-83.746146,42.256864],[-83.746151,42.256889],[-83.746169,42.2569],[-83.746196,42.256901]]]}},{"type":"Feature","properties":{"k":"tee"},"geometry":{"type":"Polygon","coordinates":[[[-83.74597,42.255448],[-83.745997,42.255443],[-83.746019,42.255423],[-83.746016,42.255372],[-83.745997,42.25533],[-83.745954,42.255323],[-83.745933,42.255331],[-83.745921,42.255347],[-83.745904,42.255391],[-83.74592,42.255431],[-83.745941,42.255444],[-83.74597,42.255448]]]}},{"type":"Feature","properties":{"k":"tee"},"geometry":{"type":"Polygon","coordinates":[[[-83.745917,42.255175],[-83.745967,42.255153],[-83.745979,42.255134],[-83.745968,42.255036],[-83.745982,42.254983],[-83.745978,42.254963],[-83.745956,42.254945],[-83.745892,42.254936],[-83.74585,42.254963],[-83.74584,42.254982],[-83.745827,42.255103],[-83.745832,42.255127],[-83.745862,42.255162],[-83.745917,42.255175]]]}},{"type":"Feature","properties":{"k":"tee"},"geometry":{"type":"Polygon","coordinates":[[[-83.745662,42.254976],[-83.745689,42.254976],[-83.745703,42.254965],[-83.745729,42.25491],[-83.74573,42.254893],[-83.745719,42.25488],[-83.745679,42.254867],[-83.745656,42.254868],[-83.745638,42.254877],[-83.745619,42.254911],[-83.745626,42.254958],[-83.745662,42.254976]]]}},{"type":"Feature","properties":{"k":"green"},"geometry":{"type":"Polygon","coordinates":[[[-83.746747,42.255862],[-83.746807,42.255841],[-83.746876,42.25577],[-83.746946,42.255757],[-83.746974,42.255745],[-83.747,42.255705],[-83.747,42.255681],[-83.74694,42.255624],[-83.746864,42.255595],[-83.746758,42.255587],[-83.7466,42.25561],[-83.746574,42.255623],[-83.746556,42.255649],[-83.746558,42.255682],[-83.746617,42.255753],[-83.74665,42.255826],[-83.746703,42.255854],[-83.746747,42.255862]]]}},{"type":"Feature","properties":{"k":"bunker"},"geometry":{"type":"Polygon","coordinates":[[[-83.746522,42.255848],[-83.746537,42.255865],[-83.746584,42.255873],[-83.746605,42.255862],[-83.746611,42.255843],[-83.746586,42.255772],[-83.74656,42.255736],[-83.746544,42.25572],[-83.746514,42.255716],[-83.746499,42.255727],[-83.746482,42.255777],[-83.746506,42.255832],[-83.746522,42.255848]]]}},{"type":"Feature","properties":{"k":"bunker"},"geometry":{"type":"Polygon","coordinates":[[[-83.749513,42.257321],[-83.749541,42.257314],[-83.749561,42.257287],[-83.74954,42.257277],[-83.749542,42.257235],[-83.749523,42.257224],[-83.749487,42.257227],[-83.749472,42.257259],[-83.749455,42.257266],[-83.749398,42.257245],[-83.749356,42.257255],[-83.749337,42.257268],[-83.749328,42.257299],[-83.749388,42.257362],[-83.749433,42.257363],[-83.74945,42.257358],[-83.749466,42.257347],[-83.749471,42.257323],[-83.749484,42.257314],[-83.749513,42.257321]]]}},{"type":"Feature","properties":{"k":"bunker"},"geometry":{"type":"Polygon","coordinates":[[[-83.749621,42.25761],[-83.749633,42.257553],[-83.749619,42.257546],[-83.749593,42.257559],[-83.749579,42.257556],[-83.749563,42.257546],[-83.749569,42.25752],[-83.74955,42.257506],[-83.749497,42.257491],[-83.74947,42.257491],[-83.749406,42.257563],[-83.749414,42.257584],[-83.749452,42.257587],[-83.749468,42.257611],[-83.749489,42.257618],[-83.749506,42.257617],[-83.749533,42.257597],[-83.749556,42.257602],[-83.749577,42.257624],[-83.749599,42.257624],[-83.749621,42.25761]]]}},{"type":"Feature","properties":{"k":"green"},"geometry":{"type":"Polygon","coordinates":[[[-83.749853,42.257564],[-83.749872,42.257538],[-83.749877,42.257509],[-83.749868,42.257474],[-83.74981,42.257391],[-83.749788,42.257375],[-83.749725,42.25735],[-83.749603,42.257333],[-83.749565,42.257335],[-83.749502,42.257363],[-83.749482,42.257411],[-83.749502,42.257449],[-83.749635,42.257504],[-83.749701,42.257577],[-83.74976,42.257584],[-83.74983,42.257574],[-83.749853,42.257564]]]}},{"type":"Feature","properties":{"k":"tee"},"geometry":{"type":"Polygon","coordinates":[[[-83.746552,42.257438],[-83.746614,42.257408],[-83.746633,42.25738],[-83.746645,42.257317],[-83.746683,42.257247],[-83.74667,42.257207],[-83.746638,42.257186],[-83.746595,42.257177],[-83.746551,42.257179],[-83.746522,42.257197],[-83.746469,42.257266],[-83.746399,42.257314],[-83.746384,42.257338],[-83.746397,42.257382],[-83.746456,42.257428],[-83.746502,42.25744],[-83.746552,42.257438]]]}},{"type":"Feature","properties":{"k":"tee"},"geometry":{"type":"Polygon","coordinates":[[[-83.746366,42.25726],[-83.746399,42.257255],[-83.746422,42.257243],[-83.746436,42.257203],[-83.746423,42.257184],[-83.746392,42.257173],[-83.746339,42.257171],[-83.746241,42.257153],[-83.746204,42.257156],[-83.746176,42.257173],[-83.74617,42.257194],[-83.746181,42.257216],[-83.746208,42.25723],[-83.746366,42.25726]]]}},{"type":"Feature","properties":{"k":"tee"},"geometry":{"type":"Polygon","coordinates":[[[-83.749629,42.257997],[-83.749667,42.25799],[-83.74969,42.257968],[-83.749688,42.257932],[-83.749668,42.257843],[-83.749644,42.257825],[-83.749611,42.257821],[-83.749565,42.257834],[-83.749552,42.25785],[-83.749541,42.257935],[-83.749559,42.257983],[-83.749588,42.257996],[-83.749629,42.257997]]]}},{"type":"Feature","properties":{"k":"tee"},"geometry":{"type":"Polygon","coordinates":[[[-83.749349,42.257943],[-83.749386,42.257935],[-83.749395,42.257898],[-83.749382,42.257855],[-83.749359,42.257843],[-83.749332,42.25784],[-83.749295,42.257859],[-83.749294,42.257882],[-83.749306,42.257926],[-83.749323,42.25794],[-83.749349,42.257943]]]}},{"type":"Feature","properties":{"k":"tee"},"geometry":{"type":"Polygon","coordinates":[[[-83.74942,42.258096],[-83.749448,42.258088],[-83.749459,42.25807],[-83.749459,42.258023],[-83.749446,42.257998],[-83.749421,42.257988],[-83.749387,42.257987],[-83.749365,42.258],[-83.749361,42.258057],[-83.749373,42.25808],[-83.749393,42.258092],[-83.74942,42.258096]]]}},{"type":"Feature","properties":{"k":"tee"},"geometry":{"type":"Polygon","coordinates":[[[-83.749643,42.258173],[-83.749682,42.25816],[-83.749704,42.25814],[-83.749714,42.258114],[-83.749712,42.258084],[-83.749692,42.25806],[-83.749662,42.258047],[-83.749625,42.258046],[-83.749593,42.258054],[-83.749567,42.25808],[-83.749562,42.25814],[-83.749578,42.258161],[-83.749603,42.258171],[-83.749643,42.258173]]]}},{"type":"Feature","properties":{"k":"bunker"},"geometry":{"type":"Polygon","coordinates":[[[-83.749439,42.258919],[-83.749456,42.258911],[-83.749465,42.258895],[-83.749459,42.258882],[-83.749442,42.25887],[-83.749425,42.25884],[-83.749377,42.258826],[-83.749377,42.258805],[-83.749391,42.258801],[-83.749424,42.258824],[-83.749465,42.258828],[-83.749493,42.258844],[-83.749527,42.258841],[-83.749562,42.258814],[-83.749558,42.258775],[-83.749541,42.258761],[-83.749493,42.258767],[-83.749401,42.258734],[-83.749357,42.258756],[-83.749335,42.258754],[-83.749301,42.258734],[-83.749246,42.258739],[-83.749224,42.258749],[-83.749224,42.258777],[-83.749242,42.258788],[-83.749234,42.258823],[-83.749244,42.258833],[-83.749298,42.258848],[-83.749312,42.258869],[-83.749306,42.258882],[-83.749261,42.258914],[-83.749265,42.258934],[-83.749281,42.258946],[-83.749328,42.258947],[-83.749364,42.258901],[-83.749382,42.2589],[-83.749402,42.25892],[-83.749424,42.258924],[-83.749439,42.258919]]]}},{"type":"Feature","properties":{"k":"bunker"},"geometry":{"type":"Polygon","coordinates":[[[-83.749777,42.259144],[-83.749806,42.259122],[-83.749789,42.259086],[-83.749819,42.259059],[-83.749812,42.259022],[-83.749769,42.259008],[-83.749749,42.259007],[-83.749725,42.259023],[-83.749703,42.259023],[-83.749676,42.259007],[-83.749654,42.259008],[-83.749639,42.259021],[-83.74963,42.259045],[-83.749649,42.259083],[-83.749666,42.259095],[-83.749721,42.25909],[-83.749731,42.259098],[-83.749726,42.259136],[-83.749741,42.259146],[-83.749777,42.259144]]]}},{"type":"Feature","properties":{"k":"bunker"},"geometry":{"type":"Polygon","coordinates":[[[-83.749801,42.259367],[-83.749828,42.259333],[-83.749817,42.259298],[-83.749781,42.259291],[-83.749764,42.259275],[-83.74974,42.259276],[-83.749674,42.259311],[-83.74967,42.259336],[-83.749682,42.259347],[-83.749722,42.259336],[-83.749739,42.25934],[-83.749745,42.259368],[-83.749758,42.259377],[-83.749801,42.259367]]]}},{"type":"Feature","properties":{"k":"green"},"geometry":{"type":"Polygon","coordinates":[[[-83.749659,42.259273],[-83.749713,42.25924],[-83.749726,42.259208],[-83.749694,42.259161],[-83.749588,42.259082],[-83.749583,42.259036],[-83.749658,42.258936],[-83.749662,42.258914],[-83.749634,42.258876],[-83.749611,42.258865],[-83.749585,42.258865],[-83.749534,42.258891],[-83.749515,42.258914],[-83.749432,42.259045],[-83.749426,42.259072],[-83.749442,42.259202],[-83.749466,42.259252],[-83.749517,42.25929],[-83.749583,42.259294],[-83.749659,42.259273]]]}},{"type":"Feature","properties":{"k":"tee"},"geometry":{"type":"Polygon","coordinates":[[[-83.749735,42.259763],[-83.749778,42.259762],[-83.749809,42.25975],[-83.749831,42.259731],[-83.749838,42.2597],[-83.749826,42.259678],[-83.74979,42.259655],[-83.749563,42.259562],[-83.749512,42.259569],[-83.749486,42.259593],[-83.749474,42.259619],[-83.749479,42.25965],[-83.7495,42.259672],[-83.749541,42.259695],[-83.749735,42.259763]]]}},{"type":"Feature","properties":{"k":"tee"},"geometry":{"type":"Polygon","coordinates":[[[-83.749237,42.25946],[-83.749262,42.259451],[-83.749278,42.259435],[-83.749269,42.259408],[-83.74924,42.259386],[-83.749184,42.259383],[-83.749164,42.259402],[-83.749169,42.259427],[-83.749188,42.259447],[-83.749211,42.259458],[-83.749237,42.25946]]]}},{"type":"Feature","properties":{"k":"bunker"},"geometry":{"type":"Polygon","coordinates":[[[-83.746459,42.258125],[-83.746502,42.258122],[-83.746504,42.258099],[-83.746473,42.258076],[-83.746472,42.258065],[-83.746499,42.258034],[-83.746487,42.25801],[-83.74644,42.257999],[-83.746407,42.258033],[-83.746353,42.258028],[-83.74634,42.258035],[-83.74632,42.258053],[-83.746314,42.258071],[-83.746322,42.258088],[-83.746376,42.258103],[-83.746376,42.258138],[-83.746436,42.258136],[-83.746459,42.258125]]]}},{"type":"Feature","properties":{"k":"bunker"},"geometry":{"type":"Polygon","coordinates":[[[-83.746165,42.258286],[-83.746206,42.258276],[-83.746226,42.258255],[-83.746225,42.25824],[-83.7462,42.258214],[-83.74619,42.258223],[-83.746169,42.258224],[-83.746102,42.258201],[-83.746074,42.258199],[-83.746037,42.258222],[-83.746024,42.258253],[-83.746037,42.258267],[-83.746071,42.258271],[-83.746097,42.258251],[-83.746112,42.258248],[-83.746124,42.258254],[-83.746132,42.258277],[-83.746165,42.258286]]]}},{"type":"Feature","properties":{"k":"green"},"geometry":{"type":"Polygon","coordinates":[[[-83.746226,42.258174],[-83.746243,42.258149],[-83.746246,42.258075],[-83.746214,42.258006],[-83.746157,42.25795],[-83.746129,42.257938],[-83.746062,42.257935],[-83.746025,42.257945],[-83.745994,42.257962],[-83.745962,42.258011],[-83.745956,42.258046],[-83.745967,42.2581],[-83.746019,42.258143],[-83.746121,42.258179],[-83.746192,42.258184],[-83.746226,42.258174]]]}},{"type":"Feature","properties":{"k":"tee"},"geometry":{"type":"Polygon","coordinates":[[[-83.745597,42.258625],[-83.745646,42.258636],[-83.745667,42.258634],[-83.745693,42.258615],[-83.745689,42.258587],[-83.745641,42.258567],[-83.745607,42.258563],[-83.745577,42.258569],[-83.745563,42.258582],[-83.745562,42.2586],[-83.745597,42.258625]]]}},{"type":"Feature","properties":{"k":"tee"},"geometry":{"type":"Polygon","coordinates":[[[-83.74583,42.258713],[-83.745952,42.258752],[-83.746008,42.258754],[-83.746061,42.258724],[-83.74607,42.258692],[-83.746026,42.258656],[-83.745839,42.258596],[-83.745803,42.258587],[-83.745775,42.258589],[-83.74575,42.258604],[-83.745743,42.258649],[-83.745782,42.258689],[-83.74583,42.258713]]]}},{"type":"Feature","properties":{"k":"tee"},"geometry":{"type":"Polygon","coordinates":[[[-83.746222,42.259001],[-83.746252,42.259001],[-83.746274,42.258991],[-83.746288,42.258977],[-83.746292,42.258958],[-83.746262,42.258928],[-83.746206,42.258917],[-83.746169,42.258924],[-83.746156,42.258949],[-83.74616,42.258966],[-83.746193,42.258994],[-83.746222,42.259001]]]}},{"type":"Feature","properties":{"k":"bunker"},"geometry":{"type":"Polygon","coordinates":[[[-83.747898,42.260014],[-83.747917,42.260011],[-83.747928,42.260001],[-83.747907,42.259939],[-83.747949,42.259915],[-83.747949,42.259886],[-83.747932,42.25987],[-83.747851,42.259864],[-83.74782,42.259852],[-83.747783,42.259801],[-83.747757,42.259785],[-83.747732,42.259779],[-83.747696,42.259785],[-83.747649,42.259774],[-83.747623,42.259779],[-83.74761,42.259791],[-83.747611,42.259824],[-83.747571,42.25984],[-83.747565,42.259857],[-83.747568,42.259875],[-83.747595,42.259909],[-83.747618,42.259926],[-83.747671,42.259928],[-83.747737,42.259882],[-83.747769,42.259877],[-83.747823,42.259881],[-83.747861,42.259901],[-83.747863,42.259917],[-83.747854,42.259927],[-83.747776,42.259926],[-83.747717,42.259941],[-83.747704,42.259955],[-83.74771,42.259984],[-83.747731,42.259997],[-83.74776,42.26],[-83.747836,42.259992],[-83.74787,42.260014],[-83.747898,42.260014]]]}},{"type":"Feature","properties":{"k":"bunker"},"geometry":{"type":"Polygon","coordinates":[[[-83.749319,42.260418],[-83.749334,42.260402],[-83.749327,42.260375],[-83.749267,42.260369],[-83.74925,42.260339],[-83.749225,42.260326],[-83.749202,42.260323],[-83.749186,42.260335],[-83.749171,42.260373],[-83.749148,42.260378],[-83.749132,42.260371],[-83.7491,42.260312],[-83.749077,42.260302],[-83.749049,42.260304],[-83.74903,42.260314],[-83.749034,42.260364],[-83.749067,42.26038],[-83.749084,42.260405],[-83.749128,42.260416],[-83.749168,42.260446],[-83.749207,42.260446],[-83.749231,42.260413],[-83.749319,42.260418]]]}},{"type":"Feature","properties":{"k":"bunker"},"geometry":{"type":"Polygon","coordinates":[[[-83.749483,42.260159],[-83.749541,42.260165],[-83.749555,42.260155],[-83.749553,42.260124],[-83.749503,42.260108],[-83.74944,42.260118],[-83.749407,42.260113],[-83.749391,42.2601],[-83.749368,42.260058],[-83.749349,42.260047],[-83.749316,42.260044],[-83.749278,42.260052],[-83.749271,42.260068],[-83.749279,42.26009],[-83.749291,42.260103],[-83.749342,42.260117],[-83.749354,42.260148],[-83.749381,42.260178],[-83.749404,42.260187],[-83.749427,42.260183],[-83.749462,42.260162],[-83.749483,42.260159]]]}},{"type":"Feature","properties":{"k":"green"},"geometry":{"type":"Polygon","coordinates":[[[-83.749717,42.260379],[-83.74973,42.26032],[-83.749722,42.260293],[-83.74967,42.260241],[-83.749627,42.260226],[-83.749577,42.26022],[-83.749536,42.260224],[-83.749471,42.260254],[-83.749454,42.260277],[-83.749458,42.260336],[-83.74949,42.260386],[-83.749516,42.260404],[-83.749546,42.260417],[-83.749617,42.260426],[-83.749691,42.260407],[-83.749717,42.260379]]]}},{"type":"Feature","properties":{"k":"tee"},"geometry":{"type":"Polygon","coordinates":[[[-83.7498,42.26065],[-83.749828,42.260642],[-83.749835,42.260626],[-83.749824,42.260605],[-83.7498,42.260596],[-83.749745,42.260602],[-83.749738,42.260628],[-83.749746,42.26064],[-83.7498,42.26065]]]}},{"type":"Feature","properties":{"k":"tee"},"geometry":{"type":"Polygon","coordinates":[[[-83.749535,42.260604],[-83.749503,42.260608],[-83.749338,42.260596],[-83.749226,42.260611],[-83.749193,42.260608],[-83.749152,42.260596],[-83.749134,42.260574],[-83.749133,42.260547],[-83.749163,42.260519],[-83.749183,42.260518],[-83.749508,42.260544],[-83.749539,42.260553],[-83.749553,42.260567],[-83.749558,42.26058],[-83.749535,42.260604]]]}},{"type":"Feature","properties":{"k":"tee"},"geometry":{"type":"Polygon","coordinates":[[[-83.749019,42.260565],[-83.749065,42.260551],[-83.749073,42.260513],[-83.749064,42.260494],[-83.749017,42.260478],[-83.748991,42.260482],[-83.748966,42.260497],[-83.748954,42.260517],[-83.748957,42.260541],[-83.748973,42.260556],[-83.749019,42.260565]]]}},{"type":"Feature","properties":{"k":"bunker"},"geometry":{"type":"Polygon","coordinates":[[[-83.745866,42.259566],[-83.745886,42.259558],[-83.745907,42.259537],[-83.745917,42.259517],[-83.745909,42.259479],[-83.745948,42.259439],[-83.74595,42.259415],[-83.745935,42.259387],[-83.745908,42.259356],[-83.745884,42.259347],[-83.74585,42.259365],[-83.745818,42.259359],[-83.745796,42.259365],[-83.745783,42.259378],[-83.745789,42.25941],[-83.745829,42.259436],[-83.745837,42.259452],[-83.745815,42.259472],[-83.745777,42.259477],[-83.745763,42.259507],[-83.74579,42.259529],[-83.745833,42.259543],[-83.745848,42.259565],[-83.745866,42.259566]]]}},{"type":"Feature","properties":{"k":"bunker"},"geometry":{"type":"Polygon","coordinates":[[[-83.745548,42.259726],[-83.745561,42.25972],[-83.745566,42.259692],[-83.745534,42.259644],[-83.745521,42.259639],[-83.745497,42.259645],[-83.745482,42.259619],[-83.745452,42.259607],[-83.745402,42.25964],[-83.745397,42.259677],[-83.745424,42.259686],[-83.745448,42.25968],[-83.745458,42.259685],[-83.745456,42.259699],[-83.745484,42.25972],[-83.745548,42.259726]]]}},{"type":"Feature","properties":{"k":"green"},"geometry":{"type":"Polygon","coordinates":[[[-83.745691,42.259665],[-83.745752,42.259648],[-83.745773,42.25963],[-83.74578,42.25961],[-83.745779,42.25959],[-83.745697,42.259503],[-83.745683,42.259476],[-83.745638,42.259446],[-83.745538,42.259447],[-83.745496,42.259464],[-83.74547,42.259481],[-83.745452,42.259529],[-83.74548,42.259577],[-83.745517,42.259609],[-83.745607,42.259651],[-83.745644,42.259663],[-83.745691,42.259665]]]}},{"type":"Feature","properties":{"k":"bunker"},"geometry":{"type":"Polygon","coordinates":[[[-83.744341,42.262769],[-83.744362,42.262764],[-83.744376,42.26275],[-83.744378,42.262733],[-83.744369,42.262702],[-83.744345,42.262687],[-83.744367,42.26264],[-83.744352,42.26261],[-83.744327,42.262596],[-83.744299,42.262591],[-83.744283,42.2626],[-83.744275,42.262623],[-83.744264,42.262629],[-83.744225,42.262611],[-83.744194,42.262617],[-83.744176,42.26264],[-83.74418,42.262657],[-83.744158,42.262677],[-83.744169,42.262704],[-83.744215,42.262713],[-83.744262,42.262709],[-83.744291,42.262754],[-83.744341,42.262769]]]}},{"type":"Feature","properties":{"k":"bunker"},"geometry":{"type":"Polygon","coordinates":[[[-83.744899,42.262925],[-83.744914,42.262904],[-83.744912,42.262881],[-83.744859,42.262861],[-83.744857,42.262841],[-83.744836,42.262814],[-83.744816,42.262801],[-83.744795,42.2628],[-83.744761,42.262813],[-83.744728,42.262779],[-83.74469,42.262774],[-83.74467,42.262799],[-83.744676,42.262819],[-83.744695,42.262844],[-83.744739,42.26285],[-83.744738,42.262861],[-83.744718,42.26288],[-83.744739,42.262903],[-83.744763,42.262909],[-83.744806,42.262898],[-83.744823,42.262906],[-83.744833,42.26294],[-83.744843,42.262946],[-83.744883,42.262941],[-83.744899,42.262925]]]}},{"type":"Feature","properties":{"k":"green"},"geometry":{"type":"Polygon","coordinates":[[[-83.744706,42.263015],[-83.744725,42.262998],[-83.744723,42.262942],[-83.744601,42.262772],[-83.744526,42.262743],[-83.744445,42.262752],[-83.74439,42.262793],[-83.744372,42.262821],[-83.744365,42.262875],[-83.744392,42.262935],[-83.744459,42.262985],[-83.744517,42.263014],[-83.744613,42.263031],[-83.744677,42.263026],[-83.744706,42.263015]]]}},{"type":"Feature","properties":{"k":"fairway"},"geometry":{"type":"Polygon","coordinates":[[[-83.744276,42.261826],[-83.744324,42.261831],[-83.744426,42.261797],[-83.744468,42.261773],[-83.744532,42.261751],[-83.744757,42.261697],[-83.744791,42.261659],[-83.744832,42.26132],[-83.744878,42.261132],[-83.744933,42.260975],[-83.744974,42.2606],[-83.745047,42.26042],[-83.745053,42.260381],[-83.74503,42.26034],[-83.744987,42.260309],[-83.744894,42.260263],[-83.744844,42.260249],[-83.744788,42.260252],[-83.744748,42.260268],[-83.744698,42.260312],[-83.744656,42.26037],[-83.744583,42.260522],[-83.744539,42.26059],[-83.744512,42.26066],[-83.744523,42.260722],[-83.74452,42.260779],[-83.744469,42.260908],[-83.744406,42.261028],[-83.744367,42.261156],[-83.744371,42.261202],[-83.744401,42.261239],[-83.744536,42.261315],[-83.744556,42.261347],[-83.744569,42.261386],[-83.744575,42.261482],[-83.744563,42.261524],[-83.744536,42.261552],[-83.744488,42.261567],[-83.744281,42.261598],[-83.74423,42.261622],[-83.744199,42.261649],[-83.744166,42.261708],[-83.744166,42.261753],[-83.744179,42.261779],[-83.744222,42.261806],[-83.744276,42.261826]]]}},{"type":"Feature","properties":{"k":"water"},"geometry":{"type":"Polygon","coordinates":[[[-83.744984,42.254297],[-83.745015,42.254529],[-83.74503,42.254562],[-83.7453,42.254567],[-83.745329,42.254548],[-83.74535,42.254498],[-83.745322,42.254335],[-83.745274,42.25421],[-83.745216,42.254152],[-83.745188,42.254093],[-83.745137,42.253904],[-83.745094,42.253822],[-83.745066,42.253801],[-83.744902,42.253884],[-83.744843,42.253996],[-83.744863,42.254081],[-83.744918,42.254158],[-83.744984,42.254297]]]}},{"type":"Feature","properties":{"k":"water"},"geometry":{"type":"Polygon","coordinates":[[[-83.743679,42.262438],[-83.743151,42.262458],[-83.742795,42.262489],[-83.742674,42.262491],[-83.742625,42.262497],[-83.742543,42.262521],[-83.7424,42.262647],[-83.742374,42.262699],[-83.742379,42.262831],[-83.742362,42.262783],[-83.742359,42.262708],[-83.742395,42.262635],[-83.742464,42.262561],[-83.742535,42.26251],[-83.742607,42.262479],[-83.742998,42.262454],[-83.743114,42.262418],[-83.743118,42.262435],[-83.743067,42.262453],[-83.743333,42.262437],[-83.743622,42.26243],[-83.743675,42.262417],[-83.743679,42.262438]]]}},{"type":"Feature","properties":{"k":"bunker"},"geometry":{"type":"Polygon","coordinates":[[[-83.740866,42.260229],[-83.740817,42.260269],[-83.740765,42.260294],[-83.740718,42.260334],[-83.740668,42.260335],[-83.740641,42.260309],[-83.740639,42.260273],[-83.740567,42.26027],[-83.740551,42.260252],[-83.740546,42.260228],[-83.740597,42.260199],[-83.740592,42.260188],[-83.740561,42.260172],[-83.740556,42.26015],[-83.740564,42.260132],[-83.740576,42.260121],[-83.740609,42.260125],[-83.740622,42.260117],[-83.740621,42.260097],[-83.740631,42.260087],[-83.740682,42.260085],[-83.740706,42.260093],[-83.740729,42.26014],[-83.740745,42.260148],[-83.740773,42.260107],[-83.740792,42.260096],[-83.740815,42.260094],[-83.740846,42.260108],[-83.740878,42.260148],[-83.740879,42.260204],[-83.740866,42.260229]]]}},{"type":"Feature","properties":{"k":"bunker"},"geometry":{"type":"Polygon","coordinates":[[[-83.742462,42.254712],[-83.742411,42.254755],[-83.742364,42.254756],[-83.742326,42.254729],[-83.74234,42.254701],[-83.742357,42.254697],[-83.742359,42.254685],[-83.742335,42.254677],[-83.742326,42.254685],[-83.742335,42.2547],[-83.742322,42.254728],[-83.742254,42.254735],[-83.742218,42.254711],[-83.742208,42.254671],[-83.742214,42.254655],[-83.742239,42.254632],[-83.742259,42.254627],[-83.742296,42.254634],[-83.742326,42.25463],[-83.742332,42.254618],[-83.742319,42.254593],[-83.742343,42.254572],[-83.742376,42.254562],[-83.742396,42.254567],[-83.74242,42.25459],[-83.742414,42.254644],[-83.742421,42.254655],[-83.742453,42.25467],[-83.742462,42.254683],[-83.742462,42.254712]]]}},{"type":"Feature","properties":{"k":"bunker"},"geometry":{"type":"Polygon","coordinates":[[[-83.742409,42.255878],[-83.742457,42.255889],[-83.742487,42.255883],[-83.742504,42.255865],[-83.742518,42.255873],[-83.742527,42.255896],[-83.742565,42.255899],[-83.742571,42.25592],[-83.742562,42.255941],[-83.742515,42.255952],[-83.74251,42.25596],[-83.742514,42.255982],[-83.742537,42.256008],[-83.742536,42.256019],[-83.742515,42.256036],[-83.742491,42.256038],[-83.742475,42.256014],[-83.74245,42.256008],[-83.742419,42.256039],[-83.742386,42.256042],[-83.742352,42.256031],[-83.742332,42.256011],[-83.742337,42.255975],[-83.742366,42.255966],[-83.742401,42.255966],[-83.742414,42.255958],[-83.742416,42.255947],[-83.742406,42.255938],[-83.742364,42.255933],[-83.742352,42.255925],[-83.742351,42.255912],[-83.742367,42.255884],[-83.742378,42.255878],[-83.742409,42.255878]]]}},{"type":"Feature","properties":{"k":"bunker"},"geometry":{"type":"Polygon","coordinates":[[[-83.742562,42.258984],[-83.742539,42.259],[-83.74254,42.259015],[-83.742633,42.259048],[-83.742646,42.259108],[-83.74267,42.259111],[-83.742692,42.259126],[-83.742673,42.259144],[-83.742659,42.259146],[-83.742626,42.259134],[-83.742604,42.259159],[-83.742576,42.259161],[-83.742557,42.259148],[-83.742547,42.259107],[-83.742521,42.259088],[-83.742485,42.25909],[-83.742434,42.259113],[-83.742385,42.259107],[-83.742365,42.25909],[-83.742364,42.25906],[-83.742334,42.259045],[-83.742318,42.259023],[-83.742333,42.259001],[-83.742365,42.258981],[-83.742398,42.258975],[-83.742445,42.258981],[-83.742456,42.258951],[-83.742476,42.258933],[-83.742535,42.258927],[-83.74256,42.258932],[-83.742579,42.258943],[-83.742587,42.258961],[-83.742576,42.258981],[-83.742562,42.258984]]]}},{"type":"Feature","properties":{"k":"bunker"},"geometry":{"type":"Polygon","coordinates":[[[-83.74544,42.256371],[-83.745419,42.256347],[-83.745416,42.256287],[-83.745394,42.256265],[-83.745375,42.25626],[-83.74534,42.256264],[-83.745315,42.256291],[-83.745298,42.25629],[-83.745264,42.256261],[-83.745227,42.256258],[-83.745194,42.256272],[-83.745173,42.256299],[-83.74517,42.256319],[-83.745214,42.25634],[-83.745197,42.256377],[-83.745215,42.256398],[-83.745271,42.256414],[-83.745294,42.256438],[-83.745357,42.25646],[-83.745411,42.256464],[-83.745462,42.256439],[-83.74547,42.256429],[-83.745465,42.2564],[-83.74544,42.256371]]]}},{"type":"Feature","properties":{"k":"tee"},"geometry":{"type":"Polygon","coordinates":[[[-83.74582,42.254712],[-83.745701,42.254699],[-83.745644,42.254683],[-83.745604,42.254655],[-83.745606,42.254612],[-83.745624,42.254572],[-83.745677,42.254543],[-83.745744,42.254533],[-83.745897,42.254534],[-83.746034,42.254519],[-83.746087,42.254528],[-83.746117,42.254548],[-83.746141,42.254578],[-83.746142,42.254641],[-83.746117,42.254689],[-83.746068,42.25472],[-83.745992,42.254737],[-83.74582,42.254712]]]}},{"type":"Feature","properties":{"k":"bunker"},"geometry":{"type":"Polygon","coordinates":[[[-83.748622,42.257456],[-83.748589,42.257464],[-83.748548,42.257461],[-83.748525,42.257454],[-83.748519,42.25744],[-83.74849,42.257428],[-83.748476,42.257432],[-83.748462,42.257453],[-83.748399,42.257463],[-83.748323,42.257432],[-83.748221,42.257407],[-83.74821,42.257392],[-83.748213,42.257381],[-83.748258,42.25735],[-83.748316,42.257329],[-83.748338,42.257336],[-83.74839,42.257371],[-83.748427,42.257365],[-83.748464,42.257287],[-83.74848,42.257274],[-83.748553,42.25729],[-83.74859,42.257272],[-83.748614,42.257288],[-83.748609,42.257313],[-83.748619,42.257323],[-83.748638,42.257324],[-83.748692,42.257296],[-83.748697,42.257273],[-83.748743,42.257276],[-83.748768,42.257297],[-83.748765,42.25734],[-83.748739,42.257373],[-83.74869,42.257391],[-83.748678,42.257434],[-83.748622,42.257456]]]}},{"type":"Feature","properties":{"k":"bunker"},"geometry":{"type":"Polygon","coordinates":[[[-83.744505,42.261402],[-83.7445,42.261424],[-83.744462,42.261438],[-83.744446,42.26143],[-83.744431,42.261444],[-83.744446,42.261464],[-83.744464,42.261465],[-83.74447,42.261456],[-83.744463,42.261441],[-83.744502,42.261428],[-83.744524,42.261459],[-83.744529,42.261473],[-83.744511,42.261506],[-83.744464,42.261525],[-83.744428,42.261517],[-83.744415,42.261505],[-83.744403,42.261465],[-83.744386,42.261455],[-83.74437,42.261452],[-83.744305,42.261462],[-83.744286,42.261441],[-83.744316,42.261361],[-83.74435,42.261353],[-83.744361,42.261379],[-83.74438,42.261386],[-83.744389,42.261381],[-83.744383,42.261342],[-83.744394,42.261324],[-83.744419,42.261318],[-83.744466,42.261329],[-83.744502,42.261351],[-83.744517,42.261378],[-83.744505,42.261402]]]}},{"type":"Feature","properties":{"k":"tee"},"geometry":{"type":"Polygon","coordinates":[[[-83.743724,42.262581],[-83.743756,42.262574],[-83.743771,42.262554],[-83.743777,42.262525],[-83.743758,42.262492],[-83.743731,42.262485],[-83.743662,42.262507],[-83.743639,42.262545],[-83.743658,42.262569],[-83.743682,42.26258],[-83.743724,42.262581]]]}},{"type":"Feature","properties":{"k":"green"},"geometry":{"type":"Polygon","coordinates":[[[-83.743242,42.262799],[-83.743284,42.262759],[-83.743332,42.262659],[-83.743342,42.262621],[-83.743335,42.26259],[-83.743303,42.26257],[-83.743242,42.262553],[-83.742981,42.262563],[-83.742933,42.262581],[-83.742914,42.262607],[-83.742909,42.262645],[-83.742938,42.262709],[-83.742976,42.262761],[-83.743022,42.2628],[-83.743067,42.262824],[-83.743111,42.262835],[-83.743158,42.262836],[-83.743209,42.262821],[-83.743242,42.262799]]]}},{"type":"Feature","properties":{"k":"path"},"geometry":{"type":"LineString","coordinates":[[-83.743493,42.262533],[-83.74341,42.262696],[-83.743323,42.262825],[-83.743271,42.262864],[-83.743213,42.262889],[-83.743134,42.262899],[-83.743063,42.262891],[-83.743002,42.262865],[-83.742935,42.262821],[-83.742838,42.262669]]}},{"type":"Feature","properties":{"k":"tee"},"geometry":{"type":"Polygon","coordinates":[[[-83.742821,42.262866],[-83.742798,42.262838],[-83.742753,42.262727],[-83.742717,42.262708],[-83.742678,42.26271],[-83.742647,42.262726],[-83.742635,42.262762],[-83.742697,42.262894],[-83.742729,42.262921],[-83.742768,42.262929],[-83.742808,42.262924],[-83.742832,42.26291],[-83.742843,42.262891],[-83.742821,42.262866]]]}},{"type":"Feature","properties":{"k":"path"},"geometry":{"type":"LineString","coordinates":[[-83.744435,42.263118],[-83.74444,42.263168],[-83.744415,42.263222],[-83.74438,42.263265],[-83.744329,42.263295],[-83.744264,42.263412]]}},{"type":"Feature","properties":{"k":"path"},"geometry":{"type":"LineString","coordinates":[[-83.744043,42.26303],[-83.744136,42.263056],[-83.744234,42.263108],[-83.744299,42.263184],[-83.744329,42.263295]]}},{"type":"Feature","properties":{"k":"path"},"geometry":{"type":"LineString","coordinates":[[-83.744638,42.263151],[-83.744568,42.263162],[-83.744484,42.263193],[-83.744428,42.263221],[-83.744393,42.263249]]}},{"type":"Feature","properties":{"k":"path"},"geometry":{"type":"LineString","coordinates":[[-83.743634,42.262601],[-83.743431,42.262658]]}},{"type":"Feature","properties":{"k":"path"},"geometry":{"type":"LineString","coordinates":[[-83.743422,42.262864],[-83.74337,42.262847],[-83.743278,42.262858]]}},{"type":"Feature","properties":{"k":"path"},"geometry":{"type":"LineString","coordinates":[[-83.74337,42.262847],[-83.743354,42.262825],[-83.743364,42.26277]]}},{"type":"Feature","properties":{"k":"tee"},"geometry":{"type":"Polygon","coordinates":[[[-83.742359,42.262343],[-83.742325,42.262329],[-83.742249,42.262268],[-83.742226,42.262237],[-83.742218,42.262208],[-83.74223,42.262184],[-83.742261,42.26216],[-83.742297,42.262139],[-83.742339,42.262134],[-83.742397,42.262164],[-83.74247,42.262264],[-83.742472,42.262287],[-83.742461,42.262312],[-83.742435,42.262336],[-83.742396,42.262345],[-83.742359,42.262343]]]}},{"type":"Feature","properties":{"k":"green"},"geometry":{"type":"Polygon","coordinates":[[[-83.740666,42.258801],[-83.740606,42.258739],[-83.740598,42.25871],[-83.740605,42.258671],[-83.740624,42.258645],[-83.740655,42.258629],[-83.740703,42.258622],[-83.740749,42.258626],[-83.740786,42.258639],[-83.740819,42.258668],[-83.740837,42.2587],[-83.740841,42.258728],[-83.740831,42.258757],[-83.740785,42.258801],[-83.740721,42.258809],[-83.740666,42.258801]]]}},{"type":"Feature","properties":{"k":"path"},"geometry":{"type":"LineString","coordinates":[[-83.743469,42.262413],[-83.743467,42.262322],[-83.743568,42.262156],[-83.743565,42.261978],[-83.743621,42.261933],[-83.743808,42.261881],[-83.743852,42.261832],[-83.74391,42.261696]]}},{"type":"Feature","properties":{"k":"path"},"geometry":{"type":"LineString","coordinates":[[-83.743473,42.262459],[-83.743469,42.262413]]}},{"type":"Feature","properties":{"k":"bunker"},"geometry":{"type":"Polygon","coordinates":[[[-83.746963,42.255835],[-83.746973,42.25588],[-83.746958,42.255896],[-83.746924,42.255904],[-83.746884,42.255893],[-83.746866,42.255869],[-83.746861,42.255843],[-83.746894,42.255803],[-83.746941,42.255796],[-83.746963,42.255835]]]}},{"type":"Feature","properties":{"k":"bunker"},"geometry":{"type":"Polygon","coordinates":[[[-83.74698,42.256665],[-83.746959,42.256677],[-83.746927,42.256678],[-83.746901,42.256665],[-83.746887,42.256645],[-83.746892,42.256619],[-83.74691,42.256597],[-83.746958,42.256588],[-83.746985,42.256597],[-83.747005,42.256616],[-83.747001,42.256637],[-83.74698,42.256665]]]}},{"type":"Feature","properties":{"k":"green"},"geometry":{"type":"Polygon","coordinates":[[[-83.746758,42.256671],[-83.74672,42.256653],[-83.746695,42.256603],[-83.746673,42.256524],[-83.746672,42.256464],[-83.746693,42.256419],[-83.746738,42.256402],[-83.7468,42.256392],[-83.74691,42.256393],[-83.74693,42.256411],[-83.746944,42.25644],[-83.746925,42.256518],[-83.746859,42.256605],[-83.746844,42.25664],[-83.746822,42.256661],[-83.74679,42.256675],[-83.746758,42.256671]]]}},{"type":"Feature","properties":{"k":"tee"},"geometry":{"type":"Polygon","coordinates":[[[-83.745927,42.257534],[-83.745941,42.257516],[-83.745937,42.257492],[-83.745912,42.25748],[-83.745877,42.257479],[-83.745846,42.257488],[-83.74583,42.257504],[-83.745832,42.257523],[-83.745846,42.257537],[-83.7459,42.257544],[-83.745927,42.257534]]]}}]}