{"type":"FeatureCollection","features":[{"type":"Feature","properties":{"k":"hole","ref":"1","par":4,"hcp":11},"geometry":{"type":"LineString","coordinates":[[-73.887786,40.890956],[-73.88722,40.893085],[-73.886972,40.893904]]}},{"type":"Feature","properties":{"k":"hole","ref":"2","par":5,"hcp":1},"geometry":{"type":"LineString","coordinates":[[-73.886963,40.89449],[-73.88609,40.896186],[-73.88553,40.898044],[-73.885616,40.898961]]}},{"type":"Feature","properties":{"k":"hole","ref":"3","par":3,"hcp":17},"geometry":{"type":"LineString","coordinates":[[-73.88607,40.901253],[-73.885411,40.902556]]}},{"type":"Feature","properties":{"k":"hole","ref":"4","par":4,"hcp":5},"geometry":{"type":"LineString","coordinates":[[-73.885291,40.902878],[-73.884678,40.904834],[-73.884339,40.905704]]}},{"type":"Feature","properties":{"k":"hole","ref":"5","par":4,"hcp":9},"geometry":{"type":"LineString","coordinates":[[-73.883934,40.905365],[-73.884392,40.903219],[-73.884472,40.902574]]}},{"type":"Feature","properties":{"k":"hole","ref":"6","par":4,"hcp":13},"geometry":{"type":"LineString","coordinates":[[-73.884939,40.902789],[-73.884873,40.901113],[-73.88475,40.900435]]}},{"type":"Feature","properties":{"k":"hole","ref":"7","par":3,"hcp":3},"geometry":{"type":"LineString","coordinates":[[-73.884998,40.899466],[-73.885895,40.901021]]}},{"type":"Feature","properties":{"k":"hole","ref":"8","par":4,"hcp":15},"geometry":{"type":"LineString","coordinates":[[-73.888224,40.900289],[-73.88912,40.898884],[-73.889449,40.897881]]}},{"type":"Feature","properties":{"k":"hole","ref":"9","par":4,"hcp":7},"geometry":{"type":"LineString","coordinates":[[-73.88981,40.897667],[-73.890624,40.89547],[-73.891098,40.894611]]}},{"type":"Feature","properties":{"k":"hole","ref":"10","par":5,"hcp":6},"geometry":{"type":"LineString","coordinates":[[-73.88904,40.894224],[-73.888184,40.896738],[-73.887805,40.897991]]}},{"type":"Feature","properties":{"k":"hole","ref":"11","par":3,"hcp":18},"geometry":{"type":"LineString","coordinates":[[-73.887576,40.898182],[-73.887343,40.899574]]}},{"type":"Feature","properties":{"k":"hole","ref":"12","par":5,"hcp":2},"geometry":{"type":"LineString","coordinates":[[-73.886528,40.899177],[-73.88696,40.896914],[-73.887204,40.895854],[-73.887749,40.894602]]}},{"type":"Feature","properties":{"k":"hole","ref":"13","par":3,"hcp":12},"geometry":{"type":"LineString","coordinates":[[-73.88827,40.894572],[-73.887894,40.893188]]}},{"type":"Feature","properties":{"k":"hole","ref":"14","par":4,"hcp":4},"geometry":{"type":"LineString","coordinates":[[-73.888743,40.893795],[-73.888077,40.891576],[-73.888261,40.890676]]}},{"type":"Feature","properties":{"k":"water"},"geometry":{"type":"Polygon","coordinates":[[[-73.884785,40.902288],[-73.884876,40.902284],[-73.884962,40.902256],[-73.885032,40.902203],[-73.885059,40.902138],[-73.885059,40.902065],[-73.88508,40.90198],[-73.885059,40.901907],[-73.885,40.901855],[-73.884909,40.901806],[-73.884801,40.901778],[-73.884678,40.901794],[-73.884597,40.901871],[-73.884571,40.901936],[-73.884555,40.902045],[-73.884587,40.902142],[-73.88464,40.902211],[-73.884689,40.902256],[-73.884785,40.902288]]]}},{"type":"Feature","properties":{"k":"path"},"geometry":{"type":"LineString","coordinates":[[-73.884506,40.901952],[-73.884501,40.902061],[-73.884528,40.90213],[-73.884769,40.902467],[-73.884801,40.902524],[-73.884812,40.902605],[-73.884791,40.902678],[-73.884732,40.902807],[-73.884689,40.902949],[-73.884678,40.903099],[-73.884694,40.903274],[-73.884678,40.903391],[-73.884576,40.90376],[-73.88456,40.90391],[-73.884361,40.904555],[-73.884191,40.904893],[-73.884154,40.905003],[-73.884081,40.905335],[-73.88411,40.905357],[-73.884167,40.905363],[-73.884262,40.90533],[-73.884303,40.905285],[-73.884353,40.905195],[-73.884394,40.905175],[-73.884463,40.905167],[-73.884665,40.905197],[-73.884728,40.905193],[-73.884801,40.905156],[-73.884911,40.905015],[-73.885181,40.904357],[-73.885311,40.903943],[-73.885293,40.903813],[-73.885498,40.90321],[-73.885622,40.902928],[-73.885733,40.902561],[-73.885763,40.902445],[-73.885749,40.902153]]}},{"type":"Feature","properties":{"k":"path"},"geometry":{"type":"LineString","coordinates":[[-73.887481,40.900371],[-73.888086,40.90044],[-73.888225,40.900438],[-73.888305,40.90041],[-73.888477,40.900281],[-73.888662,40.900161],[-73.888777,40.900046],[-73.889,40.899809],[-73.889263,40.899434],[-73.8894,40.899272],[-73.88948,40.899027],[-73.889598,40.898454],[-73.889623,40.898268],[-73.889631,40.898066],[-73.889652,40.897986],[-73.889687,40.897918],[-73.889786,40.897834],[-73.88988,40.897737],[-73.889947,40.897627],[-73.890033,40.897436],[-73.890199,40.896921],[-73.890264,40.896794],[-73.890326,40.896721],[-73.890395,40.896608],[-73.890521,40.89629],[-73.89065,40.89584],[-73.890736,40.895712],[-73.89084,40.895501],[-73.891095,40.895045],[-73.891216,40.894874],[-73.891334,40.894631],[-73.891254,40.894483],[-73.891173,40.894475],[-73.890993,40.894475],[-73.890843,40.894536],[-73.890774,40.894542],[-73.890692,40.894526],[-73.890317,40.894551],[-73.890062,40.894532],[-73.889525,40.894413]]}},{"type":"Feature","properties":{"k":"path"},"geometry":{"type":"LineString","coordinates":[[-73.886,40.90014],[-73.885869,40.900315]]}},{"type":"Feature","properties":{"k":"path"},"geometry":{"type":"LineString","coordinates":[[-73.88639,40.89963],[-73.886404,40.899444],[-73.886359,40.899144],[-73.886367,40.899006],[-73.886449,40.898677],[-73.8865,40.898272],[-73.886507,40.898149],[-73.886483,40.897984],[-73.88648,40.897851],[-73.886521,40.897379],[-73.886503,40.897184],[-73.886557,40.896715],[-73.886689,40.89633],[-73.886827,40.896073],[-73.886942,40.895914],[-73.886989,40.895754],[-73.8871,40.895585],[-73.887178,40.895573],[-73.887457,40.895603],[-73.88758,40.895589],[-73.887696,40.895483],[-73.887826,40.895319],[-73.887872,40.895096],[-73.887943,40.894931],[-73.888079,40.89472],[-73.888283,40.89469],[-73.888498,40.894324],[-73.888553,40.894179],[-73.888622,40.894106],[-73.888674,40.894005],[-73.888658,40.89394],[-73.888599,40.893875],[-73.888502,40.893826],[-73.888468,40.89376],[-73.888458,40.893587],[-73.888423,40.893512]]}},{"type":"Feature","properties":{"k":"wood"},"geometry":{"type":"Polygon","coordinates":[[[-73.886876,40.890541],[-73.886689,40.890781],[-73.886761,40.890914],[-73.886794,40.891027],[-73.886568,40.891626],[-73.8863,40.892178],[-73.885052,40.894576],[-73.884527,40.895737],[-73.884344,40.896389],[-73.884292,40.897132],[-73.884405,40.898036],[-73.88467,40.898675],[-73.884732,40.898985],[-73.884103,40.901302],[-73.884018,40.902092],[-73.883741,40.903945],[-73.883546,40.905359],[-73.883682,40.906019],[-73.884778,40.906141],[-73.884897,40.905946],[-73.884962,40.905628],[-73.885003,40.905218],[-73.88635,40.901025],[-73.886484,40.900404],[-73.886861,40.9006],[-73.887427,40.901097],[-73.887679,40.901358],[-73.887632,40.901471],[-73.88753,40.90139],[-73.886909,40.901019],[-73.887086,40.901326],[-73.886983,40.90182],[-73.88681,40.901947],[-73.88646,40.902159],[-73.886217,40.902936],[-73.88604,40.903426],[-73.885961,40.90374],[-73.885736,40.903991],[-73.885811,40.904273],[-73.886045,40.904644],[-73.885937,40.904771],[-73.885638,40.904803],[-73.885307,40.90493],[-73.884985,40.906123],[-73.884966,40.906645],[-73.885036,40.906896],[-73.885283,40.907027],[-73.88554,40.906938],[-73.885536,40.907002],[-73.885788,40.906945],[-73.885895,40.906737],[-73.885942,40.906462],[-73.886052,40.906225],[-73.8862,40.906118],[-73.886384,40.906198],[-73.886477,40.906412],[-73.886452,40.907013],[-73.886286,40.907536],[-73.886067,40.908021],[-73.885688,40.908487],[-73.885528,40.908715],[-73.88522,40.908892],[-73.885111,40.909208],[-73.885208,40.909435],[-73.885039,40.909761],[-73.884974,40.910151],[-73.884816,40.910528],[-73.884637,40.910847],[-73.884572,40.910884],[-73.884433,40.910894],[-73.884581,40.910027],[-73.884693,40.908061],[-73.884665,40.907873],[-73.878586,40.906059],[-73.878567,40.906018],[-73.878568,40.905974],[-73.879382,40.900327],[-73.879468,40.899971],[-73.879605,40.899736],[-73.879797,40.89949],[-73.880193,40.89915],[-73.880756,40.898714],[-73.880943,40.898361],[-73.881064,40.897973],[-73.881028,40.897531],[-73.880837,40.897077],[-73.880679,40.896852],[-73.881033,40.896495],[-73.881211,40.896347],[-73.881234,40.896144],[-73.881884,40.895553],[-73.882542,40.895106],[-73.882806,40.894855],[-73.883193,40.894239],[-73.884609,40.892649],[-73.88599,40.891256],[-73.886245,40.891023],[-73.886589,40.890754],[-73.886865,40.890498],[-73.886876,40.890541]]]}},{"type":"Feature","properties":{"k":"stream"},"geometry":{"type":"LineString","coordinates":[[-73.887857,40.900297],[-73.887832,40.900188],[-73.887922,40.899775],[-73.887998,40.899292],[-73.888221,40.898798],[-73.888432,40.898145],[-73.888811,40.897999],[-73.888846,40.897373],[-73.889256,40.896585],[-73.889533,40.896153],[-73.889554,40.896093],[-73.889432,40.895944],[-73.889453,40.895855],[-73.889552,40.895649],[-73.889566,40.895564],[-73.889556,40.895494],[-73.889326,40.895048],[-73.889345,40.894588],[-73.889571,40.894258]]}},{"type":"Feature","properties":{"k":"path"},"geometry":{"type":"LineString","coordinates":[[-73.885845,40.900007],[-73.88579,40.900026],[-73.885724,40.90001],[-73.885652,40.89996],[-73.885612,40.899885],[-73.885523,40.899817],[-73.885282,40.899571],[-73.88515,40.899422],[-73.885032,40.899306],[-73.884842,40.899142],[-73.884784,40.899252],[-73.884655,40.899712],[-73.884494,40.900165],[-73.884359,40.900612],[-73.884285,40.90089],[-73.884225,40.901222],[-73.88413,40.901485],[-73.884028,40.901812]]}},{"type":"Feature","properties":{"k":"path"},"geometry":{"type":"LineString","coordinates":[[-73.886375,40.900005],[-73.886373,40.899976],[-73.886411,40.899923],[-73.886537,40.899824],[-73.886594,40.899748],[-73.886591,40.899674],[-73.886527,40.899636],[-73.886472,40.899625],[-73.88639,40.89963],[-73.886365,40.899667],[-73.886255,40.899899]]}},{"type":"Feature","properties":{"k":"path"},"geometry":{"type":"LineString","coordinates":[[-73.886721,40.900197],[-73.886539,40.900105],[-73.886375,40.900005]]}},{"type":"Feature","properties":{"k":"tee"},"geometry":{"type":"Polygon","coordinates":[[[-73.887782,40.891106],[-73.887836,40.89094],[-73.887836,40.890926],[-73.887791,40.890911],[-73.887749,40.890923],[-73.887677,40.891058],[-73.88767,40.891088],[-73.887677,40.891106],[-73.887748,40.891129],[-73.887782,40.891106]]]}},{"type":"Feature","properties":{"k":"tee"},"geometry":{"type":"Polygon","coordinates":[[[-73.887725,40.891331],[-73.887566,40.89131],[-73.887622,40.891168],[-73.887638,40.891154],[-73.887752,40.891173],[-73.887725,40.891331]]]}},{"type":"Feature","properties":{"k":"fairway"},"geometry":{"type":"Polygon","coordinates":[[[-73.886928,40.893813],[-73.886968,40.893797],[-73.887012,40.89379],[-73.887047,40.893795],[-73.887064,40.89381],[-73.887051,40.89377],[-73.887064,40.893735],[-73.887168,40.893666],[-73.887248,40.893567],[-73.887302,40.893438],[-73.88738,40.893055],[-73.88751,40.892512],[-73.887508,40.892392],[-73.887466,40.892346],[-73.887375,40.892334],[-73.887311,40.892359],[-73.887246,40.89245],[-73.887002,40.893169],[-73.887029,40.893316],[-73.886947,40.893562],[-73.886943,40.893773],[-73.886928,40.893813]]]}},{"type":"Feature","properties":{"k":"green"},"geometry":{"type":"Polygon","coordinates":[[[-73.886968,40.893797],[-73.886928,40.893813],[-73.886887,40.893845],[-73.886862,40.893879],[-73.88685,40.893914],[-73.886856,40.893952],[-73.886876,40.89398],[-73.886906,40.893996],[-73.886946,40.894004],[-73.886987,40.893998],[-73.887027,40.893978],[-73.88708,40.893905],[-73.887086,40.893863],[-73.887077,40.893821],[-73.887047,40.893795],[-73.887012,40.89379],[-73.886968,40.893797]]]}},{"type":"Feature","properties":{"k":"bunker"},"geometry":{"type":"Polygon","coordinates":[[[-73.887308,40.893897],[-73.887283,40.89391],[-73.887234,40.893918],[-73.887173,40.893901],[-73.887153,40.893875],[-73.887157,40.893837],[-73.887191,40.893803],[-73.887258,40.893798],[-73.887299,40.893811],[-73.887321,40.893836],[-73.887308,40.893897]]]}},{"type":"Feature","properties":{"k":"tee"},"geometry":{"type":"Polygon","coordinates":[[[-73.886914,40.894616],[-73.886826,40.894596],[-73.886927,40.894429],[-73.887014,40.894457],[-73.886914,40.894616]]]}},{"type":"Feature","properties":{"k":"fairway"},"geometry":{"type":"Polygon","coordinates":[[[-73.885526,40.898831],[-73.885527,40.898805],[-73.885483,40.898743],[-73.885462,40.898652],[-73.885456,40.898573],[-73.885427,40.898505],[-73.885373,40.89821],[-73.885366,40.898064],[-73.88541,40.897873],[-73.885482,40.897639],[-73.885544,40.897319],[-73.885698,40.896968],[-73.885926,40.896254],[-73.886121,40.89576],[-73.886308,40.89562],[-73.886399,40.895517],[-73.886494,40.895454],[-73.886564,40.89544],[-73.886602,40.895451],[-73.886635,40.895472],[-73.886636,40.895519],[-73.886594,40.895672],[-73.886525,40.895816],[-73.886444,40.896025],[-73.886316,40.896185],[-73.886153,40.896302],[-73.886084,40.896406],[-73.88603,40.896843],[-73.886044,40.897096],[-73.886012,40.897217],[-73.885934,40.897448],[-73.885699,40.897843],[-73.885658,40.897975],[-73.885651,40.898118],[-73.885676,40.898399],[-73.885679,40.898553],[-73.885653,40.898801],[-73.885668,40.89883],[-73.885697,40.89886],[-73.885624,40.898834],[-73.885571,40.89884],[-73.885502,40.898874],[-73.885526,40.898831]]]}},{"type":"Feature","properties":{"k":"bunker"},"geometry":{"type":"Polygon","coordinates":[[[-73.885815,40.899055],[-73.885859,40.899012],[-73.885869,40.898988],[-73.885864,40.898964],[-73.885847,40.898952],[-73.885824,40.898951],[-73.88581,40.898961],[-73.885812,40.899009],[-73.88579,40.899047],[-73.885801,40.899056],[-73.885815,40.899055]]]}},{"type":"Feature","properties":{"k":"bunker"},"geometry":{"type":"Polygon","coordinates":[[[-73.885867,40.898915],[-73.885884,40.898901],[-73.885901,40.898861],[-73.885896,40.898833],[-73.88587,40.898807],[-73.885835,40.898796],[-73.885801,40.898804],[-73.885796,40.898818],[-73.88583,40.898867],[-73.885814,40.8989],[-73.885831,40.898917],[-73.885867,40.898915]]]}},{"type":"Feature","properties":{"k":"green"},"geometry":{"type":"Polygon","coordinates":[[[-73.885571,40.89884],[-73.885502,40.898874],[-73.885468,40.898938],[-73.885468,40.89898],[-73.885501,40.89902],[-73.885602,40.899037],[-73.88565,40.899033],[-73.8857,40.899011],[-73.885733,40.898981],[-73.885751,40.898946],[-73.885744,40.898903],[-73.885719,40.89887],[-73.88566,40.898842],[-73.885624,40.898834],[-73.885571,40.89884]]]}},{"type":"Feature","properties":{"k":"tee"},"geometry":{"type":"Polygon","coordinates":[[[-73.886037,40.901416],[-73.885937,40.901381],[-73.885985,40.901294],[-73.886031,40.901233],[-73.886059,40.901217],[-73.88608,40.901215],[-73.886103,40.901223],[-73.886117,40.901243],[-73.886037,40.901416]]]}},{"type":"Feature","properties":{"k":"tee"},"geometry":{"type":"Polygon","coordinates":[[[-73.885956,40.901586],[-73.885873,40.901544],[-73.885922,40.901479],[-73.886011,40.901516],[-73.885956,40.901586]]]}},{"type":"Feature","properties":{"k":"green"},"geometry":{"type":"Polygon","coordinates":[[[-73.88555,40.902567],[-73.885526,40.902596],[-73.885478,40.902627],[-73.885409,40.902645],[-73.885356,40.90264],[-73.88532,40.902608],[-73.885307,40.902567],[-73.885318,40.902519],[-73.885351,40.902478],[-73.885409,40.902447],[-73.885456,40.902447],[-73.885495,40.90246],[-73.885543,40.902499],[-73.885558,40.902537],[-73.88555,40.902567]]]}},{"type":"Feature","properties":{"k":"fairway"},"geometry":{"type":"Polygon","coordinates":[[[-73.885379,40.902463],[-73.885402,40.902439],[-73.885397,40.902318],[-73.885418,40.902282],[-73.885446,40.902264],[-73.8855,40.902262],[-73.885546,40.902274],[-73.885574,40.902304],[-73.885588,40.902351],[-73.885577,40.902394],[-73.885537,40.902432],[-73.885525,40.902454],[-73.885543,40.902499],[-73.885495,40.90246],[-73.885456,40.902447],[-73.885409,40.902447],[-73.885379,40.902463]]]}},{"type":"Feature","properties":{"k":"bunker"},"geometry":{"type":"Polygon","coordinates":[[[-73.885319,40.902439],[-73.885309,40.902478],[-73.885279,40.902515],[-73.885251,40.902533],[-73.885225,40.902529],[-73.885204,40.902514],[-73.885185,40.902462],[-73.885187,40.902441],[-73.885209,40.902349],[-73.885225,40.902335],[-73.885267,40.902338],[-73.885321,40.902406],[-73.885319,40.902439]]]}},{"type":"Feature","properties":{"k":"tee"},"geometry":{"type":"Polygon","coordinates":[[[-73.885486,40.902984],[-73.885169,40.902897],[-73.885231,40.902802],[-73.88553,40.902884],[-73.885486,40.902984]]]}},{"type":"Feature","properties":{"k":"tee"},"geometry":{"type":"Polygon","coordinates":[[[-73.88541,40.903277],[-73.885441,40.903203],[-73.885397,40.903191],[-73.885365,40.903268],[-73.88541,40.903277]]]}},{"type":"Feature","properties":{"k":"green"},"geometry":{"type":"Polygon","coordinates":[[[-73.884458,40.905723],[-73.884435,40.905761],[-73.884395,40.905791],[-73.88435,40.90581],[-73.884302,40.905816],[-73.884247,40.9058],[-73.884212,40.905765],[-73.884196,40.905721],[-73.88421,40.905648],[-73.884251,40.905602],[-73.884282,40.905587],[-73.884334,40.905576],[-73.884392,40.905586],[-73.884437,40.905617],[-73.884463,40.905668],[-73.884458,40.905723]]]}},{"type":"Feature","properties":{"k":"bunker"},"geometry":{"type":"Polygon","coordinates":[[[-73.884158,40.90567],[-73.884148,40.905673],[-73.88412,40.90566],[-73.884078,40.905609],[-73.884073,40.905558],[-73.884096,40.90553],[-73.884174,40.905585],[-73.884188,40.905607],[-73.884179,40.905642],[-73.884158,40.90567]]]}},{"type":"Feature","properties":{"k":"fairway"},"geometry":{"type":"Polygon","coordinates":[[[-73.884437,40.905617],[-73.884392,40.905586],[-73.884334,40.905576],[-73.884282,40.905587],[-73.884251,40.905602],[-73.884304,40.905546],[-73.884339,40.905416],[-73.884371,40.905345],[-73.884435,40.905306],[-73.884491,40.905293],[-73.884547,40.905304],[-73.88457,40.905339],[-73.884569,40.905388],[-73.884542,40.905429],[-73.884462,40.905501],[-73.884445,40.905548],[-73.884437,40.905617]]]}},{"type":"Feature","properties":{"k":"fairway"},"geometry":{"type":"Polygon","coordinates":[[[-73.885064,40.904078],[-73.885105,40.903985],[-73.885099,40.903947],[-73.885058,40.903899],[-73.885,40.903884],[-73.884915,40.903899],[-73.884847,40.90395],[-73.88479,40.904019],[-73.884738,40.904301],[-73.884616,40.904682],[-73.884548,40.904828],[-73.884535,40.9049],[-73.884587,40.904968],[-73.884653,40.904986],[-73.884736,40.904963],[-73.884768,40.904926],[-73.884802,40.904856],[-73.884827,40.904719],[-73.884889,40.904552],[-73.884938,40.904304],[-73.884986,40.90419],[-73.885064,40.904078]]]}},{"type":"Feature","properties":{"k":"tee"},"geometry":{"type":"Polygon","coordinates":[[[-73.883965,40.905394],[-73.883878,40.905379],[-73.883954,40.905132],[-73.884057,40.905152],[-73.884063,40.905175],[-73.883965,40.905394]]]}},{"type":"Feature","properties":{"k":"green"},"geometry":{"type":"Polygon","coordinates":[[[-73.884645,40.902628],[-73.884603,40.902654],[-73.88449,40.902681],[-73.884447,40.90268],[-73.884397,40.902663],[-73.884348,40.902635],[-73.884325,40.902601],[-73.884322,40.902564],[-73.884352,40.902522],[-73.884399,40.9025],[-73.884472,40.902492],[-73.884543,40.902497],[-73.884609,40.902518],[-73.884651,40.902551],[-73.884663,40.902592],[-73.884645,40.902628]]]}},{"type":"Feature","properties":{"k":"bunker"},"geometry":{"type":"Polygon","coordinates":[[[-73.884618,40.902768],[-73.884574,40.902779],[-73.884551,40.902773],[-73.884533,40.902756],[-73.884542,40.902718],[-73.884562,40.902711],[-73.884614,40.902722],[-73.884652,40.902713],[-73.884678,40.902719],[-73.884696,40.90275],[-73.884684,40.902766],[-73.884668,40.902775],[-73.884618,40.902768]]]}},{"type":"Feature","properties":{"k":"fairway"},"geometry":{"type":"Polygon","coordinates":[[[-73.884348,40.902635],[-73.884397,40.902663],[-73.884447,40.90268],[-73.88449,40.902681],[-73.884535,40.902671],[-73.884482,40.902711],[-73.884481,40.902761],[-73.884564,40.902891],[-73.884594,40.903057],[-73.884587,40.903121],[-73.884559,40.903191],[-73.88444,40.903397],[-73.884396,40.903522],[-73.884397,40.903577],[-73.884432,40.903728],[-73.884435,40.903792],[-73.884416,40.90384],[-73.884387,40.903867],[-73.884347,40.903888],[-73.884293,40.903894],[-73.884223,40.903885],[-73.884176,40.903861],[-73.884151,40.903814],[-73.884145,40.903749],[-73.884159,40.903563],[-73.88419,40.903397],[-73.884271,40.903122],[-73.884278,40.902897],[-73.884313,40.902777],[-73.884358,40.902685],[-73.884348,40.902635]]]}},{"type":"Feature","properties":{"k":"tee"},"geometry":{"type":"Polygon","coordinates":[[[-73.884984,40.902807],[-73.884995,40.902718],[-73.884894,40.902714],[-73.884889,40.902806],[-73.884984,40.902807]]]}},{"type":"Feature","properties":{"k":"tee"},"geometry":{"type":"Polygon","coordinates":[[[-73.885012,40.902652],[-73.884878,40.902638],[-73.884884,40.902475],[-73.885037,40.902478],[-73.885012,40.902652]]]}},{"type":"Feature","properties":{"k":"tee"},"geometry":{"type":"Polygon","coordinates":[[[-73.885059,40.9024],[-73.885066,40.90234],[-73.88493,40.902336],[-73.884928,40.902396],[-73.885059,40.9024]]]}},{"type":"Feature","properties":{"k":"green"},"geometry":{"type":"Polygon","coordinates":[[[-73.884842,40.900543],[-73.884862,40.900514],[-73.884865,40.900485],[-73.884855,40.900431],[-73.884817,40.900389],[-73.884778,40.900372],[-73.884715,40.900371],[-73.884655,40.900385],[-73.88461,40.900429],[-73.884602,40.900481],[-73.884612,40.900519],[-73.884644,40.900554],[-73.884684,40.900579],[-73.884731,40.900588],[-73.884799,40.900576],[-73.884842,40.900543]]]}},{"type":"Feature","properties":{"k":"bunker"},"geometry":{"type":"Polygon","coordinates":[[[-73.885002,40.900577],[-73.885002,40.900632],[-73.884962,40.900663],[-73.884903,40.900665],[-73.884871,40.90065],[-73.884852,40.900625],[-73.88487,40.900604],[-73.884936,40.9006],[-73.884953,40.900591],[-73.884957,40.900574],[-73.884938,40.900528],[-73.884949,40.900504],[-73.88498,40.900493],[-73.885029,40.900508],[-73.885029,40.900537],[-73.885002,40.900577]]]}},{"type":"Feature","properties":{"k":"bunker"},"geometry":{"type":"Polygon","coordinates":[[[-73.884661,40.900669],[-73.884666,40.900657],[-73.884654,40.900621],[-73.884621,40.900609],[-73.884604,40.900617],[-73.884589,40.900644],[-73.884592,40.900665],[-73.884609,40.900678],[-73.884638,40.900682],[-73.884661,40.900669]]]}},{"type":"Feature","properties":{"k":"bunker"},"geometry":{"type":"Polygon","coordinates":[[[-73.88466,40.901026],[-73.884618,40.901059],[-73.884593,40.901069],[-73.884573,40.901066],[-73.884556,40.901052],[-73.884556,40.901027],[-73.884578,40.90101],[-73.884594,40.90097],[-73.884619,40.900944],[-73.884636,40.900909],[-73.884635,40.900874],[-73.884655,40.900864],[-73.88468,40.900864],[-73.884704,40.90089],[-73.88468,40.900978],[-73.884663,40.900988],[-73.88466,40.901026]]]}},{"type":"Feature","properties":{"k":"bunker"},"geometry":{"type":"Polygon","coordinates":[[[-73.885096,40.901124],[-73.885066,40.901139],[-73.885031,40.901135],[-73.885016,40.901124],[-73.885013,40.901088],[-73.885038,40.901044],[-73.885023,40.901016],[-73.885022,40.900984],[-73.885047,40.900969],[-73.885086,40.90098],[-73.885097,40.901011],[-73.885079,40.901055],[-73.885101,40.901106],[-73.885096,40.901124]]]}},{"type":"Feature","properties":{"k":"fairway"},"geometry":{"type":"Polygon","coordinates":[[[-73.884644,40.900554],[-73.884681,40.900591],[-73.884698,40.900627],[-73.884714,40.900728],[-73.884768,40.900824],[-73.884776,40.900879],[-73.88477,40.900976],[-73.884702,40.901209],[-73.884701,40.901387],[-73.884736,40.901584],[-73.884811,40.901664],[-73.884868,40.901689],[-73.884936,40.9017],[-73.885034,40.901682],[-73.885114,40.901633],[-73.885151,40.901569],[-73.885154,40.901468],[-73.885115,40.901343],[-73.884982,40.901117],[-73.884964,40.901031],[-73.884976,40.900857],[-73.884949,40.900784],[-73.884805,40.900627],[-73.884802,40.900597],[-73.884823,40.900557],[-73.884799,40.900576],[-73.884731,40.900588],[-73.884684,40.900579],[-73.884644,40.900554]]]}},{"type":"Feature","properties":{"k":"tee"},"geometry":{"type":"Polygon","coordinates":[[[-73.885086,40.899536],[-73.884972,40.899574],[-73.884909,40.899449],[-73.885015,40.899413],[-73.885086,40.899536]]]}},{"type":"Feature","properties":{"k":"tee"},"geometry":{"type":"Polygon","coordinates":[[[-73.885203,40.899688],[-73.885062,40.899731],[-73.885018,40.899639],[-73.885136,40.899597],[-73.885203,40.899688]]]}},{"type":"Feature","properties":{"k":"tee"},"geometry":{"type":"Polygon","coordinates":[[[-73.885021,40.899868],[-73.884943,40.8999],[-73.884894,40.899821],[-73.884965,40.899793],[-73.885021,40.899868]]]}},{"type":"Feature","properties":{"k":"tee"},"geometry":{"type":"Polygon","coordinates":[[[-73.884891,40.899656],[-73.884801,40.899687],[-73.884844,40.899758],[-73.884942,40.899723],[-73.884891,40.899656]]]}},{"type":"Feature","properties":{"k":"green"},"geometry":{"type":"Polygon","coordinates":[[[-73.886049,40.901006],[-73.886029,40.901056],[-73.885995,40.90108],[-73.885885,40.901113],[-73.885833,40.901111],[-73.885796,40.901096],[-73.885769,40.901074],[-73.885759,40.901041],[-73.885766,40.901006],[-73.885781,40.900983],[-73.885807,40.900966],[-73.885876,40.900943],[-73.885947,40.900941],[-73.886013,40.90096],[-73.88604,40.900983],[-73.886049,40.901006]]]}},{"type":"Feature","properties":{"k":"bunker"},"geometry":{"type":"Polygon","coordinates":[[[-73.885722,40.901127],[-73.885695,40.901143],[-73.885663,40.901147],[-73.885634,40.901136],[-73.885617,40.901116],[-73.885607,40.901095],[-73.885618,40.901062],[-73.885611,40.901048],[-73.885564,40.901015],[-73.885558,40.900985],[-73.885564,40.90096],[-73.885582,40.900949],[-73.885603,40.900942],[-73.885629,40.900945],[-73.885708,40.901002],[-73.885717,40.901021],[-73.885703,40.901061],[-73.885728,40.901087],[-73.885733,40.901107],[-73.885722,40.901127]]]}},{"type":"Feature","properties":{"k":"fairway"},"geometry":{"type":"Polygon","coordinates":[[[-73.885766,40.901006],[-73.885781,40.900983],[-73.885807,40.900966],[-73.885876,40.900943],[-73.885947,40.900941],[-73.885884,40.900929],[-73.885866,40.9009],[-73.885838,40.900808],[-73.885805,40.900777],[-73.885761,40.90076],[-73.885697,40.900772],[-73.885665,40.90079],[-73.885645,40.900821],[-73.885644,40.900865],[-73.885666,40.900898],[-73.885738,40.900946],[-73.885764,40.900982],[-73.885766,40.901006]]]}},{"type":"Feature","properties":{"k":"tee"},"geometry":{"type":"Polygon","coordinates":[[[-73.888223,40.900349],[-73.888125,40.900272],[-73.888294,40.900122],[-73.888429,40.9002],[-73.888223,40.900349]]]}},{"type":"Feature","properties":{"k":"tee"},"geometry":{"type":"Polygon","coordinates":[[[-73.888793,40.899968],[-73.888824,40.89991],[-73.888765,40.899895],[-73.888734,40.899955],[-73.888793,40.899968]]]}},{"type":"Feature","properties":{"k":"bunker"},"geometry":{"type":"Polygon","coordinates":[[[-73.889447,40.898692],[-73.889439,40.898712],[-73.889446,40.898754],[-73.889428,40.898768],[-73.889396,40.898777],[-73.889376,40.898771],[-73.889363,40.898752],[-73.889395,40.898679],[-73.889388,40.898652],[-73.889394,40.898638],[-73.889428,40.898624],[-73.889453,40.898629],[-73.889461,40.898643],[-73.889447,40.898692]]]}},{"type":"Feature","properties":{"k":"green"},"geometry":{"type":"Polygon","coordinates":[[[-73.88948,40.897999],[-73.889514,40.897981],[-73.88956,40.897921],[-73.88956,40.897848],[-73.889532,40.897818],[-73.889482,40.897793],[-73.889436,40.897785],[-73.889373,40.897795],[-73.88933,40.897817],[-73.889299,40.89785],[-73.889287,40.89789],[-73.8893,40.897938],[-73.889324,40.897976],[-73.889397,40.898013],[-73.889441,40.898012],[-73.88948,40.897999]]]}},{"type":"Feature","properties":{"k":"bunker"},"geometry":{"type":"Polygon","coordinates":[[[-73.889261,40.898015],[-73.889268,40.897986],[-73.889226,40.897924],[-73.889225,40.897897],[-73.889212,40.89787],[-73.889198,40.89786],[-73.889158,40.897859],[-73.889136,40.897865],[-73.889126,40.897889],[-73.889127,40.897919],[-73.889174,40.898],[-73.889202,40.898025],[-73.889241,40.898028],[-73.889261,40.898015]]]}},{"type":"Feature","properties":{"k":"tee"},"geometry":{"type":"Polygon","coordinates":[[[-73.889841,40.897708],[-73.889746,40.897664],[-73.88985,40.897484],[-73.889961,40.897519],[-73.889841,40.897708]]]}},{"type":"Feature","properties":{"k":"green"},"geometry":{"type":"Polygon","coordinates":[[[-73.891215,40.894661],[-73.891196,40.894691],[-73.891158,40.894713],[-73.891107,40.894727],[-73.891056,40.894726],[-73.891004,40.894709],[-73.89096,40.894677],[-73.890925,40.894606],[-73.890929,40.894572],[-73.89096,40.894538],[-73.891007,40.894518],[-73.891069,40.894512],[-73.891126,40.894522],[-73.891186,40.894557],[-73.891212,40.894598],[-73.89122,40.89463],[-73.891215,40.894661]]]}},{"type":"Feature","properties":{"k":"fairway"},"geometry":{"type":"Polygon","coordinates":[[[-73.890937,40.894641],[-73.890954,40.894711],[-73.890947,40.89475],[-73.890923,40.894785],[-73.890772,40.894895],[-73.890674,40.894989],[-73.890592,40.895131],[-73.89054,40.895275],[-73.890516,40.895387],[-73.890416,40.895656],[-73.890197,40.895954],[-73.890131,40.896075],[-73.890103,40.89619],[-73.890104,40.89628],[-73.890134,40.896343],[-73.890194,40.896382],[-73.890253,40.89639],[-73.890312,40.89638],[-73.890362,40.896323],[-73.890414,40.896213],[-73.890563,40.895832],[-73.890691,40.89563],[-73.890869,40.895175],[-73.891044,40.894954],[-73.891084,40.894759],[-73.891158,40.894713],[-73.891107,40.894727],[-73.891056,40.894726],[-73.891004,40.894709],[-73.89096,40.894677],[-73.890937,40.894641]]]}},{"type":"Feature","properties":{"k":"bunker"},"geometry":{"type":"Polygon","coordinates":[[[-73.89088,40.894695],[-73.890888,40.894709],[-73.890885,40.894737],[-73.89087,40.894758],[-73.890839,40.894771],[-73.890786,40.894751],[-73.890751,40.894757],[-73.890717,40.89475],[-73.890693,40.894732],[-73.890704,40.894671],[-73.890741,40.894652],[-73.890794,40.894645],[-73.890848,40.894665],[-73.89088,40.894695]]]}},{"type":"Feature","properties":{"k":"path"},"geometry":{"type":"LineString","coordinates":[[-73.8862,40.90081],[-73.886049,40.900779],[-73.88596,40.900692],[-73.885929,40.900601],[-73.885696,40.900387],[-73.885422,40.900092],[-73.885335,40.900011],[-73.885182,40.899892]]}},{"type":"Feature","properties":{"k":"tee"},"geometry":{"type":"Polygon","coordinates":[[[-73.884128,40.90492],[-73.884085,40.904918],[-73.884087,40.904852],[-73.884145,40.904852],[-73.884128,40.90492]]]}},{"type":"Feature","properties":{"k":"path"},"geometry":{"type":"LineString","coordinates":[[-73.889421,40.89439],[-73.889254,40.894353],[-73.889179,40.894356],[-73.889112,40.894419],[-73.888933,40.89481],[-73.888841,40.89521],[-73.88887,40.895594],[-73.888758,40.895934],[-73.888787,40.896259],[-73.888645,40.896634],[-73.888166,40.897702],[-73.887895,40.89826],[-73.887649,40.898565],[-73.887519,40.898765],[-73.88747,40.898961],[-73.887479,40.8991],[-73.887507,40.899251],[-73.887614,40.899432],[-73.887704,40.899867],[-73.887659,40.900247],[-73.887481,40.900371],[-73.887214,40.900385],[-73.88693,40.900286],[-73.886721,40.900197]]}},{"type":"Feature","properties":{"k":"path"},"geometry":{"type":"LineString","coordinates":[[-73.885749,40.902153],[-73.885786,40.902026],[-73.886086,40.901545],[-73.886202,40.90118],[-73.886214,40.900896],[-73.886187,40.900735],[-73.886128,40.900581],[-73.885974,40.900404],[-73.885869,40.900315],[-73.885182,40.899892],[-73.885075,40.899819],[-73.885,40.899726],[-73.884886,40.899534],[-73.88485,40.899514],[-73.884804,40.899519],[-73.884753,40.899588],[-73.884748,40.899665],[-73.88478,40.899746],[-73.884769,40.899839],[-73.884667,40.900172],[-73.884603,40.900285],[-73.884522,40.900387],[-73.884479,40.900496],[-73.884463,40.90074],[-73.884415,40.901003],[-73.884388,40.901234],[-73.884415,40.901445],[-73.884506,40.901794],[-73.884506,40.901901]]}},{"type":"Feature","properties":{"k":"tee"},"geometry":{"type":"Polygon","coordinates":[[[-73.886591,40.899133],[-73.886621,40.899159],[-73.886622,40.899199],[-73.88659,40.899226],[-73.886557,40.89923],[-73.886423,40.899186],[-73.886405,40.899164],[-73.886402,40.899135],[-73.886425,40.899107],[-73.886452,40.899101],[-73.886591,40.899133]]]}},{"type":"Feature","properties":{"k":"tee"},"geometry":{"type":"Polygon","coordinates":[[[-73.88661,40.899091],[-73.886643,40.899095],[-73.886657,40.899079],[-73.886672,40.899023],[-73.886653,40.899004],[-73.886529,40.898968],[-73.886494,40.898967],[-73.886473,40.898993],[-73.886461,40.899036],[-73.886509,40.899069],[-73.88661,40.899091]]]}},{"type":"Feature","properties":{"k":"tee"},"geometry":{"type":"Polygon","coordinates":[[[-73.886634,40.898165],[-73.88658,40.898168],[-73.886579,40.898238],[-73.886626,40.89824],[-73.886634,40.898165]]]}},{"type":"Feature","properties":{"k":"fairway"},"geometry":{"type":"Polygon","coordinates":[[[-73.886904,40.897791],[-73.886835,40.897855],[-73.886753,40.897883],[-73.886704,40.897875],[-73.88667,40.897841],[-73.886658,40.897785],[-73.886694,40.897652],[-73.886752,40.897494],[-73.886705,40.897034],[-73.886714,40.896884],[-73.886795,40.896585],[-73.886854,40.896322],[-73.886932,40.896114],[-73.887086,40.895815],[-73.887144,40.895753],[-73.887189,40.895731],[-73.887236,40.895719],[-73.887299,40.895745],[-73.887364,40.895824],[-73.887374,40.895942],[-73.887351,40.896023],[-73.887319,40.896074],[-73.887252,40.896153],[-73.887166,40.896228],[-73.887168,40.896309],[-73.887216,40.896481],[-73.887231,40.896566],[-73.887199,40.896763],[-73.887122,40.896968],[-73.88709,40.897157],[-73.887091,40.897257],[-73.887075,40.897368],[-73.887032,40.89749],[-73.886904,40.897791]]]}},{"type":"Feature","properties":{"k":"fairway"},"geometry":{"type":"Polygon","coordinates":[[[-73.887621,40.894655],[-73.887669,40.894705],[-73.887759,40.894736],[-73.887805,40.894726],[-73.887848,40.894702],[-73.887795,40.894782],[-73.887747,40.894891],[-73.887668,40.89531],[-73.887618,40.895403],[-73.887534,40.895484],[-73.887457,40.895506],[-73.887409,40.895501],[-73.887345,40.895472],[-73.887319,40.895441],[-73.887315,40.895392],[-73.887357,40.895252],[-73.887512,40.894878],[-73.887605,40.894767],[-73.887624,40.894707],[-73.887621,40.894655]]]}},{"type":"Feature","properties":{"k":"green"},"geometry":{"type":"Polygon","coordinates":[[[-73.887848,40.894702],[-73.887884,40.894659],[-73.887901,40.894594],[-73.887899,40.894542],[-73.887856,40.894499],[-73.887798,40.894479],[-73.887716,40.894489],[-73.887652,40.894518],[-73.887609,40.894556],[-73.887602,40.894607],[-73.887621,40.894655],[-73.887669,40.894705],[-73.887759,40.894736],[-73.887805,40.894726],[-73.887848,40.894702]]]}},{"type":"Feature","properties":{"k":"bunker"},"geometry":{"type":"Polygon","coordinates":[[[-73.887574,40.894745],[-73.887585,40.89473],[-73.887586,40.894699],[-73.887567,40.894637],[-73.887552,40.894627],[-73.887535,40.894626],[-73.887513,40.894636],[-73.887507,40.894658],[-73.887527,40.894743],[-73.887564,40.894762],[-73.887574,40.894756],[-73.887574,40.894745]]]}},{"type":"Feature","properties":{"k":"green"},"geometry":{"type":"Polygon","coordinates":[[[-73.887418,40.899484],[-73.88745,40.899517],[-73.887464,40.899557],[-73.887453,40.899595],[-73.887413,40.899628],[-73.88736,40.899647],[-73.887305,40.899651],[-73.887252,40.899642],[-73.887203,40.899605],[-73.887196,40.899572],[-73.887206,40.899539],[-73.887239,40.89951],[-73.887344,40.899465],[-73.887389,40.899465],[-73.887418,40.899484]]]}},{"type":"Feature","properties":{"k":"fairway"},"geometry":{"type":"Polygon","coordinates":[[[-73.88726,40.899499],[-73.887344,40.899465],[-73.887389,40.899465],[-73.887432,40.899499],[-73.887413,40.899454],[-73.887429,40.899386],[-73.887426,40.899321],[-73.887411,40.899283],[-73.887384,40.899255],[-73.887346,40.899239],[-73.887314,40.899238],[-73.88728,40.899247],[-73.887255,40.899271],[-73.88725,40.899306],[-73.887257,40.899356],[-73.887283,40.899412],[-73.887289,40.899462],[-73.88726,40.899499]]]}},{"type":"Feature","properties":{"k":"tee"},"geometry":{"type":"Polygon","coordinates":[[[-73.887436,40.898545],[-73.88743,40.89859],[-73.887529,40.898603],[-73.887543,40.898579],[-73.887543,40.898554],[-73.887436,40.898545]]]}},{"type":"Feature","properties":{"k":"tee"},"geometry":{"type":"Polygon","coordinates":[[[-73.887572,40.898477],[-73.887592,40.898466],[-73.887659,40.898318],[-73.887646,40.898293],[-73.887539,40.89826],[-73.88751,40.898264],[-73.887435,40.898425],[-73.887445,40.898442],[-73.887572,40.898477]]]}},{"type":"Feature","properties":{"k":"tee"},"geometry":{"type":"Polygon","coordinates":[[[-73.8876,40.898148],[-73.88759,40.898211],[-73.887541,40.898205],[-73.887557,40.898147],[-73.8876,40.898148]]]}},{"type":"Feature","properties":{"k":"green"},"geometry":{"type":"Polygon","coordinates":[[[-73.887915,40.89804],[-73.887872,40.898065],[-73.887814,40.898069],[-73.887758,40.898056],[-73.887716,40.898035],[-73.887698,40.898012],[-73.887692,40.897976],[-73.887705,40.897937],[-73.887734,40.8979],[-73.88781,40.897871],[-73.887856,40.897876],[-73.887896,40.897902],[-73.88792,40.897934],[-73.887928,40.897979],[-73.887915,40.89804]]]}},{"type":"Feature","properties":{"k":"fairway"},"geometry":{"type":"Polygon","coordinates":[[[-73.887734,40.8979],[-73.887767,40.897818],[-73.887793,40.897657],[-73.887784,40.897602],[-73.887801,40.897407],[-73.887843,40.897302],[-73.887951,40.897119],[-73.888003,40.896998],[-73.888058,40.896737],[-73.888166,40.896392],[-73.888196,40.896255],[-73.888248,40.89612],[-73.888345,40.895927],[-73.888402,40.895782],[-73.888445,40.895557],[-73.888481,40.895499],[-73.888531,40.895448],[-73.888571,40.895426],[-73.888621,40.895418],[-73.888677,40.895427],[-73.88872,40.895452],[-73.888742,40.895494],[-73.888751,40.895557],[-73.888735,40.895658],[-73.887947,40.897894],[-73.887928,40.897979],[-73.88792,40.897934],[-73.887896,40.897902],[-73.887856,40.897876],[-73.88781,40.897871],[-73.887734,40.8979]]]}},{"type":"Feature","properties":{"k":"tee"},"geometry":{"type":"Polygon","coordinates":[[[-73.888962,40.894539],[-73.888931,40.894601],[-73.888827,40.894583],[-73.888855,40.894519],[-73.888962,40.894539]]]}},{"type":"Feature","properties":{"k":"tee"},"geometry":{"type":"Polygon","coordinates":[[[-73.888917,40.89437],[-73.889017,40.894183],[-73.889123,40.89421],[-73.889025,40.894403],[-73.888917,40.89437]]]}},{"type":"Feature","properties":{"k":"tee"},"geometry":{"type":"Polygon","coordinates":[[[-73.887293,40.894309],[-73.887363,40.894218],[-73.887378,40.894157],[-73.887366,40.894126],[-73.887327,40.894123],[-73.887277,40.894157],[-73.887224,40.894256],[-73.887218,40.894296],[-73.887241,40.894318],[-73.887293,40.894309]]]}},{"type":"Feature","properties":{"k":"tee"},"geometry":{"type":"Polygon","coordinates":[[[-73.887501,40.891635],[-73.887449,40.89163],[-73.887441,40.8917],[-73.887505,40.891699],[-73.887501,40.891635]]]}},{"type":"Feature","properties":{"k":"tee"},"geometry":{"type":"Polygon","coordinates":[[[-73.888378,40.894296],[-73.888118,40.894341],[-73.88822,40.89462],[-73.888247,40.894631],[-73.888294,40.894611],[-73.888445,40.89436],[-73.888444,40.894316],[-73.888378,40.894296]]]}},{"type":"Feature","properties":{"k":"green"},"geometry":{"type":"Polygon","coordinates":[[[-73.888032,40.893285],[-73.887975,40.89332],[-73.887891,40.89333],[-73.887846,40.89332],[-73.887788,40.893285],[-73.887765,40.893235],[-73.887773,40.893191],[-73.887795,40.893153],[-73.887842,40.893131],[-73.887905,40.893123],[-73.887961,40.893128],[-73.888011,40.893148],[-73.888059,40.893199],[-73.888063,40.893247],[-73.888032,40.893285]]]}},{"type":"Feature","properties":{"k":"fairway"},"geometry":{"type":"Polygon","coordinates":[[[-73.887846,40.89332],[-73.887867,40.893348],[-73.887895,40.893419],[-73.887937,40.893451],[-73.888001,40.893463],[-73.888051,40.893453],[-73.888099,40.89343],[-73.888125,40.893394],[-73.888102,40.893344],[-73.888066,40.893294],[-73.888063,40.893247],[-73.888032,40.893285],[-73.887975,40.89332],[-73.887891,40.89333],[-73.887846,40.89332]]]}},{"type":"Feature","properties":{"k":"tee"},"geometry":{"type":"Polygon","coordinates":[[[-73.888777,40.893824],[-73.888736,40.893834],[-73.888703,40.893743],[-73.888747,40.89373],[-73.888777,40.893824]]]}},{"type":"Feature","properties":{"k":"fairway"},"geometry":{"type":"Polygon","coordinates":[[[-73.888703,40.893607],[-73.888701,40.893621],[-73.888674,40.893635],[-73.888635,40.893636],[-73.888609,40.893626],[-73.88855,40.89352],[-73.888536,40.893474],[-73.888537,40.893456],[-73.88856,40.89344],[-73.888652,40.893434],[-73.88869,40.893446],[-73.888703,40.893607]]]}},{"type":"Feature","properties":{"k":"tee"},"geometry":{"type":"Polygon","coordinates":[[[-73.8882,40.893019],[-73.888151,40.893025],[-73.888131,40.892948],[-73.888191,40.89294],[-73.8882,40.893019]]]}},{"type":"Feature","properties":{"k":"fairway"},"geometry":{"type":"Polygon","coordinates":[[[-73.888165,40.890797],[-73.888255,40.890793],[-73.888308,40.890775],[-73.888296,40.890842],[-73.888353,40.891097],[-73.888351,40.891214],[-73.888335,40.891315],[-73.888232,40.891555],[-73.888139,40.891702],[-73.88811,40.891772],[-73.888105,40.891898],[-73.888161,40.892006],[-73.888206,40.892066],[-73.88828,40.892198],[-73.888296,40.892251],[-73.888268,40.892305],[-73.888201,40.892351],[-73.888114,40.892351],[-73.888059,40.892326],[-73.888031,40.892265],[-73.88797,40.892072],[-73.887952,40.891971],[-73.887956,40.891749],[-73.88798,40.891502],[-73.888009,40.891334],[-73.888164,40.89089],[-73.888165,40.890797]]]}},{"type":"Feature","properties":{"k":"green"},"geometry":{"type":"Polygon","coordinates":[[[-73.888308,40.890775],[-73.888361,40.890723],[-73.888374,40.890646],[-73.888355,40.890602],[-73.888307,40.890581],[-73.888226,40.890583],[-73.888168,40.890614],[-73.888136,40.890674],[-73.888127,40.890744],[-73.888133,40.890774],[-73.888165,40.890797],[-73.888189,40.890799],[-73.888255,40.890793],[-73.888308,40.890775]]]}},{"type":"Feature","properties":{"k":"tee"},"geometry":{"type":"Polygon","coordinates":[[[-73.886145,40.895577],[-73.886131,40.895643],[-73.886078,40.895637],[-73.886086,40.895571],[-73.886145,40.895577]]]}},{"type":"Feature","properties":{"k":"bunker"},"geometry":{"type":"Polygon","coordinates":[[[-73.88724,40.899444],[-73.88725,40.899484],[-73.887223,40.899503],[-73.887172,40.8995],[-73.887151,40.899486],[-73.887153,40.899467],[-73.88713,40.899443],[-73.887121,40.899418],[-73.887131,40.899395],[-73.887146,40.899391],[-73.887178,40.899398],[-73.887189,40.899434],[-73.88724,40.899444]]]}},{"type":"Feature","properties":{"k":"fairway"},"geometry":{"type":"Polygon","coordinates":[[[-73.884431,40.904104],[-73.884423,40.904201],[-73.884389,40.90428],[-73.884333,40.904345],[-73.884248,40.904371],[-73.884203,40.904371],[-73.88414,40.90432],[-73.884116,40.904269],[-73.884123,40.904187],[-73.884143,40.904119],[-73.884175,40.904057],[-73.884242,40.904008],[-73.884305,40.904003],[-73.884375,40.904023],[-73.88441,40.904057],[-73.884431,40.904104]]]}},{"type":"Feature","properties":{"k":"path"},"geometry":{"type":"LineString","coordinates":[[-73.888018,40.890993],[-73.888008,40.890895],[-73.88782,40.890805],[-73.887828,40.89072],[-73.887957,40.890564]]}},{"type":"Feature","properties":{"k":"path"},"geometry":{"type":"LineString","coordinates":[[-73.888423,40.893512],[-73.888243,40.893352],[-73.888199,40.893293],[-73.888177,40.89321],[-73.888133,40.893119],[-73.888089,40.892964],[-73.887932,40.892153],[-73.8879,40.892069],[-73.887897,40.891617],[-73.887952,40.891306],[-73.888026,40.891083],[-73.888018,40.890993]]}},{"type":"Feature","properties":{"k":"path"},"geometry":{"type":"LineString","coordinates":[[-73.887828,40.89072],[-73.88761,40.891047],[-73.887441,40.891332],[-73.887598,40.891774],[-73.887616,40.892019],[-73.887599,40.892443],[-73.88763,40.892623],[-73.887568,40.892908],[-73.887488,40.893051],[-73.887446,40.893159],[-73.887442,40.893334],[-73.887383,40.893538],[-73.88732,40.894002],[-73.887146,40.894349],[-73.887044,40.894519],[-73.886951,40.894723],[-73.886514,40.895257],[-73.886409,40.895333],[-73.886262,40.8955],[-73.885986,40.895529]]}},{"type":"Feature","properties":{"k":"wood"},"geometry":{"type":"Polygon","coordinates":[[[-73.885587,40.894211],[-73.886479,40.892584],[-73.886875,40.89183],[-73.88755,40.890806],[-73.887526,40.891052],[-73.887188,40.891596],[-73.887006,40.892005],[-73.88703,40.892331],[-73.886859,40.892577],[-73.886713,40.893634],[-73.886668,40.894092],[-73.8869,40.894144],[-73.88705,40.894082],[-73.887148,40.893981],[-73.887217,40.894021],[-73.887038,40.894337],[-73.886827,40.894417],[-73.886363,40.89462],[-73.886115,40.894949],[-73.885847,40.895782],[-73.885448,40.896738],[-73.88516,40.897586],[-73.88494,40.89813],[-73.885107,40.898714],[-73.885485,40.899264],[-73.885798,40.899273],[-73.886054,40.899239],[-73.886188,40.899344],[-73.886038,40.899694],[-73.885823,40.899709],[-73.885481,40.899439],[-73.885188,40.899073],[-73.884948,40.898578],[-73.884766,40.898071],[-73.884615,40.897457],[-73.884696,40.896652],[-73.88481,40.895957],[-73.885066,40.895195],[-73.885587,40.894211]]]}},{"type":"Feature","properties":{"k":"wood"},"geometry":{"type":"Polygon","coordinates":[[[-73.887682,40.900355],[-73.888042,40.900184],[-73.888664,40.899012],[-73.889061,40.898214],[-73.889061,40.89791],[-73.88912,40.897707],[-73.88942,40.897618],[-73.889565,40.897338],[-73.889807,40.896247],[-73.890048,40.895602],[-73.89022,40.895193],[-73.890472,40.894832],[-73.89059,40.894609],[-73.890021,40.894585],[-73.889823,40.894532],[-73.889276,40.894443],[-73.889136,40.894491],[-73.888991,40.894937],[-73.888997,40.895481],[-73.888895,40.895967],[-73.888846,40.89643],[-73.888197,40.898096],[-73.88779,40.898619],[-73.88764,40.898903],[-73.887741,40.899175],[-73.88779,40.899459],[-73.887768,40.899767],[-73.887682,40.900355]]]}},{"type":"Feature","properties":{"k":"wood"},"geometry":{"type":"Polygon","coordinates":[[[-73.887865,40.895705],[-73.88797,40.895472],[-73.888235,40.89481],[-73.888357,40.894657],[-73.888479,40.894817],[-73.888877,40.894067],[-73.888971,40.894123],[-73.888898,40.894295],[-73.888536,40.895004],[-73.888186,40.895472],[-73.888113,40.895638],[-73.888231,40.895782],[-73.888288,40.895877],[-73.88819,40.896114],[-73.888011,40.896283],[-73.888076,40.896566],[-73.88793,40.896977],[-73.887703,40.897303],[-73.887723,40.897595],[-73.887633,40.897789],[-73.88756,40.897912],[-73.887475,40.898022],[-73.887455,40.898151],[-73.887243,40.898781],[-73.887032,40.899374],[-73.887036,40.899722],[-73.887345,40.899817],[-73.88754,40.899842],[-73.887572,40.899977],[-73.887471,40.900244],[-73.887263,40.900355],[-73.887064,40.900309],[-73.887052,40.90013],[-73.886792,40.900118],[-73.886617,40.900035],[-73.886507,40.899992],[-73.886637,40.899522],[-73.886694,40.899208],[-73.886869,40.898867],[-73.886918,40.898523],[-73.88717,40.897942],[-73.887186,40.897537],[-73.887345,40.897266],[-73.887332,40.897076],[-73.887365,40.89695],[-73.887507,40.896209],[-73.887715,40.896086],[-73.887788,40.895948],[-73.887865,40.895705]]]}},{"type":"Feature","properties":{"k":"path"},"geometry":{"type":"LineString","coordinates":[[-73.887441,40.891332],[-73.88712,40.891788],[-73.887022,40.892078],[-73.886994,40.892235],[-73.886808,40.892704],[-73.886764,40.892836],[-73.886688,40.893122],[-73.886658,40.89333],[-73.886628,40.893945],[-73.886623,40.894433],[-73.88657,40.894589],[-73.886189,40.895259],[-73.885946,40.895583],[-73.885824,40.895909],[-73.885686,40.896384],[-73.885573,40.896885],[-73.885456,40.897158],[-73.885322,40.897506],[-73.885073,40.898227],[-73.885105,40.89842],[-73.885187,40.898667],[-73.885291,40.898896],[-73.885464,40.899122],[-73.885538,40.89917],[-73.885657,40.899201],[-73.885803,40.899224],[-73.886034,40.899226],[-73.88616,40.899261],[-73.886327,40.899355],[-73.886404,40.899444]]}},{"type":"Feature","properties":{"k":"path"},"geometry":{"type":"LineString","coordinates":[[-73.886591,40.899674],[-73.886636,40.89957],[-73.886621,40.899525],[-73.886588,40.89949],[-73.886529,40.89946],[-73.886404,40.899444]]}}]}