{"type":"FeatureCollection","features":[{"type":"Feature","properties":{"k":"hole","ref":"5 Beach","par":3},"geometry":{"type":"LineString","coordinates":[[-155.884643,19.926476],[-155.884914,19.92807]]}},{"type":"Feature","properties":{"k":"hole","ref":"9 Beach","par":5},"geometry":{"type":"LineString","coordinates":[[-155.881108,19.925787],[-155.878787,19.925027],[-155.876805,19.923337]]}},{"type":"Feature","properties":{"k":"hole","ref":"6 Beach","par":5},"geometry":{"type":"LineString","coordinates":[[-155.884991,19.929353],[-155.887125,19.930062],[-155.888635,19.929059]]}},{"type":"Feature","properties":{"k":"hole","ref":"7 Beach","par":3},"geometry":{"type":"LineString","coordinates":[[-155.887143,19.929108],[-155.885494,19.928953]]}},{"type":"Feature","properties":{"k":"bunker"},"geometry":{"type":"Polygon","coordinates":[[[-155.886832,19.929786],[-155.886822,19.929776],[-155.886822,19.929743],[-155.886792,19.92973],[-155.886762,19.929727],[-155.886726,19.929746],[-155.886715,19.929771],[-155.886724,19.929799],[-155.886793,19.929817],[-155.8868,19.929834],[-155.886779,19.929876],[-155.886776,19.929899],[-155.886786,19.92992],[-155.886819,19.929932],[-155.886859,19.929931],[-155.886883,19.929916],[-155.886891,19.92989],[-155.886857,19.929841],[-155.886862,19.929829],[-155.886923,19.929813],[-155.886927,19.929777],[-155.886914,19.929761],[-155.886893,19.929755],[-155.886876,19.929759],[-155.886856,19.929782],[-155.886832,19.929786]]]}},{"type":"Feature","properties":{"k":"bunker"},"geometry":{"type":"Polygon","coordinates":[[[-155.887334,19.930202],[-155.887321,19.930194],[-155.887321,19.93017],[-155.887314,19.930159],[-155.887274,19.930149],[-155.887239,19.930158],[-155.887227,19.930183],[-155.887236,19.930211],[-155.887256,19.930227],[-155.887261,19.930251],[-155.887251,19.93027],[-155.887234,19.930271],[-155.887204,19.930298],[-155.887198,19.93032],[-155.887202,19.930345],[-155.887226,19.930354],[-155.887259,19.930348],[-155.887289,19.930318],[-155.887315,19.930325],[-155.887334,19.930316],[-155.887344,19.930303],[-155.887344,19.930282],[-155.887333,19.930268],[-155.887339,19.930253],[-155.887352,19.930245],[-155.887381,19.930249],[-155.887397,19.930239],[-155.8874,19.930222],[-155.887374,19.930198],[-155.887334,19.930202]]]}},{"type":"Feature","properties":{"k":"bunker"},"geometry":{"type":"Polygon","coordinates":[[[-155.888574,19.928937],[-155.888576,19.928897],[-155.888558,19.928881],[-155.888533,19.928874],[-155.888507,19.928879],[-155.888479,19.92891],[-155.88846,19.92891],[-155.888454,19.928901],[-155.888458,19.928889],[-155.888433,19.92887],[-155.888405,19.928874],[-155.888385,19.928896],[-155.888373,19.928928],[-155.888388,19.92894],[-155.888427,19.928944],[-155.888449,19.928938],[-155.888459,19.928953],[-155.888481,19.928965],[-155.888502,19.928956],[-155.888515,19.928938],[-155.888543,19.928949],[-155.888558,19.928948],[-155.888574,19.928937]]]}},{"type":"Feature","properties":{"k":"bunker"},"geometry":{"type":"Polygon","coordinates":[[[-155.888733,19.928943],[-155.888745,19.928915],[-155.888733,19.928887],[-155.888708,19.928873],[-155.888685,19.928875],[-155.888641,19.928904],[-155.888615,19.928905],[-155.888609,19.928919],[-155.88861,19.928941],[-155.88863,19.928947],[-155.888652,19.928941],[-155.888686,19.928959],[-155.888717,19.928955],[-155.888733,19.928943]]]}},{"type":"Feature","properties":{"k":"bunker"},"geometry":{"type":"Polygon","coordinates":[[[-155.888518,19.929163],[-155.88853,19.929144],[-155.88853,19.92912],[-155.888523,19.929111],[-155.888483,19.9291],[-155.888448,19.929109],[-155.888435,19.929129],[-155.888436,19.929157],[-155.888455,19.929177],[-155.888481,19.929182],[-155.888518,19.929163]]]}},{"type":"Feature","properties":{"k":"bunker"},"geometry":{"type":"Polygon","coordinates":[[[-155.882698,19.925725],[-155.882724,19.925708],[-155.882725,19.925658],[-155.882686,19.92559],[-155.882647,19.925575],[-155.88263,19.925603],[-155.882624,19.925634],[-155.882645,19.925655],[-155.882657,19.925713],[-155.882698,19.925725]]]}},{"type":"Feature","properties":{"k":"bunker"},"geometry":{"type":"Polygon","coordinates":[[[-155.885696,19.92882],[-155.88571,19.9288],[-155.885695,19.928782],[-155.885678,19.928777],[-155.885678,19.92875],[-155.885665,19.928712],[-155.885641,19.928696],[-155.885611,19.928705],[-155.8856,19.928747],[-155.885628,19.928753],[-155.885642,19.928769],[-155.885645,19.928818],[-155.885674,19.928824],[-155.885696,19.92882]]]}},{"type":"Feature","properties":{"k":"bunker"},"geometry":{"type":"Polygon","coordinates":[[[-155.885731,19.92913],[-155.885758,19.929108],[-155.885732,19.929082],[-155.885733,19.929067],[-155.885747,19.929053],[-155.885746,19.92903],[-155.885729,19.929014],[-155.885695,19.929018],[-155.885684,19.929033],[-155.885687,19.929058],[-155.88566,19.929072],[-155.885652,19.929087],[-155.885654,19.929107],[-155.885678,19.929116],[-155.88569,19.929137],[-155.885675,19.929155],[-155.885676,19.929168],[-155.885695,19.929179],[-155.885722,19.929178],[-155.885734,19.929161],[-155.885731,19.92913]]]}},{"type":"Feature","properties":{"k":"bunker"},"geometry":{"type":"Polygon","coordinates":[[[-155.884846,19.927943],[-155.884839,19.927921],[-155.884823,19.927912],[-155.884828,19.927895],[-155.884855,19.927872],[-155.884852,19.927845],[-155.884825,19.927824],[-155.884807,19.927831],[-155.884783,19.927855],[-155.884792,19.92787],[-155.884757,19.927868],[-155.884731,19.927874],[-155.884726,19.9279],[-155.884742,19.927916],[-155.884773,19.927916],[-155.884786,19.927931],[-155.884787,19.927963],[-155.884827,19.927968],[-155.884846,19.927943]]]}},{"type":"Feature","properties":{"k":"bunker"},"geometry":{"type":"Polygon","coordinates":[[[-155.885086,19.928016],[-155.885075,19.92797],[-155.885053,19.927958],[-155.885026,19.927961],[-155.885008,19.927972],[-155.885012,19.928017],[-155.885034,19.928037],[-155.88506,19.928042],[-155.885084,19.928029],[-155.885086,19.928016]]]}},{"type":"Feature","properties":{"k":"path"},"geometry":{"type":"LineString","coordinates":[[-155.885068,19.928915],[-155.885163,19.929062],[-155.885235,19.929136],[-155.885303,19.929191],[-155.885374,19.929228],[-155.885557,19.929277],[-155.885653,19.929288],[-155.885735,19.929272],[-155.885848,19.929229]]}},{"type":"Feature","properties":{"k":"path"},"geometry":{"type":"LineString","coordinates":[[-155.885869,19.929747],[-155.885652,19.929572],[-155.885536,19.929488],[-155.885149,19.929261],[-155.885114,19.929233],[-155.885079,19.929188],[-155.885088,19.929019],[-155.885068,19.928915],[-155.885044,19.928831],[-155.884998,19.928722],[-155.884723,19.928493],[-155.884719,19.928309],[-155.884726,19.928196],[-155.884695,19.928046],[-155.884613,19.927235],[-155.884622,19.927155],[-155.884617,19.927106],[-155.88464,19.92704],[-155.88469,19.926962],[-155.884732,19.926876],[-155.884736,19.926777],[-155.884761,19.926689],[-155.884798,19.926605],[-155.88479,19.926499],[-155.884748,19.926385],[-155.88469,19.926342],[-155.884554,19.926284],[-155.88453,19.926238],[-155.884514,19.926011],[-155.884494,19.925945],[-155.884456,19.92587],[-155.884445,19.92576],[-155.884452,19.925653],[-155.884495,19.925549]]}},{"type":"Feature","properties":{"k":"path"},"geometry":{"type":"LineString","coordinates":[[-155.886563,19.929053],[-155.886851,19.928956],[-155.887073,19.928931],[-155.88732,19.928994],[-155.887468,19.928985],[-155.887609,19.928931],[-155.88794,19.928753],[-155.888056,19.928674],[-155.888117,19.928663],[-155.888178,19.928683],[-155.888228,19.928717],[-155.888251,19.928753],[-155.888247,19.928794],[-155.888205,19.928853]]}},{"type":"Feature","properties":{"k":"path"},"geometry":{"type":"LineString","coordinates":[[-155.880229,19.92546],[-155.880287,19.925485],[-155.880342,19.925486],[-155.880434,19.925464],[-155.880507,19.925467],[-155.880954,19.925608],[-155.881232,19.925688],[-155.882009,19.925845],[-155.882206,19.925858],[-155.882311,19.925932],[-155.882434,19.925977],[-155.882533,19.925992]]}},{"type":"Feature","properties":{"k":"bunker"},"geometry":{"type":"Polygon","coordinates":[[[-155.88395,19.926291],[-155.883977,19.926275],[-155.883998,19.926241],[-155.883988,19.926203],[-155.883953,19.926192],[-155.883922,19.926194],[-155.883916,19.926179],[-155.883926,19.926158],[-155.883947,19.926145],[-155.883954,19.926112],[-155.883938,19.926079],[-155.8839,19.926067],[-155.883869,19.926084],[-155.883864,19.926108],[-155.883879,19.926143],[-155.883845,19.926183],[-155.883855,19.926209],[-155.883876,19.926225],[-155.883904,19.926228],[-155.883901,19.926247],[-155.883883,19.926259],[-155.883885,19.926283],[-155.883917,19.926299],[-155.88395,19.926291]]]}},{"type":"Feature","properties":{"k":"bunker"},"geometry":{"type":"Polygon","coordinates":[[[-155.883099,19.925843],[-155.883126,19.925827],[-155.883139,19.925781],[-155.883105,19.925767],[-155.88309,19.925772],[-155.883077,19.925765],[-155.883096,19.925702],[-155.883086,19.925685],[-155.883055,19.925681],[-155.88304,19.925722],[-155.883029,19.925731],[-155.883016,19.925728],[-155.883009,19.925698],[-155.882978,19.925707],[-155.882957,19.925731],[-155.882973,19.92576],[-155.882998,19.925777],[-155.88302,19.925769],[-155.883047,19.925774],[-155.883059,19.925832],[-155.883078,19.925849],[-155.883099,19.925843]]]}},{"type":"Feature","properties":{"k":"bunker"},"geometry":{"type":"Polygon","coordinates":[[[-155.883947,19.92678],[-155.883945,19.926746],[-155.88391,19.926722],[-155.88391,19.926708],[-155.883937,19.926682],[-155.883937,19.92667],[-155.883925,19.926654],[-155.883887,19.926661],[-155.883896,19.926628],[-155.883892,19.926608],[-155.883875,19.926595],[-155.883846,19.926595],[-155.883814,19.926628],[-155.88381,19.926661],[-155.88383,19.926671],[-155.883843,19.926698],[-155.883831,19.926717],[-155.883802,19.926719],[-155.883779,19.926693],[-155.883755,19.92669],[-155.883729,19.9267],[-155.88372,19.926719],[-155.883722,19.926739],[-155.883759,19.926762],[-155.883763,19.926777],[-155.88375,19.926792],[-155.883754,19.926807],[-155.883765,19.926822],[-155.883784,19.926829],[-155.883807,19.926822],[-155.883815,19.926797],[-155.883808,19.926773],[-155.883822,19.92676],[-155.883847,19.926757],[-155.883868,19.926768],[-155.883886,19.926792],[-155.883926,19.926797],[-155.883947,19.92678]]]}},{"type":"Feature","properties":{"k":"path"},"geometry":{"type":"LineString","coordinates":[[-155.884723,19.928493],[-155.884532,19.928378],[-155.884362,19.928293],[-155.884314,19.928235],[-155.88427,19.927841],[-155.884228,19.927791],[-155.884156,19.927729],[-155.884133,19.927688]]}},{"type":"Feature","properties":{"k":"tee"},"geometry":{"type":"Polygon","coordinates":[[[-155.884382,19.928109],[-155.884389,19.928174],[-155.884422,19.928217],[-155.884472,19.928228],[-155.884533,19.928203],[-155.884547,19.928129],[-155.884533,19.927991],[-155.88449,19.927943],[-155.884422,19.927951],[-155.884386,19.927985],[-155.884382,19.928109]]]}},{"type":"Feature","properties":{"k":"tee"},"geometry":{"type":"Polygon","coordinates":[[[-155.884201,19.92765],[-155.884232,19.927646],[-155.884262,19.927621],[-155.88426,19.927581],[-155.884234,19.927528],[-155.88419,19.927525],[-155.884157,19.927543],[-155.884145,19.927575],[-155.884162,19.927633],[-155.884201,19.92765]]]}},{"type":"Feature","properties":{"k":"fairway"},"geometry":{"type":"Polygon","coordinates":[[[-155.884003,19.927195],[-155.884175,19.927287],[-155.88424,19.927314],[-155.884316,19.927299],[-155.884369,19.927254],[-155.884381,19.927179],[-155.884351,19.927064],[-155.884311,19.926976],[-155.88429,19.926894],[-155.884251,19.92679],[-155.884237,19.926713],[-155.884211,19.92663],[-155.8842,19.926552],[-155.884132,19.926455],[-155.884046,19.926386],[-155.883845,19.92634],[-155.883797,19.926295],[-155.88376,19.926227],[-155.883728,19.926189],[-155.883593,19.926152],[-155.883513,19.926118],[-155.883332,19.925986],[-155.88321,19.925911],[-155.883139,19.925897],[-155.883098,19.925898],[-155.883065,19.925911],[-155.883009,19.925904],[-155.882887,19.925809],[-155.882834,19.925783],[-155.882707,19.925764],[-155.882664,19.925744],[-155.882521,19.925621],[-155.882452,19.925597],[-155.882392,19.925608],[-155.882335,19.925694],[-155.88234,19.92573],[-155.882331,19.925764],[-155.882396,19.925827],[-155.882465,19.925848],[-155.882568,19.925864],[-155.882658,19.925905],[-155.882677,19.925974],[-155.882711,19.926038],[-155.88281,19.926095],[-155.883024,19.926157],[-155.883127,19.926196],[-155.883353,19.926316],[-155.883717,19.926495],[-155.883886,19.92661],[-155.883947,19.926684],[-155.883966,19.927071],[-155.883975,19.92714],[-155.884003,19.927195]]]}},{"type":"Feature","properties":{"k":"green"},"geometry":{"type":"Polygon","coordinates":[[[-155.882476,19.925771],[-155.882541,19.925789],[-155.882581,19.925775],[-155.882602,19.925742],[-155.88254,19.925654],[-155.882482,19.925621],[-155.882431,19.925621],[-155.882393,19.925653],[-155.882384,19.925735],[-155.882396,19.92576],[-155.882476,19.925771]]]}},{"type":"Feature","properties":{"k":"tee"},"geometry":{"type":"Polygon","coordinates":[[[-155.884559,19.926559],[-155.88458,19.926637],[-155.884609,19.926677],[-155.884664,19.926687],[-155.884703,19.92666],[-155.8847,19.926525],[-155.88469,19.926446],[-155.884638,19.926422],[-155.884575,19.926444],[-155.884559,19.926559]]]}},{"type":"Feature","properties":{"k":"tee"},"geometry":{"type":"Polygon","coordinates":[[[-155.884833,19.926829],[-155.884921,19.926822],[-155.884908,19.926665],[-155.884819,19.926672],[-155.884833,19.926829]]]}},{"type":"Feature","properties":{"k":"tee"},"geometry":{"type":"Polygon","coordinates":[[[-155.884744,19.927029],[-155.884758,19.927077],[-155.884776,19.927096],[-155.884827,19.927113],[-155.884878,19.927099],[-155.884897,19.927081],[-155.884914,19.92703],[-155.884908,19.927003],[-155.884893,19.92698],[-155.88487,19.926963],[-155.884842,19.926954],[-155.884813,19.926955],[-155.884786,19.926964],[-155.884764,19.926982],[-155.884744,19.927029]]]}},{"type":"Feature","properties":{"k":"green"},"geometry":{"type":"Polygon","coordinates":[[[-155.884867,19.928151],[-155.884917,19.928171],[-155.884972,19.928171],[-155.884987,19.928129],[-155.884972,19.928072],[-155.884943,19.928018],[-155.884951,19.92794],[-155.884964,19.927893],[-155.884938,19.927864],[-155.884898,19.927861],[-155.884885,19.927908],[-155.884883,19.927979],[-155.884833,19.928055],[-155.884823,19.928094],[-155.884833,19.928134],[-155.884867,19.928151]]]}},{"type":"Feature","properties":{"k":"green"},"geometry":{"type":"Polygon","coordinates":[[[-155.885552,19.929021],[-155.885648,19.928962],[-155.885672,19.92894],[-155.885668,19.928912],[-155.885617,19.928903],[-155.885564,19.92891],[-155.885456,19.928892],[-155.885404,19.928896],[-155.885385,19.92894],[-155.885399,19.928973],[-155.885454,19.929021],[-155.885479,19.929042],[-155.885509,19.929047],[-155.885552,19.929021]]]}},{"type":"Feature","properties":{"k":"tee"},"geometry":{"type":"Polygon","coordinates":[[[-155.887088,19.929158],[-155.887141,19.929173],[-155.88718,19.929164],[-155.887202,19.929132],[-155.887202,19.929095],[-155.887166,19.929066],[-155.887078,19.929053],[-155.887031,19.929064],[-155.887017,19.929095],[-155.887025,19.92913],[-155.887056,19.929151],[-155.887088,19.929158]]]}},{"type":"Feature","properties":{"k":"tee"},"geometry":{"type":"Polygon","coordinates":[[[-155.886852,19.92911],[-155.88692,19.92913],[-155.886964,19.92913],[-155.886985,19.929108],[-155.886991,19.929069],[-155.88696,19.92904],[-155.886895,19.929029],[-155.886854,19.92903],[-155.88684,19.929084],[-155.886852,19.92911]]]}},{"type":"Feature","properties":{"k":"tee"},"geometry":{"type":"Polygon","coordinates":[[[-155.88669,19.929158],[-155.886741,19.929164],[-155.886787,19.929147],[-155.886793,19.92911],[-155.886769,19.929071],[-155.886716,19.929056],[-155.886671,19.929062],[-155.886612,19.92911],[-155.886621,19.92914],[-155.88669,19.929158]]]}},{"type":"Feature","properties":{"k":"green"},"geometry":{"type":"Polygon","coordinates":[[[-155.888419,19.929051],[-155.88848,19.929047],[-155.888535,19.929058],[-155.888574,19.929093],[-155.888619,19.929182],[-155.888651,19.929197],[-155.888696,19.929197],[-155.888731,19.929165],[-155.888751,19.929121],[-155.888749,19.929075],[-155.888733,19.929049],[-155.888633,19.928988],[-155.888476,19.92899],[-155.88843,19.928982],[-155.888411,19.928994],[-155.888395,19.929014],[-155.888403,19.929038],[-155.888419,19.929051]]]}},{"type":"Feature","properties":{"k":"tee"},"geometry":{"type":"Polygon","coordinates":[[[-155.881048,19.925825],[-155.881095,19.925838],[-155.881131,19.92583],[-155.88116,19.925805],[-155.881158,19.92576],[-155.881087,19.925729],[-155.881016,19.925708],[-155.880985,19.925734],[-155.880983,19.925769],[-155.881011,19.925806],[-155.881048,19.925825]]]}},{"type":"Feature","properties":{"k":"tee"},"geometry":{"type":"Polygon","coordinates":[[[-155.880657,19.925701],[-155.880735,19.925716],[-155.880786,19.925708],[-155.88081,19.92567],[-155.88078,19.925622],[-155.880602,19.925561],[-155.880558,19.925573],[-155.880535,19.925603],[-155.880541,19.925644],[-155.880572,19.92567],[-155.880657,19.925701]]]}},{"type":"Feature","properties":{"k":"tee"},"geometry":{"type":"Polygon","coordinates":[[[-155.880259,19.925581],[-155.880262,19.925625],[-155.880293,19.925657],[-155.880339,19.925663],[-155.880361,19.925654],[-155.880388,19.925623],[-155.880391,19.925584],[-155.880368,19.92555],[-155.880349,19.92554],[-155.880307,19.925538],[-155.880287,19.925546],[-155.880259,19.925581]]]}},{"type":"Feature","properties":{"k":"bunker"},"geometry":{"type":"Polygon","coordinates":[[[-155.878184,19.924378],[-155.878211,19.924425],[-155.878193,19.924457],[-155.878206,19.924483],[-155.878251,19.924495],[-155.878278,19.92446],[-155.878322,19.924483],[-155.878361,19.92446],[-155.878343,19.924385],[-155.878392,19.924364],[-155.878411,19.924333],[-155.878373,19.924295],[-155.878319,19.92429],[-155.878293,19.924312],[-155.878309,19.92438],[-155.878302,19.924404],[-155.878276,19.924405],[-155.878256,19.924378],[-155.878244,19.924336],[-155.878225,19.924319],[-155.878189,19.924332],[-155.878177,19.924353],[-155.878184,19.924378]]]}},{"type":"Feature","properties":{"k":"bunker"},"geometry":{"type":"Polygon","coordinates":[[[-155.876953,19.923257],[-155.876991,19.923282],[-155.87699,19.92333],[-155.877009,19.923345],[-155.877041,19.923335],[-155.877061,19.923307],[-155.87702,19.923221],[-155.876979,19.923197],[-155.87695,19.923208],[-155.876937,19.923244],[-155.876953,19.923257]]]}},{"type":"Feature","properties":{"k":"green"},"geometry":{"type":"Polygon","coordinates":[[[-155.876778,19.923403],[-155.876865,19.923468],[-155.876904,19.923478],[-155.876932,19.923463],[-155.876937,19.923422],[-155.876896,19.923371],[-155.876867,19.92332],[-155.876872,19.923291],[-155.876863,19.923254],[-155.876825,19.923222],[-155.876792,19.923221],[-155.876758,19.923247],[-155.876716,19.923335],[-155.876713,19.923364],[-155.876778,19.923403]]]}},{"type":"Feature","properties":{"k":"tee"},"geometry":{"type":"Polygon","coordinates":[[[-155.885076,19.929295],[-155.885021,19.929276],[-155.884993,19.92928],[-155.884946,19.929312],[-155.884933,19.929337],[-155.88493,19.929364],[-155.884936,19.929391],[-155.884951,19.929415],[-155.884974,19.929433],[-155.885002,19.929443],[-155.885032,19.929443],[-155.88506,19.929435],[-155.885084,19.929418],[-155.885101,19.929395],[-155.885109,19.929368],[-155.885107,19.929341],[-155.885095,19.929315],[-155.885076,19.929295]]]}},{"type":"Feature","properties":{"k":"tee"},"geometry":{"type":"Polygon","coordinates":[[[-155.885176,19.929478],[-155.885229,19.929505],[-155.885287,19.929524],[-155.88533,19.929519],[-155.885356,19.929498],[-155.885356,19.929461],[-155.885332,19.929423],[-155.885263,19.92938],[-155.885221,19.929372],[-155.885181,19.929384],[-155.885157,19.929405],[-155.885149,19.929444],[-155.885176,19.929478]]]}},{"type":"Feature","properties":{"k":"tee"},"geometry":{"type":"Polygon","coordinates":[[[-155.885601,19.929677],[-155.885582,19.929718],[-155.885595,19.929761],[-155.885634,19.929786],[-155.885658,19.929788],[-155.885698,19.929772],[-155.88572,19.929737],[-155.885721,19.929716],[-155.885704,19.929679],[-155.885666,19.929658],[-155.885644,19.929658],[-155.885601,19.929677]]]}},{"type":"Feature","properties":{"k":"bunker"},"geometry":{"type":"Polygon","coordinates":[[[-155.879354,19.925095],[-155.879335,19.924989],[-155.879276,19.924984],[-155.879201,19.924941],[-155.879144,19.924941],[-155.879163,19.924997],[-155.879171,19.925057],[-155.879195,19.925078],[-155.879233,19.925062],[-155.879265,19.925035],[-155.8793,19.92506],[-155.879292,19.925098],[-155.879335,19.92511],[-155.879354,19.925095]]]}},{"type":"Feature","properties":{"k":"bunker"},"geometry":{"type":"Polygon","coordinates":[[[-155.876705,19.923486],[-155.876737,19.923492],[-155.876753,19.923486],[-155.876801,19.923518],[-155.876817,19.923512],[-155.876819,19.923482],[-155.876806,19.923472],[-155.876784,19.923468],[-155.876762,19.92344],[-155.876733,19.923435],[-155.876711,19.92344],[-155.876699,19.923459],[-155.876705,19.923486]]]}},{"type":"Feature","properties":{"k":"bunker"},"geometry":{"type":"Polygon","coordinates":[[[-155.88226,19.925679],[-155.882274,19.925705],[-155.882307,19.925714],[-155.882355,19.925618],[-155.882343,19.925589],[-155.882313,19.925584],[-155.882314,19.925635],[-155.882271,19.925662],[-155.88226,19.925679]]]}},{"type":"Feature","properties":{"k":"tee"},"geometry":{"type":"Polygon","coordinates":[[[-155.88437,19.928466],[-155.884385,19.928509],[-155.884426,19.928534],[-155.884474,19.928529],[-155.884494,19.928516],[-155.884514,19.928477],[-155.884514,19.928455],[-155.884492,19.928418],[-155.88445,19.9284],[-155.884427,19.928401],[-155.884388,19.928423],[-155.88437,19.928466]]]}}]}