{"type":"FeatureCollection","features":[{"type":"Feature","properties":{"k":"wood"},"geometry":{"type":"Polygon","coordinates":[[[-75.068791,39.761275],[-75.068205,39.761924],[-75.067269,39.762612],[-75.06641,39.762834],[-75.064354,39.763863],[-75.06337,39.764101],[-75.063267,39.763954],[-75.064712,39.7635],[-75.065381,39.763102],[-75.066842,39.762564],[-75.068539,39.761219],[-75.068791,39.761275]]]}},{"type":"Feature","properties":{"k":"wood"},"geometry":{"type":"Polygon","coordinates":[[[-75.064752,39.762781],[-75.064823,39.762749],[-75.065215,39.762737],[-75.065224,39.762959],[-75.065076,39.763074],[-75.060954,39.764208],[-75.060876,39.763962],[-75.06154,39.763828],[-75.062369,39.763489],[-75.062765,39.763394],[-75.06328,39.763219],[-75.063861,39.763077],[-75.064199,39.76308],[-75.064752,39.762781]]]}},{"type":"Feature","properties":{"k":"water"},"geometry":{"type":"Polygon","coordinates":[[[-75.082616,39.752833],[-75.082469,39.752831],[-75.082374,39.752821],[-75.08221,39.752766],[-75.082159,39.752755],[-75.08206,39.752752],[-75.08199,39.752731],[-75.081953,39.752692],[-75.081907,39.752578],[-75.081887,39.752552],[-75.08182,39.75251],[-75.08181,39.752485],[-75.081816,39.752456],[-75.08183,39.752443],[-75.081879,39.75241],[-75.081894,39.752409],[-75.08191,39.752388],[-75.081906,39.752354],[-75.081914,39.752293],[-75.08193,39.752265],[-75.081976,39.752241],[-75.082048,39.75224],[-75.082116,39.752264],[-75.08213,39.752302],[-75.082155,39.752332],[-75.082228,39.752362],[-75.082292,39.752363],[-75.082387,39.752402],[-75.082554,39.752397],[-75.082735,39.752454],[-75.082847,39.752459],[-75.082884,39.752447],[-75.082919,39.75242],[-75.083033,39.752398],[-75.083115,39.752401],[-75.083182,39.752435],[-75.083194,39.752491],[-75.083188,39.752562],[-75.083145,39.752679],[-75.083105,39.752766],[-75.083067,39.752823],[-75.082991,39.752898],[-75.082945,39.752918],[-75.082844,39.752921],[-75.082739,39.752896],[-75.082616,39.752833]]]}},{"type":"Feature","properties":{"k":"water"},"geometry":{"type":"Polygon","coordinates":[[[-75.081617,39.752244],[-75.081667,39.752244],[-75.081705,39.752268],[-75.081737,39.752299],[-75.081742,39.752332],[-75.081706,39.752379],[-75.081693,39.752471],[-75.081676,39.752493],[-75.081647,39.752527],[-75.081604,39.752553],[-75.081568,39.752551],[-75.081525,39.75251],[-75.081505,39.752446],[-75.081504,39.752389],[-75.081526,39.752331],[-75.081589,39.752281],[-75.081617,39.752244]]]}},{"type":"Feature","properties":{"k":"water"},"geometry":{"type":"Polygon","coordinates":[[[-75.057616,39.768464],[-75.057678,39.76847],[-75.057767,39.768497],[-75.057802,39.768548],[-75.057856,39.768585],[-75.057823,39.768713],[-75.057826,39.768737],[-75.057841,39.768788],[-75.057902,39.768894],[-75.057915,39.768987],[-75.057907,39.769049],[-75.057881,39.769111],[-75.057822,39.769164],[-75.05776,39.769239],[-75.057552,39.769366],[-75.057379,39.769433],[-75.057125,39.769519],[-75.057056,39.769522],[-75.057001,39.769511],[-75.05692,39.769468],[-75.056877,39.769412],[-75.056837,39.769305],[-75.056834,39.76924],[-75.056845,39.769205],[-75.056921,39.769149],[-75.057126,39.769023],[-75.05722,39.768919],[-75.057281,39.768742],[-75.057444,39.768541],[-75.057492,39.768494],[-75.057537,39.768469],[-75.057616,39.768464]]]}},{"type":"Feature","properties":{"k":"water"},"geometry":{"type":"Polygon","coordinates":[[[-75.058152,39.767974],[-75.058183,39.768019],[-75.058159,39.768156],[-75.058053,39.768359],[-75.058017,39.768401],[-75.057977,39.768429],[-75.057911,39.768452],[-75.057802,39.76846],[-75.057753,39.768451],[-75.057608,39.768384],[-75.057594,39.768361],[-75.057592,39.768323],[-75.057716,39.768153],[-75.057813,39.767959],[-75.05783,39.767941],[-75.057916,39.767894],[-75.058015,39.76786],[-75.058042,39.767873],[-75.058045,39.767932],[-75.058101,39.767942],[-75.058152,39.767974]]]}},{"type":"Feature","properties":{"k":"bunker"},"geometry":{"type":"Polygon","coordinates":[[[-75.083086,39.756495],[-75.083102,39.756487],[-75.083114,39.756459],[-75.083104,39.75639],[-75.083079,39.756365],[-75.083062,39.75636],[-75.083046,39.756363],[-75.083031,39.756377],[-75.083022,39.756453],[-75.083035,39.756479],[-75.083086,39.756495]]]}},{"type":"Feature","properties":{"k":"bunker"},"geometry":{"type":"Polygon","coordinates":[[[-75.083498,39.756539],[-75.083534,39.756515],[-75.083538,39.756496],[-75.083534,39.756478],[-75.083515,39.756465],[-75.083491,39.756464],[-75.083455,39.756477],[-75.083443,39.75651],[-75.083448,39.756525],[-75.083463,39.756535],[-75.083498,39.756539]]]}},{"type":"Feature","properties":{"k":"bunker"},"geometry":{"type":"Polygon","coordinates":[[[-75.083375,39.756351],[-75.083412,39.756335],[-75.083422,39.756306],[-75.083412,39.756289],[-75.083357,39.756271],[-75.083349,39.756259],[-75.083346,39.756211],[-75.083333,39.756199],[-75.08331,39.756194],[-75.083269,39.756218],[-75.083248,39.75626],[-75.083251,39.756277],[-75.083273,39.756295],[-75.083328,39.756298],[-75.08334,39.756309],[-75.083345,39.756338],[-75.083375,39.756351]]]}},{"type":"Feature","properties":{"k":"bunker"},"geometry":{"type":"Polygon","coordinates":[[[-75.081933,39.754052],[-75.08194,39.753964],[-75.081962,39.753919],[-75.081962,39.753897],[-75.08193,39.753862],[-75.081906,39.753858],[-75.081885,39.753865],[-75.081871,39.75388],[-75.081871,39.753942],[-75.081801,39.754002],[-75.081792,39.754027],[-75.081796,39.754046],[-75.081817,39.754066],[-75.081863,39.754091],[-75.081906,39.754089],[-75.081925,39.754075],[-75.081933,39.754052]]]}},{"type":"Feature","properties":{"k":"bunker"},"geometry":{"type":"Polygon","coordinates":[[[-75.082167,39.753728],[-75.082204,39.753694],[-75.082211,39.753675],[-75.082204,39.753654],[-75.082188,39.753647],[-75.082166,39.75365],[-75.082141,39.753679],[-75.082098,39.753689],[-75.08208,39.753709],[-75.082082,39.753721],[-75.082113,39.753735],[-75.082141,39.753737],[-75.082167,39.753728]]]}},{"type":"Feature","properties":{"k":"fairway"},"geometry":{"type":"Polygon","coordinates":[[[-75.082507,39.753511],[-75.08245,39.753504],[-75.082386,39.753527],[-75.082264,39.75369],[-75.082072,39.753879],[-75.082016,39.753951],[-75.081992,39.754007],[-75.081992,39.754065],[-75.082032,39.754185],[-75.082135,39.75442],[-75.082449,39.755082],[-75.082484,39.755138],[-75.082535,39.755177],[-75.082597,39.755192],[-75.082658,39.755185],[-75.082701,39.755169],[-75.082755,39.75513],[-75.082787,39.755056],[-75.082535,39.754437],[-75.082467,39.754242],[-75.082428,39.754065],[-75.08242,39.754012],[-75.082464,39.753792],[-75.082548,39.75359],[-75.082538,39.753544],[-75.082507,39.753511]]]}},{"type":"Feature","properties":{"k":"bunker"},"geometry":{"type":"Polygon","coordinates":[[[-75.082007,39.754991],[-75.082013,39.755021],[-75.082049,39.755032],[-75.082072,39.755024],[-75.082087,39.755009],[-75.082092,39.754983],[-75.082071,39.754943],[-75.082004,39.754908],[-75.081968,39.754906],[-75.081937,39.754913],[-75.081915,39.754928],[-75.081917,39.754954],[-75.081931,39.754967],[-75.081986,39.754975],[-75.082007,39.754991]]]}},{"type":"Feature","properties":{"k":"fairway"},"geometry":{"type":"Polygon","coordinates":[[[-75.079181,39.754262],[-75.079142,39.754199],[-75.079092,39.754216],[-75.079133,39.75428],[-75.079181,39.754262]]]}},{"type":"Feature","properties":{"k":"fairway"},"geometry":{"type":"Polygon","coordinates":[[[-75.079274,39.75422],[-75.079918,39.753977],[-75.079872,39.753913],[-75.079228,39.754154],[-75.079274,39.75422]]]}},{"type":"Feature","properties":{"k":"fairway"},"geometry":{"type":"Polygon","coordinates":[[[-75.082099,39.751337],[-75.082214,39.75116],[-75.082082,39.751114],[-75.082045,39.751168],[-75.081854,39.751106],[-75.081777,39.75123],[-75.082099,39.751337]]]}},{"type":"Feature","properties":{"k":"bunker"},"geometry":{"type":"Polygon","coordinates":[[[-75.083181,39.751881],[-75.08314,39.751868],[-75.083099,39.751814],[-75.083071,39.751795],[-75.083063,39.751778],[-75.083078,39.751743],[-75.083112,39.751724],[-75.083155,39.75173],[-75.083198,39.751794],[-75.083238,39.751826],[-75.083234,39.751872],[-75.083198,39.751885],[-75.083181,39.751881]]]}},{"type":"Feature","properties":{"k":"bunker"},"geometry":{"type":"Polygon","coordinates":[[[-75.083429,39.751592],[-75.083378,39.75157],[-75.083335,39.75156],[-75.083247,39.751582],[-75.083226,39.751573],[-75.083206,39.751523],[-75.083283,39.751492],[-75.083338,39.751511],[-75.083446,39.751505],[-75.083466,39.75154],[-75.083466,39.751573],[-75.083429,39.751592]]]}},{"type":"Feature","properties":{"k":"fairway"},"geometry":{"type":"Polygon","coordinates":[[[-75.082967,39.752384],[-75.082986,39.752342],[-75.083187,39.752392],[-75.083228,39.752309],[-75.08293,39.752227],[-75.082866,39.752357],[-75.082967,39.752384]]]}},{"type":"Feature","properties":{"k":"bunker"},"geometry":{"type":"Polygon","coordinates":[[[-75.082136,39.752229],[-75.082166,39.752217],[-75.082184,39.752198],[-75.082184,39.752171],[-75.082171,39.752155],[-75.082174,39.752136],[-75.082217,39.752105],[-75.082227,39.752083],[-75.082217,39.75206],[-75.08219,39.752052],[-75.082163,39.752062],[-75.082136,39.752111],[-75.082104,39.752111],[-75.08208,39.752128],[-75.082096,39.752147],[-75.082099,39.752165],[-75.082074,39.752202],[-75.082082,39.752221],[-75.082104,39.752231],[-75.082136,39.752229]]]}},{"type":"Feature","properties":{"k":"bunker"},"geometry":{"type":"Polygon","coordinates":[[[-75.08242,39.752366],[-75.082522,39.752336],[-75.082577,39.75231],[-75.082584,39.752287],[-75.082576,39.752276],[-75.08256,39.752274],[-75.082555,39.75226],[-75.082564,39.752232],[-75.082584,39.75222],[-75.082632,39.752211],[-75.082643,39.7522],[-75.08265,39.752182],[-75.082643,39.75216],[-75.082627,39.752148],[-75.082571,39.752144],[-75.082552,39.752151],[-75.082537,39.752171],[-75.082537,39.752193],[-75.082493,39.752221],[-75.082502,39.752253],[-75.082495,39.75227],[-75.082482,39.752281],[-75.082435,39.752293],[-75.082431,39.752313],[-75.082391,39.752336],[-75.0824,39.752364],[-75.08242,39.752366]]]}},{"type":"Feature","properties":{"k":"bunker"},"geometry":{"type":"Polygon","coordinates":[[[-75.080864,39.754346],[-75.08089,39.75434],[-75.080912,39.754322],[-75.080908,39.754295],[-75.08088,39.754279],[-75.080844,39.754286],[-75.080825,39.754315],[-75.080838,39.754338],[-75.080864,39.754346]]]}},{"type":"Feature","properties":{"k":"bunker"},"geometry":{"type":"Polygon","coordinates":[[[-75.081264,39.754255],[-75.081216,39.75423],[-75.081205,39.754207],[-75.081177,39.754193],[-75.08116,39.754156],[-75.081098,39.754131],[-75.081079,39.754103],[-75.081086,39.754088],[-75.081125,39.75408],[-75.081148,39.754086],[-75.081178,39.754123],[-75.081232,39.754133],[-75.081254,39.754182],[-75.081293,39.7542],[-75.081305,39.754214],[-75.081298,39.754242],[-75.081264,39.754255]]]}},{"type":"Feature","properties":{"k":"fairway"},"geometry":{"type":"Polygon","coordinates":[[[-75.082647,39.75663],[-75.082603,39.756531],[-75.082537,39.756548],[-75.082584,39.756645],[-75.082647,39.75663]]]}},{"type":"Feature","properties":{"k":"fairway"},"geometry":{"type":"Polygon","coordinates":[[[-75.082842,39.757057],[-75.082753,39.757086],[-75.08262,39.756865],[-75.082715,39.756833],[-75.082842,39.757057]]]}},{"type":"Feature","properties":{"k":"bunker"},"geometry":{"type":"Polygon","coordinates":[[[-75.081567,39.755597],[-75.081598,39.755599],[-75.08166,39.75562],[-75.081703,39.755614],[-75.081715,39.755603],[-75.081715,39.75559],[-75.081705,39.75557],[-75.081655,39.755538],[-75.081624,39.755476],[-75.081577,39.755449],[-75.081562,39.755425],[-75.081547,39.755366],[-75.081496,39.755342],[-75.081468,39.75534],[-75.081418,39.755363],[-75.081409,39.755405],[-75.081429,39.755425],[-75.081475,39.755434],[-75.081508,39.755462],[-75.081508,39.75549],[-75.08149,39.755509],[-75.081488,39.755528],[-75.0815,39.755592],[-75.081541,39.7556],[-75.081567,39.755597]]]}},{"type":"Feature","properties":{"k":"fairway"},"geometry":{"type":"Polygon","coordinates":[[[-75.080725,39.75375],[-75.081189,39.753595],[-75.081476,39.753484],[-75.081723,39.753372],[-75.08183,39.753304],[-75.082007,39.753092],[-75.082015,39.75304],[-75.082048,39.753003],[-75.082163,39.752917],[-75.082179,39.752884],[-75.082166,39.752847],[-75.082123,39.752824],[-75.082074,39.752811],[-75.082023,39.752811],[-75.081972,39.752795],[-75.081932,39.752768],[-75.081854,39.752665],[-75.081819,39.75268],[-75.081795,39.752706],[-75.081787,39.75284],[-75.081747,39.752913],[-75.081672,39.753012],[-75.081436,39.753257],[-75.081286,39.753333],[-75.081018,39.753389],[-75.080913,39.75342],[-75.08076,39.753507],[-75.080599,39.75356],[-75.080567,39.753591],[-75.080564,39.753643],[-75.080578,39.753686],[-75.080605,39.753723],[-75.080658,39.753748],[-75.080725,39.75375]]]}},{"type":"Feature","properties":{"k":"bunker"},"geometry":{"type":"Polygon","coordinates":[[[-75.082031,39.753205],[-75.08205,39.753199],[-75.082072,39.753169],[-75.082072,39.753148],[-75.082039,39.753126],[-75.082002,39.753136],[-75.081983,39.753165],[-75.081994,39.753199],[-75.082031,39.753205]]]}},{"type":"Feature","properties":{"k":"bunker"},"geometry":{"type":"Polygon","coordinates":[[[-75.081341,39.753225],[-75.081384,39.753198],[-75.081394,39.753176],[-75.081392,39.753155],[-75.081382,39.753136],[-75.081356,39.753116],[-75.081322,39.753105],[-75.08129,39.753106],[-75.081243,39.753137],[-75.08124,39.753165],[-75.081251,39.753189],[-75.081291,39.753217],[-75.081341,39.753225]]]}},{"type":"Feature","properties":{"k":"bunker"},"geometry":{"type":"Polygon","coordinates":[[[-75.081044,39.753274],[-75.081071,39.75328],[-75.081095,39.753275],[-75.081121,39.753248],[-75.081121,39.753223],[-75.081093,39.753192],[-75.081026,39.753177],[-75.080965,39.753193],[-75.080926,39.753224],[-75.08092,39.753243],[-75.080929,39.753264],[-75.080951,39.75328],[-75.081044,39.753274]]]}},{"type":"Feature","properties":{"k":"bunker"},"geometry":{"type":"Polygon","coordinates":[[[-75.081937,39.75332],[-75.081955,39.75331],[-75.081958,39.753283],[-75.081971,39.753266],[-75.082019,39.753257],[-75.082018,39.753246],[-75.081966,39.753221],[-75.081947,39.75322],[-75.081934,39.753232],[-75.081934,39.753248],[-75.081892,39.753269],[-75.081891,39.753299],[-75.081899,39.753311],[-75.08192,39.753322],[-75.081937,39.75332]]]}},{"type":"Feature","properties":{"k":"bunker"},"geometry":{"type":"Polygon","coordinates":[[[-75.082068,39.753069],[-75.082092,39.753072],[-75.082119,39.753052],[-75.082131,39.753031],[-75.082123,39.75302],[-75.082076,39.753024],[-75.082054,39.753052],[-75.082068,39.753069]]]}},{"type":"Feature","properties":{"k":"fairway"},"geometry":{"type":"Polygon","coordinates":[[[-75.083401,39.752243],[-75.083485,39.75214],[-75.083436,39.752119],[-75.083352,39.752222],[-75.083401,39.752243]]]}},{"type":"Feature","properties":{"k":"fairway"},"geometry":{"type":"Polygon","coordinates":[[[-75.079031,39.75486],[-75.078964,39.754798],[-75.078712,39.754994],[-75.078787,39.755052],[-75.079031,39.75486]]]}},{"type":"Feature","properties":{"k":"fairway"},"geometry":{"type":"Polygon","coordinates":[[[-75.078404,39.755411],[-75.078484,39.755347],[-75.078428,39.755304],[-75.078345,39.755374],[-75.078404,39.755411]]]}},{"type":"Feature","properties":{"k":"bunker"},"geometry":{"type":"Polygon","coordinates":[[[-75.075469,39.756762],[-75.075488,39.756752],[-75.075502,39.756734],[-75.075502,39.756707],[-75.075487,39.756692],[-75.075459,39.756681],[-75.075427,39.756682],[-75.075406,39.756692],[-75.0754,39.756733],[-75.075435,39.756758],[-75.075469,39.756762]]]}},{"type":"Feature","properties":{"k":"bunker"},"geometry":{"type":"Polygon","coordinates":[[[-75.075618,39.756666],[-75.07565,39.756659],[-75.075666,39.756645],[-75.075668,39.756628],[-75.075663,39.756607],[-75.075637,39.756594],[-75.075603,39.75659],[-75.075575,39.756602],[-75.075561,39.756619],[-75.075561,39.756638],[-75.075596,39.756664],[-75.075618,39.756666]]]}},{"type":"Feature","properties":{"k":"bunker"},"geometry":{"type":"Polygon","coordinates":[[[-75.075498,39.75643],[-75.075522,39.75643],[-75.075553,39.75641],[-75.075545,39.756366],[-75.07552,39.756342],[-75.075492,39.756329],[-75.07546,39.756325],[-75.075421,39.756333],[-75.075379,39.756361],[-75.075377,39.756399],[-75.075413,39.756412],[-75.075428,39.756406],[-75.075475,39.756411],[-75.075498,39.75643]]]}},{"type":"Feature","properties":{"k":"fairway"},"geometry":{"type":"Polygon","coordinates":[[[-75.075086,39.757012],[-75.075294,39.756932],[-75.075266,39.756884],[-75.075176,39.756918],[-75.075086,39.756792],[-75.074972,39.75684],[-75.075086,39.757012]]]}},{"type":"Feature","properties":{"k":"fairway"},"geometry":{"type":"Polygon","coordinates":[[[-75.07408,39.757685],[-75.074056,39.757645],[-75.073965,39.757681],[-75.073997,39.757725],[-75.07408,39.757685]]]}},{"type":"Feature","properties":{"k":"fairway"},"geometry":{"type":"Polygon","coordinates":[[[-75.073806,39.757839],[-75.073746,39.75777],[-75.073523,39.757882],[-75.073573,39.757947],[-75.073806,39.757839]]]}},{"type":"Feature","properties":{"k":"fairway"},"geometry":{"type":"Polygon","coordinates":[[[-75.07349,39.757981],[-75.073447,39.757934],[-75.073303,39.758002],[-75.073334,39.758054],[-75.07349,39.757981]]]}},{"type":"Feature","properties":{"k":"fairway"},"geometry":{"type":"Polygon","coordinates":[[[-75.073069,39.758062],[-75.073041,39.758033],[-75.072958,39.75808],[-75.07299,39.758106],[-75.073069,39.758062]]]}},{"type":"Feature","properties":{"k":"bunker"},"geometry":{"type":"Polygon","coordinates":[[[-75.073623,39.75747],[-75.073643,39.757466],[-75.073675,39.757441],[-75.073695,39.757435],[-75.073706,39.757408],[-75.073701,39.757388],[-75.073679,39.757364],[-75.07365,39.757351],[-75.073554,39.757334],[-75.073507,39.757355],[-75.073513,39.757384],[-75.073589,39.757404],[-75.073601,39.757423],[-75.073597,39.757453],[-75.073623,39.75747]]]}},{"type":"Feature","properties":{"k":"bunker"},"geometry":{"type":"Polygon","coordinates":[[[-75.073585,39.757661],[-75.073624,39.757629],[-75.073624,39.757606],[-75.073612,39.757593],[-75.07357,39.7576],[-75.073532,39.75763],[-75.073525,39.757664],[-75.073533,39.757672],[-75.073566,39.757672],[-75.073585,39.757661]]]}},{"type":"Feature","properties":{"k":"bunker"},"geometry":{"type":"Polygon","coordinates":[[[-75.071713,39.759069],[-75.071767,39.759011],[-75.071793,39.758995],[-75.071836,39.758976],[-75.071911,39.758972],[-75.071954,39.758953],[-75.071995,39.758914],[-75.072032,39.758854],[-75.072078,39.758807],[-75.07219,39.758761],[-75.072201,39.758739],[-75.072182,39.758716],[-75.072137,39.758724],[-75.072056,39.758722],[-75.072043,39.758768],[-75.072019,39.758807],[-75.071954,39.758797],[-75.07192,39.758807],[-75.071922,39.758865],[-75.071871,39.758883],[-75.071772,39.758898],[-75.071772,39.758959],[-75.071734,39.758984],[-75.071661,39.759003],[-75.071646,39.759026],[-75.071657,39.759058],[-75.071684,39.759075],[-75.071713,39.759069]]]}},{"type":"Feature","properties":{"k":"bunker"},"geometry":{"type":"Polygon","coordinates":[[[-75.071187,39.758865],[-75.07123,39.75884],[-75.07127,39.758799],[-75.0713,39.758716],[-75.07127,39.758702],[-75.071238,39.758706],[-75.071158,39.758801],[-75.071123,39.758828],[-75.071131,39.758848],[-75.071152,39.758867],[-75.071187,39.758865]]]}},{"type":"Feature","properties":{"k":"bunker"},"geometry":{"type":"Polygon","coordinates":[[[-75.070702,39.759663],[-75.070699,39.759636],[-75.070664,39.759621],[-75.070637,39.75963],[-75.070616,39.759663],[-75.070627,39.759731],[-75.070554,39.759762],[-75.070543,39.759799],[-75.070578,39.759813],[-75.070731,39.759786],[-75.070734,39.759747],[-75.070702,39.759663]]]}},{"type":"Feature","properties":{"k":"bunker"},"geometry":{"type":"Polygon","coordinates":[[[-75.070334,39.759625],[-75.070361,39.759625],[-75.070393,39.759615],[-75.070409,39.759592],[-75.070401,39.759572],[-75.070372,39.759555],[-75.070337,39.75956],[-75.070316,39.75957],[-75.070297,39.759592],[-75.070305,39.759613],[-75.070334,39.759625]]]}},{"type":"Feature","properties":{"k":"fairway"},"geometry":{"type":"Polygon","coordinates":[[[-75.073139,39.756873],[-75.07309,39.756805],[-75.072752,39.756949],[-75.072803,39.757019],[-75.073139,39.756873]]]}},{"type":"Feature","properties":{"k":"fairway"},"geometry":{"type":"Polygon","coordinates":[[[-75.069539,39.759729],[-75.069687,39.759591],[-75.069593,39.759539],[-75.069448,39.759671],[-75.069539,39.759729]]]}},{"type":"Feature","properties":{"k":"fairway"},"geometry":{"type":"Polygon","coordinates":[[[-75.069719,39.759564],[-75.069998,39.759251],[-75.069909,39.759203],[-75.06962,39.759506],[-75.069719,39.759564]]]}},{"type":"Feature","properties":{"k":"bunker"},"geometry":{"type":"Polygon","coordinates":[[[-75.072925,39.757616],[-75.072968,39.757584],[-75.072976,39.757541],[-75.072956,39.757525],[-75.072884,39.757524],[-75.072852,39.757546],[-75.072837,39.757574],[-75.072846,39.757596],[-75.072857,39.757612],[-75.072874,39.757619],[-75.072925,39.757616]]]}},{"type":"Feature","properties":{"k":"bunker"},"geometry":{"type":"Polygon","coordinates":[[[-75.072766,39.757381],[-75.072818,39.757366],[-75.07283,39.757351],[-75.07284,39.757333],[-75.072836,39.757312],[-75.072811,39.7573],[-75.072739,39.757308],[-75.072711,39.757326],[-75.072701,39.757347],[-75.072712,39.75737],[-75.072739,39.757382],[-75.072766,39.757381]]]}},{"type":"Feature","properties":{"k":"bunker"},"geometry":{"type":"Polygon","coordinates":[[[-75.074918,39.756196],[-75.074942,39.756192],[-75.07496,39.756175],[-75.074961,39.756155],[-75.074945,39.756138],[-75.074917,39.756135],[-75.074879,39.756158],[-75.074886,39.756186],[-75.074897,39.756196],[-75.074918,39.756196]]]}},{"type":"Feature","properties":{"k":"bunker"},"geometry":{"type":"Polygon","coordinates":[[[-75.075157,39.756217],[-75.075242,39.75619],[-75.075266,39.756168],[-75.075268,39.756147],[-75.07526,39.756122],[-75.075236,39.756101],[-75.075207,39.756085],[-75.075164,39.756077],[-75.075133,39.756085],[-75.075119,39.756102],[-75.075133,39.756126],[-75.075153,39.756134],[-75.075153,39.756153],[-75.075105,39.756171],[-75.075091,39.756188],[-75.075103,39.75621],[-75.075157,39.756217]]]}},{"type":"Feature","properties":{"k":"bunker"},"geometry":{"type":"Polygon","coordinates":[[[-75.074709,39.756356],[-75.074728,39.756314],[-75.074761,39.756296],[-75.07476,39.756265],[-75.074741,39.756257],[-75.074713,39.756257],[-75.074693,39.756269],[-75.074638,39.756321],[-75.074647,39.756351],[-75.074689,39.75636],[-75.074709,39.756356]]]}},{"type":"Feature","properties":{"k":"bunker"},"geometry":{"type":"Polygon","coordinates":[[[-75.074975,39.756354],[-75.075019,39.756354],[-75.075044,39.756346],[-75.075061,39.75633],[-75.075062,39.756312],[-75.075034,39.756278],[-75.075006,39.756271],[-75.074971,39.756279],[-75.074922,39.756307],[-75.074912,39.756344],[-75.074941,39.75636],[-75.074975,39.756354]]]}},{"type":"Feature","properties":{"k":"bunker"},"geometry":{"type":"Polygon","coordinates":[[[-75.077615,39.754865],[-75.077638,39.754855],[-75.07765,39.754839],[-75.07765,39.75482],[-75.077639,39.754802],[-75.077584,39.754799],[-75.077559,39.754812],[-75.077554,39.754844],[-75.077586,39.754867],[-75.077615,39.754865]]]}},{"type":"Feature","properties":{"k":"bunker"},"geometry":{"type":"Polygon","coordinates":[[[-75.077684,39.755072],[-75.07771,39.755069],[-75.07779,39.755079],[-75.077816,39.755068],[-75.077831,39.755048],[-75.077823,39.755021],[-75.077804,39.755005],[-75.077774,39.754998],[-75.07771,39.755016],[-75.077654,39.755018],[-75.077631,39.755043],[-75.077643,39.755061],[-75.077684,39.755072]]]}},{"type":"Feature","properties":{"k":"bunker"},"geometry":{"type":"Polygon","coordinates":[[[-75.077151,39.755283],[-75.077169,39.755273],[-75.077179,39.755247],[-75.077133,39.755214],[-75.077162,39.755178],[-75.077166,39.755161],[-75.077158,39.755142],[-75.07713,39.75514],[-75.077108,39.755147],[-75.077035,39.755199],[-75.077064,39.755215],[-75.0771,39.755218],[-75.077112,39.755269],[-75.077134,39.755284],[-75.077151,39.755283]]]}},{"type":"Feature","properties":{"k":"bunker"},"geometry":{"type":"Polygon","coordinates":[[[-75.076583,39.755156],[-75.076634,39.755125],[-75.076632,39.755106],[-75.076609,39.755091],[-75.076584,39.755085],[-75.076548,39.755088],[-75.076526,39.755107],[-75.076532,39.755146],[-75.076583,39.755156]]]}},{"type":"Feature","properties":{"k":"fairway"},"geometry":{"type":"Polygon","coordinates":[[[-75.068554,39.761142],[-75.068845,39.760946],[-75.068778,39.760887],[-75.068487,39.761083],[-75.068554,39.761142]]]}},{"type":"Feature","properties":{"k":"bunker"},"geometry":{"type":"Polygon","coordinates":[[[-75.067991,39.760985],[-75.068032,39.760973],[-75.06806,39.760948],[-75.068062,39.76093],[-75.068037,39.760903],[-75.067981,39.7609],[-75.067924,39.760922],[-75.067895,39.760946],[-75.067888,39.760967],[-75.067902,39.760983],[-75.067936,39.760992],[-75.067991,39.760985]]]}},{"type":"Feature","properties":{"k":"bunker"},"geometry":{"type":"Polygon","coordinates":[[[-75.067884,39.760766],[-75.067915,39.760744],[-75.067926,39.760713],[-75.067922,39.760685],[-75.067895,39.760674],[-75.067845,39.760685],[-75.067808,39.760716],[-75.067804,39.760744],[-75.06782,39.760767],[-75.067852,39.760777],[-75.067884,39.760766]]]}},{"type":"Feature","properties":{"k":"fairway"},"geometry":{"type":"Polygon","coordinates":[[[-75.057843,39.766162],[-75.057853,39.765878],[-75.057714,39.765871],[-75.057692,39.766158],[-75.057843,39.766162]]]}},{"type":"Feature","properties":{"k":"fairway"},"geometry":{"type":"Polygon","coordinates":[[[-75.057451,39.769728],[-75.057395,39.769531],[-75.057295,39.769547],[-75.05735,39.769743],[-75.057451,39.769728]]]}},{"type":"Feature","properties":{"k":"bunker"},"geometry":{"type":"Polygon","coordinates":[[[-75.057936,39.769508],[-75.057958,39.769501],[-75.057967,39.769487],[-75.057967,39.76947],[-75.05795,39.769464],[-75.057926,39.76947],[-75.057911,39.769484],[-75.057915,39.769506],[-75.057936,39.769508]]]}},{"type":"Feature","properties":{"k":"bunker"},"geometry":{"type":"Polygon","coordinates":[[[-75.057851,39.769571],[-75.057868,39.769564],[-75.057865,39.769531],[-75.057845,39.76953],[-75.057813,39.769551],[-75.057814,39.769565],[-75.05783,39.769575],[-75.057851,39.769571]]]}},{"type":"Feature","properties":{"k":"bunker"},"geometry":{"type":"Polygon","coordinates":[[[-75.05784,39.769313],[-75.057865,39.76931],[-75.057872,39.769298],[-75.05783,39.769289],[-75.057824,39.769298],[-75.05784,39.769313]]]}},{"type":"Feature","properties":{"k":"bunker"},"geometry":{"type":"Polygon","coordinates":[[[-75.057068,39.766785],[-75.057112,39.766764],[-75.057104,39.76673],[-75.057085,39.766722],[-75.05706,39.766725],[-75.057044,39.766743],[-75.057044,39.766773],[-75.057051,39.766783],[-75.057068,39.766785]]]}},{"type":"Feature","properties":{"k":"bunker"},"geometry":{"type":"Polygon","coordinates":[[[-75.056612,39.767882],[-75.056656,39.767888],[-75.056686,39.76787],[-75.056654,39.767805],[-75.056616,39.767776],[-75.056632,39.767722],[-75.056621,39.767709],[-75.0566,39.767704],[-75.056561,39.76772],[-75.056553,39.767739],[-75.056554,39.767756],[-75.056584,39.767794],[-75.056574,39.767805],[-75.056537,39.767807],[-75.05653,39.767831],[-75.05654,39.767841],[-75.056579,39.767853],[-75.056612,39.767882]]]}},{"type":"Feature","properties":{"k":"fairway"},"geometry":{"type":"Polygon","coordinates":[[[-75.056871,39.768883],[-75.056855,39.768802],[-75.056798,39.768809],[-75.056806,39.768885],[-75.056871,39.768883]]]}},{"type":"Feature","properties":{"k":"fairway"},"geometry":{"type":"Polygon","coordinates":[[[-75.05717,39.769782],[-75.057136,39.769617],[-75.057059,39.769627],[-75.057093,39.769792],[-75.05717,39.769782]]]}},{"type":"Feature","properties":{"k":"fairway"},"geometry":{"type":"Polygon","coordinates":[[[-75.057491,39.763399],[-75.057243,39.763052],[-75.057155,39.76309],[-75.057391,39.763439],[-75.057491,39.763399]]]}},{"type":"Feature","properties":{"k":"bunker"},"geometry":{"type":"Polygon","coordinates":[[[-75.056958,39.763575],[-75.056981,39.763568],[-75.056992,39.763552],[-75.056977,39.763495],[-75.056955,39.763495],[-75.056935,39.76351],[-75.056922,39.763536],[-75.056927,39.763565],[-75.056937,39.763573],[-75.056958,39.763575]]]}},{"type":"Feature","properties":{"k":"bunker"},"geometry":{"type":"Polygon","coordinates":[[[-75.056727,39.763591],[-75.056764,39.763565],[-75.056764,39.76354],[-75.056714,39.763475],[-75.05669,39.763465],[-75.056667,39.763469],[-75.056646,39.763503],[-75.05667,39.763548],[-75.056706,39.763586],[-75.056727,39.763591]]]}},{"type":"Feature","properties":{"k":"fairway"},"geometry":{"type":"Polygon","coordinates":[[[-75.056621,39.766287],[-75.056635,39.766174],[-75.056511,39.766165],[-75.056498,39.766275],[-75.056621,39.766287]]]}},{"type":"Feature","properties":{"k":"fairway"},"geometry":{"type":"Polygon","coordinates":[[[-75.056603,39.76637],[-75.056503,39.766787],[-75.056405,39.766773],[-75.056497,39.766356],[-75.056603,39.76637]]]}},{"type":"Feature","properties":{"k":"bunker"},"geometry":{"type":"Polygon","coordinates":[[[-75.058,39.764476],[-75.058016,39.764467],[-75.058008,39.76443],[-75.057979,39.764422],[-75.057958,39.764427],[-75.057952,39.76446],[-75.057983,39.764476],[-75.058,39.764476]]]}},{"type":"Feature","properties":{"k":"bunker"},"geometry":{"type":"Polygon","coordinates":[[[-75.058322,39.764435],[-75.058274,39.764416],[-75.058247,39.764365],[-75.058221,39.764345],[-75.05819,39.764333],[-75.058127,39.764336],[-75.058109,39.76432],[-75.058109,39.764304],[-75.058153,39.764287],[-75.058185,39.764293],[-75.058239,39.764327],[-75.058334,39.764361],[-75.058365,39.764384],[-75.058374,39.764405],[-75.05837,39.764422],[-75.058345,39.764434],[-75.058322,39.764435]]]}},{"type":"Feature","properties":{"k":"bunker"},"geometry":{"type":"Polygon","coordinates":[[[-75.057724,39.765596],[-75.057741,39.765582],[-75.057747,39.765556],[-75.057717,39.765522],[-75.057693,39.76552],[-75.057673,39.765527],[-75.057673,39.765574],[-75.057698,39.765597],[-75.057724,39.765596]]]}},{"type":"Feature","properties":{"k":"bunker"},"geometry":{"type":"Polygon","coordinates":[[[-75.057592,39.765425],[-75.057658,39.765406],[-75.057666,39.765387],[-75.057654,39.765364],[-75.057634,39.765362],[-75.057576,39.765386],[-75.057529,39.765392],[-75.057536,39.765408],[-75.057559,39.765424],[-75.057592,39.765425]]]}},{"type":"Feature","properties":{"k":"fairway"},"geometry":{"type":"Polygon","coordinates":[[[-75.058907,39.764789],[-75.05884,39.764713],[-75.058782,39.764743],[-75.058849,39.764819],[-75.058907,39.764789]]]}},{"type":"Feature","properties":{"k":"fairway"},"geometry":{"type":"Polygon","coordinates":[[[-75.059224,39.764606],[-75.059162,39.764541],[-75.058915,39.76468],[-75.058977,39.764745],[-75.059224,39.764606]]]}},{"type":"Feature","properties":{"k":"fairway"},"geometry":{"type":"Polygon","coordinates":[[[-75.059369,39.764518],[-75.059326,39.764463],[-75.059216,39.764514],[-75.059259,39.764569],[-75.059369,39.764518]]]}},{"type":"Feature","properties":{"k":"fairway"},"geometry":{"type":"Polygon","coordinates":[[[-75.065235,39.762354],[-75.065168,39.762283],[-75.064911,39.762417],[-75.064981,39.762485],[-75.065235,39.762354]]]}},{"type":"Feature","properties":{"k":"fairway"},"geometry":{"type":"Polygon","coordinates":[[[-75.064747,39.762766],[-75.064704,39.762727],[-75.064854,39.762634],[-75.0649,39.762669],[-75.064747,39.762766]]]}},{"type":"Feature","properties":{"k":"bunker"},"geometry":{"type":"Polygon","coordinates":[[[-75.059609,39.764934],[-75.059636,39.764928],[-75.059648,39.76491],[-75.059642,39.764883],[-75.059625,39.764866],[-75.05953,39.764851],[-75.059506,39.764861],[-75.059506,39.764884],[-75.059525,39.764895],[-75.059571,39.764899],[-75.059587,39.764928],[-75.059609,39.764934]]]}},{"type":"Feature","properties":{"k":"bunker"},"geometry":{"type":"Polygon","coordinates":[[[-75.059861,39.764858],[-75.059816,39.764826],[-75.059768,39.764819],[-75.059762,39.764804],[-75.05977,39.764786],[-75.05982,39.764768],[-75.059878,39.764789],[-75.059896,39.764829],[-75.059891,39.764846],[-75.059861,39.764858]]]}},{"type":"Feature","properties":{"k":"bunker"},"geometry":{"type":"Polygon","coordinates":[[[-75.059805,39.764656],[-75.05978,39.764648],[-75.059753,39.764619],[-75.059678,39.764631],[-75.059652,39.764627],[-75.059642,39.764592],[-75.059656,39.76458],[-75.059726,39.764588],[-75.059776,39.764576],[-75.059801,39.764586],[-75.059825,39.764599],[-75.05984,39.764627],[-75.059832,39.764651],[-75.059805,39.764656]]]}},{"type":"Feature","properties":{"k":"bunker"},"geometry":{"type":"Polygon","coordinates":[[[-75.061416,39.763751],[-75.061445,39.763714],[-75.061472,39.763696],[-75.061518,39.763685],[-75.061537,39.763657],[-75.061523,39.763621],[-75.061483,39.763605],[-75.061437,39.763626],[-75.061416,39.763652],[-75.061327,39.763677],[-75.061309,39.763714],[-75.061357,39.763758],[-75.061386,39.763764],[-75.061416,39.763751]]]}},{"type":"Feature","properties":{"k":"bunker"},"geometry":{"type":"Polygon","coordinates":[[[-75.061448,39.764506],[-75.061537,39.764518],[-75.061545,39.764494],[-75.061512,39.764461],[-75.061459,39.764452],[-75.061408,39.764469],[-75.061362,39.764494],[-75.061231,39.764496],[-75.06118,39.76451],[-75.061169,39.764529],[-75.061166,39.764568],[-75.061196,39.764593],[-75.061234,39.764601],[-75.061271,39.764584],[-75.061284,39.764553],[-75.061325,39.764545],[-75.061394,39.764549],[-75.061416,39.764518],[-75.061448,39.764506]]]}},{"type":"Feature","properties":{"k":"bunker"},"geometry":{"type":"Polygon","coordinates":[[[-75.062416,39.763905],[-75.062459,39.763874],[-75.062489,39.763862],[-75.062553,39.763866],[-75.062604,39.763852],[-75.062623,39.763825],[-75.062622,39.763798],[-75.062591,39.763776],[-75.062545,39.763778],[-75.06253,39.763798],[-75.062505,39.763792],[-75.062412,39.763827],[-75.062388,39.763822],[-75.062382,39.763843],[-75.062404,39.763868],[-75.062398,39.763889],[-75.062403,39.763902],[-75.062416,39.763905]]]}},{"type":"Feature","properties":{"k":"bunker"},"geometry":{"type":"Polygon","coordinates":[[[-75.0623,39.763922],[-75.062321,39.763914],[-75.062336,39.763896],[-75.062338,39.763874],[-75.062312,39.763858],[-75.062285,39.76386],[-75.062258,39.763879],[-75.062258,39.7639],[-75.0623,39.763922]]]}},{"type":"Feature","properties":{"k":"fairway"},"geometry":{"type":"Polygon","coordinates":[[[-75.065314,39.763125],[-75.065243,39.763018],[-75.064992,39.763116],[-75.065063,39.763223],[-75.065314,39.763125]]]}},{"type":"Feature","properties":{"k":"fairway"},"geometry":{"type":"Polygon","coordinates":[[[-75.065005,39.763266],[-75.064942,39.763168],[-75.064732,39.763247],[-75.064795,39.763345],[-75.065005,39.763266]]]}},{"type":"Feature","properties":{"k":"bunker"},"geometry":{"type":"Polygon","coordinates":[[[-75.063772,39.762986],[-75.063799,39.762976],[-75.063816,39.762956],[-75.063816,39.762935],[-75.063783,39.762909],[-75.063756,39.762909],[-75.063733,39.762918],[-75.063716,39.762934],[-75.063718,39.762957],[-75.063748,39.76298],[-75.063772,39.762986]]]}},{"type":"Feature","properties":{"k":"bunker"},"geometry":{"type":"Polygon","coordinates":[[[-75.063626,39.762964],[-75.063648,39.762955],[-75.063659,39.762936],[-75.063653,39.762911],[-75.063631,39.762898],[-75.063605,39.762898],[-75.063583,39.762909],[-75.063579,39.76295],[-75.063603,39.762966],[-75.063626,39.762964]]]}},{"type":"Feature","properties":{"k":"bunker"},"geometry":{"type":"Polygon","coordinates":[[[-75.063327,39.762987],[-75.063347,39.76298],[-75.063359,39.762964],[-75.063359,39.762946],[-75.063381,39.762936],[-75.063386,39.762922],[-75.063383,39.762903],[-75.063361,39.762891],[-75.063327,39.762887],[-75.063291,39.762907],[-75.06328,39.76293],[-75.06328,39.762957],[-75.063292,39.762973],[-75.063308,39.762986],[-75.063327,39.762987]]]}},{"type":"Feature","properties":{"k":"bunker"},"geometry":{"type":"Polygon","coordinates":[[[-75.064038,39.762836],[-75.064065,39.762832],[-75.064078,39.762817],[-75.064066,39.762783],[-75.064046,39.762774],[-75.064008,39.76279],[-75.064004,39.762814],[-75.064012,39.762834],[-75.064038,39.762836]]]}},{"type":"Feature","properties":{"k":"bunker"},"geometry":{"type":"Polygon","coordinates":[[[-75.063625,39.762758],[-75.063658,39.76275],[-75.063681,39.762732],[-75.063692,39.762712],[-75.063686,39.762692],[-75.063659,39.762684],[-75.063574,39.76269],[-75.063558,39.762707],[-75.063568,39.762739],[-75.063625,39.762758]]]}},{"type":"Feature","properties":{"k":"fairway"},"geometry":{"type":"Polygon","coordinates":[[[-75.060692,39.763824],[-75.06082,39.76383],[-75.060891,39.763813],[-75.061109,39.763744],[-75.061221,39.76369],[-75.061327,39.763621],[-75.061377,39.763599],[-75.0616,39.763543],[-75.061779,39.763473],[-75.062014,39.763418],[-75.062255,39.763379],[-75.062426,39.76331],[-75.062782,39.763226],[-75.062981,39.76314],[-75.063099,39.763066],[-75.063138,39.763024],[-75.063145,39.762998],[-75.063132,39.762969],[-75.063094,39.762946],[-75.063036,39.762938],[-75.062947,39.762942],[-75.062777,39.762983],[-75.062308,39.763103],[-75.062104,39.763172],[-75.061911,39.763227],[-75.061521,39.763363],[-75.061238,39.763463],[-75.061083,39.763533],[-75.060678,39.763681],[-75.060647,39.763722],[-75.060635,39.763765],[-75.060642,39.763795],[-75.060692,39.763824]]]}},{"type":"Feature","properties":{"k":"bunker"},"geometry":{"type":"Polygon","coordinates":[[[-75.066968,39.762066],[-75.067073,39.761956],[-75.067059,39.761925],[-75.067022,39.761921],[-75.066955,39.761948],[-75.066912,39.762],[-75.066861,39.762014],[-75.066829,39.762004],[-75.06678,39.762018],[-75.066767,39.762047],[-75.066778,39.762082],[-75.066812,39.762105],[-75.066896,39.762105],[-75.066968,39.762066]]]}},{"type":"Feature","properties":{"k":"bunker"},"geometry":{"type":"Polygon","coordinates":[[[-75.065713,39.762654],[-75.065768,39.762669],[-75.065797,39.762663],[-75.065815,39.762637],[-75.065799,39.762613],[-75.065775,39.762597],[-75.065689,39.762618],[-75.065666,39.76261],[-75.065584,39.76261],[-75.06556,39.762629],[-75.065556,39.762652],[-75.065607,39.762676],[-75.065643,39.762675],[-75.065713,39.762654]]]}},{"type":"Feature","properties":{"k":"bunker"},"geometry":{"type":"Polygon","coordinates":[[[-75.065859,39.76285],[-75.065868,39.762808],[-75.06585,39.762787],[-75.065827,39.762782],[-75.065808,39.762783],[-75.065796,39.762794],[-75.065793,39.762814],[-75.065757,39.762844],[-75.065761,39.76286],[-75.065784,39.762875],[-75.065836,39.762865],[-75.065859,39.76285]]]}},{"type":"Feature","properties":{"k":"fairway"},"geometry":{"type":"Polygon","coordinates":[[[-75.059316,39.764263],[-75.05927,39.764195],[-75.05901,39.764302],[-75.059053,39.764368],[-75.059316,39.764263]]]}},{"type":"Feature","properties":{"k":"green"},"geometry":{"type":"Polygon","coordinates":[[[-75.057943,39.769408],[-75.057951,39.769361],[-75.057943,39.769345],[-75.057916,39.769332],[-75.057885,39.76933],[-75.057735,39.769347],[-75.057694,39.769361],[-75.057656,39.769384],[-75.057639,39.76941],[-75.057643,39.769448],[-75.05767,39.769518],[-75.057701,39.769538],[-75.057744,39.769538],[-75.057767,39.769531],[-75.057834,39.769473],[-75.057943,39.769408]]]}},{"type":"Feature","properties":{"k":"green"},"geometry":{"type":"Polygon","coordinates":[[[-75.056886,39.766847],[-75.056907,39.766845],[-75.056947,39.766822],[-75.056998,39.766737],[-75.057116,39.766649],[-75.057125,39.766617],[-75.057106,39.7666],[-75.05705,39.766595],[-75.056945,39.76661],[-75.0569,39.766627],[-75.056857,39.766657],[-75.056834,39.766694],[-75.056815,39.766782],[-75.056842,39.766833],[-75.056864,39.766846],[-75.056886,39.766847]]]}},{"type":"Feature","properties":{"k":"green"},"geometry":{"type":"Polygon","coordinates":[[[-75.057592,39.765642],[-75.057627,39.765599],[-75.05763,39.765563],[-75.057654,39.765502],[-75.057652,39.765482],[-75.057634,39.765465],[-75.057605,39.765455],[-75.057491,39.765473],[-75.057446,39.765495],[-75.057407,39.76553],[-75.05739,39.76557],[-75.057398,39.765623],[-75.057424,39.765638],[-75.057495,39.765653],[-75.057546,39.765654],[-75.057592,39.765642]]]}},{"type":"Feature","properties":{"k":"green"},"geometry":{"type":"Polygon","coordinates":[[[-75.05684,39.763534],[-75.056875,39.76352],[-75.056905,39.763478],[-75.056923,39.763416],[-75.056913,39.763376],[-75.056894,39.763349],[-75.056839,39.763311],[-75.056773,39.763301],[-75.056737,39.763307],[-75.056673,39.763346],[-75.056661,39.763373],[-75.056669,39.763402],[-75.056788,39.763515],[-75.056821,39.763533],[-75.05684,39.763534]]]}},{"type":"Feature","properties":{"k":"green"},"geometry":{"type":"Polygon","coordinates":[[[-75.058329,39.764519],[-75.058313,39.764487],[-75.058265,39.764467],[-75.058193,39.764377],[-75.058136,39.764375],[-75.058104,39.764383],[-75.058084,39.764402],[-75.058073,39.76443],[-75.05807,39.764561],[-75.058074,39.764589],[-75.058107,39.764615],[-75.058181,39.764626],[-75.058238,39.76461],[-75.058313,39.764563],[-75.058329,39.764519]]]}},{"type":"Feature","properties":{"k":"green"},"geometry":{"type":"Polygon","coordinates":[[[-75.059714,39.7648],[-75.05974,39.764757],[-75.05974,39.764712],[-75.059692,39.764677],[-75.059573,39.764648],[-75.059533,39.76465],[-75.059496,39.764665],[-75.059475,39.764688],[-75.059457,39.76472],[-75.059457,39.764779],[-75.059474,39.764802],[-75.059496,39.764815],[-75.059571,39.764824],[-75.059654,39.764823],[-75.059686,39.764819],[-75.059714,39.7648]]]}},{"type":"Feature","properties":{"k":"green"},"geometry":{"type":"Polygon","coordinates":[[[-75.063703,39.762844],[-75.063722,39.762855],[-75.06386,39.762884],[-75.063892,39.762889],[-75.063918,39.76288],[-75.06395,39.762846],[-75.063957,39.762815],[-75.063941,39.762754],[-75.063918,39.762728],[-75.063884,39.762714],[-75.063842,39.762708],[-75.06379,39.762712],[-75.063748,39.76273],[-75.063694,39.76277],[-75.063688,39.762822],[-75.063703,39.762844]]]}},{"type":"Feature","properties":{"k":"green"},"geometry":{"type":"Polygon","coordinates":[[[-75.06575,39.762774],[-75.06576,39.762759],[-75.06575,39.762726],[-75.065708,39.76271],[-75.065611,39.762718],[-75.065447,39.76269],[-75.065415,39.762704],[-75.0654,39.762725],[-75.065402,39.762791],[-75.065427,39.762831],[-75.065496,39.762871],[-75.06562,39.76286],[-75.065702,39.76282],[-75.06575,39.762774]]]}},{"type":"Feature","properties":{"k":"green"},"geometry":{"type":"Polygon","coordinates":[[[-75.068193,39.760815],[-75.068203,39.760793],[-75.068201,39.760769],[-75.068152,39.760689],[-75.068114,39.760663],[-75.068046,39.760654],[-75.068006,39.760671],[-75.067967,39.760702],[-75.067918,39.760809],[-75.067916,39.760833],[-75.067926,39.760856],[-75.067947,39.760866],[-75.068109,39.76085],[-75.068159,39.760837],[-75.068193,39.760815]]]}},{"type":"Feature","properties":{"k":"green"},"geometry":{"type":"Polygon","coordinates":[[[-75.083175,39.75168],[-75.083173,39.751659],[-75.083187,39.751635],[-75.083225,39.751621],[-75.083281,39.751613],[-75.083346,39.751616],[-75.083397,39.751623],[-75.083432,39.751642],[-75.083453,39.751666],[-75.083464,39.7517],[-75.083461,39.751733],[-75.08343,39.751785],[-75.083422,39.751872],[-75.083391,39.751894],[-75.083354,39.751909],[-75.08332,39.751895],[-75.083298,39.751866],[-75.083261,39.751778],[-75.083187,39.751709],[-75.083175,39.75168]]]}},{"type":"Feature","properties":{"k":"green"},"geometry":{"type":"Polygon","coordinates":[[[-75.082329,39.752328],[-75.082395,39.752245],[-75.082435,39.752213],[-75.082494,39.75213],[-75.082478,39.75207],[-75.082443,39.752045],[-75.082404,39.75203],[-75.082347,39.75203],[-75.082306,39.752043],[-75.082284,39.75206],[-75.082241,39.752207],[-75.082171,39.75227],[-75.082167,39.752301],[-75.082192,39.752331],[-75.082245,39.752346],[-75.082285,39.752348],[-75.082329,39.752328]]]}},{"type":"Feature","properties":{"k":"green"},"geometry":{"type":"Polygon","coordinates":[[[-75.08113,39.754326],[-75.08116,39.754312],[-75.081173,39.754291],[-75.081173,39.754251],[-75.081102,39.754193],[-75.080994,39.754077],[-75.080964,39.754071],[-75.080921,39.754078],[-75.080849,39.754118],[-75.080822,39.754143],[-75.080812,39.754164],[-75.08081,39.754201],[-75.080821,39.754219],[-75.080905,39.75425],[-75.08105,39.754328],[-75.081089,39.754334],[-75.08113,39.754326]]]}},{"type":"Feature","properties":{"k":"green"},"geometry":{"type":"Polygon","coordinates":[[[-75.08317,39.756311],[-75.08315,39.756322],[-75.083142,39.756381],[-75.083158,39.756408],[-75.083178,39.756519],[-75.083197,39.75654],[-75.083233,39.756554],[-75.083273,39.756554],[-75.083318,39.756547],[-75.08337,39.756526],[-75.083394,39.756503],[-75.08341,39.756469],[-75.083417,39.75644],[-75.083408,39.756407],[-75.083383,39.756388],[-75.083338,39.756371],[-75.083208,39.7563],[-75.08317,39.756311]]]}},{"type":"Feature","properties":{"k":"green"},"geometry":{"type":"Polygon","coordinates":[[[-75.072844,39.757471],[-75.072935,39.757483],[-75.072999,39.757473],[-75.073047,39.757454],[-75.073106,39.757408],[-75.073117,39.757357],[-75.073098,39.757309],[-75.073072,39.757283],[-75.073027,39.757266],[-75.072982,39.757259],[-75.07294,39.757276],[-75.072905,39.757303],[-75.072864,39.75738],[-75.072807,39.757417],[-75.072797,39.757442],[-75.072813,39.757464],[-75.072844,39.757471]]]}},{"type":"Feature","properties":{"k":"green"},"geometry":{"type":"Polygon","coordinates":[[[-75.073536,39.757579],[-75.073568,39.75755],[-75.073572,39.757528],[-75.073554,39.757486],[-75.073531,39.757454],[-75.073506,39.75744],[-75.07347,39.757428],[-75.073437,39.757428],[-75.073381,39.757447],[-75.073313,39.757537],[-75.073304,39.757563],[-75.07331,39.757634],[-75.073325,39.757662],[-75.073377,39.757689],[-75.073453,39.757684],[-75.073477,39.75767],[-75.073505,39.757614],[-75.073536,39.757579]]]}},{"type":"Feature","properties":{"k":"green"},"geometry":{"type":"Polygon","coordinates":[[[-75.075581,39.756541],[-75.075575,39.756515],[-75.075544,39.756479],[-75.07539,39.756445],[-75.075355,39.756445],[-75.075327,39.756454],[-75.075284,39.756507],[-75.075272,39.75654],[-75.0753,39.75663],[-75.075322,39.756648],[-75.075354,39.756659],[-75.075453,39.75663],[-75.075541,39.756586],[-75.075569,39.756566],[-75.075581,39.756541]]]}},{"type":"Feature","properties":{"k":"green"},"geometry":{"type":"Polygon","coordinates":[[[-75.077622,39.754958],[-75.077646,39.754965],[-75.077822,39.754967],[-75.077854,39.754964],[-75.077889,39.754951],[-75.077914,39.754928],[-75.077924,39.754862],[-75.077875,39.754795],[-75.077827,39.754772],[-75.077797,39.754774],[-75.077763,39.75479],[-75.077615,39.754913],[-75.077608,39.754946],[-75.077622,39.754958]]]}},{"type":"Feature","properties":{"k":"green"},"geometry":{"type":"Polygon","coordinates":[[[-75.070566,39.759659],[-75.070542,39.759722],[-75.070515,39.759764],[-75.070478,39.759813],[-75.07043,39.759848],[-75.070389,39.759858],[-75.070342,39.759852],[-75.070291,39.759835],[-75.070257,39.759811],[-75.070224,39.759733],[-75.070225,39.759698],[-75.070244,39.759677],[-75.070283,39.759666],[-75.070348,39.759665],[-75.070474,39.759617],[-75.070505,39.759614],[-75.070555,39.759628],[-75.070566,39.759659]]]}},{"type":"Feature","properties":{"k":"green"},"geometry":{"type":"Polygon","coordinates":[[[-75.069999,39.759946],[-75.070007,39.759916],[-75.069992,39.759814],[-75.069996,39.759687],[-75.069974,39.759658],[-75.069929,39.759633],[-75.069884,39.759624],[-75.069837,39.759632],[-75.069752,39.759676],[-75.069717,39.759722],[-75.069693,39.759811],[-75.069724,39.759926],[-75.069744,39.759964],[-75.069825,39.759993],[-75.069878,39.759993],[-75.069953,39.75998],[-75.069999,39.759946]]]}},{"type":"Feature","properties":{"k":"wood"},"geometry":{"type":"Polygon","coordinates":[[[-75.068919,39.759945],[-75.069487,39.758862],[-75.069718,39.758532],[-75.069825,39.758305],[-75.071,39.757559],[-75.071198,39.75748],[-75.071676,39.757435],[-75.071683,39.757483],[-75.071594,39.757509],[-75.0707,39.758043],[-75.06967,39.758868],[-75.068919,39.759945]]]}},{"type":"Feature","properties":{"k":"path"},"geometry":{"type":"LineString","coordinates":[[-75.079235,39.754433],[-75.07949,39.754346],[-75.080171,39.754172],[-75.080305,39.754156],[-75.080359,39.754162],[-75.080451,39.754185],[-75.080527,39.754218],[-75.080557,39.754239],[-75.081044,39.754715],[-75.081173,39.754817]]}},{"type":"Feature","properties":{"k":"path"},"geometry":{"type":"LineString","coordinates":[[-75.079172,39.754351],[-75.07919,39.754309],[-75.079223,39.754281],[-75.079866,39.754093],[-75.080018,39.754036],[-75.080173,39.753939],[-75.080283,39.753839],[-75.080314,39.753801],[-75.080358,39.753719],[-75.080383,39.753629],[-75.080406,39.75358],[-75.080466,39.753506],[-75.08062,39.753416],[-75.080733,39.753361],[-75.080793,39.753321],[-75.080846,39.753272],[-75.080882,39.753197],[-75.080921,39.753153],[-75.080991,39.753118],[-75.08108,39.753094],[-75.081164,39.753059],[-75.081226,39.753024],[-75.081324,39.752946],[-75.081396,39.752854],[-75.081424,39.752839],[-75.081602,39.752789],[-75.081696,39.75278],[-75.081728,39.752687],[-75.08175,39.752531],[-75.0818,39.752373],[-75.082057,39.751976],[-75.082089,39.751907],[-75.082099,39.751821],[-75.082084,39.751759],[-75.08206,39.751725],[-75.081777,39.751424],[-75.081752,39.751366],[-75.081752,39.751339],[-75.081762,39.751319],[-75.081782,39.751309],[-75.081814,39.751304],[-75.081867,39.751312],[-75.082103,39.751412],[-75.082254,39.751461],[-75.082484,39.751579],[-75.082765,39.751777],[-75.083013,39.752042],[-75.083045,39.752072],[-75.083253,39.752194],[-75.083295,39.75226],[-75.083294,39.752311],[-75.083255,39.752506],[-75.083201,39.752653],[-75.083124,39.752822],[-75.082987,39.752982],[-75.082852,39.753167],[-75.082701,39.753422]]}},{"type":"Feature","properties":{"k":"path"},"geometry":{"type":"LineString","coordinates":[[-75.079521,39.754338],[-75.079506,39.754306],[-75.079478,39.754287],[-75.079353,39.754286],[-75.079309,39.754252]]}},{"type":"Feature","properties":{"k":"path"},"geometry":{"type":"LineString","coordinates":[[-75.081696,39.75278],[-75.081673,39.752876],[-75.081609,39.752969],[-75.081559,39.753018],[-75.081526,39.753031],[-75.081488,39.753026],[-75.081385,39.752966],[-75.081324,39.752946]]}},{"type":"Feature","properties":{"k":"path"},"geometry":{"type":"LineString","coordinates":[[-75.082463,39.755167],[-75.082507,39.755336],[-75.082554,39.755465],[-75.082898,39.756214],[-75.082891,39.756308],[-75.082865,39.756361],[-75.082862,39.756453],[-75.082909,39.756561],[-75.083005,39.756676],[-75.083068,39.756811],[-75.083068,39.756861],[-75.08305,39.756903],[-75.083017,39.756924],[-75.082933,39.756943],[-75.082851,39.756925],[-75.082824,39.756893],[-75.082732,39.756736],[-75.08258,39.756411],[-75.082509,39.75613],[-75.082439,39.755927],[-75.082404,39.755848],[-75.082342,39.755747]]}},{"type":"Feature","properties":{"k":"path"},"geometry":{"type":"LineString","coordinates":[[-75.078672,39.754923],[-75.078619,39.754882],[-75.078567,39.754828],[-75.078367,39.754588]]}},{"type":"Feature","properties":{"k":"path"},"geometry":{"type":"LineString","coordinates":[[-75.078953,39.754576],[-75.078915,39.754596],[-75.078812,39.754686],[-75.078732,39.7548],[-75.07863,39.755033],[-75.078411,39.755242],[-75.078065,39.755469],[-75.07783,39.755592],[-75.077636,39.755685]]}},{"type":"Feature","properties":{"k":"path"},"geometry":{"type":"LineString","coordinates":[[-75.078907,39.7545],[-75.078828,39.754472],[-75.078721,39.754459],[-75.078598,39.75448],[-75.078462,39.754531],[-75.07841,39.754557],[-75.078331,39.754611],[-75.0781,39.754808],[-75.077998,39.75505],[-75.077963,39.75509],[-75.07792,39.755114],[-75.077808,39.755143],[-75.077671,39.755147],[-75.077596,39.755158],[-75.077504,39.755193],[-75.076834,39.755522],[-75.076691,39.755586],[-75.076418,39.755694],[-75.076203,39.755817],[-75.075923,39.75593],[-75.075591,39.756045],[-75.07549,39.756089],[-75.075449,39.756116],[-75.075281,39.756263],[-75.075126,39.756354],[-75.075051,39.756379],[-75.074822,39.756424],[-75.074624,39.756477],[-75.074232,39.756653],[-75.074082,39.756707],[-75.074037,39.75673],[-75.073957,39.756786],[-75.073863,39.756932],[-75.073765,39.757057],[-75.073614,39.757186],[-75.073336,39.757367],[-75.073249,39.757448],[-75.072961,39.757828],[-75.072872,39.757916],[-75.072773,39.757986],[-75.072623,39.758046],[-75.071848,39.758234],[-75.071344,39.758408],[-75.070903,39.75859],[-75.070776,39.758671],[-75.07063,39.75878],[-75.070506,39.758886],[-75.070329,39.758968],[-75.070291,39.759005],[-75.070257,39.759056],[-75.070037,39.759274],[-75.069982,39.759367],[-75.069942,39.759462],[-75.069876,39.759533],[-75.069689,39.759679],[-75.069633,39.759744],[-75.069608,39.759803],[-75.069618,39.759886],[-75.06961,39.759936],[-75.069587,39.759984],[-75.069523,39.760032],[-75.069444,39.760046],[-75.069353,39.760038]]}},{"type":"Feature","properties":{"k":"path"},"geometry":{"type":"LineString","coordinates":[[-75.082342,39.755747],[-75.082258,39.755624],[-75.082044,39.755177],[-75.081567,39.754537],[-75.081429,39.754322],[-75.08136,39.754157],[-75.081256,39.754022],[-75.081052,39.753929],[-75.08084,39.753923],[-75.080681,39.753968],[-75.080429,39.754106],[-75.080305,39.754156]]}},{"type":"Feature","properties":{"k":"path"},"geometry":{"type":"LineString","coordinates":[[-75.073059,39.758205],[-75.072981,39.758242],[-75.072938,39.758247],[-75.072878,39.758234],[-75.072829,39.758205],[-75.07267,39.758031]]}},{"type":"Feature","properties":{"k":"path"},"geometry":{"type":"LineString","coordinates":[[-75.073059,39.758205],[-75.073158,39.758146],[-75.073593,39.758],[-75.07367,39.757968],[-75.073839,39.75787],[-75.073868,39.757821],[-75.073856,39.757703],[-75.07388,39.757654],[-75.074051,39.757555],[-75.074139,39.757512],[-75.074349,39.757447],[-75.074423,39.757416],[-75.074476,39.757374],[-75.074535,39.757269],[-75.074591,39.757226],[-75.074646,39.757205],[-75.074799,39.757185],[-75.074871,39.757162],[-75.075356,39.756934],[-75.075533,39.756819],[-75.075637,39.756764],[-75.075842,39.756722],[-75.076193,39.756614],[-75.076601,39.756465]]}},{"type":"Feature","properties":{"k":"path"},"geometry":{"type":"LineString","coordinates":[[-75.075923,39.75593],[-75.07662,39.755784],[-75.076878,39.755758],[-75.077125,39.755686],[-75.077394,39.755548],[-75.077634,39.755376],[-75.077784,39.755253],[-75.077963,39.75509]]}},{"type":"Feature","properties":{"k":"path"},"geometry":{"type":"LineString","coordinates":[[-75.072114,39.75756],[-75.072244,39.757478],[-75.07243,39.75738],[-75.072474,39.757335],[-75.07268,39.757205],[-75.072846,39.757058],[-75.073372,39.756868],[-75.073949,39.756583],[-75.074056,39.75654],[-75.074822,39.756424]]}}]}