{"type":"FeatureCollection","features":[{"type":"Feature","properties":{"k":"hole","ref":"1","par":3,"hcp":15},"geometry":{"type":"LineString","coordinates":[[-118.411709,33.95915],[-118.41174,33.958378]]}},{"type":"Feature","properties":{"k":"hole","ref":"2","par":4,"hcp":3},"geometry":{"type":"LineString","coordinates":[[-118.411748,33.957922],[-118.411166,33.955366]]}},{"type":"Feature","properties":{"k":"hole","ref":"3","par":3,"hcp":1},"geometry":{"type":"LineString","coordinates":[[-118.41148,33.955368],[-118.412134,33.956618]]}},{"type":"Feature","properties":{"k":"hole","ref":"4","par":3,"hcp":7},"geometry":{"type":"LineString","coordinates":[[-118.411979,33.957038],[-118.413317,33.956927]]}},{"type":"Feature","properties":{"k":"hole","ref":"5","par":4,"hcp":9},"geometry":{"type":"LineString","coordinates":[[-118.413495,33.956575],[-118.412697,33.954467]]}},{"type":"Feature","properties":{"k":"hole","ref":"6","par":4,"hcp":9},"geometry":{"type":"LineString","coordinates":[[-118.412198,33.954285],[-118.412947,33.956483]]}},{"type":"Feature","properties":{"k":"hole","ref":"7","par":4,"hcp":11},"geometry":{"type":"LineString","coordinates":[[-118.412593,33.956632],[-118.411872,33.955097],[-118.411072,33.954894]]}},{"type":"Feature","properties":{"k":"hole","ref":"8","par":3,"hcp":5},"geometry":{"type":"LineString","coordinates":[[-118.410525,33.954812],[-118.410767,33.955995]]}},{"type":"Feature","properties":{"k":"hole","ref":"9","par":4,"hcp":13},"geometry":{"type":"LineString","coordinates":[[-118.41084,33.95639],[-118.411241,33.959058]]}},{"type":"Feature","properties":{"k":"hole","ref":"10","par":4,"hcp":16},"geometry":{"type":"LineString","coordinates":[[-118.410873,33.959227],[-118.410342,33.957838],[-118.410463,33.956514]]}},{"type":"Feature","properties":{"k":"hole","ref":"11","par":3,"hcp":8},"geometry":{"type":"LineString","coordinates":[[-118.410404,33.95611],[-118.410196,33.954896]]}},{"type":"Feature","properties":{"k":"hole","ref":"12","par":3,"hcp":10},"geometry":{"type":"LineString","coordinates":[[-118.410468,33.954676],[-118.411851,33.954235]]}},{"type":"Feature","properties":{"k":"hole","ref":"13","par":3,"hcp":12},"geometry":{"type":"LineString","coordinates":[[-118.411378,33.954233],[-118.409996,33.954524]]}},{"type":"Feature","properties":{"k":"hole","ref":"14","par":3,"hcp":6},"geometry":{"type":"LineString","coordinates":[[-118.409533,33.954485],[-118.40975,33.955676]]}},{"type":"Feature","properties":{"k":"hole","ref":"15","par":5,"hcp":14},"geometry":{"type":"LineString","coordinates":[[-118.40971,33.956131],[-118.406867,33.95562],[-118.404885,33.956169]]}},{"type":"Feature","properties":{"k":"hole","ref":"16","par":3,"hcp":4},"geometry":{"type":"LineString","coordinates":[[-118.404762,33.956772],[-118.406266,33.956354]]}},{"type":"Feature","properties":{"k":"hole","ref":"17","par":4,"hcp":4},"geometry":{"type":"LineString","coordinates":[[-118.406449,33.956793],[-118.408182,33.956406],[-118.409773,33.956519]]}},{"type":"Feature","properties":{"k":"hole","ref":"18","par":4,"hcp":18},"geometry":{"type":"LineString","coordinates":[[-118.409458,33.957081],[-118.409812,33.958431],[-118.410473,33.959291]]}},{"type":"Feature","properties":{"k":"clubhouse"},"geometry":{"type":"Polygon","coordinates":[[[-118.411425,33.959544],[-118.411426,33.959515],[-118.411395,33.959514],[-118.411395,33.959535],[-118.411175,33.959532],[-118.411177,33.959412],[-118.411397,33.959415],[-118.411396,33.959478],[-118.411427,33.959478],[-118.411427,33.959444],[-118.411714,33.959448],[-118.411714,33.959487],[-118.41183,33.959489],[-118.411829,33.959528],[-118.411713,33.959527],[-118.411713,33.959549],[-118.411425,33.959544]]]}},{"type":"Feature","properties":{"k":"path"},"geometry":{"type":"LineString","coordinates":[[-118.405601,33.955463],[-118.405438,33.955456],[-118.405324,33.955467],[-118.405021,33.955542],[-118.404923,33.95557],[-118.404851,33.955608],[-118.404796,33.95565],[-118.404757,33.955696],[-118.404715,33.955836],[-118.404636,33.955956],[-118.40462,33.956002],[-118.404638,33.95632],[-118.40467,33.956457],[-118.404659,33.956527],[-118.404675,33.956582],[-118.404703,33.956625],[-118.40475,33.956645],[-118.404931,33.95664],[-118.405049,33.956654],[-118.405205,33.956644],[-118.40526,33.956664],[-118.405452,33.956773],[-118.405503,33.956791],[-118.405563,33.956798],[-118.405812,33.956797],[-118.405914,33.956803],[-118.405974,33.95679],[-118.406049,33.956758],[-118.406106,33.956715],[-118.406187,33.956692],[-118.406274,33.956702],[-118.406352,33.956701],[-118.406458,33.956671],[-118.406651,33.956664],[-118.406715,33.956655],[-118.406763,33.956637]]}},{"type":"Feature","properties":{"k":"path"},"geometry":{"type":"LineString","coordinates":[[-118.409239,33.956734],[-118.409405,33.956743],[-118.409503,33.95673]]}},{"type":"Feature","properties":{"k":"path"},"geometry":{"type":"LineString","coordinates":[[-118.409644,33.957366],[-118.409616,33.957241],[-118.40961,33.957112],[-118.409594,33.957034],[-118.40956,33.956995],[-118.409447,33.956937],[-118.409424,33.956879],[-118.409405,33.956743]]}},{"type":"Feature","properties":{"k":"path"},"geometry":{"type":"LineString","coordinates":[[-118.410257,33.956723],[-118.410235,33.95653],[-118.410249,33.956459],[-118.410314,33.956348],[-118.410322,33.956317],[-118.41032,33.956269],[-118.410237,33.955888]]}},{"type":"Feature","properties":{"k":"path"},"geometry":{"type":"LineString","coordinates":[[-118.410712,33.956709],[-118.410701,33.956617],[-118.410722,33.956563],[-118.410729,33.956518],[-118.410722,33.95641],[-118.410706,33.95629],[-118.410647,33.956126],[-118.410608,33.955958],[-118.410585,33.955743]]}},{"type":"Feature","properties":{"k":"path"},"geometry":{"type":"LineString","coordinates":[[-118.40969,33.954556],[-118.409706,33.954505],[-118.409699,33.954468],[-118.409661,33.954451],[-118.409636,33.954482],[-118.409637,33.954542],[-118.409666,33.954594],[-118.40969,33.954556]]}},{"type":"Feature","properties":{"k":"path"},"geometry":{"type":"LineString","coordinates":[[-118.408892,33.955791],[-118.408971,33.955804],[-118.409041,33.955829],[-118.409109,33.955862],[-118.409224,33.955942],[-118.409464,33.955989],[-118.409588,33.956043],[-118.409663,33.956056],[-118.409726,33.956048],[-118.409786,33.956027],[-118.409908,33.955954],[-118.409941,33.955918],[-118.409993,33.955787],[-118.410018,33.955693],[-118.410026,33.955582],[-118.409946,33.955438],[-118.409931,33.955377],[-118.409907,33.955163],[-118.409884,33.955092],[-118.409857,33.955037],[-118.409722,33.954879],[-118.409696,33.954834],[-118.409666,33.954594]]}},{"type":"Feature","properties":{"k":"path"},"geometry":{"type":"LineString","coordinates":[[-118.410337,33.954652],[-118.410116,33.954672],[-118.409935,33.954716],[-118.409843,33.954723],[-118.409683,33.954718]]}},{"type":"Feature","properties":{"k":"path"},"geometry":{"type":"LineString","coordinates":[[-118.410355,33.954607],[-118.411362,33.954338]]}},{"type":"Feature","properties":{"k":"path"},"geometry":{"type":"LineString","coordinates":[[-118.410363,33.955087],[-118.410396,33.954961],[-118.4104,33.954905],[-118.410339,33.954694],[-118.410337,33.954652],[-118.410392,33.954539],[-118.410434,33.954501],[-118.410504,33.954475],[-118.410696,33.954437],[-118.411044,33.954351],[-118.411402,33.954286],[-118.411434,33.954295],[-118.41143,33.954319],[-118.411362,33.954338]]}},{"type":"Feature","properties":{"k":"path"},"geometry":{"type":"LineString","coordinates":[[-118.412604,33.954752],[-118.412548,33.954701],[-118.412486,33.954567],[-118.412424,33.95438],[-118.412401,33.954245],[-118.412384,33.954218],[-118.412349,33.954199],[-118.412309,33.954192],[-118.412285,33.954206],[-118.412289,33.954234],[-118.412373,33.954539]]}},{"type":"Feature","properties":{"k":"path"},"geometry":{"type":"LineString","coordinates":[[-118.411252,33.955078],[-118.411479,33.95508]]}},{"type":"Feature","properties":{"k":"path"},"geometry":{"type":"LineString","coordinates":[[-118.410981,33.955602],[-118.410953,33.955483],[-118.410941,33.955382],[-118.410936,33.955298],[-118.410946,33.955244],[-118.410974,33.95517],[-118.411036,33.955112],[-118.411098,33.955081],[-118.411159,33.955066]]}},{"type":"Feature","properties":{"k":"path"},"geometry":{"type":"LineString","coordinates":[[-118.411723,33.955613],[-118.411669,33.955505],[-118.411571,33.955249],[-118.411523,33.955209],[-118.411341,33.955111],[-118.411252,33.955078],[-118.411058,33.955057],[-118.410962,33.955031],[-118.410815,33.954949],[-118.410734,33.954894],[-118.41071,33.954905],[-118.410725,33.955024],[-118.410725,33.955132]]}},{"type":"Feature","properties":{"k":"path"},"geometry":{"type":"LineString","coordinates":[[-118.4119,33.956444],[-118.411899,33.956593],[-118.41186,33.956897],[-118.411881,33.956927],[-118.411916,33.956936],[-118.412614,33.95689],[-118.412845,33.956852],[-118.412928,33.956813],[-118.413029,33.956749],[-118.413171,33.956742],[-118.413254,33.956713],[-118.413371,33.956657],[-118.413382,33.956592],[-118.413358,33.956469],[-118.413261,33.956277]]}},{"type":"Feature","properties":{"k":"path"},"geometry":{"type":"LineString","coordinates":[[-118.412781,33.95633],[-118.41276,33.956513],[-118.412742,33.956566],[-118.412712,33.956578],[-118.41269,33.956559],[-118.412663,33.956508],[-118.412611,33.956379]]}},{"type":"Feature","properties":{"k":"path"},"geometry":{"type":"LineString","coordinates":[[-118.41147,33.959333],[-118.411507,33.958971],[-118.411452,33.958881],[-118.411434,33.958835]]}},{"type":"Feature","properties":{"k":"path"},"geometry":{"type":"LineString","coordinates":[[-118.410147,33.959228],[-118.41024,33.959306],[-118.410366,33.959389],[-118.410449,33.959424],[-118.410506,33.959429],[-118.410698,33.959409],[-118.41108,33.95939],[-118.411118,33.959345]]}},{"type":"Feature","properties":{"k":"path"},"geometry":{"type":"LineString","coordinates":[[-118.411386,33.957263],[-118.411445,33.957403],[-118.411483,33.957523],[-118.411516,33.957676],[-118.411646,33.957986],[-118.41165,33.958029],[-118.411605,33.958134],[-118.411557,33.958195],[-118.411532,33.958249],[-118.411524,33.958314],[-118.411551,33.958464],[-118.411593,33.958616],[-118.411577,33.959223],[-118.411559,33.959331],[-118.411118,33.959345],[-118.41105,33.95932],[-118.411005,33.959288],[-118.410936,33.959068],[-118.410835,33.958881]]}},{"type":"Feature","properties":{"k":"water"},"geometry":{"type":"Polygon","coordinates":[[[-118.411456,33.956036],[-118.411395,33.956046],[-118.411304,33.956032],[-118.411165,33.955946],[-118.41112,33.955875],[-118.411136,33.955825],[-118.411229,33.955772],[-118.411311,33.955746],[-118.411354,33.955743],[-118.411381,33.955761],[-118.411423,33.955769],[-118.411501,33.955811],[-118.411536,33.95584],[-118.411556,33.955877],[-118.411565,33.956026],[-118.411542,33.956047],[-118.411516,33.956043],[-118.411501,33.956023],[-118.411508,33.956004],[-118.411504,33.955985],[-118.411487,33.955967],[-118.411476,33.955973],[-118.411476,33.956007],[-118.411456,33.956036]]]}},{"type":"Feature","properties":{"k":"bunker"},"geometry":{"type":"Polygon","coordinates":[[[-118.411639,33.958501],[-118.41166,33.958497],[-118.41167,33.958483],[-118.411667,33.958433],[-118.411649,33.958395],[-118.411622,33.958392],[-118.4116,33.958415],[-118.411599,33.95845],[-118.411611,33.958491],[-118.411639,33.958501]]]}},{"type":"Feature","properties":{"k":"tee"},"geometry":{"type":"Polygon","coordinates":[[[-118.411785,33.959274],[-118.411613,33.959269],[-118.411624,33.959069],[-118.411792,33.959074],[-118.411785,33.959274]]]}},{"type":"Feature","properties":{"k":"tee"},"geometry":{"type":"Polygon","coordinates":[[[-118.411843,33.958045],[-118.411715,33.958062],[-118.411658,33.957818],[-118.411784,33.957798],[-118.411843,33.958045]]]}},{"type":"Feature","properties":{"k":"fairway"},"geometry":{"type":"Polygon","coordinates":[[[-118.411686,33.957566],[-118.411751,33.957517],[-118.411776,33.957465],[-118.411782,33.957402],[-118.411749,33.957258],[-118.41172,33.95717],[-118.411631,33.956999],[-118.411631,33.956969],[-118.411687,33.956838],[-118.411697,33.956777],[-118.411668,33.956651],[-118.411565,33.956436],[-118.411548,33.956366],[-118.411548,33.956239],[-118.411532,33.956194],[-118.411473,33.956122],[-118.411406,33.956076],[-118.411148,33.956011],[-118.411095,33.956051],[-118.411058,33.956203],[-118.411055,33.956292],[-118.411107,33.956458],[-118.41126,33.956754],[-118.411249,33.956893],[-118.411262,33.956953],[-118.411302,33.957041],[-118.411442,33.957235],[-118.411479,33.957329],[-118.411487,33.957408],[-118.411522,33.957535],[-118.411546,33.957562],[-118.411569,33.957572],[-118.411621,33.957575],[-118.411686,33.957566]]]}},{"type":"Feature","properties":{"k":"range"},"geometry":{"type":"Polygon","coordinates":[[[-118.411933,33.959221],[-118.412026,33.959258],[-118.41208,33.959267],[-118.412903,33.959277],[-118.413067,33.959268],[-118.413197,33.959244],[-118.413564,33.959138],[-118.413579,33.957524],[-118.413198,33.957143],[-118.412393,33.957182],[-118.412009,33.957537],[-118.411933,33.959221]]]}},{"type":"Feature","properties":{"k":"tee"},"geometry":{"type":"Polygon","coordinates":[[[-118.411616,33.955458],[-118.411472,33.9555],[-118.411362,33.955274],[-118.411505,33.955225],[-118.411616,33.955458]]]}},{"type":"Feature","properties":{"k":"tee"},"geometry":{"type":"Polygon","coordinates":[[[-118.41215,33.9571],[-118.411864,33.957117],[-118.411852,33.956977],[-118.412133,33.956961],[-118.41215,33.9571]]]}},{"type":"Feature","properties":{"k":"bunker"},"geometry":{"type":"Polygon","coordinates":[[[-118.413238,33.956854],[-118.413275,33.956821],[-118.41327,33.956801],[-118.413241,33.956781],[-118.413202,33.956784],[-118.413159,33.956823],[-118.413159,33.956847],[-118.413185,33.956867],[-118.413205,33.956868],[-118.413238,33.956854]]]}},{"type":"Feature","properties":{"k":"tee"},"geometry":{"type":"Polygon","coordinates":[[[-118.413563,33.95664],[-118.413467,33.956657],[-118.413363,33.956367],[-118.41347,33.956338],[-118.413563,33.95664]]]}},{"type":"Feature","properties":{"k":"bunker"},"geometry":{"type":"Polygon","coordinates":[[[-118.412671,33.954644],[-118.412696,33.954639],[-118.4127,33.954632],[-118.412701,33.954593],[-118.412669,33.954554],[-118.412636,33.954549],[-118.412619,33.954584],[-118.412624,33.954616],[-118.412645,33.95464],[-118.412671,33.954644]]]}},{"type":"Feature","properties":{"k":"tee"},"geometry":{"type":"Polygon","coordinates":[[[-118.412298,33.954364],[-118.412167,33.954381],[-118.412124,33.954192],[-118.412245,33.954178],[-118.412298,33.954364]]]}},{"type":"Feature","properties":{"k":"tee"},"geometry":{"type":"Polygon","coordinates":[[[-118.412714,33.956713],[-118.412588,33.956745],[-118.412489,33.956522],[-118.412614,33.956485],[-118.412714,33.956713]]]}},{"type":"Feature","properties":{"k":"tee"},"geometry":{"type":"Polygon","coordinates":[[[-118.410901,33.956541],[-118.410777,33.956546],[-118.410744,33.956276],[-118.410868,33.956266],[-118.410901,33.956541]]]}},{"type":"Feature","properties":{"k":"bunker"},"geometry":{"type":"Polygon","coordinates":[[[-118.411396,33.959031],[-118.411435,33.95899],[-118.411439,33.958974],[-118.411425,33.958951],[-118.411394,33.958939],[-118.411371,33.958951],[-118.411355,33.958972],[-118.411351,33.958993],[-118.411369,33.959035],[-118.411396,33.959031]]]}},{"type":"Feature","properties":{"k":"tee"},"geometry":{"type":"Polygon","coordinates":[[[-118.410957,33.959311],[-118.410832,33.959336],[-118.410733,33.958996],[-118.41087,33.958975],[-118.410957,33.959311]]]}},{"type":"Feature","properties":{"k":"bunker"},"geometry":{"type":"Polygon","coordinates":[[[-118.410591,33.956554],[-118.410605,33.95654],[-118.410621,33.956542],[-118.410618,33.956576],[-118.410625,33.956583],[-118.410634,33.956564],[-118.410661,33.956564],[-118.410676,33.956615],[-118.41065,33.956653],[-118.410614,33.95668],[-118.410584,33.956687],[-118.410565,33.956682],[-118.410549,33.956654],[-118.410586,33.956621],[-118.410574,33.956578],[-118.410591,33.956554]]]}},{"type":"Feature","properties":{"k":"tee"},"geometry":{"type":"Polygon","coordinates":[[[-118.410498,33.956218],[-118.410353,33.956226],[-118.410309,33.955984],[-118.410471,33.955971],[-118.410498,33.956218]]]}},{"type":"Feature","properties":{"k":"tee"},"geometry":{"type":"Polygon","coordinates":[[[-118.411482,33.954251],[-118.411102,33.954317],[-118.411085,33.954238],[-118.411476,33.954196],[-118.411482,33.954251]]]}},{"type":"Feature","properties":{"k":"tee"},"geometry":{"type":"Polygon","coordinates":[[[-118.411035,33.954336],[-118.410885,33.954362],[-118.410866,33.954274],[-118.41102,33.954252],[-118.411035,33.954336]]]}},{"type":"Feature","properties":{"k":"tee"},"geometry":{"type":"Polygon","coordinates":[[[-118.409632,33.954769],[-118.409534,33.954777],[-118.409514,33.954643],[-118.409619,33.954635],[-118.409632,33.954769]]]}},{"type":"Feature","properties":{"k":"tee"},"geometry":{"type":"Polygon","coordinates":[[[-118.409606,33.954592],[-118.409495,33.954601],[-118.409471,33.954422],[-118.409581,33.954411],[-118.409606,33.954592]]]}},{"type":"Feature","properties":{"k":"tee"},"geometry":{"type":"Polygon","coordinates":[[[-118.409783,33.956177],[-118.409664,33.95616],[-118.409677,33.956088],[-118.409801,33.95611],[-118.409783,33.956177]]]}},{"type":"Feature","properties":{"k":"tee"},"geometry":{"type":"Polygon","coordinates":[[[-118.409317,33.956089],[-118.409331,33.956007],[-118.409493,33.95604],[-118.40948,33.956118],[-118.409317,33.956089]]]}},{"type":"Feature","properties":{"k":"tee"},"geometry":{"type":"Polygon","coordinates":[[[-118.408987,33.955921],[-118.408895,33.955908],[-118.408911,33.955847],[-118.408998,33.955861],[-118.408987,33.955921]]]}},{"type":"Feature","properties":{"k":"tee"},"geometry":{"type":"Polygon","coordinates":[[[-118.404956,33.956793],[-118.404714,33.956836],[-118.404691,33.95673],[-118.404935,33.95668],[-118.404956,33.956793]]]}},{"type":"Feature","properties":{"k":"tee"},"geometry":{"type":"Polygon","coordinates":[[[-118.405226,33.956763],[-118.4051,33.956779],[-118.405089,33.956705],[-118.405219,33.95669],[-118.405226,33.956763]]]}},{"type":"Feature","properties":{"k":"tee"},"geometry":{"type":"Polygon","coordinates":[[[-118.406547,33.956825],[-118.406377,33.956848],[-118.406355,33.956762],[-118.406531,33.956736],[-118.406547,33.956825]]]}},{"type":"Feature","properties":{"k":"tee"},"geometry":{"type":"Polygon","coordinates":[[[-118.406718,33.956809],[-118.406583,33.956823],[-118.406564,33.956751],[-118.406703,33.956726],[-118.406718,33.956809]]]}},{"type":"Feature","properties":{"k":"tee"},"geometry":{"type":"Polygon","coordinates":[[[-118.409515,33.957112],[-118.409423,33.957141],[-118.409367,33.957004],[-118.409456,33.956978],[-118.409515,33.957112]]]}},{"type":"Feature","properties":{"k":"tee"},"geometry":{"type":"Polygon","coordinates":[[[-118.409605,33.957319],[-118.409493,33.957343],[-118.409425,33.957175],[-118.409542,33.957139],[-118.409605,33.957319]]]}},{"type":"Feature","properties":{"k":"bunker"},"geometry":{"type":"Polygon","coordinates":[[[-118.409656,33.955546],[-118.409668,33.955558],[-118.409668,33.955573],[-118.409644,33.955605],[-118.409647,33.95565],[-118.409644,33.955667],[-118.409623,33.955685],[-118.409624,33.955727],[-118.409596,33.955751],[-118.409567,33.955756],[-118.409544,33.955752],[-118.409535,33.95574],[-118.409536,33.955707],[-118.40956,33.955672],[-118.409565,33.955644],[-118.409541,33.955606],[-118.409538,33.955578],[-118.409575,33.955545],[-118.409656,33.955546]]]}},{"type":"Feature","properties":{"k":"bunker"},"geometry":{"type":"Polygon","coordinates":[[[-118.405241,33.956052],[-118.405207,33.956083],[-118.405208,33.956095],[-118.405237,33.956108],[-118.405289,33.956083],[-118.405312,33.956042],[-118.405306,33.95603],[-118.405282,33.956023],[-118.405266,33.956028],[-118.405241,33.956052]]]}},{"type":"Feature","properties":{"k":"bunker"},"geometry":{"type":"Polygon","coordinates":[[[-118.405117,33.956045],[-118.405089,33.956052],[-118.405081,33.956062],[-118.405067,33.956103],[-118.405068,33.95615],[-118.405037,33.956174],[-118.405022,33.956204],[-118.405023,33.956236],[-118.405057,33.956254],[-118.405077,33.956252],[-118.405097,33.956234],[-118.405098,33.95619],[-118.40513,33.956148],[-118.405124,33.956118],[-118.405152,33.956086],[-118.405144,33.956054],[-118.405117,33.956045]]]}},{"type":"Feature","properties":{"k":"bunker"},"geometry":{"type":"Polygon","coordinates":[[[-118.404787,33.95607],[-118.404721,33.956036],[-118.404723,33.956],[-118.404758,33.955955],[-118.404807,33.955943],[-118.404823,33.955921],[-118.404846,33.955915],[-118.404877,33.955921],[-118.404907,33.95595],[-118.404917,33.955994],[-118.404896,33.956013],[-118.404845,33.956032],[-118.404787,33.95607]]]}},{"type":"Feature","properties":{"k":"bunker"},"geometry":{"type":"Polygon","coordinates":[[[-118.405275,33.955667],[-118.405296,33.955668],[-118.405379,33.955635],[-118.405389,33.955597],[-118.40537,33.955562],[-118.405332,33.955561],[-118.405251,33.955603],[-118.405243,33.955622],[-118.405262,33.955659],[-118.405275,33.955667]]]}},{"type":"Feature","properties":{"k":"bunker"},"geometry":{"type":"Polygon","coordinates":[[[-118.404935,33.955781],[-118.405018,33.955728],[-118.405022,33.955699],[-118.405011,33.955685],[-118.404991,33.95568],[-118.404958,33.955686],[-118.404914,33.955716],[-118.40486,33.95574],[-118.40485,33.955762],[-118.404871,33.955792],[-118.404909,33.955798],[-118.404927,33.955792],[-118.404935,33.955781]]]}},{"type":"Feature","properties":{"k":"bunker"},"geometry":{"type":"Polygon","coordinates":[[[-118.406107,33.95633],[-118.406134,33.956334],[-118.406191,33.956274],[-118.406201,33.956232],[-118.40624,33.956209],[-118.406239,33.95619],[-118.406203,33.956156],[-118.406149,33.956153],[-118.40611,33.956169],[-118.406075,33.956194],[-118.406065,33.956241],[-118.406095,33.956318],[-118.406107,33.95633]]]}},{"type":"Feature","properties":{"k":"bunker"},"geometry":{"type":"Polygon","coordinates":[[[-118.406115,33.956509],[-118.40611,33.956535],[-118.406118,33.956558],[-118.406145,33.956563],[-118.40616,33.956537],[-118.406193,33.956526],[-118.406207,33.956538],[-118.406225,33.956583],[-118.406286,33.956597],[-118.406308,33.956592],[-118.406321,33.956578],[-118.406343,33.956517],[-118.406337,33.956501],[-118.40631,33.956485],[-118.406225,33.956494],[-118.406163,33.95648],[-118.406133,33.956485],[-118.406115,33.956509]]]}},{"type":"Feature","properties":{"k":"bunker"},"geometry":{"type":"Polygon","coordinates":[[[-118.409441,33.95637],[-118.409444,33.956327],[-118.409467,33.9563],[-118.409499,33.956303],[-118.409533,33.95633],[-118.409538,33.956348],[-118.409531,33.956373],[-118.409512,33.956395],[-118.409498,33.956429],[-118.409478,33.956443],[-118.409438,33.956442],[-118.409423,33.956427],[-118.40942,33.956395],[-118.409441,33.95637]]]}},{"type":"Feature","properties":{"k":"bunker"},"geometry":{"type":"Polygon","coordinates":[[[-118.409629,33.95663],[-118.409649,33.956631],[-118.409673,33.956648],[-118.409691,33.956649],[-118.409717,33.956644],[-118.409731,33.956627],[-118.409711,33.956589],[-118.409694,33.956573],[-118.409634,33.956551],[-118.409615,33.95655],[-118.409593,33.956569],[-118.409594,33.9566],[-118.409605,33.956619],[-118.409629,33.95663]]]}},{"type":"Feature","properties":{"k":"tee"},"geometry":{"type":"Polygon","coordinates":[[[-118.410629,33.954924],[-118.410477,33.954928],[-118.410409,33.954643],[-118.410632,33.954585],[-118.410658,33.954721],[-118.410602,33.954733],[-118.410629,33.954924]]]}},{"type":"Feature","properties":{"k":"tee"},"geometry":{"type":"Polygon","coordinates":[[[-118.411008,33.959576],[-118.410913,33.959587],[-118.410798,33.959585],[-118.410636,33.959608],[-118.410588,33.959593],[-118.410573,33.959557],[-118.41058,33.959508],[-118.410612,33.959491],[-118.41081,33.959498],[-118.410964,33.959487],[-118.411,33.95949],[-118.411025,33.95951],[-118.411031,33.959558],[-118.411008,33.959576]]]}},{"type":"Feature","properties":{"k":"green"},"geometry":{"type":"Polygon","coordinates":[[[-118.410118,33.959527],[-118.410033,33.959545],[-118.409927,33.959533],[-118.409836,33.959552],[-118.409777,33.959552],[-118.409756,33.959538],[-118.409712,33.959526],[-118.409678,33.959504],[-118.409653,33.959473],[-118.40965,33.959419],[-118.409672,33.959397],[-118.409712,33.959382],[-118.409738,33.959382],[-118.409808,33.959405],[-118.409832,33.959407],[-118.409887,33.959392],[-118.40992,33.959394],[-118.410027,33.95943],[-118.410133,33.959419],[-118.410181,33.959446],[-118.410189,33.959477],[-118.410182,33.959496],[-118.410165,33.959513],[-118.410118,33.959527]]]}},{"type":"Feature","properties":{"k":"bunker"},"geometry":{"type":"Polygon","coordinates":[[[-118.410214,33.959592],[-118.410202,33.959601],[-118.410147,33.959598],[-118.410106,33.959605],[-118.410091,33.959599],[-118.410086,33.959582],[-118.410093,33.959565],[-118.410173,33.959555],[-118.410204,33.959537],[-118.410236,33.959556],[-118.410226,33.959584],[-118.410214,33.959592]]]}},{"type":"Feature","properties":{"k":"bunker"},"geometry":{"type":"Polygon","coordinates":[[[-118.410002,33.959612],[-118.409992,33.959619],[-118.40996,33.959612],[-118.40991,33.959615],[-118.409897,33.959595],[-118.409913,33.959576],[-118.409975,33.959568],[-118.409997,33.959572],[-118.410008,33.959589],[-118.410002,33.959612]]]}},{"type":"Feature","properties":{"k":"bunker"},"geometry":{"type":"Polygon","coordinates":[[[-118.409777,33.959591],[-118.409763,33.95962],[-118.409731,33.959623],[-118.40969,33.959595],[-118.409653,33.959601],[-118.409652,33.959589],[-118.409624,33.959579],[-118.409609,33.959562],[-118.40961,33.959542],[-118.409626,33.959521],[-118.409643,33.959517],[-118.409662,33.959525],[-118.409697,33.959565],[-118.409715,33.959571],[-118.409751,33.959567],[-118.409773,33.959579],[-118.409777,33.959591]]]}},{"type":"Feature","properties":{"k":"green"},"geometry":{"type":"Polygon","coordinates":[[[-118.41183,33.958446],[-118.411805,33.958454],[-118.411765,33.958453],[-118.411727,33.958438],[-118.41168,33.958355],[-118.411675,33.958324],[-118.41168,33.958295],[-118.411705,33.958274],[-118.411742,33.958267],[-118.411787,33.958278],[-118.41183,33.958317],[-118.411861,33.958399],[-118.411853,33.958421],[-118.41183,33.958446]]]}},{"type":"Feature","properties":{"k":"green"},"geometry":{"type":"Polygon","coordinates":[[[-118.411167,33.955488],[-118.411141,33.955474],[-118.411069,33.95526],[-118.41108,33.955241],[-118.411107,33.955233],[-118.411136,33.95523],[-118.411181,33.955256],[-118.411249,33.955327],[-118.411264,33.955356],[-118.411257,33.955427],[-118.411228,33.95548],[-118.411202,33.955489],[-118.411167,33.955488]]]}},{"type":"Feature","properties":{"k":"green"},"geometry":{"type":"Polygon","coordinates":[[[-118.41219,33.956723],[-118.41216,33.956736],[-118.412122,33.956729],[-118.412088,33.956701],[-118.412043,33.95662],[-118.412034,33.95658],[-118.412047,33.956537],[-118.412076,33.956524],[-118.412154,33.956524],[-118.412205,33.956554],[-118.412233,33.956584],[-118.412245,33.956624],[-118.412234,33.956698],[-118.41219,33.956723]]]}},{"type":"Feature","properties":{"k":"green"},"geometry":{"type":"Polygon","coordinates":[[[-118.413445,33.957003],[-118.413229,33.957004],[-118.413192,33.95698],[-118.413185,33.956949],[-118.413196,33.956924],[-118.413276,33.956879],[-118.413348,33.956855],[-118.413392,33.956848],[-118.413439,33.956852],[-118.413481,33.956863],[-118.413508,33.95689],[-118.41351,33.956943],[-118.413503,33.956982],[-118.413445,33.957003]]]}},{"type":"Feature","properties":{"k":"green"},"geometry":{"type":"Polygon","coordinates":[[[-118.412761,33.954559],[-118.412719,33.954549],[-118.412704,33.954529],[-118.412643,33.954493],[-118.412586,33.954446],[-118.41257,33.95441],[-118.412586,33.954381],[-118.412612,33.954362],[-118.412657,33.954354],[-118.4127,33.954362],[-118.41273,33.954382],[-118.412759,33.954417],[-118.412799,33.954493],[-118.412799,33.95453],[-118.412789,33.95455],[-118.412761,33.954559]]]}},{"type":"Feature","properties":{"k":"green"},"geometry":{"type":"Polygon","coordinates":[[[-118.412993,33.95657],[-118.412966,33.956581],[-118.412927,33.956573],[-118.412896,33.956553],[-118.412875,33.956517],[-118.412868,33.956482],[-118.412905,33.956398],[-118.412939,33.956373],[-118.412974,33.956361],[-118.413003,33.95637],[-118.413023,33.956393],[-118.413029,33.956421],[-118.413005,33.956479],[-118.413007,33.956558],[-118.412993,33.95657]]]}},{"type":"Feature","properties":{"k":"green"},"geometry":{"type":"Polygon","coordinates":[[[-118.411094,33.954944],[-118.41099,33.954921],[-118.41095,33.954907],[-118.410927,33.954887],[-118.41093,33.954836],[-118.410949,33.954813],[-118.411005,33.954803],[-118.411069,33.95483],[-118.411172,33.954853],[-118.411196,33.954868],[-118.411203,33.954891],[-118.411198,33.954912],[-118.41118,33.954929],[-118.411159,33.95494],[-118.411094,33.954944]]]}},{"type":"Feature","properties":{"k":"green"},"geometry":{"type":"Polygon","coordinates":[[[-118.41079,33.956096],[-118.410758,33.956086],[-118.410722,33.956053],[-118.410698,33.956012],[-118.410694,33.955929],[-118.410701,33.955888],[-118.410725,33.955853],[-118.410762,33.955852],[-118.410795,33.955858],[-118.410838,33.955926],[-118.410852,33.956025],[-118.410826,33.956079],[-118.410808,33.956094],[-118.41079,33.956096]]]}},{"type":"Feature","properties":{"k":"green"},"geometry":{"type":"Polygon","coordinates":[[[-118.411286,33.959162],[-118.411257,33.959165],[-118.411217,33.959151],[-118.411194,33.959105],[-118.411188,33.959025],[-118.411195,33.958985],[-118.411206,33.958958],[-118.411237,33.958942],[-118.411277,33.958942],[-118.411297,33.958962],[-118.411346,33.959101],[-118.411345,33.959122],[-118.411332,33.959139],[-118.411286,33.959162]]]}},{"type":"Feature","properties":{"k":"green"},"geometry":{"type":"Polygon","coordinates":[[[-118.410469,33.956624],[-118.410438,33.956639],[-118.410397,33.956641],[-118.410353,33.956624],[-118.410335,33.956598],[-118.410382,33.956444],[-118.410396,33.956421],[-118.410421,33.956403],[-118.410452,33.956395],[-118.410493,33.956398],[-118.410527,33.956412],[-118.410556,33.956437],[-118.410566,33.956471],[-118.41056,33.956504],[-118.410469,33.956624]]]}},{"type":"Feature","properties":{"k":"green"},"geometry":{"type":"Polygon","coordinates":[[[-118.41026,33.954989],[-118.410241,33.954992],[-118.410199,33.954976],[-118.410165,33.954938],[-118.410108,33.954904],[-118.41008,33.954875],[-118.410071,33.954842],[-118.410077,33.954815],[-118.410094,33.954793],[-118.410156,33.954783],[-118.410215,33.954797],[-118.410256,33.954827],[-118.410277,33.954867],[-118.410274,33.95492],[-118.410288,33.954958],[-118.410282,33.954976],[-118.41026,33.954989]]]}},{"type":"Feature","properties":{"k":"bunker"},"geometry":{"type":"Polygon","coordinates":[[[-118.410158,33.955036],[-118.410142,33.95504],[-118.410111,33.955026],[-118.410095,33.955009],[-118.410092,33.954989],[-118.4101,33.95497],[-118.410117,33.954958],[-118.41016,33.954974],[-118.410172,33.954986],[-118.410177,33.955016],[-118.410158,33.955036]]]}},{"type":"Feature","properties":{"k":"green"},"geometry":{"type":"Polygon","coordinates":[[[-118.411947,33.954286],[-118.411928,33.954296],[-118.411823,33.954296],[-118.411743,33.954315],[-118.4117,33.954311],[-118.411666,33.954294],[-118.411654,33.954265],[-118.411654,33.95423],[-118.411669,33.954211],[-118.411693,33.954198],[-118.411755,33.954182],[-118.4119,33.954178],[-118.411925,33.954187],[-118.41196,33.954225],[-118.411964,33.954263],[-118.411947,33.954286]]]}},{"type":"Feature","properties":{"k":"green"},"geometry":{"type":"Polygon","coordinates":[[[-118.410086,33.95456],[-118.410069,33.954581],[-118.410034,33.954595],[-118.409939,33.954611],[-118.409894,33.954608],[-118.409863,33.954592],[-118.409849,33.95457],[-118.409849,33.954537],[-118.409867,33.954515],[-118.409912,33.954486],[-118.409949,33.954475],[-118.410052,33.954464],[-118.410076,33.954473],[-118.410094,33.95449],[-118.410101,33.954513],[-118.410086,33.95456]]]}},{"type":"Feature","properties":{"k":"green"},"geometry":{"type":"Polygon","coordinates":[[[-118.409796,33.955803],[-118.409747,33.955815],[-118.409704,33.955811],[-118.409672,33.955798],[-118.409654,33.955774],[-118.409654,33.955725],[-118.409686,33.955623],[-118.409711,33.955586],[-118.409744,33.955571],[-118.409762,33.95557],[-118.409802,33.955588],[-118.409839,33.955644],[-118.409847,33.955674],[-118.409846,33.955762],[-118.409818,33.955793],[-118.409796,33.955803]]]}},{"type":"Feature","properties":{"k":"green"},"geometry":{"type":"Polygon","coordinates":[[[-118.404937,33.956266],[-118.404916,33.956282],[-118.404862,33.956295],[-118.404808,33.956289],[-118.404768,33.956258],[-118.404754,33.956214],[-118.404758,33.956178],[-118.404768,33.956147],[-118.404819,33.956092],[-118.404858,33.956066],[-118.404947,33.956024],[-118.40499,33.956016],[-118.405015,33.956026],[-118.405034,33.956085],[-118.405025,33.956117],[-118.404996,33.956157],[-118.404956,33.956246],[-118.404937,33.956266]]]}},{"type":"Feature","properties":{"k":"green"},"geometry":{"type":"Polygon","coordinates":[[[-118.406343,33.956428],[-118.406285,33.956451],[-118.40622,33.956455],[-118.406158,33.956433],[-118.406145,33.956419],[-118.406143,33.956381],[-118.406154,33.956353],[-118.406179,33.956336],[-118.406243,33.956251],[-118.406274,33.956229],[-118.406305,33.956219],[-118.406336,33.956217],[-118.406389,33.956243],[-118.406412,33.956295],[-118.406409,33.956341],[-118.406343,33.956428]]]}},{"type":"Feature","properties":{"k":"green"},"geometry":{"type":"Polygon","coordinates":[[[-118.409839,33.956651],[-118.409824,33.956653],[-118.409777,33.956635],[-118.409728,33.95656],[-118.409648,33.956516],[-118.409632,33.956499],[-118.409638,33.956451],[-118.409678,33.956418],[-118.409724,33.956412],[-118.409827,33.956447],[-118.409879,33.956478],[-118.409894,33.956496],[-118.409905,33.956523],[-118.409894,33.956611],[-118.409866,33.956646],[-118.409839,33.956651]]]}},{"type":"Feature","properties":{"k":"green"},"geometry":{"type":"Polygon","coordinates":[[[-118.410595,33.959301],[-118.410587,33.959328],[-118.410568,33.959347],[-118.410539,33.959359],[-118.410471,33.959353],[-118.410445,33.959339],[-118.410426,33.959317],[-118.410403,33.959266],[-118.410382,33.959242],[-118.410337,33.959211],[-118.410331,33.959191],[-118.410338,33.95917],[-118.410377,33.959149],[-118.410403,33.95915],[-118.410453,33.959177],[-118.410505,33.959228],[-118.410568,33.95926],[-118.410595,33.959287],[-118.410595,33.959301]]]}},{"type":"Feature","properties":{"k":"wood"},"geometry":{"type":"Polygon","coordinates":[[[-118.408333,33.956706],[-118.408353,33.956679],[-118.408387,33.956654],[-118.408438,33.956638],[-118.408488,33.956643],[-118.408525,33.956665],[-118.408552,33.956724],[-118.408533,33.956756],[-118.408442,33.95677],[-118.408371,33.956741],[-118.408333,33.956706]]]}},{"type":"Feature","properties":{"k":"wood"},"geometry":{"type":"Polygon","coordinates":[[[-118.404555,33.956813],[-118.404518,33.956857],[-118.404515,33.956911],[-118.404536,33.956921],[-118.404535,33.956943],[-118.40455,33.95696],[-118.404563,33.956955],[-118.40457,33.956912],[-118.404589,33.95691],[-118.404606,33.956926],[-118.404608,33.956945],[-118.404593,33.956985],[-118.404603,33.957005],[-118.404643,33.95701],[-118.404675,33.957001],[-118.404697,33.957012],[-118.404782,33.957029],[-118.404864,33.957028],[-118.404901,33.957041],[-118.404976,33.957038],[-118.405013,33.957019],[-118.40493,33.957005],[-118.404928,33.956993],[-118.404945,33.956978],[-118.404997,33.956987],[-118.405022,33.956976],[-118.405071,33.956981],[-118.405124,33.956941],[-118.405148,33.95694],[-118.405167,33.956951],[-118.405188,33.956949],[-118.405199,33.956937],[-118.405211,33.956944],[-118.405224,33.956978],[-118.405249,33.956995],[-118.405285,33.957003],[-118.405316,33.957002],[-118.405346,33.956992],[-118.405353,33.956939],[-118.405366,33.956938],[-118.405381,33.956922],[-118.405414,33.956919],[-118.405434,33.956932],[-118.405457,33.95693],[-118.405473,33.956913],[-118.405502,33.956911],[-118.405523,33.956926],[-118.405546,33.956925],[-118.405562,33.956909],[-118.405597,33.956906],[-118.405615,33.95689],[-118.405622,33.956864],[-118.405619,33.956818],[-118.405549,33.956816],[-118.405514,33.956808],[-118.405504,33.956781],[-118.405479,33.956771],[-118.405441,33.956782],[-118.405416,33.956771],[-118.405389,33.956771],[-118.405364,33.956805],[-118.405305,33.956816],[-118.405292,33.956798],[-118.405268,33.956789],[-118.405185,33.956781],[-118.405137,33.956784],[-118.405063,33.956804],[-118.404992,33.956801],[-118.404798,33.956847],[-118.404698,33.956843],[-118.404675,33.956829],[-118.404628,33.956818],[-118.404555,33.956813]]]}},{"type":"Feature","properties":{"k":"wood"},"geometry":{"type":"Polygon","coordinates":[[[-118.405864,33.956813],[-118.405714,33.95684],[-118.405696,33.95686],[-118.405702,33.956895],[-118.405737,33.956904],[-118.405772,33.956902],[-118.405794,33.956917],[-118.405815,33.956917],[-118.405834,33.956901],[-118.405866,33.956901],[-118.405882,33.956915],[-118.405903,33.956916],[-118.405923,33.956899],[-118.405954,33.956899],[-118.405969,33.956916],[-118.405991,33.956916],[-118.406011,33.956899],[-118.406044,33.9569],[-118.406113,33.956956],[-118.40615,33.956967],[-118.406181,33.956942],[-118.406195,33.956899],[-118.406223,33.9569],[-118.40624,33.956914],[-118.406362,33.956944],[-118.406384,33.956939],[-118.406411,33.956906],[-118.40642,33.956915],[-118.406443,33.956915],[-118.406461,33.956897],[-118.406493,33.956899],[-118.406512,33.956915],[-118.406551,33.956918],[-118.406581,33.956912],[-118.406715,33.956944],[-118.406762,33.956932],[-118.406796,33.956936],[-118.406858,33.95693],[-118.406976,33.956935],[-118.407027,33.956945],[-118.407051,33.956938],[-118.407102,33.95695],[-118.407165,33.956938],[-118.407225,33.956937],[-118.407345,33.956961],[-118.407392,33.956902],[-118.407425,33.956908],[-118.407446,33.956892],[-118.407479,33.956896],[-118.407496,33.956912],[-118.407517,33.956912],[-118.407536,33.956896],[-118.407567,33.956897],[-118.407585,33.956912],[-118.407709,33.956937],[-118.407818,33.956947],[-118.407855,33.956913],[-118.407875,33.956914],[-118.407898,33.956897],[-118.407927,33.956899],[-118.407945,33.956911],[-118.407964,33.956913],[-118.407983,33.956896],[-118.408015,33.956897],[-118.408033,33.956911],[-118.408057,33.956911],[-118.40807,33.956896],[-118.408104,33.956896],[-118.40812,33.95691],[-118.408143,33.95691],[-118.408158,33.956896],[-118.408197,33.956895],[-118.408212,33.95691],[-118.408235,33.95691],[-118.408252,33.956894],[-118.408279,33.956895],[-118.408302,33.956909],[-118.408322,33.95691],[-118.408336,33.956895],[-118.408372,33.956895],[-118.408388,33.956909],[-118.408411,33.956909],[-118.408428,33.956893],[-118.408462,33.956893],[-118.408477,33.956907],[-118.4085,33.956908],[-118.408515,33.956896],[-118.408551,33.956894],[-118.408569,33.956908],[-118.408591,33.956908],[-118.408605,33.956892],[-118.408642,33.956894],[-118.408658,33.956909],[-118.408679,33.956908],[-118.408694,33.956893],[-118.408727,33.956894],[-118.408747,33.956909],[-118.408767,33.956909],[-118.408783,33.956893],[-118.408817,33.956893],[-118.408837,33.956909],[-118.408856,33.956909],[-118.408873,33.956894],[-118.408908,33.956894],[-118.408925,33.956909],[-118.408946,33.95691],[-118.408964,33.956893],[-118.408998,33.956895],[-118.409015,33.956909],[-118.40904,33.956909],[-118.409058,33.956893],[-118.409084,33.956893],[-118.409106,33.956909],[-118.409128,33.956909],[-118.409147,33.956893],[-118.409176,33.956894],[-118.409195,33.95691],[-118.409219,33.956908],[-118.409233,33.956895],[-118.409232,33.956874],[-118.409213,33.95686],[-118.409218,33.956856],[-118.409231,33.956862],[-118.409246,33.95684],[-118.409249,33.956797],[-118.409237,33.956762],[-118.409209,33.956747],[-118.409138,33.956749],[-118.409029,33.956802],[-118.409012,33.9568],[-118.408964,33.956761],[-118.408908,33.956745],[-118.408856,33.95675],[-118.408827,33.95673],[-118.408772,33.956712],[-118.408703,33.956735],[-118.408655,33.956735],[-118.408537,33.956786],[-118.408467,33.956798],[-118.408384,33.956793],[-118.408307,33.956773],[-118.408233,33.95677],[-118.408214,33.956751],[-118.408178,33.956737],[-118.408106,33.956735],[-118.407997,33.956738],[-118.407893,33.956755],[-118.40773,33.956796],[-118.407681,33.956797],[-118.407691,33.956762],[-118.40768,33.956731],[-118.407644,33.956713],[-118.407541,33.956709],[-118.40745,33.956744],[-118.40723,33.956787],[-118.407117,33.956821],[-118.407036,33.956791],[-118.406941,33.956786],[-118.406894,33.95677],[-118.406864,33.956771],[-118.406753,33.956815],[-118.406669,33.956821],[-118.40661,33.956817],[-118.406501,33.95684],[-118.406383,33.956837],[-118.406355,33.956806],[-118.406248,33.956765],[-118.406116,33.956758],[-118.406058,33.956767],[-118.405957,33.956809],[-118.405864,33.956813]]]}},{"type":"Feature","properties":{"k":"wood"},"geometry":{"type":"Polygon","coordinates":[[[-118.406893,33.956325],[-118.406928,33.956307],[-118.406958,33.956312],[-118.406983,33.956343],[-118.406972,33.956375],[-118.406932,33.956397],[-118.40689,33.956376],[-118.406879,33.956353],[-118.406893,33.956325]]]}},{"type":"Feature","properties":{"k":"wood"},"geometry":{"type":"Polygon","coordinates":[[[-118.407116,33.956463],[-118.407131,33.956426],[-118.40719,33.956401],[-118.407252,33.956405],[-118.407282,33.956436],[-118.407269,33.956514],[-118.407215,33.956528],[-118.407168,33.95653],[-118.40713,33.956506],[-118.407116,33.956463]]]}},{"type":"Feature","properties":{"k":"wood"},"geometry":{"type":"Polygon","coordinates":[[[-118.406829,33.956367],[-118.406823,33.9564],[-118.406784,33.956461],[-118.406733,33.956474],[-118.406665,33.956459],[-118.406633,33.956424],[-118.40662,33.956384],[-118.406632,33.95633],[-118.406661,33.9563],[-118.406736,33.956282],[-118.406796,33.956308],[-118.406829,33.956367]]]}},{"type":"Feature","properties":{"k":"wood"},"geometry":{"type":"Polygon","coordinates":[[[-118.406721,33.956017],[-118.406759,33.955988],[-118.406814,33.956],[-118.406843,33.956046],[-118.40683,33.956102],[-118.406787,33.956119],[-118.406741,33.956096],[-118.406721,33.956017]]]}},{"type":"Feature","properties":{"k":"wood"},"geometry":{"type":"Polygon","coordinates":[[[-118.406746,33.95587],[-118.40674,33.955929],[-118.40667,33.955942],[-118.406615,33.955911],[-118.406611,33.955859],[-118.406634,33.955823],[-118.406686,33.955816],[-118.406717,33.955829],[-118.406746,33.95587]]]}},{"type":"Feature","properties":{"k":"wood"},"geometry":{"type":"Polygon","coordinates":[[[-118.406527,33.955946],[-118.406546,33.955975],[-118.406522,33.956012],[-118.406467,33.956017],[-118.406436,33.955986],[-118.406435,33.955954],[-118.40647,33.955939],[-118.406527,33.955946]]]}},{"type":"Feature","properties":{"k":"wood"},"geometry":{"type":"Polygon","coordinates":[[[-118.406151,33.955994],[-118.406113,33.956018],[-118.40607,33.956004],[-118.406061,33.955977],[-118.406067,33.955953],[-118.406116,33.955954],[-118.406151,33.955994]]]}},{"type":"Feature","properties":{"k":"wood"},"geometry":{"type":"Polygon","coordinates":[[[-118.406699,33.955414],[-118.406731,33.955402],[-118.40677,33.955406],[-118.406793,33.955443],[-118.406781,33.955476],[-118.406738,33.95549],[-118.406696,33.955482],[-118.406682,33.955449],[-118.406699,33.955414]]]}},{"type":"Feature","properties":{"k":"wood"},"geometry":{"type":"Polygon","coordinates":[[[-118.407296,33.955303],[-118.407349,33.955292],[-118.407423,33.955313],[-118.407443,33.955374],[-118.40737,33.955405],[-118.407308,33.955407],[-118.407271,33.95536],[-118.407296,33.955303]]]}},{"type":"Feature","properties":{"k":"wood"},"geometry":{"type":"Polygon","coordinates":[[[-118.407131,33.956013],[-118.407173,33.955995],[-118.407231,33.95599],[-118.407314,33.956049],[-118.407287,33.956101],[-118.407226,33.956125],[-118.407162,33.956116],[-118.407129,33.956095],[-118.407124,33.956056],[-118.407131,33.956013]]]}},{"type":"Feature","properties":{"k":"wood"},"geometry":{"type":"Polygon","coordinates":[[[-118.407237,33.955928],[-118.407183,33.955942],[-118.407139,33.955923],[-118.407115,33.955885],[-118.407172,33.955862],[-118.407208,33.955864],[-118.407252,33.955898],[-118.407237,33.955928]]]}},{"type":"Feature","properties":{"k":"wood"},"geometry":{"type":"Polygon","coordinates":[[[-118.407674,33.956129],[-118.407728,33.956104],[-118.407787,33.956125],[-118.40781,33.956167],[-118.407781,33.956212],[-118.407721,33.956213],[-118.407671,33.95618],[-118.407674,33.956129]]]}},{"type":"Feature","properties":{"k":"wood"},"geometry":{"type":"Polygon","coordinates":[[[-118.408388,33.956039],[-118.408459,33.956026],[-118.408518,33.956049],[-118.40854,33.956108],[-118.408494,33.956149],[-118.408436,33.956145],[-118.4084,33.956096],[-118.408359,33.956071],[-118.408388,33.956039]]]}},{"type":"Feature","properties":{"k":"wood"},"geometry":{"type":"Polygon","coordinates":[[[-118.408716,33.956177],[-118.408767,33.956167],[-118.40885,33.956171],[-118.408868,33.956212],[-118.408862,33.956265],[-118.408815,33.956283],[-118.408753,33.95627],[-118.408698,33.956241],[-118.408716,33.956177]]]}},{"type":"Feature","properties":{"k":"wood"},"geometry":{"type":"Polygon","coordinates":[[[-118.409236,33.956195],[-118.409267,33.95615],[-118.409322,33.956139],[-118.409385,33.956157],[-118.40943,33.956196],[-118.409419,33.95628],[-118.409374,33.956309],[-118.409333,33.956306],[-118.409238,33.956251],[-118.409236,33.956195]]]}},{"type":"Feature","properties":{"k":"wood"},"geometry":{"type":"Polygon","coordinates":[[[-118.409262,33.955777],[-118.40931,33.955757],[-118.409372,33.955764],[-118.409419,33.955787],[-118.409485,33.955905],[-118.409492,33.955951],[-118.409469,33.955974],[-118.409383,33.955954],[-118.409364,33.955925],[-118.409314,33.955882],[-118.409276,33.95586],[-118.409262,33.955777]]]}},{"type":"Feature","properties":{"k":"wood"},"geometry":{"type":"Polygon","coordinates":[[[-118.408231,33.955631],[-118.40828,33.955627],[-118.408334,33.955644],[-118.408317,33.955687],[-118.40827,33.955714],[-118.40823,33.955709],[-118.408204,33.955676],[-118.408231,33.955631]]]}},{"type":"Feature","properties":{"k":"wood"},"geometry":{"type":"Polygon","coordinates":[[[-118.408599,33.955508],[-118.408639,33.955542],[-118.408643,33.955591],[-118.408586,33.955613],[-118.408473,33.955582],[-118.408443,33.955539],[-118.408449,33.955499],[-118.408496,33.955485],[-118.408531,33.955486],[-118.408599,33.955508]]]}},{"type":"Feature","properties":{"k":"wood"},"geometry":{"type":"Polygon","coordinates":[[[-118.408236,33.955557],[-118.408185,33.955573],[-118.408128,33.955552],[-118.408111,33.955526],[-118.408118,33.955485],[-118.408152,33.955462],[-118.408184,33.955461],[-118.408219,33.955485],[-118.408248,33.955518],[-118.408236,33.955557]]]}},{"type":"Feature","properties":{"k":"wood"},"geometry":{"type":"Polygon","coordinates":[[[-118.409444,33.956713],[-118.409363,33.956728],[-118.409297,33.95672],[-118.409238,33.956649],[-118.409249,33.956624],[-118.409284,33.956604],[-118.409342,33.95659],[-118.409389,33.956591],[-118.40947,33.956641],[-118.409435,33.956668],[-118.409451,33.956687],[-118.409444,33.956713]]]}},{"type":"Feature","properties":{"k":"wood"},"geometry":{"type":"Polygon","coordinates":[[[-118.409285,33.956963],[-118.409284,33.956907],[-118.409273,33.956881],[-118.409253,33.956876],[-118.409253,33.956857],[-118.409272,33.956835],[-118.409257,33.956777],[-118.40927,33.956758],[-118.409295,33.956749],[-118.409337,33.956749],[-118.409367,33.956758],[-118.409383,33.95678],[-118.409398,33.956907],[-118.409412,33.956937],[-118.409409,33.956965],[-118.409393,33.956983],[-118.409365,33.956988],[-118.409285,33.956963]]]}},{"type":"Feature","properties":{"k":"wood"},"geometry":{"type":"Polygon","coordinates":[[[-118.404839,33.955322],[-118.404827,33.955351],[-118.404791,33.955364],[-118.404766,33.955352],[-118.404744,33.95536],[-118.404701,33.955361],[-118.40462,33.955423],[-118.40459,33.955465],[-118.404537,33.955468],[-118.4045,33.955455],[-118.404491,33.955441],[-118.404499,33.955406],[-118.404539,33.955394],[-118.404723,33.955274],[-118.404765,33.955263],[-118.404799,33.955266],[-118.404828,33.955282],[-118.404839,33.955322]]]}},{"type":"Feature","properties":{"k":"wood"},"geometry":{"type":"Polygon","coordinates":[[[-118.410293,33.954592],[-118.410316,33.954583],[-118.410344,33.954589],[-118.410344,33.954617],[-118.410309,33.95463],[-118.410283,33.95461],[-118.410293,33.954592]]]}},{"type":"Feature","properties":{"k":"wood"},"geometry":{"type":"Polygon","coordinates":[[[-118.409652,33.954487],[-118.409665,33.95448],[-118.409683,33.954484],[-118.409695,33.954499],[-118.409691,33.954517],[-118.409676,33.954531],[-118.409643,33.954517],[-118.409652,33.954487]]]}},{"type":"Feature","properties":{"k":"wood"},"geometry":{"type":"Polygon","coordinates":[[[-118.407072,33.955199],[-118.407079,33.95522],[-118.407108,33.955233],[-118.407173,33.95524],[-118.407278,33.955292],[-118.40737,33.955273],[-118.407423,33.955273],[-118.407533,33.955304],[-118.407615,33.955306],[-118.407629,33.95529],[-118.407623,33.955267],[-118.407594,33.955257],[-118.40757,33.955262],[-118.40749,33.955219],[-118.40742,33.955202],[-118.407349,33.955146],[-118.40727,33.955137],[-118.407219,33.955143],[-118.407158,33.955167],[-118.407118,33.955171],[-118.407072,33.955199]]]}},{"type":"Feature","properties":{"k":"wood"},"geometry":{"type":"Polygon","coordinates":[[[-118.409947,33.954951],[-118.409985,33.954937],[-118.410041,33.954951],[-118.410074,33.954988],[-118.410066,33.955021],[-118.410018,33.955052],[-118.409971,33.955054],[-118.409915,33.955036],[-118.409896,33.955007],[-118.409901,33.954977],[-118.409947,33.954951]]]}},{"type":"Feature","properties":{"k":"wood"},"geometry":{"type":"Polygon","coordinates":[[[-118.410377,33.955117],[-118.410418,33.955104],[-118.410466,33.955119],[-118.410475,33.955156],[-118.410463,33.955194],[-118.410427,33.955215],[-118.41038,33.955192],[-118.410367,33.955152],[-118.410377,33.955117]]]}},{"type":"Feature","properties":{"k":"wood"},"geometry":{"type":"Polygon","coordinates":[[[-118.410442,33.955335],[-118.410474,33.955321],[-118.410512,33.95533],[-118.410542,33.955357],[-118.410531,33.955387],[-118.410501,33.955391],[-118.410462,33.95538],[-118.410442,33.955335]]]}},{"type":"Feature","properties":{"k":"wood"},"geometry":{"type":"Polygon","coordinates":[[[-118.410547,33.955484],[-118.410523,33.955517],[-118.410468,33.955513],[-118.41044,33.955482],[-118.410428,33.955441],[-118.410449,33.955416],[-118.410478,33.955409],[-118.410519,33.955417],[-118.410542,33.955439],[-118.410547,33.955484]]]}},{"type":"Feature","properties":{"k":"wood"},"geometry":{"type":"Polygon","coordinates":[[[-118.41001,33.955407],[-118.410048,33.955394],[-118.410086,33.955402],[-118.410111,33.955438],[-118.410107,33.955475],[-118.410081,33.955497],[-118.410047,33.9555],[-118.410013,33.955472],[-118.41,33.955444],[-118.41001,33.955407]]]}},{"type":"Feature","properties":{"k":"wood"},"geometry":{"type":"Polygon","coordinates":[[[-118.410441,33.955595],[-118.410443,33.955562],[-118.410473,33.955546],[-118.41053,33.955553],[-118.410565,33.955577],[-118.410589,33.955615],[-118.410544,33.955668],[-118.410476,33.955662],[-118.410441,33.955595]]]}},{"type":"Feature","properties":{"k":"wood"},"geometry":{"type":"Polygon","coordinates":[[[-118.410153,33.955836],[-118.410196,33.955871],[-118.41017,33.955928],[-118.41012,33.955952],[-118.410131,33.955997],[-118.410096,33.956029],[-118.410051,33.956046],[-118.410026,33.956025],[-118.410006,33.955961],[-118.41004,33.955927],[-118.410074,33.955845],[-118.410153,33.955836]]]}},{"type":"Feature","properties":{"k":"wood"},"geometry":{"type":"Polygon","coordinates":[[[-118.410106,33.956352],[-118.410132,33.956305],[-118.410191,33.956296],[-118.41024,33.956317],[-118.410237,33.956352],[-118.410217,33.956392],[-118.41016,33.956399],[-118.410127,33.956385],[-118.410106,33.956352]]]}},{"type":"Feature","properties":{"k":"wood"},"geometry":{"type":"Polygon","coordinates":[[[-118.410161,33.956559],[-118.410199,33.956533],[-118.410223,33.956551],[-118.41022,33.956588],[-118.410192,33.956594],[-118.410161,33.956559]]]}},{"type":"Feature","properties":{"k":"wood"},"geometry":{"type":"Polygon","coordinates":[[[-118.410084,33.957262],[-118.41011,33.957249],[-118.410146,33.95726],[-118.410148,33.957285],[-118.410127,33.957304],[-118.410105,33.957304],[-118.410084,33.957262]]]}},{"type":"Feature","properties":{"k":"wood"},"geometry":{"type":"Polygon","coordinates":[[[-118.410725,33.95474],[-118.410757,33.954728],[-118.410816,33.954738],[-118.410839,33.954754],[-118.410826,33.95478],[-118.410798,33.954799],[-118.41076,33.954795],[-118.410733,33.954783],[-118.410725,33.95474]]]}},{"type":"Feature","properties":{"k":"wood"},"geometry":{"type":"Polygon","coordinates":[[[-118.411126,33.954657],[-118.411152,33.954682],[-118.411142,33.954722],[-118.411098,33.954733],[-118.411065,33.954718],[-118.411052,33.954685],[-118.411069,33.954654],[-118.41109,33.954649],[-118.411126,33.954657]]]}},{"type":"Feature","properties":{"k":"wood"},"geometry":{"type":"Polygon","coordinates":[[[-118.411379,33.954557],[-118.411427,33.954558],[-118.411468,33.95459],[-118.411452,33.954617],[-118.411413,33.954645],[-118.411373,33.95464],[-118.41133,33.954657],[-118.411315,33.954678],[-118.411286,33.954692],[-118.411254,33.954683],[-118.411241,33.954658],[-118.41124,33.954618],[-118.411349,33.954596],[-118.411379,33.954557]]]}},{"type":"Feature","properties":{"k":"wood"},"geometry":{"type":"Polygon","coordinates":[[[-118.411666,33.954501],[-118.41164,33.954527],[-118.411609,33.954536],[-118.41157,33.954523],[-118.411527,33.954528],[-118.4115,33.954514],[-118.411503,33.954478],[-118.411537,33.954458],[-118.411635,33.95446],[-118.411669,33.95447],[-118.411666,33.954501]]]}},{"type":"Feature","properties":{"k":"wood"},"geometry":{"type":"Polygon","coordinates":[[[-118.412001,33.954248],[-118.412037,33.954235],[-118.41211,33.954229],[-118.412149,33.954242],[-118.412152,33.954268],[-118.412131,33.954279],[-118.412095,33.95427],[-118.412039,33.954276],[-118.412018,33.954271],[-118.412001,33.954248]]]}},{"type":"Feature","properties":{"k":"wood"},"geometry":{"type":"Polygon","coordinates":[[[-118.412101,33.95445],[-118.41215,33.95442],[-118.412212,33.954426],[-118.41225,33.954479],[-118.412231,33.954517],[-118.412122,33.954527],[-118.412101,33.95445]]]}},{"type":"Feature","properties":{"k":"wood"},"geometry":{"type":"Polygon","coordinates":[[[-118.411213,33.954353],[-118.411379,33.954323],[-118.411344,33.954339],[-118.411175,33.954381],[-118.411131,33.954385],[-118.411117,33.954373],[-118.411213,33.954353]]]}},{"type":"Feature","properties":{"k":"wood"},"geometry":{"type":"Polygon","coordinates":[[[-118.411013,33.954392],[-118.411037,33.954405],[-118.41099,33.954428],[-118.410898,33.954448],[-118.410844,33.954448],[-118.410865,33.954432],[-118.411013,33.954392]]]}},{"type":"Feature","properties":{"k":"wood"},"geometry":{"type":"Polygon","coordinates":[[[-118.412464,33.95459],[-118.412535,33.954597],[-118.412582,33.954618],[-118.412565,33.954671],[-118.412504,33.954675],[-118.412474,33.95467],[-118.412451,33.954637],[-118.412464,33.95459]]]}},{"type":"Feature","properties":{"k":"wood"},"geometry":{"type":"Polygon","coordinates":[[[-118.412578,33.954788],[-118.412618,33.954794],[-118.412654,33.954817],[-118.412651,33.954851],[-118.412615,33.954869],[-118.41256,33.954853],[-118.412532,33.954821],[-118.412538,33.9548],[-118.412578,33.954788]]]}},{"type":"Feature","properties":{"k":"wood"},"geometry":{"type":"Polygon","coordinates":[[[-118.412232,33.954631],[-118.41222,33.954654],[-118.412158,33.954667],[-118.412128,33.954645],[-118.412135,33.954609],[-118.412164,33.954595],[-118.412215,33.954597],[-118.412232,33.954631]]]}},{"type":"Feature","properties":{"k":"wood"},"geometry":{"type":"Polygon","coordinates":[[[-118.412127,33.954793],[-118.412147,33.954833],[-118.412116,33.954855],[-118.412057,33.954844],[-118.412013,33.954813],[-118.412014,33.954793],[-118.411975,33.954794],[-118.411944,33.954762],[-118.41198,33.95473],[-118.412011,33.954718],[-118.412035,33.954756],[-118.412127,33.954793]]]}},{"type":"Feature","properties":{"k":"wood"},"geometry":{"type":"Polygon","coordinates":[[[-118.412683,33.954982],[-118.412731,33.954979],[-118.412783,33.955],[-118.4128,33.955051],[-118.412774,33.955107],[-118.412743,33.955141],[-118.412696,33.955131],[-118.412649,33.955091],[-118.412628,33.955023],[-118.412683,33.954982]]]}},{"type":"Feature","properties":{"k":"wood"},"geometry":{"type":"Polygon","coordinates":[[[-118.412302,33.955075],[-118.412344,33.955097],[-118.412374,33.955146],[-118.412367,33.955203],[-118.412328,33.95521],[-118.412289,33.955177],[-118.412274,33.955128],[-118.412252,33.955094],[-118.412273,33.955074],[-118.412302,33.955075]]]}},{"type":"Feature","properties":{"k":"wood"},"geometry":{"type":"Polygon","coordinates":[[[-118.412799,33.955249],[-118.41285,33.95526],[-118.41289,33.955303],[-118.412868,33.955342],[-118.412828,33.955362],[-118.412784,33.955347],[-118.41275,33.955317],[-118.412756,33.955276],[-118.412799,33.955249]]]}},{"type":"Feature","properties":{"k":"wood"},"geometry":{"type":"Polygon","coordinates":[[[-118.412839,33.955396],[-118.412869,33.955399],[-118.412902,33.955418],[-118.412883,33.955439],[-118.41285,33.955445],[-118.412828,33.955429],[-118.412839,33.955396]]]}},{"type":"Feature","properties":{"k":"wood"},"geometry":{"type":"Polygon","coordinates":[[[-118.412914,33.95549],[-118.412941,33.9555],[-118.412947,33.95553],[-118.412913,33.955543],[-118.412879,33.955528],[-118.412876,33.955503],[-118.412914,33.95549]]]}},{"type":"Feature","properties":{"k":"wood"},"geometry":{"type":"Polygon","coordinates":[[[-118.412452,33.955425],[-118.412428,33.95545],[-118.412381,33.955447],[-118.412345,33.955409],[-118.412357,33.955351],[-118.4124,33.955343],[-118.41244,33.955368],[-118.412469,33.955399],[-118.412452,33.955425]]]}},{"type":"Feature","properties":{"k":"wood"},"geometry":{"type":"Polygon","coordinates":[[[-118.41335,33.95525],[-118.413419,33.955271],[-118.413456,33.95534],[-118.413452,33.955388],[-118.413401,33.955423],[-118.413336,33.955426],[-118.413277,33.955391],[-118.413263,33.955342],[-118.413292,33.955293],[-118.41335,33.95525]]]}},{"type":"Feature","properties":{"k":"wood"},"geometry":{"type":"Polygon","coordinates":[[[-118.413377,33.955533],[-118.413434,33.955563],[-118.413435,33.955614],[-118.413387,33.955646],[-118.413331,33.955641],[-118.413297,33.955609],[-118.413324,33.955561],[-118.413331,33.955535],[-118.413377,33.955533]]]}},{"type":"Feature","properties":{"k":"wood"},"geometry":{"type":"Polygon","coordinates":[[[-118.413026,33.955704],[-118.41308,33.955716],[-118.413095,33.955764],[-118.413067,33.955808],[-118.41301,33.955821],[-118.412951,33.955798],[-118.412922,33.955764],[-118.412953,33.955726],[-118.413026,33.955704]]]}},{"type":"Feature","properties":{"k":"wood"},"geometry":{"type":"Polygon","coordinates":[[[-118.413515,33.956091],[-118.413557,33.956109],[-118.413564,33.956155],[-118.413531,33.95619],[-118.413479,33.956198],[-118.413433,33.95617],[-118.413453,33.95612],[-118.413515,33.956091]]]}},{"type":"Feature","properties":{"k":"wood"},"geometry":{"type":"Polygon","coordinates":[[[-118.413097,33.956135],[-118.41313,33.956162],[-118.413096,33.956183],[-118.413049,33.956176],[-118.413012,33.95615],[-118.413,33.956129],[-118.413019,33.956117],[-118.413049,33.956116],[-118.413097,33.956135]]]}},{"type":"Feature","properties":{"k":"wood"},"geometry":{"type":"Polygon","coordinates":[[[-118.413575,33.956817],[-118.413543,33.956831],[-118.413535,33.956856],[-118.413548,33.956947],[-118.413582,33.956969],[-118.413603,33.956946],[-118.413613,33.956914],[-118.413612,33.956873],[-118.413608,33.95684],[-118.413575,33.956817]]]}},{"type":"Feature","properties":{"k":"wood"},"geometry":{"type":"Polygon","coordinates":[[[-118.413454,33.957068],[-118.413466,33.957037],[-118.413521,33.957022],[-118.413568,33.957034],[-118.413602,33.957056],[-118.413584,33.957099],[-118.413526,33.957129],[-118.413431,33.957135],[-118.413392,33.957163],[-118.413334,33.957164],[-118.413316,33.957137],[-118.413317,33.957083],[-118.413332,33.957054],[-118.413373,33.957058],[-118.413426,33.957084],[-118.413454,33.957068]]]}},{"type":"Feature","properties":{"k":"wood"},"geometry":{"type":"Polygon","coordinates":[[[-118.413136,33.956809],[-118.413096,33.956832],[-118.413027,33.956832],[-118.412994,33.956803],[-118.413016,33.956776],[-118.413048,33.956762],[-118.413092,33.95676],[-118.413136,33.956773],[-118.413136,33.956809]]]}},{"type":"Feature","properties":{"k":"wood"},"geometry":{"type":"Polygon","coordinates":[[[-118.412543,33.95679],[-118.412585,33.956787],[-118.412626,33.956797],[-118.41264,33.956834],[-118.412621,33.956865],[-118.412575,33.956873],[-118.412533,33.956859],[-118.412519,33.956837],[-118.412524,33.956809],[-118.412543,33.95679]]]}},{"type":"Feature","properties":{"k":"wood"},"geometry":{"type":"Polygon","coordinates":[[[-118.412481,33.956807],[-118.412472,33.956843],[-118.412432,33.956865],[-118.412371,33.956863],[-118.412357,33.956833],[-118.412369,33.956799],[-118.412394,33.956779],[-118.412441,33.956778],[-118.412481,33.956807]]]}},{"type":"Feature","properties":{"k":"wood"},"geometry":{"type":"Polygon","coordinates":[[[-118.411957,33.956622],[-118.411991,33.956618],[-118.412021,33.956626],[-118.412046,33.956691],[-118.412031,33.956728],[-118.411992,33.956738],[-118.411947,33.956736],[-118.411925,33.956709],[-118.411921,33.956662],[-118.411929,33.95664],[-118.411957,33.956622]]]}},{"type":"Feature","properties":{"k":"wood"},"geometry":{"type":"Polygon","coordinates":[[[-118.412672,33.956412],[-118.412699,33.956399],[-118.412723,33.956408],[-118.412727,33.956438],[-118.412706,33.956448],[-118.412685,33.956443],[-118.412672,33.956412]]]}},{"type":"Feature","properties":{"k":"wood"},"geometry":{"type":"Polygon","coordinates":[[[-118.412544,33.955817],[-118.412569,33.955816],[-118.412594,33.955833],[-118.412594,33.955861],[-118.412567,33.955887],[-118.412531,33.955904],[-118.412504,33.955894],[-118.41249,33.955873],[-118.412502,33.955844],[-118.412544,33.955817]]]}},{"type":"Feature","properties":{"k":"wood"},"geometry":{"type":"Polygon","coordinates":[[[-118.41247,33.955603],[-118.412498,33.955601],[-118.412517,33.955619],[-118.412506,33.955654],[-118.41247,33.95566],[-118.412447,33.955643],[-118.41247,33.955603]]]}},{"type":"Feature","properties":{"k":"wood"},"geometry":{"type":"Polygon","coordinates":[[[-118.411309,33.955143],[-118.411336,33.955099],[-118.411474,33.955094],[-118.411516,33.955112],[-118.411497,33.955151],[-118.411455,33.955163],[-118.411411,33.955222],[-118.41137,33.955229],[-118.411288,33.955215],[-118.411208,33.95517],[-118.411193,33.955137],[-118.411207,33.955118],[-118.411252,33.955114],[-118.411283,33.95512],[-118.411309,33.955143]]]}},{"type":"Feature","properties":{"k":"wood"},"geometry":{"type":"Polygon","coordinates":[[[-118.411636,33.955221],[-118.411662,33.955209],[-118.411719,33.955217],[-118.411744,33.955265],[-118.411713,33.95531],[-118.411677,33.955321],[-118.411644,33.955303],[-118.411636,33.955221]]]}},{"type":"Feature","properties":{"k":"wood"},"geometry":{"type":"Polygon","coordinates":[[[-118.410957,33.955089],[-118.410932,33.955153],[-118.410953,33.955168],[-118.411011,33.955163],[-118.411069,33.955176],[-118.411092,33.95515],[-118.411138,33.955139],[-118.41113,33.9551],[-118.41109,33.955072],[-118.410981,33.955055],[-118.410959,33.955065],[-118.410957,33.955089]]]}},{"type":"Feature","properties":{"k":"wood"},"geometry":{"type":"Polygon","coordinates":[[[-118.410872,33.955334],[-118.410843,33.955354],[-118.410831,33.955388],[-118.410858,33.955437],[-118.410892,33.95546],[-118.410934,33.955467],[-118.410985,33.955434],[-118.410999,33.955394],[-118.410997,33.955365],[-118.410922,33.955357],[-118.410872,33.955334]]]}},{"type":"Feature","properties":{"k":"wood"},"geometry":{"type":"Polygon","coordinates":[[[-118.411321,33.955385],[-118.411297,33.9554],[-118.411306,33.955425],[-118.411346,33.95544],[-118.411389,33.955437],[-118.4114,33.955401],[-118.41136,33.955386],[-118.41136,33.955363],[-118.411345,33.955349],[-118.411326,33.955356],[-118.411321,33.955385]]]}},{"type":"Feature","properties":{"k":"wood"},"geometry":{"type":"Polygon","coordinates":[[[-118.411445,33.955506],[-118.411488,33.955514],[-118.411569,33.955578],[-118.411595,33.955609],[-118.411585,33.955642],[-118.411562,33.955659],[-118.411423,33.955649],[-118.411373,33.955634],[-118.411354,33.955601],[-118.411342,33.95555],[-118.411351,33.955516],[-118.411391,33.955501],[-118.411445,33.955506]]]}},{"type":"Feature","properties":{"k":"wood"},"geometry":{"type":"Polygon","coordinates":[[[-118.411562,33.955734],[-118.411521,33.955752],[-118.411502,33.955786],[-118.411514,33.955808],[-118.411552,33.955846],[-118.411595,33.955853],[-118.411603,33.955907],[-118.411622,33.955943],[-118.411694,33.955963],[-118.411712,33.955941],[-118.411713,33.955885],[-118.411663,33.955823],[-118.411665,33.955783],[-118.41165,33.955749],[-118.411603,33.955731],[-118.411562,33.955734]]]}},{"type":"Feature","properties":{"k":"wood"},"geometry":{"type":"Polygon","coordinates":[[[-118.411888,33.955661],[-118.411932,33.955619],[-118.412018,33.955619],[-118.412055,33.95566],[-118.412079,33.955705],[-118.412061,33.955756],[-118.412017,33.955782],[-118.411929,33.955778],[-118.411878,33.955739],[-118.411867,33.955711],[-118.411888,33.955661]]]}},{"type":"Feature","properties":{"k":"wood"},"geometry":{"type":"Polygon","coordinates":[[[-118.41212,33.955962],[-118.412176,33.955967],[-118.412218,33.955991],[-118.412239,33.95605],[-118.412234,33.956105],[-118.412211,33.956129],[-118.412186,33.956136],[-118.412138,33.956131],[-118.41211,33.956107],[-118.41208,33.956013],[-118.412084,33.955986],[-118.41212,33.955962]]]}},{"type":"Feature","properties":{"k":"wood"},"geometry":{"type":"Polygon","coordinates":[[[-118.41094,33.956023],[-118.410914,33.956055],[-118.41094,33.95609],[-118.410938,33.95614],[-118.410969,33.956183],[-118.411022,33.956208],[-118.411043,33.956209],[-118.411078,33.956174],[-118.411098,33.956137],[-118.411077,33.95608],[-118.411045,33.956043],[-118.410999,33.956019],[-118.41094,33.956023]]]}},{"type":"Feature","properties":{"k":"wood"},"geometry":{"type":"Polygon","coordinates":[[[-118.411031,33.956713],[-118.411,33.956751],[-118.410999,33.956814],[-118.411049,33.95686],[-118.411126,33.956869],[-118.411177,33.956833],[-118.41119,33.956782],[-118.411147,33.956724],[-118.411108,33.95671],[-118.411031,33.956713]]]}},{"type":"Feature","properties":{"k":"wood"},"geometry":{"type":"Polygon","coordinates":[[[-118.411209,33.956947],[-118.411191,33.956975],[-118.411218,33.957024],[-118.411259,33.95702],[-118.411273,33.956997],[-118.411249,33.956952],[-118.411209,33.956947]]]}},{"type":"Feature","properties":{"k":"wood"},"geometry":{"type":"Polygon","coordinates":[[[-118.411855,33.957687],[-118.411907,33.957639],[-118.411944,33.957646],[-118.411973,33.957676],[-118.411976,33.957704],[-118.411939,33.957746],[-118.411879,33.957723],[-118.411855,33.957687]]]}},{"type":"Feature","properties":{"k":"wood"},"geometry":{"type":"Polygon","coordinates":[[[-118.411589,33.957626],[-118.411589,33.957679],[-118.411563,33.95771],[-118.411494,33.957725],[-118.411393,33.957701],[-118.411363,33.957658],[-118.411375,33.957557],[-118.411437,33.957529],[-118.411512,33.957553],[-118.411558,33.957584],[-118.411589,33.957626]]]}},{"type":"Feature","properties":{"k":"wood"},"geometry":{"type":"Polygon","coordinates":[[[-118.411509,33.958091],[-118.411557,33.958132],[-118.411537,33.958192],[-118.4115,33.95823],[-118.41144,33.958235],[-118.411389,33.958201],[-118.411402,33.958144],[-118.411357,33.95812],[-118.411295,33.958116],[-118.411235,33.958075],[-118.411189,33.957999],[-118.411216,33.957971],[-118.411378,33.95798],[-118.411427,33.958009],[-118.411446,33.958068],[-118.411509,33.958091]]]}},{"type":"Feature","properties":{"k":"wood"},"geometry":{"type":"Polygon","coordinates":[[[-118.410638,33.958051],[-118.410733,33.95807],[-118.410779,33.958101],[-118.410787,33.958147],[-118.41075,33.958175],[-118.4107,33.958163],[-118.410655,33.958132],[-118.410634,33.958078],[-118.410638,33.958051]]]}},{"type":"Feature","properties":{"k":"wood"},"geometry":{"type":"Polygon","coordinates":[[[-118.410131,33.95806],[-118.410158,33.958045],[-118.410194,33.958047],[-118.41021,33.958073],[-118.410204,33.958094],[-118.41015,33.95809],[-118.410131,33.95806]]]}},{"type":"Feature","properties":{"k":"wood"},"geometry":{"type":"Polygon","coordinates":[[[-118.410739,33.95795],[-118.410678,33.957944],[-118.410622,33.957916],[-118.410609,33.957864],[-118.410613,33.957794],[-118.41064,33.957739],[-118.410676,33.957722],[-118.410719,33.95773],[-118.41074,33.957748],[-118.410745,33.957781],[-118.410733,33.957814],[-118.410761,33.957885],[-118.410764,33.957925],[-118.410757,33.957942],[-118.410739,33.95795]]]}},{"type":"Feature","properties":{"k":"wood"},"geometry":{"type":"Polygon","coordinates":[[[-118.410322,33.958485],[-118.410302,33.958524],[-118.410255,33.958528],[-118.410236,33.958485],[-118.410168,33.958447],[-118.410183,33.958424],[-118.410223,33.958415],[-118.410279,33.958418],[-118.410318,33.958445],[-118.410322,33.958485]]]}},{"type":"Feature","properties":{"k":"wood"},"geometry":{"type":"Polygon","coordinates":[[[-118.409396,33.959417],[-118.409445,33.959416],[-118.409496,33.959445],[-118.409488,33.959487],[-118.409465,33.95952],[-118.409432,33.959522],[-118.409383,33.959508],[-118.409365,33.959473],[-118.409396,33.959417]]]}},{"type":"Feature","properties":{"k":"wood"},"geometry":{"type":"Polygon","coordinates":[[[-118.409417,33.959686],[-118.409413,33.959642],[-118.409439,33.95962],[-118.409476,33.959613],[-118.409517,33.959596],[-118.409589,33.959592],[-118.409641,33.959594],[-118.409697,33.959607],[-118.409713,33.959624],[-118.409784,33.959619],[-118.409917,33.959627],[-118.409978,33.959654],[-118.41006,33.959636],[-118.410313,33.959664],[-118.410378,33.959646],[-118.410434,33.959617],[-118.410522,33.959639],[-118.410555,33.959615],[-118.410638,33.959631],[-118.410674,33.959658],[-118.410716,33.959634],[-118.410801,33.959618],[-118.410927,33.959619],[-118.411019,33.959631],[-118.411095,33.959653],[-118.411134,33.959682],[-118.409417,33.959686]]]}},{"type":"Feature","properties":{"k":"wood"},"geometry":{"type":"Polygon","coordinates":[[[-118.410455,33.959459],[-118.410479,33.959447],[-118.410516,33.959451],[-118.410547,33.959468],[-118.410551,33.959493],[-118.410537,33.959512],[-118.410501,33.959525],[-118.410467,33.959507],[-118.410455,33.959459]]]}},{"type":"Feature","properties":{"k":"wood"},"geometry":{"type":"Polygon","coordinates":[[[-118.410304,33.959412],[-118.410265,33.959423],[-118.410234,33.959415],[-118.410219,33.959358],[-118.410169,33.959348],[-118.410142,33.959332],[-118.410136,33.959317],[-118.410143,33.959288],[-118.410186,33.959277],[-118.410223,33.959285],[-118.410262,33.959333],[-118.410286,33.95933],[-118.410308,33.959339],[-118.410326,33.959382],[-118.410304,33.959412]]]}},{"type":"Feature","properties":{"k":"wood"},"geometry":{"type":"Polygon","coordinates":[[[-118.410036,33.959259],[-118.410039,33.959282],[-118.410023,33.959299],[-118.409992,33.9593],[-118.409951,33.959279],[-118.409946,33.95926],[-118.409969,33.959247],[-118.409998,33.959246],[-118.410036,33.959259]]]}},{"type":"Feature","properties":{"k":"wood"},"geometry":{"type":"Polygon","coordinates":[[[-118.409872,33.959283],[-118.409897,33.959275],[-118.40993,33.959289],[-118.409947,33.959308],[-118.409937,33.959329],[-118.409908,33.959344],[-118.40988,33.959341],[-118.409861,33.959317],[-118.409872,33.959283]]]}},{"type":"Feature","properties":{"k":"wood"},"geometry":{"type":"Polygon","coordinates":[[[-118.409365,33.959362],[-118.409391,33.959336],[-118.409456,33.959293],[-118.409485,33.95924],[-118.409485,33.959164],[-118.409465,33.959119],[-118.409508,33.95903],[-118.409504,33.958987],[-118.409451,33.958947],[-118.409397,33.958919],[-118.409401,33.958882],[-118.409378,33.958799],[-118.409332,33.958778],[-118.409337,33.959386],[-118.409365,33.959362]]]}},{"type":"Feature","properties":{"k":"wood"},"geometry":{"type":"Polygon","coordinates":[[[-118.409335,33.958724],[-118.409373,33.958741],[-118.409412,33.95873],[-118.409455,33.958696],[-118.40947,33.958649],[-118.409446,33.958588],[-118.409402,33.958567],[-118.409294,33.95855],[-118.409276,33.958574],[-118.409268,33.958612],[-118.409272,33.958674],[-118.409283,33.958703],[-118.409335,33.958724]]]}},{"type":"Feature","properties":{"k":"wood"},"geometry":{"type":"Polygon","coordinates":[[[-118.409388,33.958493],[-118.409423,33.958487],[-118.409453,33.958388],[-118.409476,33.958306],[-118.40945,33.958253],[-118.409478,33.958182],[-118.40952,33.95811],[-118.409557,33.957933],[-118.409552,33.957875],[-118.409342,33.957516],[-118.40931,33.957518],[-118.409321,33.958438],[-118.409343,33.958474],[-118.409388,33.958493]]]}},{"type":"Feature","properties":{"k":"wood"},"geometry":{"type":"Polygon","coordinates":[[[-118.409331,33.957492],[-118.40936,33.957494],[-118.40941,33.957476],[-118.409438,33.957441],[-118.409443,33.957407],[-118.409439,33.957316],[-118.409414,33.957232],[-118.409347,33.957066],[-118.409318,33.957073],[-118.409331,33.957492]]]}}]}